[
	{
		"venue_id": "yelpwl-48uPlP-7RTC1p7sJEyw",
		"venue_name": "Nando's PERi-PERi",
		"latitude": 41.8840715,
		"longitude": -87.6513439,
		"address1": "953 W Randolph St",
		"address2": "",
		"address3": "",
		"city": "Chicago",
		"state": "IL",
		"zip_code": "60607"
	},
	{
		"venue_id": "yelpnlzCOQG-8oKBOGMMtbreTg",
		"venue_name": "Nando's PERi-PERi",
		"latitude": 41.8812209,
		"longitude": -87.6263332,
		"address1": "22 S Wabash Ave",
		"address2": "Ste B1",
		"address3": "",
		"city": "Chicago",
		"state": "IL",
		"zip_code": "60603"
	},
	{
		"venue_id": "yelpCjAKxQ0okWHqtz0o4jxMFg",
		"venue_name": "Yassa African Restaurant",
		"latitude": 41.830723756206,
		"longitude": -87.6167381675416,
		"address1": "3511 S King Dr",
		"address2": "",
		"address3": "",
		"city": "Chicago",
		"state": "IL",
		"zip_code": "60653"
	},
	{
		"venue_id": "yelp2iArxEMmFHny0A2C60zGsw",
		"venue_name": "Gor\u00e9e Cuisine",
		"latitude": 41.8097706381699,
		"longitude": -87.5981277573409,
		"address1": "1126 E 47th St",
		"address2": "",
		"address3": null,
		"city": "Chicago",
		"state": "IL",
		"zip_code": "60653"
	},
	{
		"venue_id": "yelp5O_UGfc_aZf_Y0Q5audAhg",
		"venue_name": "Mogadishu Restaurant",
		"latitude": 41.9000224550849,
		"longitude": -87.6368449225973,
		"address1": "931 N Orleans St",
		"address2": "",
		"address3": "",
		"city": "Chicago",
		"state": "IL",
		"zip_code": "60610"
	},
	{
		"venue_id": "yelp4OF7gij3pj8f-haNC-WLqA",
		"venue_name": "Nando's PERi-PERi",
		"latitude": 41.93303,
		"longitude": -87.64639,
		"address1": "670 W Diversey Pkwy",
		"address2": "",
		"address3": "",
		"city": "Chicago",
		"state": "IL",
		"zip_code": "60614"
	},
	{
		"venue_id": "yelprKdhYSnzpMoY582ZeqP4LQ",
		"venue_name": "Nando's PERi-PERi",
		"latitude": 41.8931121826172,
		"longitude": -87.6216278076172,
		"address1": "227 E Ontario St",
		"address2": "",
		"address3": null,
		"city": "Chicago",
		"state": "IL",
		"zip_code": "60611"
	},
	{
		"venue_id": "yelpVLlWsbYXcJdUPn6hCdP3xA",
		"venue_name": "Den Den Restaurant",
		"latitude": 42.0028237,
		"longitude": -87.6720684,
		"address1": "6635 N Clark St",
		"address2": null,
		"address3": "",
		"city": "Chicago",
		"state": "IL",
		"zip_code": "60626"
	},
	{
		"venue_id": "yelpdnEgDQuPgkfpwE2gzTUEVA",
		"venue_name": "Nando's PERi-PERi",
		"latitude": 41.8695655542612,
		"longitude": -87.6324513949254,
		"address1": "1005 S Delano Ct E",
		"address2": "Ste F126C",
		"address3": null,
		"city": "Chicago",
		"state": "IL",
		"zip_code": "60605"
	},
	{
		"venue_id": "yelpOyjfukD6Rnsv22VfhWwVVw",
		"venue_name": "Baobab Bbq",
		"latitude": 41.9757721760125,
		"longitude": -87.6869320124388,
		"address1": "2301 W Foster Ave",
		"address2": "",
		"address3": null,
		"city": "Chicago",
		"state": "IL",
		"zip_code": "60625"
	},
	{
		"venue_id": "yelp9AXJmehEJ3hZqL2lmLeP5Q",
		"venue_name": "Nando's PERi-PERi",
		"latitude": 41.9082411,
		"longitude": -87.646727,
		"address1": "1500 N Clybourn Ave",
		"address2": "Ste C106",
		"address3": "",
		"city": "Chicago",
		"state": "IL",
		"zip_code": "60610"
	},
	{
		"venue_id": "yelpSzpgJTYx6CIsJZR11gzHFA",
		"venue_name": "Simi's",
		"latitude": 41.9963563,
		"longitude": -87.6900144,
		"address1": "6310 N Western Ave",
		"address2": null,
		"address3": "",
		"city": "Chicago",
		"state": "IL",
		"zip_code": "60659"
	},
	{
		"venue_id": "yelpjVgAKYcXZph6ILNcVzRzuQ",
		"venue_name": "Nando's PERi-PERi",
		"latitude": 41.885547,
		"longitude": -87.624253,
		"address1": "117 E Lake St",
		"address2": "",
		"address3": null,
		"city": "Chicago",
		"state": "IL",
		"zip_code": "60601"
	},
	{
		"venue_id": "yelpgOkIrOZP4H1AHPyyJuiBng",
		"venue_name": "Iyanze Restaurant Bar & Cafe",
		"latitude": 41.9659246,
		"longitude": -87.657649,
		"address1": "4623 N Broadway",
		"address2": "",
		"address3": "",
		"city": "Chicago",
		"state": "IL",
		"zip_code": "60640"
	},
	{
		"venue_id": "yelpYyANYhsZLKTRyZB8Vix4oQ",
		"venue_name": "Dynamic African Restaurant Cuisine",
		"latitude": 41.9896445,
		"longitude": -87.6592858,
		"address1": "1127 W Thorndale Ave",
		"address2": "",
		"address3": "",
		"city": "Chicago",
		"state": "IL",
		"zip_code": "60660"
	},
	{
		"venue_id": "yelpNvpOGrvap5LtUdzUiDgV2w",
		"venue_name": "Palace Gate Restaurant",
		"latitude": 41.9651069641113,
		"longitude": -87.6614074707031,
		"address1": "4548 N Magnolia Ave",
		"address2": "",
		"address3": "",
		"city": "Chicago",
		"state": "IL",
		"zip_code": "60640"
	},
	{
		"venue_id": "yelpnbbwOgv57uzt5A9UfGtX3w",
		"venue_name": "Vee Vee African Restaurant",
		"latitude": 41.9956398010254,
		"longitude": -87.6608505249023,
		"address1": "6232 N Broadway St",
		"address2": "",
		"address3": "",
		"city": "Chicago",
		"state": "IL",
		"zip_code": "60660"
	},
	{
		"venue_id": "yelpHWm-6GvXYaEZbHOz7rXzAA",
		"venue_name": "Mama Osas African Restaurant",
		"latitude": 41.9652651,
		"longitude": -87.65604,
		"address1": "1027 W Wilson Ave",
		"address2": "",
		"address3": "",
		"city": "Chicago",
		"state": "IL",
		"zip_code": "60640"
	},
	{
		"venue_id": "yelp0gczg4CwUElbP1UR9LU9yg",
		"venue_name": "Nigerian Kitchen",
		"latitude": 41.96307,
		"longitude": -87.65557,
		"address1": "4447 N Broadway St",
		"address2": "",
		"address3": null,
		"city": "Chicago",
		"state": "IL",
		"zip_code": "60640"
	},
	{
		"venue_id": "yelpL949H0B_VD-Qng5wjZpWeQ",
		"venue_name": "Nando's PERi-PERi",
		"latitude": 41.8888548,
		"longitude": -87.8042626,
		"address1": "1138 Lake St",
		"address2": "",
		"address3": "",
		"city": "OakPark",
		"state": "IL",
		"zip_code": "60301"
	},
	{
		"venue_id": "yelpE4G8_0z16N0wnZ1dNOkecQ",
		"venue_name": "The Mukase",
		"latitude": 41.9651054737743,
		"longitude": -87.6648071408272,
		"address1": "1363 W Wilson Ave",
		"address2": "",
		"address3": null,
		"city": "Chicago",
		"state": "IL",
		"zip_code": "60640"
	},
	{
		"venue_id": "yelph5WZDw4Ctm90e_UgebEpAw",
		"venue_name": "Grace's African Restaurant",
		"latitude": 41.96223,
		"longitude": -87.65518,
		"address1": "4409 N Broadway St",
		"address2": "",
		"address3": "",
		"city": "Chicago",
		"state": "IL",
		"zip_code": "60640"
	},
	{
		"venue_id": "yelpYLpnr6XfUF_RYWh1BR7qQg",
		"venue_name": "B&Q Afro Root Cuisine",
		"latitude": 41.967408,
		"longitude": -87.655834,
		"address1": "4701 N Kenmore Ave",
		"address2": "",
		"address3": "",
		"city": "Chicago",
		"state": "IL",
		"zip_code": "60640"
	},
	{
		"venue_id": "yelp2Hs_Vcz44okV7qgL6zBZFg",
		"venue_name": "Guy and the Goat",
		"latitude": 41.9905901,
		"longitude": -87.6697651,
		"address1": "5973 N Clark St",
		"address2": "",
		"address3": null,
		"city": "Chicago",
		"state": "IL",
		"zip_code": "60660"
	},
	{
		"venue_id": "yelpzqlkGIh74z2LCjX4SwI7Rw",
		"venue_name": "Kulan",
		"latitude": 41.9961395,
		"longitude": -87.6705704,
		"address1": "6258 N Clark St",
		"address2": "",
		"address3": "",
		"city": "Chicago",
		"state": "IL",
		"zip_code": "60660"
	},
	{
		"venue_id": "yelp5e9T89IqcCTcf6XY9Gvm0g",
		"venue_name": "Ogo Oluwa TBS Restaurant",
		"latitude": 41.9683189,
		"longitude": -87.6929092,
		"address1": "2541 W Lawrence Ave",
		"address2": "",
		"address3": "",
		"city": "Chicago",
		"state": "IL",
		"zip_code": "60625"
	}
]