[
	{
		"venue_id": "yelpbXWDcvNxv11oqswmT3Fljw",
		"venue_name": "Navy Pier's Centennial Wheel",
		"latitude": 41.891634,
		"longitude": -87.605326,
		"address1": "600 E Grand Ave",
		"address2": "",
		"address3": "",
		"city": "Chicago",
		"state": "IL",
		"zip_code": "60611"
	},
	{
		"venue_id": "yelpkuHH-GgV9xySoQi06fqB2Q",
		"venue_name": "Haunted Trails Family Entertainment Center",
		"latitude": 41.7503,
		"longitude": -87.79931,
		"address1": "7759 S Harlem Ave",
		"address2": "",
		"address3": "",
		"city": "Burbank",
		"state": "IL",
		"zip_code": "60459"
	},
	{
		"venue_id": "yelpV8fdJR5IpzxA0BDkNpAS_Q",
		"venue_name": "Pirate's Cove Childrens Theme Park",
		"latitude": 42.003385,
		"longitude": -88.0132367,
		"address1": "901 Leicester Rd",
		"address2": "",
		"address3": "",
		"city": "Elk Grove Village",
		"state": "IL",
		"zip_code": "60007"
	},
	{
		"venue_id": "yelpU4WfxCUzs3qGX3xiS2tYWg",
		"venue_name": "Enchanted Castle",
		"latitude": 41.863488749649,
		"longitude": -88.0164189518623,
		"address1": "1103 S Main St",
		"address2": "",
		"address3": "",
		"city": "Lombard",
		"state": "IL",
		"zip_code": "60148"
	},
	{
		"venue_id": "yelpwggLNWWuOJTDRVkpb2i7MA",
		"venue_name": "In The Game - Hollywood Park",
		"latitude": 41.6556779931745,
		"longitude": -87.7426842862916,
		"address1": "5051 Cal Sag Rd",
		"address2": null,
		"address3": "",
		"city": "Crestwood",
		"state": "IL",
		"zip_code": "60418"
	},
	{
		"venue_id": "yelpJSeVH9OVL2HHSerBPHPg6A",
		"venue_name": "K1 Speed",
		"latitude": 41.932357,
		"longitude": -88.046227,
		"address1": "2381 W Army Trail Road",
		"address2": "",
		"address3": "",
		"city": "Addison",
		"state": "IL",
		"zip_code": "60101"
	},
	{
		"venue_id": "yelp1jiNxTPNDYn9kuwgNlpU1A",
		"venue_name": "Scream Scene",
		"latitude": 42.0262053608894,
		"longitude": -87.7452244609594,
		"address1": "4701 Oakton St",
		"address2": "",
		"address3": "",
		"city": "Skokie",
		"state": "IL",
		"zip_code": "60076"
	},
	{
		"venue_id": "yelpyoJpPU7p7JeNfBlYjae-4A",
		"venue_name": "Safari Land",
		"latitude": 41.9049092,
		"longitude": -87.9971751,
		"address1": "701 W North Ave",
		"address2": "",
		"address3": "",
		"city": "Villa Park",
		"state": "IL",
		"zip_code": "60181"
	},
	{
		"venue_id": "yelpHh_bYo-X1UtOD2B91DyKUA",
		"venue_name": "K1 Speed",
		"latitude": 42.1578061009237,
		"longitude": -87.9388038348616,
		"address1": "301 Hastings Drive",
		"address2": "",
		"address3": "",
		"city": "Buffalo Grove",
		"state": "IL",
		"zip_code": "60089"
	},
	{
		"venue_id": "yelpHtKVtKkKJFblEb_FA9SjZQ",
		"venue_name": "Sea Lion Aquatic Park",
		"latitude": 41.7908457954215,
		"longitude": -88.0835331593682,
		"address1": "1825 Short St",
		"address2": "",
		"address3": "",
		"city": "Lisle",
		"state": "IL",
		"zip_code": "60532"
	},
	{
		"venue_id": "yelpbmBp98klwoq6Gwj7v1pVDA",
		"venue_name": "Wheeling Aquatic Center",
		"latitude": 42.1389737045114,
		"longitude": -87.9222397353926,
		"address1": "100 Community Blvd",
		"address2": "",
		"address3": "",
		"city": "Wheeling",
		"state": "IL",
		"zip_code": "60090"
	},
	{
		"venue_id": "yelpUlurrdJvfeWDNJ6-oED09w",
		"venue_name": "Cypress Cove Family Aquatic Center",
		"latitude": 41.7310667465312,
		"longitude": -88.0398497063599,
		"address1": "8301 Janes Ave",
		"address2": "",
		"address3": "",
		"city": "Woodridge",
		"state": "IL",
		"zip_code": "60517"
	},
	{
		"venue_id": "yelpkBbJNNxDbSHIC9QcYp2Y5g",
		"venue_name": "Par-King Skill Golf",
		"latitude": 42.179267,
		"longitude": -87.92455,
		"address1": "21711 N Milwaukee Ave",
		"address2": "",
		"address3": "",
		"city": "Lincolnshire",
		"state": "IL",
		"zip_code": "60069"
	},
	{
		"venue_id": "yelp_E4GSecFT4FQHLqvLKN9nA",
		"venue_name": "Discover The Dinosaurs At Navy Pier",
		"latitude": 41.8916855615641,
		"longitude": -87.6091312601841,
		"address1": "600 E Grand Ave",
		"address2": "",
		"address3": "",
		"city": "Chicago",
		"state": "IL",
		"zip_code": "60611"
	},
	{
		"venue_id": "yelpXh2ACPT952IcDNhvW2qRPA",
		"venue_name": "Fun Time Square",
		"latitude": 41.675947,
		"longitude": -87.7377636,
		"address1": "11901 S Cicero Ave",
		"address2": "",
		"address3": "",
		"city": "Alsip",
		"state": "IL",
		"zip_code": "60803"
	},
	{
		"venue_id": "yelpc3mRkE0N6aJbM6SDg4vMRg",
		"venue_name": "Jus-Fun Amusements",
		"latitude": 41.8666654410393,
		"longitude": -87.9617674144362,
		"address1": "480 Rt 83",
		"address2": "",
		"address3": "",
		"city": "Oakbrook Terrace",
		"state": "IL",
		"zip_code": "60181"
	},
	{
		"venue_id": "yelp8Iv9Rb7_HLm0uyxZLxwOdA",
		"venue_name": "Glendale Heights Park",
		"latitude": 41.9186323,
		"longitude": -88.0788098,
		"address1": "250 Civic Ctr Plz",
		"address2": "",
		"address3": "",
		"city": "Glendale Heights",
		"state": "IL",
		"zip_code": "60139"
	},
	{
		"venue_id": "yelpikxwGclAd6YOLsaTUdGHVg",
		"venue_name": "Chicago Classic Coach Ilc",
		"latitude": 42.0599212646484,
		"longitude": -87.9307556152344,
		"address1": "401 E Prospect Ave",
		"address2": "Ste 106",
		"address3": null,
		"city": "Mount Prospect",
		"state": "IL",
		"zip_code": "60056"
	},
	{
		"venue_id": "yelpqmffWEkwm3pVV9OIPH_xGw",
		"venue_name": "Orland Park Village Hall",
		"latitude": 41.62313904306,
		"longitude": -87.8573433041034,
		"address1": "14700 S Ravinia Ave",
		"address2": null,
		"address3": null,
		"city": "Orland Park",
		"state": "IL",
		"zip_code": "60462"
	},
	{
		"venue_id": "yelpDje_2OG5heDka2rplGD-iA",
		"venue_name": "lazer quest",
		"latitude": 41.9464552095282,
		"longitude": -88.0260208616387,
		"address1": "",
		"address2": "",
		"address3": "",
		"city": "Downers Grove",
		"state": "IL",
		"zip_code": "60515"
	},
	{
		"venue_id": "yelpMhAn4rEZsR0yBqnWv3S8Gg",
		"venue_name": "The Cicero Town Hall House Of Horrors",
		"latitude": 41.8456920236349,
		"longitude": -87.7485517412424,
		"address1": "4937 W 25th St",
		"address2": "",
		"address3": "",
		"city": "Cicero",
		"state": "IL",
		"zip_code": "60804"
	},
	{
		"venue_id": "yelp4lI5BGrBe8ukjkg3GySgtQ",
		"venue_name": "Hemispheres",
		"latitude": 41.8874680995941,
		"longitude": -88.0182150006294,
		"address1": "13 N Main St",
		"address2": "",
		"address3": "",
		"city": "Lombard",
		"state": "IL",
		"zip_code": "60148"
	},
	{
		"venue_id": "yelpNYcloQWNj1uo8G5-tw1gHw",
		"venue_name": "Home Arcade",
		"latitude": 41.80222,
		"longitude": -88.07435,
		"address1": "4611 Main St",
		"address2": null,
		"address3": null,
		"city": "Lisle",
		"state": "IL",
		"zip_code": "60532"
	}
]