[
	{
		"venue_id": "yelpf1P5hZSitUEAC-mtXlBB7w",
		"venue_name": "Del Seoul",
		"latitude": 41.929444,
		"longitude": -87.643016,
		"address1": "2568 N Clark St",
		"address2": "",
		"address3": "",
		"city": "Chicago",
		"state": "IL",
		"zip_code": "60614"
	},
	{
		"venue_id": "yelpB_04jjMZjeGGKjaPcR3Kig",
		"venue_name": "Three Dots and a Dash",
		"latitude": 41.8904391303273,
		"longitude": -87.6306027367742,
		"address1": "435 N Clark St",
		"address2": "Back alley on Hubbard St",
		"address3": "",
		"city": "Chicago",
		"state": "IL",
		"zip_code": "60654"
	},
	{
		"venue_id": "yelpq7SQnw2xVHjWuyQXL3VHUg",
		"venue_name": "Kai Zan",
		"latitude": 41.8955051374998,
		"longitude": -87.6915407180786,
		"address1": "2557 W Chicago Ave",
		"address2": null,
		"address3": "",
		"city": "Chicago",
		"state": "IL",
		"zip_code": "60622"
	},
	{
		"venue_id": "yelp8d_DiHWB-pjBVW3a7D8EWg",
		"venue_name": "Sunda",
		"latitude": 41.8909469,
		"longitude": -87.6317244,
		"address1": "110 W Illinois St",
		"address2": "",
		"address3": "",
		"city": "Chicago",
		"state": "IL",
		"zip_code": "60654"
	},
	{
		"venue_id": "yelpkUpqpEqkBjZguS1uA6NQYA",
		"venue_name": "En Hakkore 2.0",
		"latitude": 41.90869,
		"longitude": -87.6743,
		"address1": "1467 N Milwaukee Ave",
		"address2": null,
		"address3": "",
		"city": "Chicago",
		"state": "IL",
		"zip_code": "60622"
	},
	{
		"venue_id": "yelphgE7M0H_iY4wIzFAgrOTCA",
		"venue_name": "Saucy Porka",
		"latitude": 41.8765020444174,
		"longitude": -87.6331966288361,
		"address1": "400 S Financial Pl",
		"address2": null,
		"address3": "",
		"city": "Chicago",
		"state": "IL",
		"zip_code": "60605"
	},
	{
		"venue_id": "yelpU9D0vqEP4QrJfJYs8mr3DA",
		"venue_name": "Oiistar",
		"latitude": 41.9070880100627,
		"longitude": -87.6720839738846,
		"address1": "1385 N Milwaukee Ave",
		"address2": "",
		"address3": "",
		"city": "Chicago",
		"state": "IL",
		"zip_code": "60622"
	},
	{
		"venue_id": "yelpyYAJAUfqnN3rQw7S8Cj12Q",
		"venue_name": "Brightwok Kitchen",
		"latitude": 41.8794583529234,
		"longitude": -87.6270027458668,
		"address1": "21 E Adams St",
		"address2": null,
		"address3": "",
		"city": "Chicago",
		"state": "IL",
		"zip_code": "60603"
	},
	{
		"venue_id": "yelpT1dv09OKSxmuitPVLXD5Aw",
		"venue_name": "Serai",
		"latitude": 41.9206132,
		"longitude": -87.6933394,
		"address1": "2169 N Milwaukee Ave",
		"address2": null,
		"address3": "",
		"city": "Chicago",
		"state": "IL",
		"zip_code": "60647"
	},
	{
		"venue_id": "yelpFzYi3AVHoYZnWXe1BQrQEw",
		"venue_name": "Mott St",
		"latitude": 41.9071254164458,
		"longitude": -87.6673834605751,
		"address1": "1401 N Ashland Ave",
		"address2": "",
		"address3": "",
		"city": "Chicago",
		"state": "IL",
		"zip_code": "60622"
	},
	{
		"venue_id": "yelpRYL719GudcA7-PeLE6iyCw",
		"venue_name": "Seoul Taco",
		"latitude": 41.8959233394607,
		"longitude": -87.6313957501562,
		"address1": "738 N Clark St",
		"address2": "",
		"address3": "",
		"city": "Chicago",
		"state": "IL",
		"zip_code": "60654"
	},
	{
		"venue_id": "yelpP4TMv21-yjdcGCblrDb6_w",
		"venue_name": "Forastero Restaurant",
		"latitude": 41.9108,
		"longitude": -87.64045,
		"address1": "449 W North Ave",
		"address2": "",
		"address3": null,
		"city": "Chicago",
		"state": "IL",
		"zip_code": "60610"
	},
	{
		"venue_id": "yelp7FRba2yDi9uWlSBvahRmEw",
		"venue_name": "MingHin Cuisine",
		"latitude": 41.8851133316306,
		"longitude": -87.6191340577136,
		"address1": "333 E Benton Pl",
		"address2": "Ste 300",
		"address3": "",
		"city": "Chicago",
		"state": "IL",
		"zip_code": "60601"
	},
	{
		"venue_id": "yelphOyngb1XVmt85qpNHhRWFQ",
		"venue_name": "BITES",
		"latitude": 41.94221,
		"longitude": -87.65209,
		"address1": "3313 N Clark St",
		"address2": "",
		"address3": "",
		"city": "Chicago",
		"state": "IL",
		"zip_code": "60657"
	},
	{
		"venue_id": "yelpaZqKMhhy_dbQlGTQ91YSbw",
		"venue_name": "Go 4 Food",
		"latitude": 41.851085,
		"longitude": -87.6326203,
		"address1": "212 W 23rd St",
		"address2": null,
		"address3": "",
		"city": "Chicago",
		"state": "IL",
		"zip_code": "60616"
	},
	{
		"venue_id": "yelpYu9xRLlUFdNanAzUqPoqPA",
		"venue_name": "The Bento Box",
		"latitude": 41.91786,
		"longitude": -87.68436,
		"address1": "2246 W Armitage Ave",
		"address2": null,
		"address3": "",
		"city": "Chicago",
		"state": "IL",
		"zip_code": "60647"
	},
	{
		"venue_id": "yelp3BL6znoMLs5HyBaowRfuLA",
		"venue_name": "Pho's Spicier Thai Cuisine",
		"latitude": 41.942444,
		"longitude": -87.670869,
		"address1": "3332 N Lincoln Ave",
		"address2": "",
		"address3": "",
		"city": "Chicago",
		"state": "IL",
		"zip_code": "60657"
	},
	{
		"venue_id": "yelpxiMMZSi06MXtvUoKd63iFQ",
		"venue_name": "Rice'N Bread",
		"latitude": 41.9446344810848,
		"longitude": -87.6540841498032,
		"address1": "3435 N Sheffield Ave",
		"address2": "",
		"address3": "",
		"city": "Chicago",
		"state": "IL",
		"zip_code": "60657"
	},
	{
		"venue_id": "yelpiuFSSw6VYxgcnUmVDqwQ0Q",
		"venue_name": "Macku Sushi",
		"latitude": 41.92255,
		"longitude": -87.66521,
		"address1": "2239 N Clybourn Ave",
		"address2": "",
		"address3": "",
		"city": "Chicago",
		"state": "IL",
		"zip_code": "60614"
	},
	{
		"venue_id": "yelpYQ_ZW6rnU5IshuiGlnlTUg",
		"venue_name": "Niu Japanese Fusion Lounge",
		"latitude": 41.891185141978,
		"longitude": -87.618678666509,
		"address1": "332 E Illinois St",
		"address2": "",
		"address3": "",
		"city": "Chicago",
		"state": "IL",
		"zip_code": "60611"
	},
	{
		"venue_id": "yelprAPCpaJENgcSDM-t_Lsqag",
		"venue_name": "Pokiology",
		"latitude": 41.965489041314,
		"longitude": -87.6613923567586,
		"address1": "4600 N Magnolia Ave",
		"address2": "Ste C",
		"address3": null,
		"city": "Chicago",
		"state": "IL",
		"zip_code": "60640"
	},
	{
		"venue_id": "yelpJS5mi7IPnfntxujiXtirHw",
		"venue_name": "Jibek Jolu",
		"latitude": 41.9732243,
		"longitude": -87.6913578,
		"address1": "5047 N Lincoln Ave",
		"address2": "",
		"address3": "",
		"city": "Chicago",
		"state": "IL",
		"zip_code": "60625"
	},
	{
		"venue_id": "yelpFjuWa978SmBM4lrSmJgePw",
		"venue_name": "Spotted Monkey",
		"latitude": 41.8772,
		"longitude": -87.63477,
		"address1": "335 S Franklin St",
		"address2": null,
		"address3": "",
		"city": "Chicago",
		"state": "IL",
		"zip_code": "60606"
	},
	{
		"venue_id": "yelpwW5kd9bxJ4VJHtUYBbo7cQ",
		"venue_name": "Urbanbelly",
		"latitude": 41.88448,
		"longitude": -87.6626,
		"address1": "1400 W. Randolph St.",
		"address2": "",
		"address3": "",
		"city": "Chicago",
		"state": "IL",
		"zip_code": "60607"
	},
	{
		"venue_id": "yelp_aDftia5RSSBpDLHatEfFg",
		"venue_name": "Nori Sushi Bar - Lakeview",
		"latitude": 41.932718,
		"longitude": -87.653535,
		"address1": "954 W Diversey Pkwy",
		"address2": "",
		"address3": "",
		"city": "Chicago",
		"state": "IL",
		"zip_code": "60614"
	},
	{
		"venue_id": "yelpPsQFHkJHhSqw7mOCh4Rs7w",
		"venue_name": "Asian Cajun",
		"latitude": 41.92604,
		"longitude": -87.66852,
		"address1": "2428 N Ashland Ave",
		"address2": "",
		"address3": "",
		"city": "Chicago",
		"state": "IL",
		"zip_code": "60614"
	},
	{
		"venue_id": "yelpc3DGLqz31UbLapOYoRJJiw",
		"venue_name": "Asian Outpost",
		"latitude": 41.865437,
		"longitude": -87.6255416320581,
		"address1": "1315 S Wabash Ave",
		"address2": "",
		"address3": "",
		"city": "Chicago",
		"state": "IL",
		"zip_code": "60605"
	},
	{
		"venue_id": "yelpxJEA6P6VS-Ukl9dmjleDkw",
		"venue_name": "Silli Kori",
		"latitude": 41.90286,
		"longitude": -87.67935,
		"address1": "2053 W Division St",
		"address2": "",
		"address3": "",
		"city": "Chicago",
		"state": "IL",
		"zip_code": "60622"
	},
	{
		"venue_id": "yelpW4dwdmpUAZFv2hsUOcZOnA",
		"venue_name": "Big Bowl",
		"latitude": 41.892629,
		"longitude": -87.6261317,
		"address1": "60 E Ohio St",
		"address2": "",
		"address3": null,
		"city": "Chicago",
		"state": "IL",
		"zip_code": "60611"
	},
	{
		"venue_id": "yelpaKF6myBnEnm2llSofy3dew",
		"venue_name": "Wow Bao",
		"latitude": 41.8979009401519,
		"longitude": -87.6237559318542,
		"address1": "835 N Michigan Ave",
		"address2": "",
		"address3": "Lobby Level",
		"city": "Chicago",
		"state": "IL",
		"zip_code": "60611"
	},
	{
		"venue_id": "yelppglLq_8c2grcKez_wX8WPw",
		"venue_name": "RYUU Asian BBQ & Sushi",
		"latitude": 41.9313684850931,
		"longitude": -87.7113179862499,
		"address1": "2766 N Milwaukee Ave",
		"address2": null,
		"address3": "",
		"city": "Chicago",
		"state": "IL",
		"zip_code": "60647"
	},
	{
		"venue_id": "yelp7zXVHfCWPnoAgU2pEbaazQ",
		"venue_name": "Ara On",
		"latitude": 41.8795332,
		"longitude": -87.6327046,
		"address1": "160 W Adams St",
		"address2": "",
		"address3": "",
		"city": "Chicago",
		"state": "IL",
		"zip_code": "60603"
	},
	{
		"venue_id": "yelpV-WJjfG_dlu0klZlR1KxqA",
		"venue_name": "Flat Top Grill",
		"latitude": 41.8811622,
		"longitude": -87.6263129,
		"address1": "30 S Wabash Ave",
		"address2": "",
		"address3": "",
		"city": "Chicago",
		"state": "IL",
		"zip_code": "60603"
	},
	{
		"venue_id": "yelph_fKxtXwqvZx2CZSt8YbmQ",
		"venue_name": "Friendship Chinese Restaurant",
		"latitude": 41.9324798583984,
		"longitude": -87.7135467529297,
		"address1": "2830 N Milwaukee Ave",
		"address2": "",
		"address3": "",
		"city": "Chicago",
		"state": "IL",
		"zip_code": "60618"
	},
	{
		"venue_id": "yelp1QKqtC4vML3QhkrSzwR_tQ",
		"venue_name": "Wakamono",
		"latitude": 41.9423546,
		"longitude": -87.6442834,
		"address1": "3313 N Broadway Ave",
		"address2": "",
		"address3": "",
		"city": "Chicago",
		"state": "IL",
		"zip_code": "60657"
	},
	{
		"venue_id": "yelpI5HsGfTzCzyKHP6XL_Dkbw",
		"venue_name": "Hot Woks Cool Sushi",
		"latitude": 41.88114,
		"longitude": -87.625,
		"address1": "30 S Michigan Ave",
		"address2": "",
		"address3": "",
		"city": "Chicago",
		"state": "IL",
		"zip_code": "60603"
	},
	{
		"venue_id": "yelp7Ees_Pd8ehKBMAtFzjPpyQ",
		"venue_name": "Wow Bao",
		"latitude": 41.8859149826022,
		"longitude": -87.6282665232788,
		"address1": "1 W Wacker Dr",
		"address2": "Ste 107",
		"address3": "",
		"city": "Chicago",
		"state": "IL",
		"zip_code": "60601"
	},
	{
		"venue_id": "yelpXa9SjCN4tiUCnpaZl8OzAg",
		"venue_name": "Hing Kee Restaurant",
		"latitude": 41.853948,
		"longitude": -87.633651,
		"address1": "2140 S Archer Ave",
		"address2": "",
		"address3": "",
		"city": "Chicago",
		"state": "IL",
		"zip_code": "60616"
	},
	{
		"venue_id": "yelpBMVKZPiG7q5_9m6cQF1Iyg",
		"venue_name": "Joy Yee's Noodle Shop",
		"latitude": 41.8643301355842,
		"longitude": -87.6467004576721,
		"address1": "1335 S Halsted St",
		"address2": null,
		"address3": "",
		"city": "Chicago",
		"state": "IL",
		"zip_code": "60608"
	},
	{
		"venue_id": "yelpfA2H14Jj4j2YB4uXGsnVag",
		"venue_name": "Yellowtail Sushi Bar and Asian Kitchen",
		"latitude": 41.9388197,
		"longitude": -87.6444487,
		"address1": "3136 N Broadway St",
		"address2": "",
		"address3": "",
		"city": "Chicago",
		"state": "IL",
		"zip_code": "60657"
	},
	{
		"venue_id": "yelpQz5uN801Hx2cFrfI7sggoQ",
		"venue_name": "MAK Restaurant",
		"latitude": 41.9032611,
		"longitude": -87.6759818,
		"address1": "1924 W Division St",
		"address2": "",
		"address3": "",
		"city": "Chicago",
		"state": "IL",
		"zip_code": "60622"
	},
	{
		"venue_id": "yelp8Me8vpBSJJyB0N6S68UJWw",
		"venue_name": "Ping Pong",
		"latitude": 41.9424108,
		"longitude": -87.6446454,
		"address1": "3322 N Broadway St",
		"address2": "",
		"address3": "",
		"city": "Chicago",
		"state": "IL",
		"zip_code": "60657"
	},
	{
		"venue_id": "yelpmxpOEv34XR2DrjjGBrSYxQ",
		"venue_name": "bopNgrill Belmont",
		"latitude": 41.9399377250105,
		"longitude": -87.6523802644181,
		"address1": "921 W Belmont Ave",
		"address2": "",
		"address3": "",
		"city": "Chicago",
		"state": "IL",
		"zip_code": "60657"
	},
	{
		"venue_id": "yelpKmNAA86uPEVpiM291g2o3w",
		"venue_name": "Rise Sushi & Sake Lounge",
		"latitude": 41.943632,
		"longitude": -87.663533,
		"address1": "3401 N Southport Ave",
		"address2": "",
		"address3": "",
		"city": "Chicago",
		"state": "IL",
		"zip_code": "60657"
	},
	{
		"venue_id": "yelp5jFouUo7krZRRdt8pIS5UQ",
		"venue_name": "Miss Asia",
		"latitude": 41.9331699,
		"longitude": -87.64077,
		"address1": "434 W Diversey Pkwy",
		"address2": "",
		"address3": "",
		"city": "Chicago",
		"state": "IL",
		"zip_code": "60614"
	},
	{
		"venue_id": "yelpk81iqznYFEJtmmx6incxsg",
		"venue_name": "Tanuki",
		"latitude": 41.9365467454796,
		"longitude": -87.6541687490014,
		"address1": "3006 N Sheffield Ave",
		"address2": "",
		"address3": "",
		"city": "Chicago",
		"state": "IL",
		"zip_code": "60657"
	},
	{
		"venue_id": "yelpTabmV_pGsfKPtA6apSPZUg",
		"venue_name": "Glaze Teriyaki",
		"latitude": 41.938118,
		"longitude": -87.6445007,
		"address1": "3112 N Broadway",
		"address2": null,
		"address3": "",
		"city": "Chicago",
		"state": "IL",
		"zip_code": "60657"
	},
	{
		"venue_id": "yelpdtcq-GcOvmY6SfZoO-cVhg",
		"venue_name": "Niu B",
		"latitude": 41.870627153595,
		"longitude": -87.6243124902248,
		"address1": "888 S Michigan Ave",
		"address2": "",
		"address3": "",
		"city": "Chicago",
		"state": "IL",
		"zip_code": "60605"
	},
	{
		"venue_id": "yelpHSfjGxJ_XcA03eQJ9uniYw",
		"venue_name": "Trike",
		"latitude": 41.9276161193848,
		"longitude": -87.7045593261719,
		"address1": "2539 N Milwaukee Ave",
		"address2": "",
		"address3": "",
		"city": "Chicago",
		"state": "IL",
		"zip_code": "60647"
	},
	{
		"venue_id": "yelpQFefZPT6WDWJs-uz9jWT7g",
		"venue_name": "South Kawa",
		"latitude": 41.8314360235142,
		"longitude": -87.6460021734238,
		"address1": "3417 S Halsted St",
		"address2": "",
		"address3": "",
		"city": "Chicago",
		"state": "IL",
		"zip_code": "60608"
	},
	{
		"venue_id": "yelpSmq3QclTbATrJLOwULiADw",
		"venue_name": "Four Belly",
		"latitude": 41.9406275584628,
		"longitude": -87.6510916202377,
		"address1": "3227 N Clark St",
		"address2": "",
		"address3": "",
		"city": "Chicago",
		"state": "IL",
		"zip_code": "60657"
	},
	{
		"venue_id": "yelpo6O9gCksHBGG7-m0PwRH_g",
		"venue_name": "Urbanbelly",
		"latitude": 41.90975,
		"longitude": -87.6778099,
		"address1": "1542 N Damen Ave",
		"address2": "",
		"address3": "",
		"city": "Chicago",
		"state": "IL",
		"zip_code": "60622"
	},
	{
		"venue_id": "yelpqtBUw8f2IoO4KFENrjgyhQ",
		"venue_name": "Dib",
		"latitude": 41.9689463,
		"longitude": -87.6556821,
		"address1": "1025 W Lawrence Ave",
		"address2": "",
		"address3": "",
		"city": "Chicago",
		"state": "IL",
		"zip_code": "60640"
	},
	{
		"venue_id": "yelp3nEaDBC8CEJIUIjxTQ327g",
		"venue_name": "Earth's Kitchen",
		"latitude": 41.9495682443371,
		"longitude": -87.6493797451258,
		"address1": "3715 N Halsted St",
		"address2": "",
		"address3": "",
		"city": "Chicago",
		"state": "IL",
		"zip_code": "60613"
	},
	{
		"venue_id": "yelp-kDoi6uhaByl7M1qAdp5oA",
		"venue_name": "Shine Restaurant",
		"latitude": 41.9219358187451,
		"longitude": -87.6483673516051,
		"address1": "756 W Webster Ave",
		"address2": "",
		"address3": "",
		"city": "Chicago",
		"state": "IL",
		"zip_code": "60614"
	},
	{
		"venue_id": "yelpvsaRYKVnameNtRrnHGmEhg",
		"venue_name": "Nami Sushi Bar",
		"latitude": 41.9616272,
		"longitude": -87.6756927,
		"address1": "1828 W Montrose Ave",
		"address2": "",
		"address3": "",
		"city": "Chicago",
		"state": "IL",
		"zip_code": "60613"
	},
	{
		"venue_id": "yelpI3BBgEJGNXX8rAlSUOTF2Q",
		"venue_name": "Furama Restaurant",
		"latitude": 41.9719356,
		"longitude": -87.6599421,
		"address1": "4936 N Broadway St",
		"address2": "",
		"address3": "",
		"city": "Chicago",
		"state": "IL",
		"zip_code": "60640"
	},
	{
		"venue_id": "yelp64gKu_4z43qsFL5nC8DxYQ",
		"venue_name": "Katana Sushi & Robata Bar",
		"latitude": 41.8890840112679,
		"longitude": -87.6295050458455,
		"address1": "399 N Dearborn St",
		"address2": "",
		"address3": null,
		"city": "Chicago",
		"state": "IL",
		"zip_code": "60654"
	},
	{
		"venue_id": "yelp7TlmhbxPa_FIp9euMtisdQ",
		"venue_name": "Circle Sushi & Grill",
		"latitude": 41.9116301504361,
		"longitude": -87.6479199528694,
		"address1": "1623 N Halsted St",
		"address2": "",
		"address3": "",
		"city": "Chicago",
		"state": "IL",
		"zip_code": "60614"
	},
	{
		"venue_id": "yelp68Rezfdylfccq3B6Xn3JKg",
		"venue_name": "2 Asian Brothers",
		"latitude": 41.97599,
		"longitude": -87.70962,
		"address1": "3222 W Foster Ave",
		"address2": "",
		"address3": "",
		"city": "Chicago",
		"state": "IL",
		"zip_code": "60625"
	},
	{
		"venue_id": "yelpLwziDn5UPIJbzD2cVDA7Cw",
		"venue_name": "Joy Yee Plus",
		"latitude": 41.853795,
		"longitude": -87.634696,
		"address1": "2159 S China Pl",
		"address2": "",
		"address3": "",
		"city": "Chicago",
		"state": "IL",
		"zip_code": "60616"
	},
	{
		"venue_id": "yelpQPyBthsICyZlm0_KY6wVew",
		"venue_name": "Yeowoosai",
		"latitude": 41.995304,
		"longitude": -87.6997413,
		"address1": "6248 N California Ave",
		"address2": "",
		"address3": "",
		"city": "Chicago",
		"state": "IL",
		"zip_code": "60659"
	},
	{
		"venue_id": "yelpxRMdNT0cNJjlAKtlcNOOpA",
		"venue_name": "P.F. Chang's",
		"latitude": 41.8919052750496,
		"longitude": -87.6269987225533,
		"address1": "530 N Wabash Ave",
		"address2": "",
		"address3": "",
		"city": "Chicago",
		"state": "IL",
		"zip_code": "60611"
	},
	{
		"venue_id": "yelpfF5_VmlLDUaMFsp2u0THOw",
		"venue_name": "Lao Sze Chuan - Uptown",
		"latitude": 41.970021,
		"longitude": -87.659915,
		"address1": "4832 N Broadway St",
		"address2": "",
		"address3": "",
		"city": "Chicago",
		"state": "IL",
		"zip_code": "60640"
	},
	{
		"venue_id": "yelp_QU_V5NBPR4TwuQpNQndqQ",
		"venue_name": "Li Hing",
		"latitude": 41.93878,
		"longitude": -87.77103,
		"address1": "5754 W Belmont Ave",
		"address2": "",
		"address3": "",
		"city": "Chicago",
		"state": "IL",
		"zip_code": "60634"
	},
	{
		"venue_id": "yelpRvpAs2BDS6cD-uYmCTsFyg",
		"venue_name": "King Pho",
		"latitude": 41.9974974561978,
		"longitude": -87.7644239746759,
		"address1": "5414 W Devon Ave",
		"address2": "",
		"address3": "",
		"city": "Chicago",
		"state": "IL",
		"zip_code": "60646"
	},
	{
		"venue_id": "yelpAVcyeXDCjzVASjZlT_93Ww",
		"venue_name": "Sushi Pink",
		"latitude": 41.882829,
		"longitude": -87.650353,
		"address1": "913 W Washington Blvd",
		"address2": "",
		"address3": "",
		"city": "Chicago",
		"state": "IL",
		"zip_code": "60607"
	},
	{
		"venue_id": "yelpDDzT2AA047ZgyId-yf0pQg",
		"venue_name": "ML Kitchen",
		"latitude": 41.869543,
		"longitude": -87.655786,
		"address1": "1138 W Taylor St",
		"address2": "",
		"address3": null,
		"city": "Chicago",
		"state": "IL",
		"zip_code": "60607"
	},
	{
		"venue_id": "yelpznUsU4WAZ_fY6OHU_01WOw",
		"venue_name": "Ninja Sushi & Thai Restaurant",
		"latitude": 41.952448,
		"longitude": -87.7671049,
		"address1": "3946 N Central Ave",
		"address2": "",
		"address3": null,
		"city": "Chicago",
		"state": "IL",
		"zip_code": "60634"
	},
	{
		"venue_id": "yelpOUiJ7aJUJlGmDSgvW6L4zw",
		"venue_name": "Summer",
		"latitude": 41.99427,
		"longitude": -87.65937,
		"address1": "1123 W Granville Ave",
		"address2": "",
		"address3": "",
		"city": "Chicago",
		"state": "IL",
		"zip_code": "60660"
	},
	{
		"venue_id": "yelpnD9poL2XS2nnVOJXXMqbuA",
		"venue_name": "Little Wok",
		"latitude": 41.939,
		"longitude": -87.64465,
		"address1": "3144 N Broadway",
		"address2": "",
		"address3": null,
		"city": "Chicago",
		"state": "IL",
		"zip_code": "60657"
	},
	{
		"venue_id": "yelp2hwxH_ZgxI24QyqoemNUhw",
		"venue_name": "Miso Asian Kitchen",
		"latitude": 41.96314,
		"longitude": -87.6556,
		"address1": "4449 N Broadway",
		"address2": "",
		"address3": "",
		"city": "Chicago",
		"state": "IL",
		"zip_code": "60640"
	},
	{
		"venue_id": "yelpbO0ePzK1UYzRny7KqPYDoQ",
		"venue_name": "Hot Woks Cool Sushi",
		"latitude": 41.8795049,
		"longitude": -87.6361169,
		"address1": "312 W Adams St",
		"address2": null,
		"address3": "",
		"city": "Chicago",
		"state": "IL",
		"zip_code": "60606"
	},
	{
		"venue_id": "yelpiflJ9LFMhu2WAMg5nDWmqQ",
		"venue_name": "Ajwaah Sweets",
		"latitude": 41.9975851,
		"longitude": -87.6920076,
		"address1": "2453 W Devon",
		"address2": "",
		"address3": "",
		"city": "Chicago",
		"state": "IL",
		"zip_code": "60659"
	},
	{
		"venue_id": "yelpPuXKTsA_7qVZU8rZlf9HWA",
		"venue_name": "Bixi Beer",
		"latitude": 41.9271457780326,
		"longitude": -87.703986418801,
		"address1": "2515 N Milwaukee Ave",
		"address2": "",
		"address3": null,
		"city": "Chicago",
		"state": "IL",
		"zip_code": "60647"
	},
	{
		"venue_id": "yelpXA2dGsX6LDWPVw8ICjTVIg",
		"venue_name": "Nori Sushi - Edgewater",
		"latitude": 41.9980624,
		"longitude": -87.6621615,
		"address1": "1235 W Devon Ave",
		"address2": "",
		"address3": "",
		"city": "Chicago",
		"state": "IL",
		"zip_code": "60660"
	},
	{
		"venue_id": "yelpTkullci48g99UqBZucGr9Q",
		"venue_name": "Rice Thai Asian Kitchen",
		"latitude": 41.9901249,
		"longitude": -87.6597621,
		"address1": "1136 W Thorndale Ave",
		"address2": "",
		"address3": "",
		"city": "Chicago",
		"state": "IL",
		"zip_code": "60660"
	},
	{
		"venue_id": "yelpQ2H-1CkgecRw7AfXOYBlGQ",
		"venue_name": "Yum Dum Truck",
		"latitude": 41.8805999755859,
		"longitude": -87.6548690795898,
		"address1": "",
		"address2": null,
		"address3": "",
		"city": "Chicago",
		"state": "IL",
		"zip_code": "60607"
	},
	{
		"venue_id": "yelptoE2NuNs6fQx-EjSxgToSw",
		"venue_name": "Pho 5lua",
		"latitude": 41.9955733,
		"longitude": -87.7127057,
		"address1": "6261 Mccormick Rd",
		"address2": "",
		"address3": "",
		"city": "Chicago",
		"state": "IL",
		"zip_code": "60659"
	},
	{
		"venue_id": "yelpCoSRSpByyyNMuI8m15PH7A",
		"venue_name": "Thee Asian Restaurant",
		"latitude": 41.91028,
		"longitude": -87.6732,
		"address1": "1811 W North Ave",
		"address2": "",
		"address3": "",
		"city": "Chicago",
		"state": "IL",
		"zip_code": "60622"
	},
	{
		"venue_id": "yelpcT5PCUVcozFYUFlCKigodg",
		"venue_name": "House of Hunan",
		"latitude": 41.925893,
		"longitude": -87.641125,
		"address1": "444 W Fullerton Pkwy",
		"address2": "",
		"address3": "",
		"city": "Chicago",
		"state": "IL",
		"zip_code": "60614"
	},
	{
		"venue_id": "yelp8KqvD_fEtTsdtxyX3XPhYQ",
		"venue_name": "En Lai Asian Grill",
		"latitude": 41.9922295,
		"longitude": -87.6607208,
		"address1": "6044 N Broadway St",
		"address2": "",
		"address3": "",
		"city": "Chicago",
		"state": "IL",
		"zip_code": "60660"
	},
	{
		"venue_id": "yelpGUFk6Ns5Gm5-u4EExUspQg",
		"venue_name": "Manee Thai Restaurant",
		"latitude": 41.94624,
		"longitude": -87.7277,
		"address1": "3558 N Pulaski Rd",
		"address2": "",
		"address3": "",
		"city": "Chicago",
		"state": "IL",
		"zip_code": "60641"
	},
	{
		"venue_id": "yelpe3vMzk7zt_3hLCJxv0E64Q",
		"venue_name": "Brightwok Kitchen",
		"latitude": 41.8934881,
		"longitude": -87.6279751,
		"address1": "631 N State St",
		"address2": null,
		"address3": "",
		"city": "Chicago",
		"state": "IL",
		"zip_code": "60654"
	},
	{
		"venue_id": "yelpzaojeIweIrrXesLOvtjcdg",
		"venue_name": "Chai's Asian Bistro",
		"latitude": 41.9900209,
		"longitude": -87.7481016,
		"address1": "4748 W Peterson Ave",
		"address2": "",
		"address3": "",
		"city": "Chicago",
		"state": "IL",
		"zip_code": "60646"
	},
	{
		"venue_id": "yelp75_jQw_24zmph6H9LVJ3qA",
		"venue_name": "Mai Tai Sushi and Sake Bar",
		"latitude": 41.8740681,
		"longitude": -87.6261049,
		"address1": "614 S Wabash Ave",
		"address2": null,
		"address3": "",
		"city": "Chicago",
		"state": "IL",
		"zip_code": "60605"
	},
	{
		"venue_id": "yelpkMGTeEAkXZRgkupfLx-HpQ",
		"venue_name": "Min Min Asian Cafe",
		"latitude": 41.9542779643999,
		"longitude": -87.6666306545428,
		"address1": "1465 W Irving Park Rd",
		"address2": "",
		"address3": null,
		"city": "Chicago",
		"state": "IL",
		"zip_code": "60613"
	},
	{
		"venue_id": "yelpxMGDVTsgZ2LYoi5aTDYeeA",
		"venue_name": "Makki Fast Food & Grill",
		"latitude": 41.9667479,
		"longitude": -87.7134823,
		"address1": "4702 N Kimball Ave",
		"address2": "",
		"address3": "",
		"city": "Chicago",
		"state": "IL",
		"zip_code": "60625"
	},
	{
		"venue_id": "yelp4t55Sb9C0lnsCyuZhjcP0A",
		"venue_name": "Wow Bao",
		"latitude": 41.8864216,
		"longitude": -87.623884,
		"address1": "225 N Michigan Ave",
		"address2": "",
		"address3": "",
		"city": "Chicago",
		"state": "IL",
		"zip_code": "60601"
	},
	{
		"venue_id": "yelpWZ7qwg6yZ6WIsPd-DF2ZlQ",
		"venue_name": "Wow Bao",
		"latitude": 41.9330049396068,
		"longitude": -87.6451519465329,
		"address1": "2806 N Clark St",
		"address2": "",
		"address3": "",
		"city": "Chicago",
		"state": "IL",
		"zip_code": "60657"
	},
	{
		"venue_id": "yelp1W1nldqbK0YPsxNTqWVG-A",
		"venue_name": "Emperor Wok Cuisine",
		"latitude": 41.9345149,
		"longitude": -87.6686567,
		"address1": "2910 N Ashland Ave",
		"address2": "",
		"address3": "",
		"city": "Chicago",
		"state": "IL",
		"zip_code": "60657"
	},
	{
		"venue_id": "yelpngQ_6PoEGm1Dvl7gon3UOQ",
		"venue_name": "Bai Cafe",
		"latitude": 41.9435827,
		"longitude": -87.6689552,
		"address1": "3406 N Ashland Ave",
		"address2": "",
		"address3": "",
		"city": "Chicago",
		"state": "IL",
		"zip_code": "60657"
	},
	{
		"venue_id": "yelpRvE6qfdEYzzeEjQtDsf8Hw",
		"venue_name": "Star Kitchen",
		"latitude": 41.8378506,
		"longitude": -87.6354674,
		"address1": "3110 S Shields Ave",
		"address2": null,
		"address3": "",
		"city": "Chicago",
		"state": "IL",
		"zip_code": "60616"
	},
	{
		"venue_id": "yelptDbNHl646uM2HqnN_UlymA",
		"venue_name": "Googoo's Table",
		"latitude": 41.917308807373,
		"longitude": -87.7361297607422,
		"address1": "4356 W Armitage Ave",
		"address2": "",
		"address3": "",
		"city": "Chicago",
		"state": "IL",
		"zip_code": "60639"
	},
	{
		"venue_id": "yelpugSIP2rgLbJobTJIHdd8nA",
		"venue_name": "Market Creations",
		"latitude": 41.8850593423402,
		"longitude": -87.6237870801227,
		"address1": "130 E Randolph St",
		"address2": null,
		"address3": "",
		"city": "Chicago",
		"state": "IL",
		"zip_code": "60601"
	},
	{
		"venue_id": "yelpuvW2R5qHoDbafoPk9-fhMA",
		"venue_name": "De Rice",
		"latitude": 41.8096849,
		"longitude": -87.6028599,
		"address1": "918 E 47th St",
		"address2": null,
		"address3": "",
		"city": "Chicago",
		"state": "IL",
		"zip_code": "60653"
	},
	{
		"venue_id": "yelpsSkZBflFEaMxNVbLJm4sFw",
		"venue_name": "Night Fish Sushi and Asian Cuisine",
		"latitude": 41.8958400561493,
		"longitude": -87.6632698997855,
		"address1": "1421 W Chicago Ave",
		"address2": "",
		"address3": null,
		"city": "Chicago",
		"state": "IL",
		"zip_code": "60642"
	},
	{
		"venue_id": "yelp8kQwwaoC3Q97hZbty4HsIg",
		"venue_name": "No.18 Karaoke",
		"latitude": 41.852646,
		"longitude": -87.631648,
		"address1": "2201 S Wentworth Ave",
		"address2": "Fl 2",
		"address3": "",
		"city": "Chicago",
		"state": "IL",
		"zip_code": "60616"
	},
	{
		"venue_id": "yelpyn2GB3E3Ty4GIyOwh_mKig",
		"venue_name": "Bonchon - Division St.",
		"latitude": 41.9035571734286,
		"longitude": -87.6712457835674,
		"address1": "1732 W Division St",
		"address2": "",
		"address3": null,
		"city": "Chicago",
		"state": "IL",
		"zip_code": "60622"
	},
	{
		"venue_id": "yelpemJGbFR6mtTrfMB7QkglnA",
		"venue_name": "Wow Bao",
		"latitude": 41.88611,
		"longitude": -87.625,
		"address1": "200 N Michigan Ave",
		"address2": "",
		"address3": null,
		"city": "Chicago",
		"state": "IL",
		"zip_code": "60601"
	},
	{
		"venue_id": "yelpj4Hfca8T_8YbrLIPL-2ylw",
		"venue_name": "Market Thyme",
		"latitude": 41.8853219609297,
		"longitude": -87.6212335398248,
		"address1": "200 E Randolph",
		"address2": "",
		"address3": "",
		"city": "Chicago",
		"state": "IL",
		"zip_code": "60601"
	},
	{
		"venue_id": "yelp8ElqHd_vgZSW9eUbNdgeTA",
		"venue_name": "Wow Bao - Gold coast",
		"latitude": 41.9037,
		"longitude": -87.62889,
		"address1": "1 W Division St",
		"address2": "",
		"address3": null,
		"city": "Chicago",
		"state": "IL",
		"zip_code": "60610"
	},
	{
		"venue_id": "yelpzlOs6_q6Cv6aJ1ScUoz03w",
		"venue_name": "Tasty Asian Restaurant",
		"latitude": 41.945621,
		"longitude": -87.646499,
		"address1": "3500 N Broadway St",
		"address2": "",
		"address3": "",
		"city": "Chicago",
		"state": "IL",
		"zip_code": "60657"
	},
	{
		"venue_id": "yelp-jvrWxgK2F1Iv7jzLCzI9Q",
		"venue_name": "Sunshine Asian Cuisine",
		"latitude": 41.9664800732472,
		"longitude": -87.6790104433894,
		"address1": "4649 N Damen Ave",
		"address2": "",
		"address3": null,
		"city": "Chicago",
		"state": "IL",
		"zip_code": "60625"
	},
	{
		"venue_id": "yelpkYDek1HB5aGAFzyWO5eQ9w",
		"venue_name": "Shabu Shabu",
		"latitude": 41.85343,
		"longitude": -87.63308,
		"address1": "2131 S Archer Ave",
		"address2": "",
		"address3": "",
		"city": "Chicago",
		"state": "IL",
		"zip_code": "60616"
	},
	{
		"venue_id": "yelpEm3GSPR2REgo6HFEmFkepQ",
		"venue_name": "Market Creations",
		"latitude": 41.88155,
		"longitude": -87.63508,
		"address1": "1 S Franklin St",
		"address2": "Fl 2",
		"address3": null,
		"city": "Chicago",
		"state": "IL",
		"zip_code": "60606"
	},
	{
		"venue_id": "yelph_-ul1xabizUqTs1705g-Q",
		"venue_name": "Landbirds",
		"latitude": 41.92764,
		"longitude": -87.69782,
		"address1": "2532 N California Ave",
		"address2": "",
		"address3": null,
		"city": "Chicago",
		"state": "IL",
		"zip_code": "60647"
	},
	{
		"venue_id": "yelpvDSTuH_jxt5sGHWYIaeG2g",
		"venue_name": "Ysabel's Grill",
		"latitude": 41.9535149,
		"longitude": -87.7503633,
		"address1": "4908 W Irving Park Rd",
		"address2": null,
		"address3": "",
		"city": "Chicago",
		"state": "IL",
		"zip_code": "60641"
	},
	{
		"venue_id": "yelp7UKAxVZZrr0S_SSJOPpcCg",
		"venue_name": "Market Creations",
		"latitude": 41.8823761,
		"longitude": -87.637451,
		"address1": "20 N Wacker Dr",
		"address2": "",
		"address3": "Civic Opera House",
		"city": "Chicago",
		"state": "IL",
		"zip_code": "60606"
	},
	{
		"venue_id": "yelpC4se-sSyQcZOTMb66Tmr8Q",
		"venue_name": "Lazzat Euro",
		"latitude": 41.95376,
		"longitude": -87.68545,
		"address1": "2245 W Irving Park Rd",
		"address2": "",
		"address3": "",
		"city": "Chicago",
		"state": "IL",
		"zip_code": "60618"
	},
	{
		"venue_id": "yelpQdRASstCZUYBiQVPARxrPA",
		"venue_name": "Market Creations",
		"latitude": 41.8778495788574,
		"longitude": -87.6313018798828,
		"address1": "111 W Jackson Blvd",
		"address2": "",
		"address3": null,
		"city": "Chicago",
		"state": "IL",
		"zip_code": "60604"
	},
	{
		"venue_id": "yelpbUHP4CdMbiLho7-NLYh2ug",
		"venue_name": "1901 At AceBounce",
		"latitude": 41.886547,
		"longitude": -87.631225,
		"address1": "230 N Clark St",
		"address2": null,
		"address3": "",
		"city": "Chicago",
		"state": "IL",
		"zip_code": "60601"
	},
	{
		"venue_id": "yelpeNt4T1DLGjlhgnTOWFhvQw",
		"venue_name": "Kylin Teppanyaki",
		"latitude": 41.855072,
		"longitude": -87.63208,
		"address1": "2002 S Wentworth Ave",
		"address2": "",
		"address3": "",
		"city": "Chicago",
		"state": "IL",
		"zip_code": "60616"
	},
	{
		"venue_id": "yelpwVAiUKGBN9jpaXI5ou7Pgg",
		"venue_name": "Big Bowl Chinese Express",
		"latitude": 41.8913714024301,
		"longitude": -87.608,
		"address1": "600 E Grand Ave",
		"address2": "",
		"address3": "",
		"city": "Chicago",
		"state": "IL",
		"zip_code": "60611"
	},
	{
		"venue_id": "yelpCOdMg3L3cdRH5MsuHuII3Q",
		"venue_name": "Lavo Asian Grill",
		"latitude": 41.9922294616699,
		"longitude": -87.6607284545898,
		"address1": "6044 N Broadway Ave",
		"address2": "",
		"address3": "",
		"city": "Chicago",
		"state": "IL",
		"zip_code": "60660"
	},
	{
		"venue_id": "yelp6jeTUP9RPGO3ElM2MsiTfw",
		"venue_name": "Market Creations",
		"latitude": 41.88595,
		"longitude": -87.63951,
		"address1": "444 W Lake St",
		"address2": "Ste 100",
		"address3": null,
		"city": "Chicago",
		"state": "IL",
		"zip_code": "60606"
	},
	{
		"venue_id": "yelpGjnA2dbAM2nIX-vl5MmcLA",
		"venue_name": "Karoon Kababs",
		"latitude": 41.90357,
		"longitude": -87.63414,
		"address1": "1143 N Wells St",
		"address2": null,
		"address3": "",
		"city": "Chicago",
		"state": "IL",
		"zip_code": "60610"
	},
	{
		"venue_id": "yelpG5xNszfJXh0WpvdcInoqKg",
		"venue_name": "MORA Asian Kitchen",
		"latitude": 41.87252,
		"longitude": -87.77966,
		"address1": "201 Harrison St",
		"address2": null,
		"address3": "",
		"city": "Oak Park",
		"state": "IL",
		"zip_code": "60304"
	},
	{
		"venue_id": "yelpBs-wD8O-z8rrq0vCQtKrtw",
		"venue_name": "EuroAsia Restaurant",
		"latitude": 41.9003551,
		"longitude": -87.6376374,
		"address1": "351 W Oak St",
		"address2": "Fl 1",
		"address3": "",
		"city": "Chicago",
		"state": "IL",
		"zip_code": "60610"
	},
	{
		"venue_id": "yelpoPzRLUmwtZBLZ0r5vace0w",
		"venue_name": "Kor-Fusion Cafe",
		"latitude": 41.8694859263072,
		"longitude": -87.6647209748626,
		"address1": "1514 W Taylor St",
		"address2": "",
		"address3": null,
		"city": "Chicago",
		"state": "IL",
		"zip_code": "60607"
	}
]