[
	{
		"venue_id": "yelpEokzp1wT7V6DiISsDWlMWQ",
		"venue_name": "Metropolis Coffee Company",
		"latitude": 41.9944633959929,
		"longitude": -87.6573875525959,
		"address1": "1039 W Granville Ave",
		"address2": "",
		"address3": "",
		"city": "Chicago",
		"state": "IL",
		"zip_code": "60660"
	},
	{
		"venue_id": "yelpIM9oq9HGTt8Q2QLQ2nevYA",
		"venue_name": "The Bagelers Coffeehouse",
		"latitude": 41.926975,
		"longitude": -87.650414,
		"address1": "2461 N Lincoln Ave",
		"address2": "",
		"address3": "",
		"city": "Chicago",
		"state": "IL",
		"zip_code": "60614"
	},
	{
		"venue_id": "yelpvOEqVTBwUek7-jKrN1Th8g",
		"venue_name": "Chicago Bagel Authority",
		"latitude": 41.9178624,
		"longitude": -87.6529861,
		"address1": "953 W Armitage Ave",
		"address2": "",
		"address3": "",
		"city": "Chicago",
		"state": "IL",
		"zip_code": "60614"
	},
	{
		"venue_id": "yelp48LgtDgqtzQpF8KYUb1pJg",
		"venue_name": "Reno",
		"latitude": 41.929155,
		"longitude": -87.707174,
		"address1": "2607 N Milwaukee Ave",
		"address2": "",
		"address3": "",
		"city": "Chicago",
		"state": "IL",
		"zip_code": "60647"
	},
	{
		"venue_id": "yelp3pa7dfPBmEF-ceeH02t-0Q",
		"venue_name": "Chicago Bagel Authority",
		"latitude": 41.939794,
		"longitude": -87.653737,
		"address1": "955 W Belmont Ave",
		"address2": "",
		"address3": "",
		"city": "Chicago",
		"state": "IL",
		"zip_code": "60657"
	},
	{
		"venue_id": "yelpSrBHJglG5lNTlwwJl_8c6g",
		"venue_name": "NYC Bagel Deli",
		"latitude": 41.910495,
		"longitude": -87.653434,
		"address1": "1001 W North Ave",
		"address2": null,
		"address3": "",
		"city": "Chicago",
		"state": "IL",
		"zip_code": "60642"
	},
	{
		"venue_id": "yelpT_MM86UUHinTFVWzzboBgQ",
		"venue_name": "NYC Bagel Deli",
		"latitude": 41.8913701,
		"longitude": -87.6294951,
		"address1": "515 N Dearborn St",
		"address2": null,
		"address3": null,
		"city": "Chicago",
		"state": "IL",
		"zip_code": "60654"
	},
	{
		"venue_id": "yelpS7p_Q0gcyTp3IPKJX8H9fw",
		"venue_name": "Jaffa Bagels",
		"latitude": 41.8864511,
		"longitude": -87.6239114,
		"address1": "225 N Michigan Ave",
		"address2": "",
		"address3": "",
		"city": "Chicago",
		"state": "IL",
		"zip_code": "60601"
	},
	{
		"venue_id": "yelps6pxtDUS1iF9DxEc4SX7LQ",
		"venue_name": "Beans & Bagels",
		"latitude": 41.966695189476,
		"longitude": -87.693904414773,
		"address1": "2601 W Leland Ave",
		"address2": null,
		"address3": "",
		"city": "Chicago",
		"state": "IL",
		"zip_code": "60625"
	},
	{
		"venue_id": "yelp74U-LSVfc9CJb4dD15QP9A",
		"venue_name": "Brobagel",
		"latitude": 41.9103043,
		"longitude": -87.6762022,
		"address1": "1931 W North Ave",
		"address2": null,
		"address3": "",
		"city": "Chicago",
		"state": "IL",
		"zip_code": "60622"
	},
	{
		"venue_id": "yelpwGvf_p-IsLZuZRfhEm8_zw",
		"venue_name": "The Great American Bagel",
		"latitude": 41.9399049,
		"longitude": -87.6608699,
		"address1": "1248 W Belmont Ave",
		"address2": "",
		"address3": "",
		"city": "Chicago",
		"state": "IL",
		"zip_code": "60657"
	},
	{
		"venue_id": "yelp673Xn9Xf9OTWJvZ-dXPWFg",
		"venue_name": "Einstein Bros Bagels",
		"latitude": 41.8893541604356,
		"longitude": -87.6297451660242,
		"address1": "400 N Dearborn St",
		"address2": "",
		"address3": "",
		"city": "Chicago",
		"state": "IL",
		"zip_code": "60654"
	},
	{
		"venue_id": "yelpcXCvYv8EFe2iXhj4PYLy1g",
		"venue_name": "Bebe's Kosher Deli",
		"latitude": 41.884106,
		"longitude": -87.641231,
		"address1": "131 N Clinton St",
		"address2": "",
		"address3": "The French Market",
		"city": "Chicago",
		"state": "IL",
		"zip_code": "60661"
	},
	{
		"venue_id": "yelpOo-NpIfz6mgCO7cWuq4ICQ",
		"venue_name": "The Great American Bagel",
		"latitude": 41.881859,
		"longitude": -87.656532,
		"address1": "1154 West Madison St",
		"address2": "",
		"address3": "",
		"city": "Chicago",
		"state": "IL",
		"zip_code": "60607"
	},
	{
		"venue_id": "yelpOxdeySd0c0S3RACDQiizsw",
		"venue_name": "Einstein Bros",
		"latitude": 41.88282,
		"longitude": -87.63271,
		"address1": "30 N Lasalle St",
		"address2": "Ste 100E",
		"address3": "",
		"city": "Chicago",
		"state": "IL",
		"zip_code": "60602"
	},
	{
		"venue_id": "yelp3EZJnLh_kOKvNCQg21I_4g",
		"venue_name": "Caffecafe",
		"latitude": 41.88653,
		"longitude": -87.62751,
		"address1": "1 E Wacker Dr",
		"address2": "",
		"address3": "",
		"city": "Chicago",
		"state": "IL",
		"zip_code": "60601"
	},
	{
		"venue_id": "yelpwSk0OnLWStAr1K4WUwMFIg",
		"venue_name": "Einstein Bros Bagels",
		"latitude": 41.8975049257278,
		"longitude": -87.6254913210869,
		"address1": "109 E Pearson St",
		"address2": "",
		"address3": "",
		"city": "Chicago",
		"state": "IL",
		"zip_code": "60611"
	},
	{
		"venue_id": "yelpgQHdyHsyqiDw_q8l9jEvwQ",
		"venue_name": "Halsted Street Deli & Bagel",
		"latitude": 41.888137875106,
		"longitude": -87.6344954642792,
		"address1": "222 W Merchandise Mart Plz",
		"address2": "",
		"address3": "",
		"city": "Chicago",
		"state": "IL",
		"zip_code": "60654"
	},
	{
		"venue_id": "yelpsXo_gZ-9rP-cgnPOB5Y3eQ",
		"venue_name": "Dunkin' Donuts / Baskin-Robbins",
		"latitude": 41.8722519569426,
		"longitude": -87.6478909231645,
		"address1": "Student Ctr E",
		"address2": "",
		"address3": "750 S Halsted",
		"city": "Chicago",
		"state": "IL",
		"zip_code": "60607"
	},
	{
		"venue_id": "yelp1C8JKDNA6kncMQaSKwiFfg",
		"venue_name": "Halsted Street Deli & Bagel",
		"latitude": 41.88235,
		"longitude": -87.6404699,
		"address1": "500 W Madison Ave",
		"address2": "",
		"address3": "",
		"city": "Chicago",
		"state": "IL",
		"zip_code": "60661"
	},
	{
		"venue_id": "yelpDTsZvCVpM5sU2jsNSbOofQ",
		"venue_name": "Dunkin' Donuts",
		"latitude": 41.9106979370117,
		"longitude": -87.6765975952148,
		"address1": "1938 W North Ave",
		"address2": "",
		"address3": "",
		"city": "Chicago",
		"state": "IL",
		"zip_code": "60622"
	},
	{
		"venue_id": "yelpZTzU-6P4z05vsXTrIYtOIQ",
		"venue_name": "The Great American Bagel",
		"latitude": 41.90975,
		"longitude": -87.807379,
		"address1": "7230 W North Ave",
		"address2": "",
		"address3": "",
		"city": "Elmwood Park",
		"state": "IL",
		"zip_code": "60707"
	},
	{
		"venue_id": "yelptkakiieNo1swAcrhiuD0Iw",
		"venue_name": "Einstein Bagels",
		"latitude": 41.975004,
		"longitude": -87.710099,
		"address1": "3225 W Foster Ave",
		"address2": "",
		"address3": null,
		"city": "Chicago",
		"state": "IL",
		"zip_code": "60625"
	},
	{
		"venue_id": "yelpYDIArAM8F_gO-XWEKZ5dRQ",
		"venue_name": "Dunkin Donuts",
		"latitude": 41.8676147,
		"longitude": -87.6268997,
		"address1": "22 E Roosevelt Rd",
		"address2": "",
		"address3": "",
		"city": "Chicago",
		"state": "IL",
		"zip_code": "60605"
	},
	{
		"venue_id": "yelpmdheRYK8DyQpXA77ZIwWHA",
		"venue_name": "Courtyard Cafe",
		"latitude": 41.9369680335342,
		"longitude": -87.6521001756191,
		"address1": "Advocate Illinois Masonic Medical Ctr",
		"address2": "836 W Wellington Ave",
		"address3": null,
		"city": "Chicago",
		"state": "IL",
		"zip_code": "60657"
	},
	{
		"venue_id": "yelpU2ypBEwdvchZZJfrnPmB6g",
		"venue_name": "Nosh N Nibble",
		"latitude": 41.8787,
		"longitude": -87.63598,
		"address1": "233 S Wacker Dr",
		"address2": "Willis Tower Lower Level 1",
		"address3": null,
		"city": "Chicago",
		"state": "IL",
		"zip_code": "60606"
	},
	{
		"venue_id": "yelp2mh1ARIuHJRuCY0r4HVYEQ",
		"venue_name": "Brobagles",
		"latitude": 41.9104369380738,
		"longitude": -87.676430359778,
		"address1": "1931 W North Ave",
		"address2": "",
		"address3": "",
		"city": "Chicago",
		"state": "IL",
		"zip_code": "60622"
	},
	{
		"venue_id": "yelp3CzqMF-he82xFvJR7pn-Fw",
		"venue_name": "Dunkin' Donuts",
		"latitude": 41.81015,
		"longitude": -87.80171,
		"address1": "4501 Harlem Ave",
		"address2": null,
		"address3": null,
		"city": "Forest View",
		"state": "IL",
		"zip_code": "60402"
	},
	{
		"venue_id": "yelpiBg0Y8SKwnI-OSvwFJHu-g",
		"venue_name": "La Brea Bakery",
		"latitude": 41.8517379760742,
		"longitude": -87.6114883422852,
		"address1": "2301 S Lake Shore Dr",
		"address2": "",
		"address3": "",
		"city": "Chicago",
		"state": "IL",
		"zip_code": "60649"
	},
	{
		"venue_id": "yelp2vxUOy0FSi4CFK8x6Md6VQ",
		"venue_name": "The Daly Bagel",
		"latitude": 41.8796394129723,
		"longitude": -87.8121290656647,
		"address1": "7503 Madison St",
		"address2": "",
		"address3": null,
		"city": "Forest Park",
		"state": "IL",
		"zip_code": "60130"
	}
]