[
	{
		"venue_id": "yelpLPwAwxEjetjdNh7Uadro3g",
		"venue_name": "Smoque BBQ",
		"latitude": 41.95021,
		"longitude": -87.72795,
		"address1": "3800 N Pulaski Rd",
		"address2": "Ste 2",
		"address3": "",
		"city": "Chicago",
		"state": "IL",
		"zip_code": "60641"
	},
	{
		"venue_id": "yelpdux6UvpMGJuHquFA3JfR3A",
		"venue_name": "Green Street Smoked Meats",
		"latitude": 41.883623,
		"longitude": -87.648907,
		"address1": "112 N Green St",
		"address2": null,
		"address3": "",
		"city": "Chicago",
		"state": "IL",
		"zip_code": "60607"
	},
	{
		"venue_id": "yelpnO8Yrt4l4JLSvCAkkwrk1Q",
		"venue_name": "Gyu-Kaku Japanese BBQ",
		"latitude": 41.89281,
		"longitude": -87.62223,
		"address1": "210 E Ohio St",
		"address2": "",
		"address3": "",
		"city": "Chicago",
		"state": "IL",
		"zip_code": "60611"
	},
	{
		"venue_id": "yelpeuO3-H92LCivH2B0CQPlnw",
		"venue_name": "Chicago q",
		"latitude": 41.903617442969,
		"longitude": -87.63023965658,
		"address1": "1160 N Dearborn St",
		"address2": null,
		"address3": "",
		"city": "Chicago",
		"state": "IL",
		"zip_code": "60610"
	},
	{
		"venue_id": "yelpKomhK0JD5cleEW55YTw7MQ",
		"venue_name": "Sun Wah Bar-B-Que",
		"latitude": 41.97396,
		"longitude": -87.65919,
		"address1": "5041 N Broadway",
		"address2": "",
		"address3": "",
		"city": "Chicago",
		"state": "IL",
		"zip_code": "60640"
	},
	{
		"venue_id": "yelp6KU3ylSh27qiiBa-a9vOGQ",
		"venue_name": "Union Sushi + Barbeque Bar",
		"latitude": 41.8940757,
		"longitude": -87.6354284,
		"address1": "230 W Erie St",
		"address2": "",
		"address3": "",
		"city": "Chicago",
		"state": "IL",
		"zip_code": "60654"
	},
	{
		"venue_id": "yelpWA8Fuuv9zRfZ8H8YkeYxsg",
		"venue_name": "Aloha Eats",
		"latitude": 41.9287526,
		"longitude": -87.6425448,
		"address1": "2534 N Clark St",
		"address2": null,
		"address3": "",
		"city": "Chicago",
		"state": "IL",
		"zip_code": "60614"
	},
	{
		"venue_id": "yelpxlX-nO0SaNwjGueCsgV-0g",
		"venue_name": "Dimo's Pizza",
		"latitude": 41.94521,
		"longitude": -87.65467,
		"address1": "3463 N Clark St",
		"address2": "",
		"address3": "",
		"city": "Chicago",
		"state": "IL",
		"zip_code": "60657"
	},
	{
		"venue_id": "yelpvofANrgotem6XRBBf5sc7A",
		"venue_name": "Jake Melnick's Corner Tap",
		"latitude": 41.8955265,
		"longitude": -87.626528,
		"address1": "41 E Superior St",
		"address2": "",
		"address3": "",
		"city": "Chicago",
		"state": "IL",
		"zip_code": "60611"
	},
	{
		"venue_id": "yelpD1K-vLXfA5-hppRzVY7q2w",
		"venue_name": "Smoke Daddy",
		"latitude": 41.90353,
		"longitude": -87.6727,
		"address1": "1804 W Division St",
		"address2": "",
		"address3": "",
		"city": "Chicago",
		"state": "IL",
		"zip_code": "60622"
	},
	{
		"venue_id": "yelp7LgM-Zotz-rW7RiyAI9XVg",
		"venue_name": "Fat Willy's Rib Shack",
		"latitude": 41.93047,
		"longitude": -87.68871,
		"address1": "2416 W Schubert Ave",
		"address2": "",
		"address3": "",
		"city": "Chicago",
		"state": "IL",
		"zip_code": "60647"
	},
	{
		"venue_id": "yelpT_egMuf7xJHLdldzPqOaSQ",
		"venue_name": "Qing Xiang Yuan Dumplings",
		"latitude": 41.85505,
		"longitude": -87.63219,
		"address1": "2002 S Wentworth Ave",
		"address2": "Ste 103",
		"address3": "",
		"city": "Chicago",
		"state": "IL",
		"zip_code": "60616"
	},
	{
		"venue_id": "yelpcuGkFLdPWfFX9hm2bcBHkQ",
		"venue_name": "Twin Anchors Restaurant & Tavern",
		"latitude": 41.91268,
		"longitude": -87.63832,
		"address1": "1655 N Sedgwick St",
		"address2": "",
		"address3": "",
		"city": "Chicago",
		"state": "IL",
		"zip_code": "60614"
	},
	{
		"venue_id": "yelpLU-NBsbLAwvzKlopsVeB7w",
		"venue_name": "Weber Grill Restaurant",
		"latitude": 41.8918845,
		"longitude": -87.6278923,
		"address1": "539 N State St",
		"address2": "",
		"address3": "",
		"city": "Chicago",
		"state": "IL",
		"zip_code": "60654"
	},
	{
		"venue_id": "yelp2lfTEF7zALaPLx4qQwVXFw",
		"venue_name": "Bub City",
		"latitude": 41.8903402,
		"longitude": -87.6308922,
		"address1": "435 N Clark St",
		"address2": "",
		"address3": "",
		"city": "Chicago",
		"state": "IL",
		"zip_code": "60654"
	},
	{
		"venue_id": "yelptaKKA87TcYh2ewg-_N-qXg",
		"venue_name": "Dak",
		"latitude": 41.9946798,
		"longitude": -87.6586452,
		"address1": "1104 W Granville Ave",
		"address2": "",
		"address3": "",
		"city": "Chicago",
		"state": "IL",
		"zip_code": "60660"
	},
	{
		"venue_id": "yelpd770VgA5S44qERqWS7WCFQ",
		"venue_name": "Lillie's Q",
		"latitude": 41.9106293802927,
		"longitude": -87.6748318970203,
		"address1": "1856 W North Ave",
		"address2": "",
		"address3": "",
		"city": "Chicago",
		"state": "IL",
		"zip_code": "60622"
	},
	{
		"venue_id": "yelpfQCVQyUNAsDZmdjebXwY3Q",
		"venue_name": "Sheffield's Wine & Beer Garden",
		"latitude": 41.94161,
		"longitude": -87.65455,
		"address1": "3258 N Sheffield Ave",
		"address2": "",
		"address3": "",
		"city": "Chicago",
		"state": "IL",
		"zip_code": "60657"
	},
	{
		"venue_id": "yelpNzTK1ZgqdzzOCbgxXWtvOg",
		"venue_name": "Gyu-Kaku Japanese BBQ",
		"latitude": 41.884454,
		"longitude": -87.661355,
		"address1": "1364 W Randolph St",
		"address2": null,
		"address3": "",
		"city": "Chicago",
		"state": "IL",
		"zip_code": "60607"
	},
	{
		"venue_id": "yelp_n3OmwreEGPQmiHKklsD8w",
		"venue_name": "San Soo Gab San",
		"latitude": 41.9775897881067,
		"longitude": -87.6887278533035,
		"address1": "5247 N Western Ave",
		"address2": "",
		"address3": "",
		"city": "Chicago",
		"state": "IL",
		"zip_code": "60625"
	},
	{
		"venue_id": "yelpzQnbP2dJoro12dk66RUXBA",
		"venue_name": "Blackwood BBQ",
		"latitude": 41.885604,
		"longitude": -87.63594,
		"address1": "307 W Lake St",
		"address2": "",
		"address3": "",
		"city": "Chicago",
		"state": "IL",
		"zip_code": "60606"
	},
	{
		"venue_id": "yelp60qudKwZHT6-UijNbGVNWw",
		"venue_name": "Southern Cut Barbeque",
		"latitude": 41.8994131791425,
		"longitude": -87.6220517233197,
		"address1": "198 E Delaware Pl",
		"address2": "",
		"address3": "",
		"city": "Chicago",
		"state": "IL",
		"zip_code": "60611"
	},
	{
		"venue_id": "yelp3Yw8i4DTPR5a7SpQJMMS9Q",
		"venue_name": "Honky Tonk BBQ",
		"latitude": 41.85779,
		"longitude": -87.65678,
		"address1": "1800 S Racine Ave",
		"address2": "",
		"address3": "",
		"city": "Chicago",
		"state": "IL",
		"zip_code": "60608"
	},
	{
		"venue_id": "yelpV14IpoI-vKw3i_a_waSQrw",
		"venue_name": "Gogi",
		"latitude": 41.995146,
		"longitude": -87.699895,
		"address1": "6240 N California Ave",
		"address2": "",
		"address3": "",
		"city": "Chicago",
		"state": "IL",
		"zip_code": "60659"
	},
	{
		"venue_id": "yelp05GwpjYAVdYBFoxUnSBZKQ",
		"venue_name": "Big Bricks",
		"latitude": 41.95127,
		"longitude": -87.67713,
		"address1": "3832 N Lincoln Ave",
		"address2": "",
		"address3": "",
		"city": "Chicago",
		"state": "IL",
		"zip_code": "60613"
	},
	{
		"venue_id": "yelpSx0CL_h4JitfC1qlsKAuMw",
		"venue_name": "Daebak Korean BBQ",
		"latitude": 41.85477,
		"longitude": -87.63257,
		"address1": "2017 S Wells St",
		"address2": "Fl 2",
		"address3": null,
		"city": "Chicago",
		"state": "IL",
		"zip_code": "60616"
	},
	{
		"venue_id": "yelpVLWOyf29p5DXfXYcdkkGGw",
		"venue_name": "Blackwood BBQ",
		"latitude": 41.881133,
		"longitude": -87.6411791,
		"address1": "28 S Clinton St",
		"address2": "",
		"address3": "",
		"city": "Chicago",
		"state": "IL",
		"zip_code": "60661"
	},
	{
		"venue_id": "yelpVafY2u6YqUdnPwhty9RMCQ",
		"venue_name": "Chicago Kalbi",
		"latitude": 41.9685599,
		"longitude": -87.72277,
		"address1": "3752 W Lawrence Ave",
		"address2": null,
		"address3": "",
		"city": "Chicago",
		"state": "IL",
		"zip_code": "60625"
	},
	{
		"venue_id": "yelpvWC4wd1bYO2e-6WvN94M0g",
		"venue_name": "Anmol Barbecue Restaurant",
		"latitude": 41.99779,
		"longitude": -87.70191,
		"address1": "2858 W Devon Ave",
		"address2": null,
		"address3": "",
		"city": "Chicago",
		"state": "IL",
		"zip_code": "60659"
	},
	{
		"venue_id": "yelprUjEFwZ_iF4rEKbgSVzXxQ",
		"venue_name": "Wrigley BBQ",
		"latitude": 41.9470478331265,
		"longitude": -87.6469349170569,
		"address1": "3555 N Broadway",
		"address2": "",
		"address3": "",
		"city": "Chicago",
		"state": "IL",
		"zip_code": "60657"
	},
	{
		"venue_id": "yelpGzTF1V0GKPTPgh_xMg5ExA",
		"venue_name": "Pork & Mindy's",
		"latitude": 41.91107,
		"longitude": -87.67809,
		"address1": "1623 N Milwaukee Ave",
		"address2": null,
		"address3": "",
		"city": "Chicago",
		"state": "IL",
		"zip_code": "60647"
	},
	{
		"venue_id": "yelp8vqQZqnr6el95FcvVQ7EFA",
		"venue_name": "Woo Chon Restaurant",
		"latitude": 41.9862647,
		"longitude": -87.6994549,
		"address1": "5744 N California Ave",
		"address2": "",
		"address3": "",
		"city": "Chicago",
		"state": "IL",
		"zip_code": "60659"
	},
	{
		"venue_id": "yelpwiNwVTH1-VuwaJiCDv5PRA",
		"venue_name": "The Piggery",
		"latitude": 41.953971,
		"longitude": -87.669979,
		"address1": "1625 W Irving Park Rd",
		"address2": "",
		"address3": "",
		"city": "Chicago",
		"state": "IL",
		"zip_code": "60613"
	},
	{
		"venue_id": "yelpKuCt5PnJhEGhDy2KKCgVMg",
		"venue_name": "Earl's BBQ",
		"latitude": 41.9687919460585,
		"longitude": -87.778013125062,
		"address1": "4835 N Austin",
		"address2": "",
		"address3": "",
		"city": "Chicago",
		"state": "IL",
		"zip_code": "60630"
	},
	{
		"venue_id": "yelpp8nvZAnNOqW8ojfhTnj0Kw",
		"venue_name": "Toons Bar & Grill",
		"latitude": 41.9524192810059,
		"longitude": -87.6637954711914,
		"address1": "3857 N Southport Ave",
		"address2": "",
		"address3": "",
		"city": "Chicago",
		"state": "IL",
		"zip_code": "60613"
	},
	{
		"venue_id": "yelpjQKdqHbV1MhivawvvA24dQ",
		"venue_name": "Jerk Modern Jamaican Grill",
		"latitude": 41.8963802,
		"longitude": -87.6482277,
		"address1": "811 W Chicago Ave",
		"address2": null,
		"address3": "",
		"city": "Chicago",
		"state": "IL",
		"zip_code": "60642"
	},
	{
		"venue_id": "yelpjQcaehu_CEUXPOCVZ4MSfg",
		"venue_name": "Milt's Barbecue for the Perplexed",
		"latitude": 41.9436696024963,
		"longitude": -87.6448920107288,
		"address1": "3411 N Broadway St",
		"address2": "",
		"address3": "",
		"city": "Chicago",
		"state": "IL",
		"zip_code": "60657"
	},
	{
		"venue_id": "yelp42fKxghGjTmoBaTsX0OiFg",
		"venue_name": "Ronny's Original Chicago Steak House",
		"latitude": 41.8856343261747,
		"longitude": -87.6311342039318,
		"address1": "100 W Randolph St",
		"address2": null,
		"address3": "",
		"city": "Chicago",
		"state": "IL",
		"zip_code": "60601"
	},
	{
		"venue_id": "yelpIFzqwKn-88ohRfhdLg4wKQ",
		"venue_name": "SoJu BBQ",
		"latitude": 41.8803115441906,
		"longitude": -87.6669892108769,
		"address1": "36 S Ashland",
		"address2": "",
		"address3": null,
		"city": "Chicago",
		"state": "IL",
		"zip_code": "60607"
	},
	{
		"venue_id": "yelpOyjfukD6Rnsv22VfhWwVVw",
		"venue_name": "Baobab Bbq",
		"latitude": 41.9757721760125,
		"longitude": -87.6869320124388,
		"address1": "2301 W Foster Ave",
		"address2": "",
		"address3": null,
		"city": "Chicago",
		"state": "IL",
		"zip_code": "60625"
	},
	{
		"venue_id": "yelpNy2AD3XwzpVrjDboiLM5lQ",
		"venue_name": "Harry Caray's Tavern -Navy Pier",
		"latitude": 41.8916034336946,
		"longitude": -87.6092710221137,
		"address1": "700 E Grand Ave",
		"address2": "",
		"address3": "",
		"city": "Chicago",
		"state": "IL",
		"zip_code": "60611"
	},
	{
		"venue_id": "yelp8M8d2xyjlER0G_6j9MQ-Kg",
		"venue_name": "Lockdown Smoked",
		"latitude": 41.90009,
		"longitude": -87.68733,
		"address1": "1022 N Western Ave",
		"address2": "",
		"address3": null,
		"city": "Chicago",
		"state": "IL",
		"zip_code": "60622"
	},
	{
		"venue_id": "yelpx5jeYKd5yvMO9lqq0egZpg",
		"venue_name": "BBQ King House",
		"latitude": 41.85371,
		"longitude": -87.63405,
		"address1": "2148 S Archer Ave",
		"address2": "",
		"address3": "",
		"city": "Chicago",
		"state": "IL",
		"zip_code": "60616"
	},
	{
		"venue_id": "yelpa3T4A05m8csinllU07vcDg",
		"venue_name": "Boulevard Sports Lounge",
		"latitude": 41.909963,
		"longitude": -87.693842,
		"address1": "2645 W North Ave",
		"address2": "",
		"address3": "",
		"city": "Chicago",
		"state": "IL",
		"zip_code": "60647"
	},
	{
		"venue_id": "yelpMnfr146Brl4PvvDdKv8LsA",
		"venue_name": "Old Crow Smokehouse",
		"latitude": 41.9458068,
		"longitude": -87.6555576,
		"address1": "3506 N Clark St",
		"address2": "",
		"address3": "",
		"city": "Chicago",
		"state": "IL",
		"zip_code": "60657"
	},
	{
		"venue_id": "yelpLoyzW0e61aUdgY0wQVrETw",
		"venue_name": "Little Lamb Hot Pot",
		"latitude": 41.8525993240592,
		"longitude": -87.6318716257811,
		"address1": "2201 S Wentworth Ave",
		"address2": null,
		"address3": "",
		"city": "Chicago",
		"state": "IL",
		"zip_code": "60616"
	},
	{
		"venue_id": "yelp5w_9_PZCuNv0qmbE9ipq6g",
		"venue_name": "Do Eat",
		"latitude": 41.83683,
		"longitude": -87.6459,
		"address1": "3141 S Halsted St",
		"address2": "",
		"address3": null,
		"city": "Chicago",
		"state": "IL",
		"zip_code": "60608"
	},
	{
		"venue_id": "yelpPNVshX58m5A6hNAjUIe3AQ",
		"venue_name": "PitchFork",
		"latitude": 41.9542694091797,
		"longitude": -87.7016983032227,
		"address1": "2922 W Irving Park Rd",
		"address2": "",
		"address3": "",
		"city": "Chicago",
		"state": "IL",
		"zip_code": "60618"
	},
	{
		"venue_id": "yelpqrzEI2XUVmrN2ku8qjH1tw",
		"venue_name": "Khan's BBQ",
		"latitude": 41.9974746704102,
		"longitude": -87.6902923583984,
		"address1": "2401 W Devon Ave",
		"address2": "",
		"address3": "",
		"city": "Chicago",
		"state": "IL",
		"zip_code": "60659"
	},
	{
		"venue_id": "yelpl6sShHJj-N6uCjImDm4hDQ",
		"venue_name": "Carson's",
		"latitude": 41.8909851,
		"longitude": -87.6149193,
		"address1": "465 E Illinois St",
		"address2": "",
		"address3": null,
		"city": "Chicago",
		"state": "IL",
		"zip_code": "60611"
	},
	{
		"venue_id": "yelp4hY_2UNFE2bLwoQ5_Y9s8w",
		"venue_name": "Leon's Barbeque",
		"latitude": 41.8104385,
		"longitude": -87.7104764,
		"address1": "4550 S Archer Ave",
		"address2": null,
		"address3": "",
		"city": "Chicago",
		"state": "IL",
		"zip_code": "60632"
	},
	{
		"venue_id": "yelpNcyUf4CkNB3vW01tN9pu1g",
		"venue_name": "Gyu-Kaku Japanese BBQ",
		"latitude": 41.93334,
		"longitude": -87.64439,
		"address1": "2813 North Broadway",
		"address2": "",
		"address3": null,
		"city": "Chicago",
		"state": "IL",
		"zip_code": "60657"
	},
	{
		"venue_id": "yelpj_2JD8QSpbF-pzUGcIqzwA",
		"venue_name": "Fireplace Inn",
		"latitude": 41.9091339111328,
		"longitude": -87.6350021362305,
		"address1": "1448 N Wells St",
		"address2": "",
		"address3": "",
		"city": "Chicago",
		"state": "IL",
		"zip_code": "60610"
	},
	{
		"venue_id": "yelpHVWCb4pQSPIqu1aOYHNp4g",
		"venue_name": "Mr. Gee's",
		"latitude": 41.9246826171875,
		"longitude": -87.7380599975586,
		"address1": "4436 W Fullerton",
		"address2": "",
		"address3": "",
		"city": "Chicago",
		"state": "IL",
		"zip_code": "60639"
	},
	{
		"venue_id": "yelpKa1t42ZaY14SelQTRGNvYA",
		"venue_name": "Blackwood BBQ",
		"latitude": 41.8871269226074,
		"longitude": -87.6232757568359,
		"address1": "233 N Michigan Ave",
		"address2": null,
		"address3": "",
		"city": "Chicago",
		"state": "IL",
		"zip_code": "60601"
	},
	{
		"venue_id": "yelpuKsmkLZETXitUV9RW5bP3g",
		"venue_name": "City's Edge Chicago",
		"latitude": 41.9975928291085,
		"longitude": -87.7612422779202,
		"address1": "5310 W Devon Ave",
		"address2": "",
		"address3": null,
		"city": "Chicago",
		"state": "IL",
		"zip_code": "60646"
	},
	{
		"venue_id": "yelpz_3LfLCLWSM8vaNvWOwUjA",
		"venue_name": "Smoke Daddy",
		"latitude": 41.947986,
		"longitude": -87.657552,
		"address1": "3636 N Clark St",
		"address2": "",
		"address3": null,
		"city": "Chicago",
		"state": "IL",
		"zip_code": "60613"
	},
	{
		"venue_id": "yelpgXqxpLJAPai9sEbuCbwhzA",
		"venue_name": "Song DO",
		"latitude": 41.9712699,
		"longitude": -87.6906,
		"address1": "4918 N Lincoln Ave",
		"address2": "",
		"address3": "",
		"city": "Chicago",
		"state": "IL",
		"zip_code": "60625"
	},
	{
		"venue_id": "yelpqcSj-9uQdU5CCrKTzVieRg",
		"venue_name": "King's Gyros 2",
		"latitude": 41.9755325317383,
		"longitude": -87.767204284668,
		"address1": "5233 N Milwaukee Ave",
		"address2": "",
		"address3": "",
		"city": "Chicago",
		"state": "IL",
		"zip_code": "60630"
	},
	{
		"venue_id": "yelpyqZJaFAN1mjVmUVCutvPTQ",
		"venue_name": "San Soo Korean Barbecue",
		"latitude": 41.88942,
		"longitude": -87.64452,
		"address1": "401 N Milwaukee Ave",
		"address2": "",
		"address3": null,
		"city": "Chicago",
		"state": "IL",
		"zip_code": "60654"
	},
	{
		"venue_id": "yelpFHHrWg5LHX5c5AL1tC5r0Q",
		"venue_name": "Casey Moran's",
		"latitude": 41.94862,
		"longitude": -87.65808,
		"address1": "3660 N Clark St",
		"address2": "",
		"address3": "",
		"city": "Chicago",
		"state": "IL",
		"zip_code": "60613"
	},
	{
		"venue_id": "yelpsYo4ePEiMC_wdH4wyezrJw",
		"venue_name": "Great Wall Chinese Restaurant",
		"latitude": 41.8544399,
		"longitude": -87.63322,
		"address1": "2127 S China Pl",
		"address2": "",
		"address3": "",
		"city": "Chicago",
		"state": "IL",
		"zip_code": "60616"
	},
	{
		"venue_id": "yelp2s9WB26-ga2kDcRML5Tjrw",
		"venue_name": "Uncle J's Bar B Que",
		"latitude": 41.8095870902484,
		"longitude": -87.6135802168497,
		"address1": "502 E 47th St",
		"address2": "",
		"address3": "",
		"city": "Chicago",
		"state": "IL",
		"zip_code": "60653"
	},
	{
		"venue_id": "yelpC8qNzVPoa6XezobByO5ObQ",
		"venue_name": "House of Blues Restaurant & Bar",
		"latitude": 41.88835,
		"longitude": -87.62881,
		"address1": "329 N Dearborn St",
		"address2": null,
		"address3": null,
		"city": "Chicago",
		"state": "IL",
		"zip_code": "60654"
	},
	{
		"venue_id": "yelpoda25GDqmwS4Hdp_IarIaA",
		"venue_name": "Honey 1 BBQ",
		"latitude": 41.81708,
		"longitude": -87.60707,
		"address1": "746 E 43rd St",
		"address2": "",
		"address3": "",
		"city": "Chicago",
		"state": "IL",
		"zip_code": "60653"
	},
	{
		"venue_id": "yelpsHxzNs8i3Nfv-nyt7UVARQ",
		"venue_name": "Boo-il Galbi Korean BBQ",
		"latitude": 41.9831649,
		"longitude": -87.7133279,
		"address1": "3346 W Bryn Mawr Ave",
		"address2": "",
		"address3": "",
		"city": "Chicago",
		"state": "IL",
		"zip_code": "60659"
	},
	{
		"venue_id": "yelpkbNwT6ifWRCtNGwOMujKDA",
		"venue_name": "Lucky Dorr",
		"latitude": 41.948787,
		"longitude": -87.657016,
		"address1": "1101 W Waveland Ave",
		"address2": null,
		"address3": "",
		"city": "Chicago",
		"state": "IL",
		"zip_code": "60613"
	},
	{
		"venue_id": "yelpy8GOpmsFxjbNOb-QP8hfwg",
		"venue_name": "Old Crow Smokehouse River North",
		"latitude": 41.88889,
		"longitude": -87.63306,
		"address1": "149 W Kinzie St",
		"address2": "",
		"address3": "",
		"city": "Chicago",
		"state": "IL",
		"zip_code": "60654"
	},
	{
		"venue_id": "yelpPVf_DfBnt-IxPBbpSavsYw",
		"venue_name": "Chef Daddy's",
		"latitude": 41.888097120654,
		"longitude": -87.7740612283067,
		"address1": "5944 W Lake St",
		"address2": null,
		"address3": "",
		"city": "Chicago",
		"state": "IL",
		"zip_code": "60644"
	},
	{
		"venue_id": "yelpQ-u8C-xY6xSaS9rvtEqIyQ",
		"venue_name": "County Barbeque",
		"latitude": 41.86958,
		"longitude": -87.66115,
		"address1": "1352 W Taylor St",
		"address2": null,
		"address3": "",
		"city": "Chicago",
		"state": "IL",
		"zip_code": "60607"
	},
	{
		"venue_id": "yelp1827vWU4Km8yHjZ6vaRoCA",
		"venue_name": "Uptown Pizza & BBQ",
		"latitude": 41.9652951,
		"longitude": -87.6561249,
		"address1": "1031 W Wilson Ave",
		"address2": "",
		"address3": "",
		"city": "Chicago",
		"state": "IL",
		"zip_code": "60640"
	},
	{
		"venue_id": "yelp8H5x-CiiNXMnM2bcLom42g",
		"venue_name": "Ben's Bar-Be-Cue Restaurant",
		"latitude": 41.9091361,
		"longitude": -87.7745275,
		"address1": "5931 W North Ave",
		"address2": "",
		"address3": "",
		"city": "Chicago",
		"state": "IL",
		"zip_code": "60639"
	},
	{
		"venue_id": "yelp9JMlIcZ5B5xsY4HT9q2kSQ",
		"venue_name": "Just Turkey",
		"latitude": 41.8156705,
		"longitude": -87.6065551,
		"address1": "4353 S Cottage Grove",
		"address2": "",
		"address3": "",
		"city": "Chicago",
		"state": "IL",
		"zip_code": "60653"
	},
	{
		"venue_id": "yelplK0IiJc7OwaSQDSQv2XWdA",
		"venue_name": "Cigars & Stripes BBQ Lounge",
		"latitude": 41.82815,
		"longitude": -87.79098,
		"address1": "6715 Ogden Ave",
		"address2": "",
		"address3": "",
		"city": "Berwyn",
		"state": "IL",
		"zip_code": "60402"
	},
	{
		"venue_id": "yelpDQudA1BXKkgmxphB6r841g",
		"venue_name": "Sam's Chicken & Ribs",
		"latitude": 41.9946365,
		"longitude": -87.6584816,
		"address1": "1102 W Granville Ave",
		"address2": "",
		"address3": "",
		"city": "Chicago",
		"state": "IL",
		"zip_code": "60660"
	},
	{
		"venue_id": "yelpy-pzOqhEpkthmS7xmDasww",
		"venue_name": "Sweet Virginia's Kitchen",
		"latitude": 41.9757173402054,
		"longitude": -87.6791458949447,
		"address1": "5131 N Damen Ave",
		"address2": "",
		"address3": null,
		"city": "Chicago",
		"state": "IL",
		"zip_code": "60625"
	},
	{
		"venue_id": "yelprjj4qQ4H2XwQdUcOcvrFzw",
		"venue_name": "Alice Bar-B-Que",
		"latitude": 41.8163798,
		"longitude": -87.6241377,
		"address1": "65 E 43rd St",
		"address2": "",
		"address3": "",
		"city": "Chicago",
		"state": "IL",
		"zip_code": "60653"
	},
	{
		"venue_id": "yelpyKVQTt7xA-2dtMK9HgUDUg",
		"venue_name": "Coleman's Bar-B-Que No 2",
		"latitude": 41.894871,
		"longitude": -87.769992,
		"address1": "5754 W Chicago Ave",
		"address2": "",
		"address3": "",
		"city": "Chicago",
		"state": "IL",
		"zip_code": "60651"
	},
	{
		"venue_id": "yelpdEcjRzLUhvAo7dMYKiujGg",
		"venue_name": "Original Pakiza Restaurant",
		"latitude": 41.9008866,
		"longitude": -87.6371847,
		"address1": "1011 N Orleans St",
		"address2": "",
		"address3": "",
		"city": "Chicago",
		"state": "IL",
		"zip_code": "60610"
	},
	{
		"venue_id": "yelpNTSwwdfo07y4vtsmWM2mPg",
		"venue_name": "Light House Restaurant - Deung Dae",
		"latitude": 41.98257,
		"longitude": -87.70916,
		"address1": "5542 N Kedzie Ave",
		"address2": "",
		"address3": "",
		"city": "Chicago",
		"state": "IL",
		"zip_code": "60625"
	},
	{
		"venue_id": "yelpGhrs1zyCTPgVH8rI5JLwMA",
		"venue_name": "Mickey's Gyros & Ribs",
		"latitude": 41.8915405273438,
		"longitude": -87.8048400878906,
		"address1": "525 N Harlem Ave",
		"address2": "",
		"address3": "",
		"city": "Oak Park",
		"state": "IL",
		"zip_code": "60302"
	},
	{
		"venue_id": "yelpRSsNYHnDvPx1gJ3wi2V8dg",
		"venue_name": "Smoque",
		"latitude": 41.8795683950925,
		"longitude": -87.6304205413995,
		"address1": "125 S Clark St",
		"address2": "Revival Food Hall",
		"address3": null,
		"city": "Chicago",
		"state": "IL",
		"zip_code": "60603"
	},
	{
		"venue_id": "yelpFTc6V2N52gODHjBlKS15LQ",
		"venue_name": "City Barbeque",
		"latitude": 41.85071,
		"longitude": -87.80155,
		"address1": "7108 W Cermak Rd",
		"address2": "",
		"address3": null,
		"city": "Berwyn",
		"state": "IL",
		"zip_code": "60402"
	},
	{
		"venue_id": "yelp_yw3z7PqyZ8GxoRVSHmPsA",
		"venue_name": "Sam's Chicken and Ribs",
		"latitude": 41.939955,
		"longitude": -87.7126249,
		"address1": "3220 N Kimball Ave",
		"address2": "",
		"address3": null,
		"city": "Chicago",
		"state": "IL",
		"zip_code": "60618"
	},
	{
		"venue_id": "yelp_YW_Hf6wgpfT6aL7-jOMGA",
		"venue_name": "Broasted Chicken Royal",
		"latitude": 41.96793,
		"longitude": -87.77596,
		"address1": "5930 W Lawrence Ave",
		"address2": "",
		"address3": "",
		"city": "Chicago",
		"state": "IL",
		"zip_code": "60630"
	},
	{
		"venue_id": "yelpJMOZd4mIgMyMDPr8eCmUUQ",
		"venue_name": "Bbq King House",
		"latitude": 41.85064,
		"longitude": -87.63218,
		"address1": "2306 S Wentworth Ave",
		"address2": "",
		"address3": "",
		"city": "Chicago",
		"state": "IL",
		"zip_code": "60616"
	},
	{
		"venue_id": "yelpBC_iXLVOQvMuNoW3EkCD6A",
		"venue_name": "Bro-N-Laws Bar-B-Q",
		"latitude": 41.89569,
		"longitude": -87.72207,
		"address1": "3820 W Chicago Ave",
		"address2": "",
		"address3": "",
		"city": "Chicago",
		"state": "IL",
		"zip_code": "60654"
	},
	{
		"venue_id": "yelpQsswpw8ujfNG2U-pSVo48w",
		"venue_name": "LongHorn Steakhouse",
		"latitude": 41.9555099,
		"longitude": -87.80466,
		"address1": "7070 W Forest Preserve Dr",
		"address2": null,
		"address3": "",
		"city": "Norridge",
		"state": "IL",
		"zip_code": "60706"
	},
	{
		"venue_id": "yelpESyDB2ssOvHzMpALZlziiw",
		"venue_name": "Robinson's No. 1 Ribs",
		"latitude": 41.878518,
		"longitude": -87.638852,
		"address1": "225 S Canal St",
		"address2": "",
		"address3": "",
		"city": "Chicago",
		"state": "IL",
		"zip_code": "60606"
	},
	{
		"venue_id": "yelpsBuii1hMLpDWwTI7-XwTmA",
		"venue_name": "Windy City Ribs",
		"latitude": 41.85265,
		"longitude": -87.62438,
		"address1": "67 E Cermak Rd",
		"address2": null,
		"address3": "",
		"city": "Chicago",
		"state": "IL",
		"zip_code": "60616"
	},
	{
		"venue_id": "yelpQzryTgBjj_plB9OV_TeUTA",
		"venue_name": "Uncle Remus",
		"latitude": 41.8093963766001,
		"longitude": -87.6073659560809,
		"address1": "737 E 47th St",
		"address2": "",
		"address3": "",
		"city": "Chicago",
		"state": "IL",
		"zip_code": "60653"
	},
	{
		"venue_id": "yelpKV1MZzaPHhdxsUyCrt99aQ",
		"venue_name": "Famous Dave's Bar-B-Que",
		"latitude": 41.84606,
		"longitude": -87.80609,
		"address1": "7201 W 25th St",
		"address2": "",
		"address3": "",
		"city": "North Riverside",
		"state": "IL",
		"zip_code": "60546"
	},
	{
		"venue_id": "yelp4eCdzTKaHjsToPE-bPx2CA",
		"venue_name": "Smokin M's",
		"latitude": 41.8649748,
		"longitude": -87.8118179,
		"address1": "7507 W Roosevelt Rd",
		"address2": "",
		"address3": "",
		"city": "Forest Park",
		"state": "IL",
		"zip_code": "60130"
	},
	{
		"venue_id": "yelpbN8B7Cq9iUH_TkKVUAaTmQ",
		"venue_name": "Q-BBQ",
		"latitude": 41.8881,
		"longitude": -87.80202,
		"address1": "124 N Marion St",
		"address2": null,
		"address3": "",
		"city": "Oak Park",
		"state": "IL",
		"zip_code": "60301"
	},
	{
		"venue_id": "yelp7StPHdmTHUeTQ9HEykPzQw",
		"venue_name": "CFA Clubhouse",
		"latitude": 41.9932767,
		"longitude": -87.6703349,
		"address1": "6122 N Clark St",
		"address2": null,
		"address3": null,
		"city": "Chicago",
		"state": "IL",
		"zip_code": "60660"
	},
	{
		"venue_id": "yelpEc66eZTebgCBt0RFNrY2Dw",
		"venue_name": "Porkchop",
		"latitude": 41.8693247,
		"longitude": -87.6323807,
		"address1": "1017 S Delano Ct",
		"address2": "",
		"address3": null,
		"city": "Chicago",
		"state": "IL",
		"zip_code": "60605"
	},
	{
		"venue_id": "yelpdp6vmmfvp4GBnuwF0gZiZw",
		"venue_name": "Mary's Bar-B-Que",
		"latitude": 41.8731871,
		"longitude": -87.7256049,
		"address1": "606 S Pulaski Rd",
		"address2": "",
		"address3": "",
		"city": "Chicago",
		"state": "IL",
		"zip_code": "60624"
	},
	{
		"venue_id": "yelpfUVdFkDBm1OCrj0WmaEXlg",
		"venue_name": "LongHorn Steakhouse",
		"latitude": 41.849997,
		"longitude": -87.802389,
		"address1": "7115 Cermak Rd",
		"address2": "",
		"address3": "",
		"city": "Berwyn",
		"state": "IL",
		"zip_code": "60402"
	},
	{
		"venue_id": "yelpBCu48ghagHOgtT3Gmsatcw",
		"venue_name": "6 Corners BBQ Fest",
		"latitude": 41.9534423947334,
		"longitude": -87.7474808692932,
		"address1": "4000 N Milwaukee Ave",
		"address2": "",
		"address3": "",
		"city": "Chicago",
		"state": "IL",
		"zip_code": "60641"
	},
	{
		"venue_id": "yelp6QOnF49WYTyHphAv1pqmlA",
		"venue_name": "Korean BBQ House",
		"latitude": 41.9828577,
		"longitude": -87.7119044,
		"address1": "3315 W Bryn Mawr Ave",
		"address2": "",
		"address3": "",
		"city": "Chicago",
		"state": "IL",
		"zip_code": "60659"
	},
	{
		"venue_id": "yelp2cT_qOCagNID2F3UJE63zQ",
		"venue_name": "House of Ribs",
		"latitude": 41.9651985,
		"longitude": -87.6615753,
		"address1": "1265 W Wilson Ave",
		"address2": "",
		"address3": "",
		"city": "Chicago",
		"state": "IL",
		"zip_code": "60640"
	},
	{
		"venue_id": "yelp2rdEQyQ_z3YFOFfwbdgg6A",
		"venue_name": "Pork & Mindy's",
		"latitude": 41.8864714045914,
		"longitude": -87.6344103366137,
		"address1": "205 W Wacker Dr",
		"address2": "",
		"address3": null,
		"city": "Chicago",
		"state": "IL",
		"zip_code": "60606"
	},
	{
		"venue_id": "yelp9jFFLtQukmPeG1eXWRA2rw",
		"venue_name": "Robinson's No 1 Ribs",
		"latitude": 41.879905,
		"longitude": -87.798812,
		"address1": "940 Madison St",
		"address2": "",
		"address3": "",
		"city": "Oak Park",
		"state": "IL",
		"zip_code": "60302"
	},
	{
		"venue_id": "yelp_Q9DxbPGroxs9OvmmwvphA",
		"venue_name": "Joe's Barbeque & Fish",
		"latitude": 41.88087,
		"longitude": -87.74796,
		"address1": "4900 W Madison St",
		"address2": "",
		"address3": "",
		"city": "Chicago",
		"state": "IL",
		"zip_code": "60644"
	},
	{
		"venue_id": "yelpJBBtwd2Bfmnkh16zRtqDWA",
		"venue_name": "NO 1 BBQ",
		"latitude": 41.8493114594906,
		"longitude": -87.6320396172142,
		"address1": "2358 S Wentworth Ave",
		"address2": "",
		"address3": null,
		"city": "Chicago",
		"state": "IL",
		"zip_code": "60616"
	},
	{
		"venue_id": "yelpN2SsckGjbNIw6tjuEgCRxQ",
		"venue_name": "Pit Zone BBQ",
		"latitude": 41.8650954371238,
		"longitude": -87.8064831481481,
		"address1": "7247 W Roosevelt Rd",
		"address2": "",
		"address3": null,
		"city": "Forest Park",
		"state": "IL",
		"zip_code": "60130"
	},
	{
		"venue_id": "yelpgqj1UuYvIbIFodJoRjwThQ",
		"venue_name": "Flat & Point",
		"latitude": 41.923787,
		"longitude": -87.632165,
		"address1": "2300 N Lake Shore Dr",
		"address2": null,
		"address3": "",
		"city": "Chicago",
		"state": "IL",
		"zip_code": "60614"
	},
	{
		"venue_id": "yelpD3YYc7j3D_OEzV7ngH9Clw",
		"venue_name": "Chicago All Fired Up",
		"latitude": 41.8842506408691,
		"longitude": -87.6324462890625,
		"address1": "",
		"address2": "",
		"address3": "",
		"city": "Chicago",
		"state": "IL",
		"zip_code": ""
	},
	{
		"venue_id": "yelpnOnbGSDnro7QG79W1rJEtQ",
		"venue_name": "Uncle Remus Chicken & Barbeque",
		"latitude": 41.8808817788672,
		"longitude": -87.7320966635588,
		"address1": "4236 W Madison St",
		"address2": "",
		"address3": "",
		"city": "Chicago",
		"state": "IL",
		"zip_code": "60624"
	},
	{
		"venue_id": "yelpZ5WvtdVLwSWBCgu1hW2DFg",
		"venue_name": "The Chicago Rib House",
		"latitude": 41.823989,
		"longitude": -87.622619,
		"address1": "3851 S Michigan Ave",
		"address2": null,
		"address3": "",
		"city": "Chicago",
		"state": "IL",
		"zip_code": "60653"
	},
	{
		"venue_id": "yelpqHQqbrMtweL0P9n_yxqnbw",
		"venue_name": "Southern Cut Cafe",
		"latitude": 41.88949,
		"longitude": -87.62893,
		"address1": "20 W Kinzie St",
		"address2": "",
		"address3": null,
		"city": "Chicago",
		"state": "IL",
		"zip_code": "60654"
	},
	{
		"venue_id": "yelpUCnk61ItGBQHkU6fetibUw",
		"venue_name": "The Original Leon's",
		"latitude": 41.810627,
		"longitude": -87.710465,
		"address1": "4550 S Archer Ave",
		"address2": "",
		"address3": null,
		"city": "Chicago",
		"state": "IL",
		"zip_code": "60632"
	},
	{
		"venue_id": "yelpuv_JIiTYjxppKqEIWZ5osA",
		"venue_name": "Windy City BBQ",
		"latitude": 41.9228785,
		"longitude": -87.6873915,
		"address1": "2241 N Western Ave",
		"address2": "",
		"address3": null,
		"city": "Chicago",
		"state": "IL",
		"zip_code": "60647"
	},
	{
		"venue_id": "yelpE1fKj98gnCjdVad1v8ylkA",
		"venue_name": "C & D BBQ",
		"latitude": 41.9022849,
		"longitude": -87.765905,
		"address1": "5604 W Division",
		"address2": "",
		"address3": "",
		"city": "Chicago",
		"state": "IL",
		"zip_code": "60651"
	},
	{
		"venue_id": "yelpckBCr-WuhMp8ds_vcyqeWw",
		"venue_name": "Nuestro Mexico Lindo",
		"latitude": 41.8393846,
		"longitude": -87.7241367,
		"address1": "2839 S Pulaski",
		"address2": "",
		"address3": null,
		"city": "Chicago",
		"state": "IL",
		"zip_code": "60623"
	},
	{
		"venue_id": "yelp-buKDj4GNYPrqYu3fBmJxw",
		"venue_name": "Old Habits",
		"latitude": 41.9356115032906,
		"longitude": -87.6975934579968,
		"address1": "",
		"address2": "2959 N California Ave",
		"address3": null,
		"city": "Chicago",
		"state": "IL",
		"zip_code": "60618"
	},
	{
		"venue_id": "yelpM_SHmR8bK9fV7q3mY1lADQ",
		"venue_name": "I 94 Rib and Grill",
		"latitude": 41.8089333,
		"longitude": -87.6343231,
		"address1": "325 W 47th St",
		"address2": "",
		"address3": "",
		"city": "Chicago",
		"state": "IL",
		"zip_code": "60609"
	},
	{
		"venue_id": "yelp6n3jFoC-68eiq9XIKfu0OQ",
		"venue_name": "Wing Wah Restaurant",
		"latitude": 41.83297,
		"longitude": -87.80327,
		"address1": "3222 Harlem Ave",
		"address2": "",
		"address3": "",
		"city": "Riverside",
		"state": "IL",
		"zip_code": "60546"
	},
	{
		"venue_id": "yelpWSkUEz-2KCuSOewo-1IV4g",
		"venue_name": "BarBQ Tonite",
		"latitude": 41.9967931149086,
		"longitude": -87.6911350578558,
		"address1": "6348 N Artesian Ave",
		"address2": null,
		"address3": "",
		"city": "Chicago",
		"state": "IL",
		"zip_code": "60659"
	},
	{
		"venue_id": "yelppLzG9tW2f4NvqrjPtsiMhw",
		"venue_name": "Korean Polish BBQ @ Maria's",
		"latitude": 41.838188,
		"longitude": -87.651161,
		"address1": "960 W 31st St",
		"address2": "",
		"address3": "",
		"city": "Chicago",
		"state": "IL",
		"zip_code": "60608"
	},
	{
		"venue_id": "yelpnSzYpBpFfnv1jdzo0qLHZg",
		"venue_name": "Joe's BBQ",
		"latitude": 41.9091151,
		"longitude": -87.774575,
		"address1": "5931 W North Ave",
		"address2": "",
		"address3": "",
		"city": "Chicago",
		"state": "IL",
		"zip_code": "60639"
	},
	{
		"venue_id": "yelpPaMI9aEK7_VBhEf6ia7JgQ",
		"venue_name": "Stix to Your Ribs",
		"latitude": 41.8842506408691,
		"longitude": -87.6324462890625,
		"address1": "",
		"address2": "",
		"address3": "",
		"city": "Chicago",
		"state": "IL",
		"zip_code": ""
	},
	{
		"venue_id": "yelpYqAGq18RAWvxIRM_q5zqYw",
		"venue_name": "Auntie Remus Chicken Rib Factory",
		"latitude": 41.909191,
		"longitude": -87.756264,
		"address1": "5215 W North Ave",
		"address2": "",
		"address3": "",
		"city": "Chicago",
		"state": "IL",
		"zip_code": "60651"
	},
	{
		"venue_id": "yelp9XCak04iElzrV4n0TD4m6Q",
		"venue_name": "Rib Place",
		"latitude": 41.8871155,
		"longitude": -87.7655258,
		"address1": "5607 W Corcoran Pl",
		"address2": "",
		"address3": "",
		"city": "Chicago",
		"state": "IL",
		"zip_code": "60644"
	}
]