[
	{
		"venue_id": "yelpdux6UvpMGJuHquFA3JfR3A",
		"venue_name": "Green Street Smoked Meats",
		"latitude": 41.883623,
		"longitude": -87.648907,
		"address1": "112 N Green St",
		"address2": null,
		"address3": "",
		"city": "Chicago",
		"state": "IL",
		"zip_code": "60607"
	},
	{
		"venue_id": "yelp9mhqcimD0CYvqxzfj_VXnQ",
		"venue_name": "Little Bad Wolf",
		"latitude": 41.9833823855364,
		"longitude": -87.6690510144549,
		"address1": "1541 W Bryn Mawr Ave",
		"address2": "",
		"address3": "",
		"city": "Chicago",
		"state": "IL",
		"zip_code": "60660"
	},
	{
		"venue_id": "yelpGEpXn9rtTMtIj5NsGFiNQw",
		"venue_name": "The Bad Apple",
		"latitude": 41.959767,
		"longitude": -87.682822,
		"address1": "4300 N Lincoln Ave",
		"address2": "",
		"address3": "",
		"city": "Chicago",
		"state": "IL",
		"zip_code": "60618"
	},
	{
		"venue_id": "yelpoCTlReyKjJxKPFYfCurxxQ",
		"venue_name": "Lockdown Bar & Grill",
		"latitude": 41.90017,
		"longitude": -87.687275,
		"address1": "1024 N Western Ave",
		"address2": null,
		"address3": "",
		"city": "Chicago",
		"state": "IL",
		"zip_code": "60622"
	},
	{
		"venue_id": "yelp2JL3x0PBm7CCF3zMuYfD7A",
		"venue_name": "Rootstock Wine & Beer Bar",
		"latitude": 41.899035,
		"longitude": -87.696951,
		"address1": "954 N California Ave",
		"address2": "",
		"address3": "",
		"city": "Chicago",
		"state": "IL",
		"zip_code": "60622"
	},
	{
		"venue_id": "yelpVCLQpc78prtGTxJAKjz-Ow",
		"venue_name": "First Draft",
		"latitude": 41.873437,
		"longitude": -87.630308,
		"address1": "649 S Clark St",
		"address2": "",
		"address3": "",
		"city": "Chicago",
		"state": "IL",
		"zip_code": "60605"
	},
	{
		"venue_id": "yelpr4iweDMqH0NGdPIZ53Buuw",
		"venue_name": "Maria's Packaged Goods and Community Bar",
		"latitude": 41.83818,
		"longitude": -87.65116,
		"address1": "960 W 31st St",
		"address2": "",
		"address3": "",
		"city": "Chicago",
		"state": "IL",
		"zip_code": "60608"
	},
	{
		"venue_id": "yelpkNyNZE7-6vgrMtaeS1sOVw",
		"venue_name": "Links Taproom",
		"latitude": 41.9098596489117,
		"longitude": -87.6763864489499,
		"address1": "1559 N Milwaukee Ave",
		"address2": "",
		"address3": "",
		"city": "Chicago",
		"state": "IL",
		"zip_code": "60622"
	},
	{
		"venue_id": "yelpAxWlIqLC9qwNcZ67RSh1gQ",
		"venue_name": "Roots Handmade Pizza",
		"latitude": 41.8962,
		"longitude": -87.67565,
		"address1": "1924 W Chicago Ave",
		"address2": "",
		"address3": "",
		"city": "Chicago",
		"state": "IL",
		"zip_code": "60622"
	},
	{
		"venue_id": "yelpqizzFBua15kSbWB48T8XGg",
		"venue_name": "Public House",
		"latitude": 41.8893653140557,
		"longitude": -87.6282758306885,
		"address1": "400 N State St",
		"address2": "",
		"address3": "",
		"city": "Chicago",
		"state": "IL",
		"zip_code": "60654"
	},
	{
		"venue_id": "yelpfM7wQZVC1DRxU6OXgaAmhw",
		"venue_name": "Four Moon Tavern",
		"latitude": 41.943149,
		"longitude": -87.675881,
		"address1": "1847 W Roscoe St",
		"address2": "",
		"address3": "",
		"city": "Chicago",
		"state": "IL",
		"zip_code": "60657"
	},
	{
		"venue_id": "yelphiJMiKoyP24G-0oILI8d3w",
		"venue_name": "Tavern at the Park",
		"latitude": 41.884633450002,
		"longitude": -87.6236779994751,
		"address1": "130 E Randolph St",
		"address2": "",
		"address3": "",
		"city": "Chicago",
		"state": "IL",
		"zip_code": "60601"
	},
	{
		"venue_id": "yelp5wQRq6-dyKyfkStKDiEETQ",
		"venue_name": "Beermiscuous",
		"latitude": 41.932827,
		"longitude": -87.659398,
		"address1": "2812 N Lincoln Ave",
		"address2": "",
		"address3": "",
		"city": "Chicago",
		"state": "IL",
		"zip_code": "60657"
	},
	{
		"venue_id": "yelpw7DTxXHFOmEeULKI5m4LVQ",
		"venue_name": "Navigator Taproom",
		"latitude": 41.9211288,
		"longitude": -87.6941778,
		"address1": "2211 N Milwaukee Ave",
		"address2": "Ste 100",
		"address3": "",
		"city": "Chicago",
		"state": "IL",
		"zip_code": "60647"
	},
	{
		"venue_id": "yelpzwEvkkliEdhDcRZtnHO2JA",
		"venue_name": "Centennial Crafted Beer & Eatery",
		"latitude": 41.8958299,
		"longitude": -87.63235,
		"address1": "733 N LaSalle Dr",
		"address2": null,
		"address3": "",
		"city": "Chicago",
		"state": "IL",
		"zip_code": "60654"
	},
	{
		"venue_id": "yelpNbRDTilOiJ4gllnSKjlffQ",
		"venue_name": "Morton's The Steakhouse",
		"latitude": 41.9015537007266,
		"longitude": -87.628768,
		"address1": "1050 N State St",
		"address2": "",
		"address3": "",
		"city": "Chicago",
		"state": "IL",
		"zip_code": "60610"
	},
	{
		"venue_id": "yelpdkTxj40vdNfdhDCyiKHlrg",
		"venue_name": "Local Option",
		"latitude": 41.921953,
		"longitude": -87.656166,
		"address1": "1102 W Webster Ave",
		"address2": "",
		"address3": "",
		"city": "Chicago",
		"state": "IL",
		"zip_code": "60614"
	},
	{
		"venue_id": "yelpqjD9L53B_pcgqVFw5z_GzA",
		"venue_name": "Prost",
		"latitude": 41.9284362792969,
		"longitude": -87.6533889770508,
		"address1": "2566 N Lincoln Ave",
		"address2": "",
		"address3": "",
		"city": "Chicago",
		"state": "IL",
		"zip_code": "60614"
	},
	{
		"venue_id": "yelpN1cpx4ITHR0yuTFM6NfVOg",
		"venue_name": "Fifolet",
		"latitude": 41.90351,
		"longitude": -87.67653,
		"address1": "1942 W Division St",
		"address2": null,
		"address3": "",
		"city": "Chicago",
		"state": "IL",
		"zip_code": "60622"
	},
	{
		"venue_id": "yelprBLaFoUqw0Bd18XkDgmltQ",
		"venue_name": "The Beer Temple",
		"latitude": 41.9388459,
		"longitude": -87.6972297,
		"address1": "3173 N Elston Ave",
		"address2": "",
		"address3": "",
		"city": "Chicago",
		"state": "IL",
		"zip_code": "60618"
	},
	{
		"venue_id": "yelpgEM09EpPbvYTZWsAK9TE-g",
		"venue_name": "Bitter Pops",
		"latitude": 41.94289,
		"longitude": -87.67049,
		"address1": "3345 N Lincoln Ave",
		"address2": "",
		"address3": "",
		"city": "Chicago",
		"state": "IL",
		"zip_code": "60657"
	},
	{
		"venue_id": "yelpLiiqteXtHGwXOVy7rF2rjQ",
		"venue_name": "The Double Tavern",
		"latitude": 41.9245086093512,
		"longitude": -87.7154904576721,
		"address1": "3545 W Fullerton Ave",
		"address2": "",
		"address3": "",
		"city": "Chicago",
		"state": "IL",
		"zip_code": "60647"
	},
	{
		"venue_id": "yelpJ-jDDJYyPPsLg84jbJntfA",
		"venue_name": "Village Tap",
		"latitude": 41.94292,
		"longitude": -87.68061,
		"address1": "2055 W Roscoe St",
		"address2": "",
		"address3": "",
		"city": "Chicago",
		"state": "IL",
		"zip_code": "60618"
	},
	{
		"venue_id": "yelpTr2b8s55GDgx7cz2VbWC8w",
		"venue_name": "The Harding Tavern",
		"latitude": 41.9308003,
		"longitude": -87.7102403,
		"address1": "2732 N Milwaukee Ave",
		"address2": "",
		"address3": "",
		"city": "Chicago",
		"state": "IL",
		"zip_code": "60647"
	},
	{
		"venue_id": "yelpPYIa6zNZVT49A-6MvnTcqA",
		"venue_name": "Off Color Mousetrap",
		"latitude": 41.9076406645494,
		"longitude": -87.6514839216106,
		"address1": "1460 N Kingsbury St",
		"address2": "",
		"address3": null,
		"city": "Chicago",
		"state": "IL",
		"zip_code": "60642"
	},
	{
		"venue_id": "yelpI5ULv5yFurLfCTrIQTdKZQ",
		"venue_name": "Fisk & Co.",
		"latitude": 41.88654,
		"longitude": -87.62601,
		"address1": "225 N Wabash Ave",
		"address2": null,
		"address3": "",
		"city": "Chicago",
		"state": "IL",
		"zip_code": "60601"
	},
	{
		"venue_id": "yelpFFS2APAuCw0E5n7lXk4F5w",
		"venue_name": "Remedy",
		"latitude": 41.9160385131836,
		"longitude": -87.6866683959961,
		"address1": "1910 N Milwaukee Ave",
		"address2": "",
		"address3": null,
		"city": "Chicago",
		"state": "IL",
		"zip_code": "60647"
	},
	{
		"venue_id": "yelp0XWCt0FnJKkhfi_4w3pYNQ",
		"venue_name": "Broken English Taco Pub -\u00a0Old Town",
		"latitude": 41.9077814189061,
		"longitude": -87.6348029987569,
		"address1": "1400 N. Wells St",
		"address2": "",
		"address3": null,
		"city": "Chicago",
		"state": "IL",
		"zip_code": "60610"
	},
	{
		"venue_id": "yelpSkfDvwBmc8bkP-N59dc-gA",
		"venue_name": "The Green Lady",
		"latitude": 41.942274,
		"longitude": -87.670812,
		"address1": "3328 N Lincoln Ave",
		"address2": "",
		"address3": "",
		"city": "Chicago",
		"state": "IL",
		"zip_code": "60657"
	},
	{
		"venue_id": "yelpUzFBm9hEru_WwXg6pERbVQ",
		"venue_name": "HopCat",
		"latitude": 41.9297742,
		"longitude": -87.6428134,
		"address1": "2577 N Clark St",
		"address2": "",
		"address3": null,
		"city": "Chicago",
		"state": "IL",
		"zip_code": "60614"
	},
	{
		"venue_id": "yelphZ64aFe4-4ClppyFdpNNcQ",
		"venue_name": "Ironside Bar & Galley",
		"latitude": 41.8920293169464,
		"longitude": -87.6342369988561,
		"address1": "546 N Wells St",
		"address2": "",
		"address3": null,
		"city": "Chicago",
		"state": "IL",
		"zip_code": "60654"
	},
	{
		"venue_id": "yelpmBG17MKjI3TNwYew5dzdyQ",
		"venue_name": "The Moonlighter",
		"latitude": 41.91766,
		"longitude": -87.70738,
		"address1": "3204 W Armitage Ave",
		"address2": "",
		"address3": null,
		"city": "Chicago",
		"state": "IL",
		"zip_code": "60647"
	},
	{
		"venue_id": "yelp6SSfHqcaMlaxKvVIqRP79A",
		"venue_name": "DMen Tap",
		"latitude": 41.93911,
		"longitude": -87.69973,
		"address1": "2849 W Belmont Ave",
		"address2": "",
		"address3": null,
		"city": "Chicago",
		"state": "IL",
		"zip_code": "60618"
	},
	{
		"venue_id": "yelpfE_gxgeU4z8oDjQ-V8YJtg",
		"venue_name": "Golden Crust Pizza & Tap",
		"latitude": 41.96539,
		"longitude": -87.7086999,
		"address1": "4620 N Kedzie Ave",
		"address2": "",
		"address3": "",
		"city": "Chicago",
		"state": "IL",
		"zip_code": "60625"
	},
	{
		"venue_id": "yelpVIojEv4Vucr7tmgJjO_8nw",
		"venue_name": "Frietkoten Belgian Fries & Beer",
		"latitude": 41.8842199591045,
		"longitude": -87.6407377607133,
		"address1": "131 N Clinton St",
		"address2": "",
		"address3": "",
		"city": "Chicago",
		"state": "IL",
		"zip_code": "60606"
	},
	{
		"venue_id": "yelpbrdZkxLUNZiTMP6ds3DfXg",
		"venue_name": "Weeds Tavern",
		"latitude": 41.909985,
		"longitude": -87.649344,
		"address1": "1555 N Dayton St",
		"address2": "",
		"address3": "",
		"city": "Chicago",
		"state": "IL",
		"zip_code": "60622"
	},
	{
		"venue_id": "yelpdHizHgEOtRxUG7_Fuog3DQ",
		"venue_name": "Weston's Coffee & Tap Co.",
		"latitude": 41.96952,
		"longitude": -87.76262,
		"address1": "4872 N Milwaukee Ave",
		"address2": "",
		"address3": null,
		"city": "Chicago",
		"state": "IL",
		"zip_code": "60630"
	},
	{
		"venue_id": "yelpvryxryD8-MvuJ4WMpujidA",
		"venue_name": "Taketei-River North",
		"latitude": 41.89465,
		"longitude": -87.63157,
		"address1": "111 W Huron St",
		"address2": "",
		"address3": null,
		"city": "Chicago",
		"state": "IL",
		"zip_code": "60654"
	},
	{
		"venue_id": "yelpc6s7LYHo8lGclLXcKoOwMg",
		"venue_name": "Spilt Milk",
		"latitude": 41.9250095435773,
		"longitude": -87.6972445833682,
		"address1": "2758 W Fullerton Ave",
		"address2": "",
		"address3": null,
		"city": "Chicago",
		"state": "IL",
		"zip_code": "60647"
	},
	{
		"venue_id": "yelpMrYs_To1VO8Ot5j_19XBBg",
		"venue_name": "Harbee Liquor & Tavern",
		"latitude": 41.85762,
		"longitude": -87.66059,
		"address1": "1345 W 18th St",
		"address2": "",
		"address3": "",
		"city": "Chicago",
		"state": "IL",
		"zip_code": "60608"
	},
	{
		"venue_id": "yelp1wgm9O3ruuqu4HnXgMaI_g",
		"venue_name": "Sleeping Village",
		"latitude": 41.93943,
		"longitude": -87.72128,
		"address1": "3734 W Belmont Ave",
		"address2": "",
		"address3": null,
		"city": "Chicago",
		"state": "IL",
		"zip_code": "60618"
	},
	{
		"venue_id": "yelpWtMFR6ifNCfxmvtbMixDgg",
		"venue_name": "Crown Liquors Taproom",
		"latitude": 41.9326,
		"longitude": -87.71265,
		"address1": "2821 N Milwaukee Ave",
		"address2": "",
		"address3": "",
		"city": "Chicago",
		"state": "IL",
		"zip_code": "60618"
	},
	{
		"venue_id": "yelpTvOgiK8LIPKWx8hffKSEGw",
		"venue_name": "Wolcott Tap",
		"latitude": 41.9616341572249,
		"longitude": -87.6758510199313,
		"address1": "1834 W Montrose Ave",
		"address2": "",
		"address3": null,
		"city": "Chicago",
		"state": "IL",
		"zip_code": "60613"
	},
	{
		"venue_id": "yelpo7u56uocdcXLiK-d3yh3AA",
		"venue_name": "Fischman Public House",
		"latitude": 41.9543594,
		"longitude": -87.7492876,
		"address1": "4058 N Milwaukee Ave",
		"address2": null,
		"address3": "",
		"city": "Chicago",
		"state": "IL",
		"zip_code": "60641"
	},
	{
		"venue_id": "yelpKBO3etX9XrY9NbBdVvwSjQ",
		"venue_name": "Kite String Cantina",
		"latitude": 41.94661,
		"longitude": -87.67589,
		"address1": "1851 W Addison St",
		"address2": null,
		"address3": "",
		"city": "Chicago",
		"state": "IL",
		"zip_code": "60613"
	},
	{
		"venue_id": "yelphVUINnit4I2kR35KFDSNuQ",
		"venue_name": "Big Star",
		"latitude": 41.9482197123419,
		"longitude": -87.6575085148215,
		"address1": "3640 N Clark St",
		"address2": "",
		"address3": null,
		"city": "Chicago",
		"state": "IL",
		"zip_code": "60613"
	},
	{
		"venue_id": "yelpIfQOHedYrGg9m9lXWE5NWw",
		"venue_name": "Little Toasted",
		"latitude": 41.87741,
		"longitude": -87.63876,
		"address1": "300 S Riverside",
		"address2": null,
		"address3": "",
		"city": "Chicago",
		"state": "IL",
		"zip_code": "60606"
	},
	{
		"venue_id": "yelpJntMBuVk3FmZGH7qPB5d4w",
		"venue_name": "The Franklin Tap",
		"latitude": 41.87746,
		"longitude": -87.63478,
		"address1": "325 S Franklin St",
		"address2": "",
		"address3": "",
		"city": "Chicago",
		"state": "IL",
		"zip_code": "60606"
	},
	{
		"venue_id": "yelpqn3xtrTab0f7BiAgpB_xBg",
		"venue_name": "Columbus Tap",
		"latitude": 41.88615,
		"longitude": -87.62129,
		"address1": "200 North Columbus Dr",
		"address2": null,
		"address3": "",
		"city": "Chicago",
		"state": "IL",
		"zip_code": "60601"
	},
	{
		"venue_id": "yelpg2Hji8KscrA_7cJPJYDi4w",
		"venue_name": "The Lakefront Restaurant",
		"latitude": 41.926802417024,
		"longitude": -87.6305051663638,
		"address1": "2401 N Lake Shore Dr",
		"address2": "",
		"address3": null,
		"city": "Chicago",
		"state": "IL",
		"zip_code": "60614"
	},
	{
		"venue_id": "yelpkbNwT6ifWRCtNGwOMujKDA",
		"venue_name": "Lucky Dorr",
		"latitude": 41.948787,
		"longitude": -87.657016,
		"address1": "1101 W Waveland Ave",
		"address2": null,
		"address3": "",
		"city": "Chicago",
		"state": "IL",
		"zip_code": "60613"
	},
	{
		"venue_id": "yelpLqANdlh3wc4YuOxd0Bw9Ag",
		"venue_name": "Trace",
		"latitude": 41.949375,
		"longitude": -87.658574,
		"address1": "3714 N Clark St",
		"address2": "",
		"address3": "",
		"city": "Chicago",
		"state": "IL",
		"zip_code": "60613"
	},
	{
		"venue_id": "yelpti4Q-kakzeL0bl6uY7yMnw",
		"venue_name": "Land & Lake Kitchen",
		"latitude": 41.8878298,
		"longitude": -87.6255338,
		"address1": "81 E Upper Wacker Dr",
		"address2": "",
		"address3": null,
		"city": "Chicago",
		"state": "IL",
		"zip_code": "60601"
	},
	{
		"venue_id": "yelpBnJWHx4o_9vx9f2UxMljKA",
		"venue_name": "The Green Room Tap",
		"latitude": 41.85774,
		"longitude": -87.658,
		"address1": "1802 S Allport St",
		"address2": "",
		"address3": null,
		"city": "Chicago",
		"state": "IL",
		"zip_code": "60608"
	},
	{
		"venue_id": "yelpyuPkGRoguRFVrGuTI5afEw",
		"venue_name": "Lavergne's Tavern",
		"latitude": 41.83414,
		"longitude": -87.78771,
		"address1": "6546 Windsor Ave",
		"address2": "",
		"address3": "",
		"city": "Berwyn",
		"state": "IL",
		"zip_code": "60402"
	},
	{
		"venue_id": "yelpNmt1-gykynKHydhny3PSmw",
		"venue_name": "Bottom Lounge Restaurant & Patio",
		"latitude": 41.885059,
		"longitude": -87.661773,
		"address1": "1375 W Lake St",
		"address2": "",
		"address3": "Upper Level",
		"city": "Chicago",
		"state": "IL",
		"zip_code": "60607"
	},
	{
		"venue_id": "yelpVBaRIaZ3-DnG5ty76J-duw",
		"venue_name": "Chicago Brewhouse",
		"latitude": 41.8882251,
		"longitude": -87.6212378,
		"address1": "31 E Riverwalk",
		"address2": "",
		"address3": null,
		"city": "Chicago",
		"state": "IL",
		"zip_code": "60601"
	},
	{
		"venue_id": "yelprXV5mcLmVqrJOqPzvIwLwA",
		"venue_name": "Whale Tale",
		"latitude": 41.9219839942116,
		"longitude": -87.6645087450743,
		"address1": "2211 N Clybourn Ave",
		"address2": "",
		"address3": null,
		"city": "Chicago",
		"state": "IL",
		"zip_code": "60614"
	},
	{
		"venue_id": "yelpnnww_i40GwnUxDaj6tALeA",
		"venue_name": "Buck's Four Star Grill",
		"latitude": 41.874817,
		"longitude": -87.618619,
		"address1": "301 S Columbus Dr",
		"address2": "",
		"address3": null,
		"city": "Chicago",
		"state": "IL",
		"zip_code": "60605"
	},
	{
		"venue_id": "yelpM5cCGlKgmHqyYKxfm6ALkA",
		"venue_name": "nob's wine bar",
		"latitude": 41.9372334002976,
		"longitude": -87.6450171321631,
		"address1": "3030 North Broadway",
		"address2": "Ste 100",
		"address3": null,
		"city": "Chicago",
		"state": "IL",
		"zip_code": "60657"
	},
	{
		"venue_id": "yelp3iTbG62mk7dCe3apyAz-hg",
		"venue_name": "District Kitchen & Tap",
		"latitude": 41.8728249,
		"longitude": -87.7801334,
		"address1": "220 Harrison St",
		"address2": "",
		"address3": null,
		"city": "Oak Park",
		"state": "IL",
		"zip_code": "60304"
	},
	{
		"venue_id": "yelp6INa3K_cwv6zKURJPXTsOw",
		"venue_name": "Showroom Food Hall",
		"latitude": 41.8532834,
		"longitude": -87.6204805,
		"address1": "2121 S Prairie Ave",
		"address2": "",
		"address3": "Marriott Marquis Chicago",
		"city": "Chicago",
		"state": "IL",
		"zip_code": "60616"
	},
	{
		"venue_id": "yelp5X72niq1M03xtWbLTd5_Zg",
		"venue_name": "Kinzie on the Rocks",
		"latitude": 41.88872,
		"longitude": -87.64507,
		"address1": "370 N Desplaines St",
		"address2": "",
		"address3": null,
		"city": "Chicago",
		"state": "IL",
		"zip_code": "60661"
	},
	{
		"venue_id": "yelptN_8LPpQ_Wv_w9CtrQ_RAg",
		"venue_name": "Gino's Brew Pub",
		"latitude": 41.89099,
		"longitude": -87.63298,
		"address1": "500 N LaSalle St",
		"address2": null,
		"address3": "",
		"city": "Chicago",
		"state": "IL",
		"zip_code": "60654"
	},
	{
		"venue_id": "yelpHUcdP-HT8JHkURAtfcClJw",
		"venue_name": "Errico's Club 30",
		"latitude": 41.86528,
		"longitude": -87.76748,
		"address1": "5713 W Roosevelt Rd",
		"address2": "",
		"address3": "",
		"city": "Cicero",
		"state": "IL",
		"zip_code": "60804"
	},
	{
		"venue_id": "yelpl-oT5kxD4swi44M98j3m9g",
		"venue_name": "House of Slots",
		"latitude": 41.8335709296127,
		"longitude": -87.7942911162972,
		"address1": "6823 Stanley Ave",
		"address2": "",
		"address3": null,
		"city": "Berwyn",
		"state": "IL",
		"zip_code": "60402"
	},
	{
		"venue_id": "yelpCECo_GpfCiI0K4_Bx6OWBg",
		"venue_name": "Olivia's Place",
		"latitude": 41.8403,
		"longitude": -87.80286,
		"address1": "2823 S Harlem Ave",
		"address2": null,
		"address3": "",
		"city": "Berwyn",
		"state": "IL",
		"zip_code": "60402"
	}
]