[
	{
		"venue_id": "yelplRONL70W17LB8Hf7o_nG_Q",
		"venue_name": "Burnt City Brewing",
		"latitude": 41.93184,
		"longitude": -87.65714,
		"address1": "2747 N Lincoln Ave",
		"address2": "",
		"address3": "",
		"city": "Chicago",
		"state": "IL",
		"zip_code": "60614"
	},
	{
		"venue_id": "yelpcDw5nStgSKFaR0pzkP23RA",
		"venue_name": "Timber Lanes",
		"latitude": 41.9540451,
		"longitude": -87.6760132,
		"address1": "1851 W Irving Park Rd",
		"address2": "",
		"address3": "",
		"city": "Chicago",
		"state": "IL",
		"zip_code": "60613"
	},
	{
		"venue_id": "yelpweOZKTx_VnwFg0oTsS9erA",
		"venue_name": "Southport Lanes",
		"latitude": 41.9423522949219,
		"longitude": -87.6635131835938,
		"address1": "3325 N Southport Ave",
		"address2": "",
		"address3": "",
		"city": "Chicago",
		"state": "IL",
		"zip_code": "60657"
	},
	{
		"venue_id": "yelp0yk_tO-ydnlwuHjKxhHzog",
		"venue_name": "Diversey River Bowl",
		"latitude": 41.931454316356,
		"longitude": -87.683909588914,
		"address1": "2211 W Diversey Ave",
		"address2": "",
		"address3": "",
		"city": "Chicago",
		"state": "IL",
		"zip_code": "60647"
	},
	{
		"venue_id": "yelp1aEQABeBQGyknci7ZIetZQ",
		"venue_name": "10pin Bowling Lounge",
		"latitude": 41.88828,
		"longitude": -87.62871,
		"address1": "330 N State St",
		"address2": "",
		"address3": "",
		"city": "Chicago",
		"state": "IL",
		"zip_code": "60654"
	},
	{
		"venue_id": "yelpfaZQI58EHQXjffQLL3cc_A",
		"venue_name": "WhirlyBall",
		"latitude": 41.92119,
		"longitude": -87.67371,
		"address1": "1825 W Webster Ave",
		"address2": "",
		"address3": "",
		"city": "Chicago",
		"state": "IL",
		"zip_code": "60614"
	},
	{
		"venue_id": "yelpjtZQ3994EPIkrd785rI7Lw",
		"venue_name": "Kings Dining & Entertainment - Chicago Lincoln Park",
		"latitude": 41.908376,
		"longitude": -87.646838,
		"address1": "1500 N Clybourn Ave",
		"address2": "Ste C102",
		"address3": "",
		"city": "Chicago",
		"state": "IL",
		"zip_code": "60610"
	},
	{
		"venue_id": "yelp_6hBsrxcZRBh6hfeIecEqw",
		"venue_name": "Waveland Bowl",
		"latitude": 41.9490578803574,
		"longitude": -87.688816493313,
		"address1": "3700 N Western Ave",
		"address2": "",
		"address3": "",
		"city": "Chicago",
		"state": "IL",
		"zip_code": "60618"
	},
	{
		"venue_id": "yelp9Uf3_-RipRSKDmk405RsyQ",
		"venue_name": "Lucky Strike",
		"latitude": 41.8910981,
		"longitude": -87.6190833,
		"address1": "322 E Illinois St",
		"address2": "",
		"address3": "",
		"city": "Chicago",
		"state": "IL",
		"zip_code": "60611"
	},
	{
		"venue_id": "yelpd1vs1E2Ez77TyNJy-bFe4w",
		"venue_name": "Simmons Pro Shop",
		"latitude": 41.9539651,
		"longitude": -87.6831166,
		"address1": "2147 W Irving Park Rd",
		"address2": "",
		"address3": "",
		"city": "Chicago",
		"state": "IL",
		"zip_code": "60618"
	},
	{
		"venue_id": "yelpATE8rn_TmSP7QDC95wZNzQ",
		"venue_name": "Fireside Bowl",
		"latitude": 41.9249749,
		"longitude": -87.6944419,
		"address1": "2648 W Fullerton Ave",
		"address2": "",
		"address3": "",
		"city": "Chicago",
		"state": "IL",
		"zip_code": "60647"
	},
	{
		"venue_id": "yelp3Gu46Iu2mzlK8V_c2nCIRQ",
		"venue_name": "Habetler Bowl",
		"latitude": 41.978507,
		"longitude": -87.771006,
		"address1": "5250 N Northwest W Hwy",
		"address2": "",
		"address3": "",
		"city": "Chicago",
		"state": "IL",
		"zip_code": "60630"
	},
	{
		"venue_id": "yelpMhPclMBHGCwLigCEI4wHLQ",
		"venue_name": "UIC Student Games & Bowling Center",
		"latitude": 41.8716298150902,
		"longitude": -87.6478668765652,
		"address1": "750 S Halsted St",
		"address2": "",
		"address3": "",
		"city": "Chicago",
		"state": "IL",
		"zip_code": "60607"
	},
	{
		"venue_id": "yelpyTPCCa4UCN2BfGTSQ_jPfQ",
		"venue_name": "Striker Lanes",
		"latitude": 41.8576202392578,
		"longitude": -87.7926635742188,
		"address1": "6728 16th St",
		"address2": "",
		"address3": "",
		"city": "Berwyn",
		"state": "IL",
		"zip_code": "60402"
	},
	{
		"venue_id": "yelpLoPwmChV0-5zI8KfQWxdjQ",
		"venue_name": "Better Off Bowling",
		"latitude": 41.8910981,
		"longitude": -87.6190833,
		"address1": "322 E Illinois St",
		"address2": null,
		"address3": "",
		"city": "Chicago",
		"state": "IL",
		"zip_code": "60611"
	},
	{
		"venue_id": "yelp3KuLDVTH1GALIV3JYThc5Q",
		"venue_name": "Circle Lanes",
		"latitude": 41.88604,
		"longitude": -87.8071499,
		"address1": "7244 Circle Ave",
		"address2": null,
		"address3": "",
		"city": "Forest Park",
		"state": "IL",
		"zip_code": "60130"
	},
	{
		"venue_id": "yelpIcetwwsuJRSEJ_muWqP4vQ",
		"venue_name": "Action Pro Shop",
		"latitude": 41.9320751,
		"longitude": -87.6838757,
		"address1": "2211 W Diversey Ave",
		"address2": "Diversey River Bowl",
		"address3": "",
		"city": "Chicago",
		"state": "IL",
		"zip_code": "60647"
	},
	{
		"venue_id": "yelpGXQufCNhyzWJTVg_bXYllw",
		"venue_name": "IIT's The Bog",
		"latitude": 41.8355751,
		"longitude": -87.6287047,
		"address1": "3241 S Federal St",
		"address2": "",
		"address3": null,
		"city": "Chicago",
		"state": "IL",
		"zip_code": "60616"
	},
	{
		"venue_id": "yelp6hM-JZ_OaUNII83-6Gitzg",
		"venue_name": "AMF Forest Lanes",
		"latitude": 41.8064804077148,
		"longitude": -87.8134384155273,
		"address1": "7700 West 47th St",
		"address2": "",
		"address3": "",
		"city": "Lyons",
		"state": "IL",
		"zip_code": "60534"
	},
	{
		"venue_id": "yelpFNbQGJuNQQymhUGR8NVxww",
		"venue_name": "Town Hall Bowl",
		"latitude": 41.8454437255859,
		"longitude": -87.7505264282227,
		"address1": "5025 W 25th St",
		"address2": "",
		"address3": "",
		"city": "Cicero",
		"state": "IL",
		"zip_code": "60804"
	},
	{
		"venue_id": "yelpjGQHKVUrx7LiugVisknyQA",
		"venue_name": "Gabby Hartnett Recreation",
		"latitude": 42.0019302368164,
		"longitude": -87.726921081543,
		"address1": "6670 N Lincoln Ave",
		"address2": "",
		"address3": "",
		"city": "Lincolnwood",
		"state": "IL",
		"zip_code": "60712"
	}
]