[
	{
		"venue_id": "yelpZ2nOMPedr7XYhgYhILJjEA",
		"venue_name": "Piece Brewery and Pizzeria",
		"latitude": 41.9103256994423,
		"longitude": -87.6760850295053,
		"address1": "1927 W North Ave",
		"address2": "",
		"address3": "",
		"city": "Chicago",
		"state": "IL",
		"zip_code": "60622"
	},
	{
		"venue_id": "yelpOKOfoisduqP24uK3WYvx7Q",
		"venue_name": "Revolution Brewing",
		"latitude": 41.92353,
		"longitude": -87.698153,
		"address1": "2323 N Milwaukee Ave",
		"address2": "",
		"address3": "",
		"city": "Chicago",
		"state": "IL",
		"zip_code": "60647"
	},
	{
		"venue_id": "yelpcgu7xpaQeG3AH9XlnxxEYw",
		"venue_name": "Lagunitas Brewing Company",
		"latitude": 41.8577419033754,
		"longitude": -87.6922491206512,
		"address1": "2607 W 17th St",
		"address2": "",
		"address3": "",
		"city": "Chicago",
		"state": "IL",
		"zip_code": "60608"
	},
	{
		"venue_id": "yelpZ40SgblruaPseH4vwejxfA",
		"venue_name": "Half Acre Beer Company",
		"latitude": 41.9592087,
		"longitude": -87.6821041,
		"address1": "4257 N Lincoln Ave",
		"address2": "",
		"address3": "",
		"city": "Chicago",
		"state": "IL",
		"zip_code": "60618"
	},
	{
		"venue_id": "yelpOEHnRYfv0E0JaJhMh-TpMQ",
		"venue_name": "Burger Bar Chicago - Lincoln Park",
		"latitude": 41.910173,
		"longitude": -87.648924,
		"address1": "1578 N Clybourn Ave",
		"address2": "",
		"address3": "",
		"city": "Chicago",
		"state": "IL",
		"zip_code": "60642"
	},
	{
		"venue_id": "yelpTAueIovlJFslHSVEfnAaaA",
		"venue_name": "DryHop Brewers",
		"latitude": 41.9392443174878,
		"longitude": -87.6442063962951,
		"address1": "3155 N Broadway",
		"address2": "",
		"address3": "",
		"city": "Chicago",
		"state": "IL",
		"zip_code": "60657"
	},
	{
		"venue_id": "yelpiOMvXQYFl6_mtw0wX6ZUXw",
		"venue_name": "Forbidden Root",
		"latitude": 41.8962684049794,
		"longitude": -87.6713814117853,
		"address1": "1746 W Chicago Ave",
		"address2": "",
		"address3": "",
		"city": "Chicago",
		"state": "IL",
		"zip_code": "60622"
	},
	{
		"venue_id": "yelpCJmaPyxVF9FCmd83lale6w",
		"venue_name": "Goose Island Tap Room",
		"latitude": 41.8870999,
		"longitude": -87.67209,
		"address1": "1800 W Fulton St",
		"address2": "",
		"address3": "",
		"city": "Chicago",
		"state": "IL",
		"zip_code": "60612"
	},
	{
		"venue_id": "yelpksccA8XUDV6b2h-PmuZKPg",
		"venue_name": "Revolution Brewing - Kedzie Brewery",
		"latitude": 41.942143,
		"longitude": -87.70768,
		"address1": "3340 N Kedzie Ave",
		"address2": "",
		"address3": "",
		"city": "Chicago",
		"state": "IL",
		"zip_code": "60618"
	},
	{
		"venue_id": "yelpHRrNDCzb7ZxCDGLz4swnXw",
		"venue_name": "Begyle Brewing",
		"latitude": 41.955412,
		"longitude": -87.674396,
		"address1": "1800 W Cuyler Ave",
		"address2": "",
		"address3": "",
		"city": "Chicago",
		"state": "IL",
		"zip_code": "60613"
	},
	{
		"venue_id": "yelp93XytGSsZFy9V24PAtK1yw",
		"venue_name": "Haymarket Pub & Brewery",
		"latitude": 41.8841228096438,
		"longitude": -87.6472472030469,
		"address1": "737 W Randolph St",
		"address2": "",
		"address3": "",
		"city": "Chicago",
		"state": "IL",
		"zip_code": "60661"
	},
	{
		"venue_id": "yelpQ9uxInveq-RFvpF1jkO8wQ",
		"venue_name": "Band of Bohemia",
		"latitude": 41.96761,
		"longitude": -87.6751,
		"address1": "4710 N Ravenswood Ave",
		"address2": "",
		"address3": "",
		"city": "Chicago",
		"state": "IL",
		"zip_code": "60640"
	},
	{
		"venue_id": "yelp_CzK0ssaWnDzmKIqJS54DA",
		"venue_name": "Goose Island Brewhouse",
		"latitude": 41.9134218987771,
		"longitude": -87.6542950746777,
		"address1": "1800 N Clybourn Ave",
		"address2": "",
		"address3": "",
		"city": "Chicago",
		"state": "IL",
		"zip_code": "60614"
	},
	{
		"venue_id": "yelpmspxW1oelEoo6YJskI5cJg",
		"venue_name": "Burger Bar Chicago - South Loop",
		"latitude": 41.867902,
		"longitude": -87.62438,
		"address1": "1150 S Michigan Ave",
		"address2": null,
		"address3": "",
		"city": "Chicago",
		"state": "IL",
		"zip_code": "60605"
	},
	{
		"venue_id": "yelprPp8L8pwkNwepgPRVBy99g",
		"venue_name": "Old Irving Brewing",
		"latitude": 41.9606817809204,
		"longitude": -87.7393777788835,
		"address1": "4419 W Montrose Ave",
		"address2": "",
		"address3": null,
		"city": "Chicago",
		"state": "IL",
		"zip_code": "60641"
	},
	{
		"venue_id": "yelpSbdZRJSSISB-cUQ9ShBetQ",
		"venue_name": "Corridor Brewery & Provisions",
		"latitude": 41.94474,
		"longitude": -87.66429,
		"address1": "3446 N Southport",
		"address2": "",
		"address3": "",
		"city": "Chicago",
		"state": "IL",
		"zip_code": "60657"
	},
	{
		"venue_id": "yelpnbh4JOj5cDzDec9qLqvouw",
		"venue_name": "On Tour Brewing",
		"latitude": 41.8896,
		"longitude": -87.67059,
		"address1": "1725 W Hubbard St",
		"address2": null,
		"address3": "",
		"city": "Chicago",
		"state": "IL",
		"zip_code": "60622"
	},
	{
		"venue_id": "yelp0w7eAd3JzIQa9VyJQJaXVg",
		"venue_name": "Eris Brewery and Cider House",
		"latitude": 41.95389,
		"longitude": -87.73426,
		"address1": "4240 W Irving Park Rd",
		"address2": "",
		"address3": null,
		"city": "Chicago",
		"state": "IL",
		"zip_code": "60641"
	},
	{
		"venue_id": "yelpZy_HbUPOrcAeUrIGyFxkcw",
		"venue_name": "Moody Tongue Brewing",
		"latitude": 41.8528686,
		"longitude": -87.6482549,
		"address1": "2136 S Peoria St",
		"address2": "",
		"address3": "The Glass Factory",
		"city": "Chicago",
		"state": "IL",
		"zip_code": "60608"
	},
	{
		"venue_id": "yelplRONL70W17LB8Hf7o_nG_Q",
		"venue_name": "Burnt City Brewing",
		"latitude": 41.93184,
		"longitude": -87.65714,
		"address1": "2747 N Lincoln Ave",
		"address2": "",
		"address3": "",
		"city": "Chicago",
		"state": "IL",
		"zip_code": "60614"
	},
	{
		"venue_id": "yelpQSefAqftl1Hcseli2wcAAw",
		"venue_name": "Gino's East - River North",
		"latitude": 41.8910112,
		"longitude": -87.6328052,
		"address1": "500 N LaSalle St",
		"address2": "",
		"address3": "",
		"city": "Chicago",
		"state": "IL",
		"zip_code": "60654"
	},
	{
		"venue_id": "yelp0vOb_MiBQIf7vxnHWvv0Pw",
		"venue_name": "Dovetail Brewery",
		"latitude": 41.9561649,
		"longitude": -87.674465,
		"address1": "1800 W Belle Plaine Ave",
		"address2": "",
		"address3": null,
		"city": "Chicago",
		"state": "IL",
		"zip_code": "60613"
	},
	{
		"venue_id": "yelpDycA6paYdJ89hfVLNyRbJA",
		"venue_name": "Cruz Blanca Brewery & Taquer\u00eda",
		"latitude": 41.8845986,
		"longitude": -87.6501184,
		"address1": "904 W Randolph St",
		"address2": "",
		"address3": "",
		"city": "Chicago",
		"state": "IL",
		"zip_code": "60607"
	},
	{
		"venue_id": "yelpOi5yUedbYruHH58pq0zvZw",
		"venue_name": "Maplewood Brewery & Distillery",
		"latitude": 41.9308,
		"longitude": -87.6911,
		"address1": "2717 N Maplewood Ave",
		"address2": "",
		"address3": "",
		"city": "Chicago",
		"state": "IL",
		"zip_code": "60647"
	},
	{
		"venue_id": "yelpibQJyBTE8cSwPwdlEpYIlw",
		"venue_name": "Hopewell Brewing Company",
		"latitude": 41.931237188843,
		"longitude": -87.7114551141858,
		"address1": "2760 N Milwaukee Ave",
		"address2": "",
		"address3": "",
		"city": "Chicago",
		"state": "IL",
		"zip_code": "60647"
	},
	{
		"venue_id": "yelpPYIa6zNZVT49A-6MvnTcqA",
		"venue_name": "Off Color Mousetrap",
		"latitude": 41.9076406645494,
		"longitude": -87.6514839216106,
		"address1": "1460 N Kingsbury St",
		"address2": "",
		"address3": null,
		"city": "Chicago",
		"state": "IL",
		"zip_code": "60642"
	},
	{
		"venue_id": "yelpxK2E_WjzRutfGpcH5THZ9g",
		"venue_name": "Empirical Brewery",
		"latitude": 41.9759751,
		"longitude": -87.6750917,
		"address1": "1801 W Foster Ave",
		"address2": "",
		"address3": "",
		"city": "Chicago",
		"state": "IL",
		"zip_code": "60640"
	},
	{
		"venue_id": "yelp0zCVIkqv49FRPfht2Z7-9A",
		"venue_name": "Vice District Taproom",
		"latitude": 41.862491,
		"longitude": -87.624519,
		"address1": "1454 S Michigan Ave",
		"address2": "Ste 1",
		"address3": "",
		"city": "Chicago",
		"state": "IL",
		"zip_code": "60605"
	},
	{
		"venue_id": "yelpXRS2VK4wBanmYFHeITTc4A",
		"venue_name": "The Barrel Run",
		"latitude": 41.8928448806887,
		"longitude": -87.63122072047,
		"address1": "",
		"address2": null,
		"address3": "",
		"city": "Chicago",
		"state": "IL",
		"zip_code": "60647"
	},
	{
		"venue_id": "yelpjzOQWBnNgvYzW0Bh7r5omQ",
		"venue_name": "Pipeworks Brewing",
		"latitude": 41.91837,
		"longitude": -87.72558,
		"address1": "3912 W Mclean Ave",
		"address2": "",
		"address3": null,
		"city": "Chicago",
		"state": "IL",
		"zip_code": "60647"
	},
	{
		"venue_id": "yelpyY5pcXb88a6rCq_je-NLVQ",
		"venue_name": "Metropolitan Brewing Taproom",
		"latitude": 41.937618,
		"longitude": -87.691343,
		"address1": "3057 N Rockwell St",
		"address2": "",
		"address3": null,
		"city": "Chicago",
		"state": "IL",
		"zip_code": "60618"
	},
	{
		"venue_id": "yelpN-TU8vMkbnFR5D45-C7Pfw",
		"venue_name": "Whiner Beer Company",
		"latitude": 41.81076,
		"longitude": -87.66057,
		"address1": "1400 W 46th St",
		"address2": null,
		"address3": "",
		"city": "Chicago",
		"state": "IL",
		"zip_code": "60609"
	},
	{
		"venue_id": "yelpcdncUMyMlJjVxzMkaiKSEg",
		"venue_name": "Alulu Brewpub",
		"latitude": 41.85473,
		"longitude": -87.6634,
		"address1": "2011 South Laflin St",
		"address2": "",
		"address3": null,
		"city": "Chicago",
		"state": "IL",
		"zip_code": "60608"
	},
	{
		"venue_id": "yelp-R1JS9R1KK1D_a2YFvQvsg",
		"venue_name": "Ballast Point Chicago",
		"latitude": 41.8861250353046,
		"longitude": -87.6488304612113,
		"address1": "212 N Green St",
		"address2": "",
		"address3": null,
		"city": "Chicago",
		"state": "IL",
		"zip_code": "60607"
	},
	{
		"venue_id": "yelpmLCVg87EG-gKp7_tyKohLA",
		"venue_name": "Motor Row Brewing",
		"latitude": 41.8500039729648,
		"longitude": -87.6235221147386,
		"address1": "2337 S Michigan Ave",
		"address2": "",
		"address3": "",
		"city": "Chicago",
		"state": "IL",
		"zip_code": "60616"
	},
	{
		"venue_id": "yelpu0yFYe8rDUIFxEoARKGNwA",
		"venue_name": "Half Acre Beer Co Balmoral Tap Room & Garden",
		"latitude": 41.980095,
		"longitude": -87.681334,
		"address1": "2050 W Balmoral Ave",
		"address2": "",
		"address3": null,
		"city": "Chicago",
		"state": "IL",
		"zip_code": "60625"
	},
	{
		"venue_id": "yelpPuXKTsA_7qVZU8rZlf9HWA",
		"venue_name": "Bixi Beer",
		"latitude": 41.9271457780326,
		"longitude": -87.703986418801,
		"address1": "2515 N Milwaukee Ave",
		"address2": "",
		"address3": null,
		"city": "Chicago",
		"state": "IL",
		"zip_code": "60647"
	},
	{
		"venue_id": "yelpbFh3Ud7i87wHt9hl4xbX8Q",
		"venue_name": "Alarmist Brewing & Taproom",
		"latitude": 41.98969910884,
		"longitude": -87.7316706548498,
		"address1": "4055 W Peterson Ave",
		"address2": "Ste Rear",
		"address3": "",
		"city": "Chicago",
		"state": "IL",
		"zip_code": "60646"
	},
	{
		"venue_id": "yelpba3TKlM57Cleo7PJwKFG6A",
		"venue_name": "Lake Effect Brewing Company",
		"latitude": 41.96032,
		"longitude": -87.7459,
		"address1": "4727 W Montrose Ave",
		"address2": "",
		"address3": "",
		"city": "Chicago",
		"state": "IL",
		"zip_code": "60641"
	},
	{
		"venue_id": "yelpo-Wrqa3itRP251PLTKOmIA",
		"venue_name": "Spiteful Brewing",
		"latitude": 41.97991,
		"longitude": -87.68056,
		"address1": "2024 W Balmoral Ave",
		"address2": "",
		"address3": null,
		"city": "Chicago",
		"state": "IL",
		"zip_code": "60625"
	},
	{
		"venue_id": "yelpKjEs8xK7gdsK821vJXuuog",
		"venue_name": "Great Central Brewing Company",
		"latitude": 41.8859499823098,
		"longitude": -87.6716799661517,
		"address1": "221 N Wood St",
		"address2": "",
		"address3": null,
		"city": "Chicago",
		"state": "IL",
		"zip_code": "60612"
	},
	{
		"venue_id": "yelpMxA28R_Izyc7GF_XTFn5SA",
		"venue_name": "Marz Community Brewing",
		"latitude": 41.827823,
		"longitude": -87.659467,
		"address1": "3630 S Iron St",
		"address2": "",
		"address3": null,
		"city": "Chicago",
		"state": "IL",
		"zip_code": "60609"
	},
	{
		"venue_id": "yelpjMpyLIbN8_subjjBDvDETQ",
		"venue_name": "Lo Rez Brewing and Taproom",
		"latitude": 41.853335,
		"longitude": -87.65252,
		"address1": "2101 S Carpenter St",
		"address2": null,
		"address3": "",
		"city": "Chicago",
		"state": "IL",
		"zip_code": "60608"
	},
	{
		"venue_id": "yelp6cVpExux4pj1_LEM_bDGXw",
		"venue_name": "Andersonville Brewing Co",
		"latitude": 41.9800277799368,
		"longitude": -87.6683557033539,
		"address1": "5402 N Clark St",
		"address2": "",
		"address3": "",
		"city": "Chicago",
		"state": "IL",
		"zip_code": "60640"
	},
	{
		"venue_id": "yelpKkxmsieief6Bg2_wk4fi9g",
		"venue_name": "Kinslahger Brewing Company",
		"latitude": 41.86541,
		"longitude": -87.79418,
		"address1": "6806 Roosevelt Rd",
		"address2": null,
		"address3": "",
		"city": "Oak Park",
		"state": "IL",
		"zip_code": "60304"
	},
	{
		"venue_id": "yelpnqgrdzwlafX-LY1ICiK0NA",
		"venue_name": "Finch Beer Co",
		"latitude": 41.88628,
		"longitude": -87.67202,
		"address1": "1800 W Walnut St",
		"address2": "",
		"address3": "",
		"city": "Chicago",
		"state": "IL",
		"zip_code": "60612"
	},
	{
		"venue_id": "yelpFhvIE54uXdO6M_kJUefrOg",
		"venue_name": "Off Color Brewing",
		"latitude": 41.918873,
		"longitude": -87.7251922,
		"address1": "3925 W Dickens Ave",
		"address2": "",
		"address3": "",
		"city": "Chicago",
		"state": "IL",
		"zip_code": "60647"
	},
	{
		"venue_id": "yelpqB5o2rID2fYalsbl6Co7sQ",
		"venue_name": "Flapjack Brewery",
		"latitude": 41.8335199684901,
		"longitude": -87.7946300804615,
		"address1": "6833 Stanley Ave",
		"address2": "",
		"address3": null,
		"city": "Berwyn",
		"state": "IL",
		"zip_code": "60402"
	},
	{
		"venue_id": "yelpj4Nk7pWUVnxaczS55ke8gA",
		"venue_name": "Goose Island Catering & Events",
		"latitude": 41.9134218987771,
		"longitude": -87.6542950746777,
		"address1": "1800 N Clybourn Ave",
		"address2": "",
		"address3": "",
		"city": "Chicago",
		"state": "IL",
		"zip_code": "60614"
	},
	{
		"venue_id": "yelpNDxdnlkyDXIk42TdvU936A",
		"venue_name": "Short Fuse Brewing",
		"latitude": 41.9697951141222,
		"longitude": -87.8618382542747,
		"address1": "5000 N River Rd",
		"address2": "",
		"address3": null,
		"city": "Schiller Park",
		"state": "IL",
		"zip_code": "60176"
	},
	{
		"venue_id": "yelptpdmOn36EK31xtQRKwkAgg",
		"venue_name": "BeerHoptacular",
		"latitude": 41.8636182,
		"longitude": -87.6708272,
		"address1": "1339 S Wood St",
		"address2": "",
		"address3": "",
		"city": "Chicago",
		"state": "IL",
		"zip_code": "60608"
	},
	{
		"venue_id": "yelpWGR8tPfTzMI3RsxSS95fzw",
		"venue_name": "Illuminated Brew Works",
		"latitude": 41.8895606994629,
		"longitude": -87.6507568359375,
		"address1": "415 N Sangamon St",
		"address2": "",
		"address3": "",
		"city": "Chicago",
		"state": "IL",
		"zip_code": "60642"
	},
	{
		"venue_id": "yelpaw-ax2BySfh-Jn9F4gsBDg",
		"venue_name": "Oak Park Brewing Company",
		"latitude": 41.8858562,
		"longitude": -87.7948091,
		"address1": "155 S Oak Park Ave",
		"address2": "",
		"address3": null,
		"city": "Oak Park",
		"state": "IL",
		"zip_code": "60302"
	},
	{
		"venue_id": "yelpiQeFs9q2povhTP1mxV79OQ",
		"venue_name": "MillerCoors Llc",
		"latitude": 41.8784,
		"longitude": -87.63724,
		"address1": "250 S Wacker Dr",
		"address2": "Ste 800",
		"address3": null,
		"city": "Chicago",
		"state": "IL",
		"zip_code": "60606"
	},
	{
		"venue_id": "yelpiX_V0ibbzZF1y2zJMrc0TQ",
		"venue_name": "Mike's Hard Lemonade",
		"latitude": 41.87695,
		"longitude": -87.64288,
		"address1": "328 S Jefferson St",
		"address2": "Ste 1050",
		"address3": null,
		"city": "Chicago",
		"state": "IL",
		"zip_code": "60661"
	}
]