[
	{
		"venue_id": "yelpO8FCxbhipTldHyRyUB8nFg",
		"venue_name": "Snow Dragon Shavery & Yogurt",
		"latitude": 41.9300635273516,
		"longitude": -87.6437006588608,
		"address1": "2618 N Clark St",
		"address2": "",
		"address3": "",
		"city": "Chicago",
		"state": "IL",
		"zip_code": "60614"
	},
	{
		"venue_id": "yelpwGwnYWcFUrYmH-YLPc-vbw",
		"venue_name": "BAMBU",
		"latitude": 41.9730429,
		"longitude": -87.6599249,
		"address1": "5010 N Broadway",
		"address2": "",
		"address3": null,
		"city": "Chicago",
		"state": "IL",
		"zip_code": "60640"
	},
	{
		"venue_id": "yelpzFw6f0mNqRebBRgy8Tzvow",
		"venue_name": "Cassava Cafe",
		"latitude": 41.9044574929354,
		"longitude": -87.6327339559793,
		"address1": "1211 N Lasalle Dr",
		"address2": "Unit CU",
		"address3": "",
		"city": "Chicago",
		"state": "IL",
		"zip_code": "60610"
	},
	{
		"venue_id": "yelpSfPpG-v8K-t6tAr4USL-mw",
		"venue_name": "Vivi Bubble Tea",
		"latitude": 41.877308,
		"longitude": -87.627432,
		"address1": "333 S State St",
		"address2": "",
		"address3": "",
		"city": "Chicago",
		"state": "IL",
		"zip_code": "60604"
	},
	{
		"venue_id": "yelp3Pgn3GYIvWajpSlCejZjSQ",
		"venue_name": "Taipei Cafe",
		"latitude": 41.84501,
		"longitude": -87.6463051,
		"address1": "2609 S Halsted St",
		"address2": "",
		"address3": null,
		"city": "Chicago",
		"state": "IL",
		"zip_code": "60608"
	},
	{
		"venue_id": "yelpI2WfW2syUw_imsSs5w5UZg",
		"venue_name": "Kung Fu Tea",
		"latitude": 41.8542670308205,
		"longitude": -87.6328884447052,
		"address1": "2126B S Archer Ave",
		"address2": "",
		"address3": "",
		"city": "Chicago",
		"state": "IL",
		"zip_code": "60616"
	},
	{
		"venue_id": "yelpX4CsYKx-4BOiaUGa-FG5Zg",
		"venue_name": "Thai Spoon & Sushi",
		"latitude": 41.87425,
		"longitude": -87.62548,
		"address1": "601 S Wabash Ave",
		"address2": "",
		"address3": "",
		"city": "Chicago",
		"state": "IL",
		"zip_code": "60605"
	},
	{
		"venue_id": "yelpMihwD3-V-C4I01CQFKHqhw",
		"venue_name": "Hello Jasmine",
		"latitude": 41.85505,
		"longitude": -87.63219,
		"address1": "2002 S Wentworth Ave",
		"address2": "Ste B11",
		"address3": null,
		"city": "Chicago",
		"state": "IL",
		"zip_code": "60616"
	},
	{
		"venue_id": "yelppmj-MTvnPJdTOe7la1Q-vQ",
		"venue_name": "Freezing Point",
		"latitude": 41.938668513626,
		"longitude": -87.6684396483348,
		"address1": "3127 N Ashland Ave",
		"address2": "",
		"address3": null,
		"city": "Chicago",
		"state": "IL",
		"zip_code": "60657"
	},
	{
		"venue_id": "yelphg7GTftFbQG2Y6jz8u_Olg",
		"venue_name": "B.I.Tea & Dim Sum",
		"latitude": 41.8839695,
		"longitude": -87.6410747,
		"address1": "131 N Clinton St",
		"address2": "",
		"address3": "Chicago French Market",
		"city": "Chicago",
		"state": "IL",
		"zip_code": "60661"
	},
	{
		"venue_id": "yelpXAuKRNLRgdy9AWyzIQ3TdQ",
		"venue_name": "Chatime - TTNoodle",
		"latitude": 41.854751,
		"longitude": -87.632598,
		"address1": "2017 S Wells St",
		"address2": "",
		"address3": null,
		"city": "Chicago",
		"state": "IL",
		"zip_code": "60616"
	},
	{
		"venue_id": "yelpHi2z31a7ynVqlfTax-NWDw",
		"venue_name": "Bingo Tea",
		"latitude": 41.85362,
		"longitude": -87.63412,
		"address1": "2150 S Archer Ave",
		"address2": "",
		"address3": null,
		"city": "Chicago",
		"state": "IL",
		"zip_code": "60616"
	},
	{
		"venue_id": "yelpVl-9r40SZsG1b9oNBI-D4Q",
		"venue_name": "Snow Junkie Cafe",
		"latitude": 41.95074,
		"longitude": -87.65901,
		"address1": "3759 N Racine Ave",
		"address2": null,
		"address3": "",
		"city": "Chicago",
		"state": "IL",
		"zip_code": "60613"
	},
	{
		"venue_id": "yelprVRMpovx68BZXTLedFwB5Q",
		"venue_name": "Wentworth Seafood House",
		"latitude": 41.852301277333,
		"longitude": -87.631848673597,
		"address1": "2229 S Wentworth Ave",
		"address2": "",
		"address3": null,
		"city": "Chicago",
		"state": "IL",
		"zip_code": "60616"
	},
	{
		"venue_id": "yelp6D1v1lSjmXEXAsOp3eGxMQ",
		"venue_name": "Elitea",
		"latitude": 41.85505,
		"longitude": -87.63219,
		"address1": "2002 S Wentworth Ave",
		"address2": "Ste B09",
		"address3": null,
		"city": "Chicago",
		"state": "IL",
		"zip_code": "60616"
	},
	{
		"venue_id": "yelp6N7B7gdAZSQZVcBPTgQTfQ",
		"venue_name": "Kung Fu Tea",
		"latitude": 41.97229,
		"longitude": -87.6591399,
		"address1": "4925 N Broadway",
		"address2": null,
		"address3": "",
		"city": "Chicago",
		"state": "IL",
		"zip_code": "60640"
	},
	{
		"venue_id": "yelp4X1sUarc6nmsOWH6fickNQ",
		"venue_name": "Hot Shots Cafe",
		"latitude": 41.90423,
		"longitude": -87.66826,
		"address1": "1242 N Milwaukee Ave",
		"address2": "",
		"address3": null,
		"city": "Chicago",
		"state": "IL",
		"zip_code": "60622"
	},
	{
		"venue_id": "yelpRZW9G7BATi8IvOCyOW6RXQ",
		"venue_name": "Tbaar",
		"latitude": 41.86907,
		"longitude": -87.66363,
		"address1": "1453 W Taylor St",
		"address2": "",
		"address3": null,
		"city": "Chicago",
		"state": "IL",
		"zip_code": "60607"
	},
	{
		"venue_id": "yelpZGHUs4jAlh4jO4cntDgi5Q",
		"venue_name": "Boo Bae Tea",
		"latitude": 41.92147,
		"longitude": -87.65405,
		"address1": "1013 W Webster Ave",
		"address2": "",
		"address3": null,
		"city": "Chicago",
		"state": "IL",
		"zip_code": "60614"
	},
	{
		"venue_id": "yelpRGY1_i925PKFNZ0tQ5a04Q",
		"venue_name": "Panda Express",
		"latitude": 41.9464447800252,
		"longitude": -87.7019436805787,
		"address1": "2949 W Addison St",
		"address2": "",
		"address3": "",
		"city": "Chicago",
		"state": "IL",
		"zip_code": "60618"
	},
	{
		"venue_id": "yelp19JCcJSNolVoRlgne43MbA",
		"venue_name": "TBaar Loyola-Lakeshore Campus",
		"latitude": 41.998038,
		"longitude": -87.661547,
		"address1": "1223 W Devon Ave",
		"address2": null,
		"address3": "",
		"city": "Chicago",
		"state": "IL",
		"zip_code": "60660"
	},
	{
		"venue_id": "yelpO7M3HsywibrP0_6tJtesyQ",
		"venue_name": "Snow Dragon Shavery",
		"latitude": 41.8919826,
		"longitude": -87.6091808,
		"address1": "700 E Grand Ave",
		"address2": "",
		"address3": null,
		"city": "Chicago",
		"state": "IL",
		"zip_code": "60611"
	},
	{
		"venue_id": "yelpLDZR42QiAMEsSfxPPVsG0w",
		"venue_name": "New Pot Rice & Noodles",
		"latitude": 41.8884797,
		"longitude": -87.7935394,
		"address1": "727 Lake St",
		"address2": "",
		"address3": "",
		"city": "Oak Park",
		"state": "IL",
		"zip_code": "60301"
	},
	{
		"venue_id": "yelpATlXGZTMhSheo_9zB3hfbQ",
		"venue_name": "Te'amo Boba Bar",
		"latitude": 41.8914408,
		"longitude": -87.6243185,
		"address1": "520 N Michigan Ave",
		"address2": "Ste 420",
		"address3": "",
		"city": "Chicago",
		"state": "IL",
		"zip_code": "60611"
	},
	{
		"venue_id": "yelpcUyk2LT0CuU0idaMJM0m_w",
		"venue_name": "Shukr Cafe",
		"latitude": 41.9758449,
		"longitude": -87.712566,
		"address1": "3334 W Foster Ave",
		"address2": null,
		"address3": "",
		"city": "Chicago",
		"state": "IL",
		"zip_code": "60625"
	},
	{
		"venue_id": "yelpCkGsr6tukuPyARQE4AVQ6A",
		"venue_name": "Hello Jasmine",
		"latitude": 41.88235,
		"longitude": -87.6404699,
		"address1": "500 W Madison St",
		"address2": "",
		"address3": "",
		"city": "Chicago",
		"state": "IL",
		"zip_code": "60661"
	},
	{
		"venue_id": "yelpsgnTSJ3CqtH9ymnfEfMkHg",
		"venue_name": "Tbaar",
		"latitude": 41.869147,
		"longitude": -87.663617,
		"address1": "1453 W Taylor St",
		"address2": "",
		"address3": "",
		"city": "Chicago",
		"state": "NY",
		"zip_code": "60607"
	},
	{
		"venue_id": "yelp0cshq8AXz4Z5qQSJJNAlGA",
		"venue_name": "Simple Delights",
		"latitude": 41.9951124,
		"longitude": -87.7134164,
		"address1": "6255 N McCormick Rd",
		"address2": "",
		"address3": "",
		"city": "Chicago",
		"state": "IL",
		"zip_code": "60659"
	},
	{
		"venue_id": "yelptK4kNdnKkZuTRpkutuCojw",
		"venue_name": "Rowie's Bakery",
		"latitude": 41.9842794,
		"longitude": -87.6973956,
		"address1": "5664 N Lincoln Ave",
		"address2": null,
		"address3": "",
		"city": "Chicago",
		"state": "IL",
		"zip_code": "60659"
	},
	{
		"venue_id": "yelpR9jRdYgRsS1oDQdP-DICxA",
		"venue_name": "Panda Express",
		"latitude": 41.8856035299199,
		"longitude": -87.626606784761,
		"address1": "180 N Wabash",
		"address2": "",
		"address3": "",
		"city": "Chicago",
		"state": "IL",
		"zip_code": "60601"
	},
	{
		"venue_id": "yelp2k2ETwj1UtYZLQvJQCzvtw",
		"venue_name": "Ice Point Rolled Ice Cream",
		"latitude": 41.85351,
		"longitude": -87.63516,
		"address1": "2171 S China Pl",
		"address2": "",
		"address3": null,
		"city": "Chicago",
		"state": "IL",
		"zip_code": "60616"
	},
	{
		"venue_id": "yelpxgjty-0khchOuFfJi-pykA",
		"venue_name": "Icylicious Ice Cream Rolls",
		"latitude": 42.0051327,
		"longitude": -87.6610713,
		"address1": "6750 N Sheridan Rd",
		"address2": "",
		"address3": null,
		"city": "Chicago",
		"state": "IL",
		"zip_code": "60626"
	},
	{
		"venue_id": "yelpwxwC1MEZwIY86MAVhdovEA",
		"venue_name": "Yogen Fruz",
		"latitude": 41.95641,
		"longitude": -87.809043,
		"address1": "4104 N Harlem Ave",
		"address2": "",
		"address3": "Harlem Irving Plaza",
		"city": "Norridge",
		"state": "IL",
		"zip_code": "60706"
	}
]