[
	{
		"venue_id": "yelpufxKkcPhjlF4x2C1Or8ckA",
		"venue_name": "Lowcountry Lakeview",
		"latitude": 41.942883,
		"longitude": -87.6528328,
		"address1": "3343 N Clark St",
		"address2": null,
		"address3": "",
		"city": "Chicago",
		"state": "IL",
		"zip_code": "60657"
	},
	{
		"venue_id": "yelpsYL9ux7ncnJzAHHppuMQ9w",
		"venue_name": "The Crab Pad",
		"latitude": 41.92744,
		"longitude": -87.70424,
		"address1": "2529 N Milwaukee Ave",
		"address2": "",
		"address3": "",
		"city": "Chicago",
		"state": "IL",
		"zip_code": "60647"
	},
	{
		"venue_id": "yelps3Hwq1VXyQ_3dpqzkluRvQ",
		"venue_name": "The Angry Crab",
		"latitude": 41.9845332,
		"longitude": -87.6972261,
		"address1": "5665 N Lincoln Ave",
		"address2": "",
		"address3": "",
		"city": "Chicago",
		"state": "IL",
		"zip_code": "60659"
	},
	{
		"venue_id": "yelpPsQFHkJHhSqw7mOCh4Rs7w",
		"venue_name": "Asian Cajun",
		"latitude": 41.92604,
		"longitude": -87.66852,
		"address1": "2428 N Ashland Ave",
		"address2": "",
		"address3": "",
		"city": "Chicago",
		"state": "IL",
		"zip_code": "60614"
	},
	{
		"venue_id": "yelpwbOL77wMgSKV1yOkQuxw2Q",
		"venue_name": "Buddy Guy's Legends",
		"latitude": 41.8730157686049,
		"longitude": -87.6262064974468,
		"address1": "700 S Wabash Ave",
		"address2": "",
		"address3": "",
		"city": "Chicago",
		"state": "IL",
		"zip_code": "60605"
	},
	{
		"venue_id": "yelpKdTYm6S6PyIIEfYHHONZkw",
		"venue_name": "Heaven on Seven Wabash",
		"latitude": 41.88347,
		"longitude": -87.62575,
		"address1": "111 N Wabash Ave",
		"address2": "",
		"address3": "",
		"city": "Chicago",
		"state": "IL",
		"zip_code": "60602"
	},
	{
		"venue_id": "yelpdkTxj40vdNfdhDCyiKHlrg",
		"venue_name": "Local Option",
		"latitude": 41.921953,
		"longitude": -87.656166,
		"address1": "1102 W Webster Ave",
		"address2": "",
		"address3": "",
		"city": "Chicago",
		"state": "IL",
		"zip_code": "60614"
	},
	{
		"venue_id": "yelpN1cpx4ITHR0yuTFM6NfVOg",
		"venue_name": "Fifolet",
		"latitude": 41.90351,
		"longitude": -87.67653,
		"address1": "1942 W Division St",
		"address2": null,
		"address3": "",
		"city": "Chicago",
		"state": "IL",
		"zip_code": "60622"
	},
	{
		"venue_id": "yelp5pI3IXJo-14EQ0ZgIqbmLg",
		"venue_name": "Soule",
		"latitude": 41.89563,
		"longitude": -87.67582,
		"address1": "1931 W Chicago Ave",
		"address2": "",
		"address3": null,
		"city": "Chicago",
		"state": "IL",
		"zip_code": "60622"
	},
	{
		"venue_id": "yelp4UMVbAckoHU21bqrhTv4PA",
		"venue_name": "Chef Luciano",
		"latitude": 41.8526205,
		"longitude": -87.6250488,
		"address1": "49 E Cermak Rd",
		"address2": "",
		"address3": "",
		"city": "Chicago",
		"state": "IL",
		"zip_code": "60616"
	},
	{
		"venue_id": "yelp9cNk-GPn0D_ZalDjGR9vGg",
		"venue_name": "Fireside Restaurant",
		"latitude": 41.9861937390532,
		"longitude": -87.6745010637543,
		"address1": "5739 N Ravenswood Ave",
		"address2": "",
		"address3": "",
		"city": "Chicago",
		"state": "IL",
		"zip_code": "60660"
	},
	{
		"venue_id": "yelpSLCqe2v-sktAK7w5DvaRHw",
		"venue_name": "Mad Boiler",
		"latitude": 41.88137,
		"longitude": -87.65381,
		"address1": "1045 W Madison St",
		"address2": null,
		"address3": null,
		"city": "Chicago",
		"state": "IL",
		"zip_code": "60607"
	},
	{
		"venue_id": "yelppNL7Nwk9Gi2wSQ6qIBzugQ",
		"venue_name": "Spoken Cafe",
		"latitude": 41.9616149989358,
		"longitude": -87.6750356343155,
		"address1": "1812 W Montrose Ave",
		"address2": "",
		"address3": "",
		"city": "Chicago",
		"state": "IL",
		"zip_code": "60613"
	},
	{
		"venue_id": "yelpHD80ObNiV_68Iq-HaQNyNw",
		"venue_name": "Lowcountry South Loop",
		"latitude": 41.8682299,
		"longitude": -87.62635,
		"address1": "1132 S Wabash Ave",
		"address2": "",
		"address3": null,
		"city": "Chicago",
		"state": "IL",
		"zip_code": "60605"
	},
	{
		"venue_id": "yelpZjzBnUIs9Ca5gV2He0UOXA",
		"venue_name": "Jerk Taco Man",
		"latitude": 41.87683,
		"longitude": -87.72571,
		"address1": "4001 W Jackson Blvd",
		"address2": "",
		"address3": "",
		"city": "Chicago",
		"state": "IL",
		"zip_code": "60644"
	},
	{
		"venue_id": "yelpcDI0r_P_x2InX-zlM8tjqw",
		"venue_name": "The Angry Crab",
		"latitude": 41.9054327842223,
		"longitude": -87.6699330725035,
		"address1": "1308 N Milwaukee Ave",
		"address2": "",
		"address3": null,
		"city": "Chicago",
		"state": "IL",
		"zip_code": "60622"
	},
	{
		"venue_id": "yelpJ_awsE01IcrTbnwevNRurw",
		"venue_name": "Bubba Gump Shrimp Co.",
		"latitude": 41.8914094,
		"longitude": -87.6096291,
		"address1": "700 E Grand Ave",
		"address2": "Ste 131",
		"address3": "",
		"city": "Chicago",
		"state": "IL",
		"zip_code": "60611"
	},
	{
		"venue_id": "yelpNf7PZQyipEC1dLX3HVEz1A",
		"venue_name": "Captain's Catch",
		"latitude": 41.9321,
		"longitude": -87.64435,
		"address1": "2723 N Clark St",
		"address2": null,
		"address3": "",
		"city": "Chicago",
		"state": "IL",
		"zip_code": "60614"
	},
	{
		"venue_id": "yelps0M7_FoBGVAP-Wmo3_oq6g",
		"venue_name": "Saigon Bistro",
		"latitude": 41.995204,
		"longitude": -87.699738,
		"address1": "6244 N California",
		"address2": null,
		"address3": "",
		"city": "Chicago",
		"state": "IL",
		"zip_code": "60659"
	},
	{
		"venue_id": "yelp1m7wMHhxxjtd2QN8o1prug",
		"venue_name": "New Orleans Seafood",
		"latitude": 41.9733425667309,
		"longitude": -87.656897617771,
		"address1": "1046 1/2 W Argyle St",
		"address2": "",
		"address3": null,
		"city": "Chicago",
		"state": "IL",
		"zip_code": "60640"
	},
	{
		"venue_id": "yelpCAjaxGEQejwZxNIwS-ObcA",
		"venue_name": "The Cajun Connoisseur",
		"latitude": 41.8161985809246,
		"longitude": -87.606238424778,
		"address1": "4317 S Cottage Grove Ave",
		"address2": null,
		"address3": "",
		"city": "Chicago",
		"state": "IL",
		"zip_code": "60653"
	},
	{
		"venue_id": "yelpGMpr-2z4rE1cyGS9p0la4g",
		"venue_name": "Asian Cajun PLUS",
		"latitude": 41.8535118,
		"longitude": -87.6269896,
		"address1": "2115 S State St",
		"address2": "Unit A",
		"address3": null,
		"city": "Chicago",
		"state": "IL",
		"zip_code": "60616"
	},
	{
		"venue_id": "yelpynloEehLRbX69kYLJFiL2A",
		"venue_name": "Norman's Bistro",
		"latitude": 41.81667,
		"longitude": -87.60146,
		"address1": "1001 E 43rd",
		"address2": "",
		"address3": "",
		"city": "Chicago",
		"state": "IL",
		"zip_code": "60653"
	},
	{
		"venue_id": "yelpkFbnhGBunOGVxxCC19MBuQ",
		"venue_name": "New Orleans Kitchen",
		"latitude": 41.884739,
		"longitude": -87.63133,
		"address1": "100 W Randolph St",
		"address2": "",
		"address3": "Atrium Mall",
		"city": "Chicago",
		"state": "IL",
		"zip_code": "60601"
	},
	{
		"venue_id": "yelpTwO_7y6GWEFARJ1I62k56Q",
		"venue_name": "Backdoor Saloon",
		"latitude": 41.88466,
		"longitude": -87.64923,
		"address1": "844 W Randolph St",
		"address2": "Fl 2",
		"address3": null,
		"city": "Chicago",
		"state": "IL",
		"zip_code": "60607"
	},
	{
		"venue_id": "yelpwirALlXHxcpcy0aKBjYnKg",
		"venue_name": "Urban Market",
		"latitude": 41.8816126,
		"longitude": -87.629604,
		"address1": "10 S Dearborn St",
		"address2": null,
		"address3": "",
		"city": "Chicago",
		"state": "IL",
		"zip_code": "60603"
	},
	{
		"venue_id": "yelp8XpISuEkOXIstwV7UH8TOg",
		"venue_name": "Boo Coo Roux",
		"latitude": 41.85884,
		"longitude": -87.7158199,
		"address1": "",
		"address2": "",
		"address3": "",
		"city": "Chicago",
		"state": "IL",
		"zip_code": "60423"
	},
	{
		"venue_id": "yelptd0YqHr5KZYkgbI55MgnIg",
		"venue_name": "DrinkHaus Supper Club",
		"latitude": 41.87831,
		"longitude": -87.64805,
		"address1": "820 W Jackson Blvd",
		"address2": null,
		"address3": "",
		"city": "Chicago",
		"state": "IL",
		"zip_code": "60607"
	},
	{
		"venue_id": "yelpTRp2lLAa7Qp-n7Z9Sz2abg",
		"venue_name": "Shanahan's",
		"latitude": 41.87981,
		"longitude": -87.80955,
		"address1": "7353 Madison St",
		"address2": "",
		"address3": "",
		"city": "Forest Park",
		"state": "IL",
		"zip_code": "60130"
	},
	{
		"venue_id": "yelp_-uJdueVCgR7zynardt-bA",
		"venue_name": "JoKeR's Cajun Kitchen",
		"latitude": 41.8839695,
		"longitude": -87.6410747,
		"address1": "131 N Clinton St French Market",
		"address2": "",
		"address3": "",
		"city": "Chicago",
		"state": "IL",
		"zip_code": "60661"
	},
	{
		"venue_id": "yelpmdWbS2XCQFnV0aaB2WCasQ",
		"venue_name": "Surf's Up Restaurants",
		"latitude": 41.9089851,
		"longitude": -87.7858199,
		"address1": "6427 W North Ave",
		"address2": null,
		"address3": "",
		"city": "Oak Park",
		"state": "IL",
		"zip_code": "60302"
	},
	{
		"venue_id": "yelpau_1H6ObKX1U55mcv_ce_Q",
		"venue_name": "Lagnaippe",
		"latitude": 41.8858375549316,
		"longitude": -87.6213607788086,
		"address1": "55 W Riverwalk S",
		"address2": "",
		"address3": "",
		"city": "Chicago",
		"state": "IL",
		"zip_code": "60601"
	}
]