[
	{
		"venue_id": "yelpoEFJ29zAQaCNnQzebHQvpg",
		"venue_name": "The Violet Hour",
		"latitude": 41.909095,
		"longitude": -87.677829,
		"address1": "1520 N Damen Ave",
		"address2": "",
		"address3": "",
		"city": "Chicago",
		"state": "IL",
		"zip_code": "60622"
	},
	{
		"venue_id": "yelpdux6UvpMGJuHquFA3JfR3A",
		"venue_name": "Green Street Smoked Meats",
		"latitude": 41.883623,
		"longitude": -87.648907,
		"address1": "112 N Green St",
		"address2": null,
		"address3": "",
		"city": "Chicago",
		"state": "IL",
		"zip_code": "60607"
	},
	{
		"venue_id": "yelp9mhqcimD0CYvqxzfj_VXnQ",
		"venue_name": "Little Bad Wolf",
		"latitude": 41.9833823855364,
		"longitude": -87.6690510144549,
		"address1": "1541 W Bryn Mawr Ave",
		"address2": "",
		"address3": "",
		"city": "Chicago",
		"state": "IL",
		"zip_code": "60660"
	},
	{
		"venue_id": "yelpsfWMOqUEp8S2adDeJp7Kzg",
		"venue_name": "Carnivale",
		"latitude": 41.887075681459,
		"longitude": -87.646048728271,
		"address1": "702 W Fulton Market",
		"address2": "",
		"address3": "",
		"city": "Chicago",
		"state": "IL",
		"zip_code": "60661"
	},
	{
		"venue_id": "yelpssrgrr-IjNFSdlLzCK5p0A",
		"venue_name": "The Aviary",
		"latitude": 41.8865304811531,
		"longitude": -87.6520544164074,
		"address1": "955 W Fulton Market",
		"address2": "",
		"address3": "",
		"city": "Chicago",
		"state": "IL",
		"zip_code": "60607"
	},
	{
		"venue_id": "yelpBmqLmgX7i-pM-0h_xzbwMA",
		"venue_name": "Maude's Liquor Bar",
		"latitude": 41.88466,
		"longitude": -87.64908,
		"address1": "840 W Randolph St",
		"address2": "",
		"address3": "",
		"city": "Chicago",
		"state": "IL",
		"zip_code": "60607"
	},
	{
		"venue_id": "yelpsWYRaPCYHrTxsZPLWmzkzQ",
		"venue_name": "Scofflaw",
		"latitude": 41.9173240661621,
		"longitude": -87.7071762084961,
		"address1": "3201 W Armitage Ave",
		"address2": "",
		"address3": "",
		"city": "Chicago",
		"state": "IL",
		"zip_code": "60647"
	},
	{
		"venue_id": "yelpL1CS0gyTolKComzGwLk37A",
		"venue_name": "Signature Lounge",
		"latitude": 41.8987274567478,
		"longitude": -87.6228471717583,
		"address1": "875 N Michigan Ave",
		"address2": "",
		"address3": null,
		"city": "Chicago",
		"state": "IL",
		"zip_code": "60611"
	},
	{
		"venue_id": "yelpSfx5Yb95Wav1aOa0Qkv1VA",
		"venue_name": "Mercadito",
		"latitude": 41.8894499,
		"longitude": -87.63162,
		"address1": "108 W Kinzie St",
		"address2": "",
		"address3": "",
		"city": "Chicago",
		"state": "IL",
		"zip_code": "60654"
	},
	{
		"venue_id": "yelpwUkLiVC0XDuRs9zihWUPTw",
		"venue_name": "Ditka's Restaurant",
		"latitude": 41.89859,
		"longitude": -87.62558,
		"address1": "100 E Chestnut St",
		"address2": "",
		"address3": "",
		"city": "Chicago",
		"state": "IL",
		"zip_code": "60611"
	},
	{
		"venue_id": "yelpksY97mbEy23n8GbYxOBgpA",
		"venue_name": "25 Degrees",
		"latitude": 41.89595,
		"longitude": -87.63159,
		"address1": "736 N Clark St",
		"address2": "",
		"address3": "",
		"city": "Chicago",
		"state": "IL",
		"zip_code": "60654"
	},
	{
		"venue_id": "yelp0LxN36awD48RfrBJGl2BYg",
		"venue_name": "Imperial Lamian",
		"latitude": 41.8901808541776,
		"longitude": -87.6281682718002,
		"address1": "6 W Hubbard St",
		"address2": "",
		"address3": "",
		"city": "Chicago",
		"state": "IL",
		"zip_code": "60654"
	},
	{
		"venue_id": "yelpcuGkFLdPWfFX9hm2bcBHkQ",
		"venue_name": "Twin Anchors Restaurant & Tavern",
		"latitude": 41.91268,
		"longitude": -87.63832,
		"address1": "1655 N Sedgwick St",
		"address2": "",
		"address3": "",
		"city": "Chicago",
		"state": "IL",
		"zip_code": "60614"
	},
	{
		"venue_id": "yelp8oVuCgY36DBA78kz6YcvMg",
		"venue_name": "The Franklin Room",
		"latitude": 41.8944245,
		"longitude": -87.6354674,
		"address1": "675 N Franklin St",
		"address2": null,
		"address3": "",
		"city": "Chicago",
		"state": "IL",
		"zip_code": "60654"
	},
	{
		"venue_id": "yelpLaYrGWnZazWsc3xi1sTYfw",
		"venue_name": "Arbella",
		"latitude": 41.8920162809497,
		"longitude": -87.6318293755272,
		"address1": "112 W Grand Ave",
		"address2": "",
		"address3": "",
		"city": "Chicago",
		"state": "IL",
		"zip_code": "60654"
	},
	{
		"venue_id": "yelpUKs05XWhbP0riI8O0Kv36w",
		"venue_name": "Boeufhaus",
		"latitude": 41.899831,
		"longitude": -87.687487,
		"address1": "1012 N Western Ave",
		"address2": "",
		"address3": "",
		"city": "Chicago",
		"state": "IL",
		"zip_code": "60622"
	},
	{
		"venue_id": "yelpzipWyPrxNX8m5XFwm3b1lg",
		"venue_name": "Masa Azul",
		"latitude": 41.9318778,
		"longitude": -87.7002477,
		"address1": "2901 W Diversey Ave",
		"address2": null,
		"address3": "",
		"city": "Chicago",
		"state": "IL",
		"zip_code": "60647"
	},
	{
		"venue_id": "yelpUwZE-wYxFYnbRcsrWcIVxg",
		"venue_name": "The River Valley Farmer's Table",
		"latitude": 41.965285053298,
		"longitude": -87.6757046380287,
		"address1": "1820 W Wilson Ave",
		"address2": "",
		"address3": "",
		"city": "Chicago",
		"state": "IL",
		"zip_code": "60640"
	},
	{
		"venue_id": "yelp1uFRbr6B-BiNGtT90sdk0w",
		"venue_name": "Community Tavern",
		"latitude": 41.9540099,
		"longitude": -87.74883,
		"address1": "4038 N Milwaukee Ave",
		"address2": null,
		"address3": "",
		"city": "Chicago",
		"state": "IL",
		"zip_code": "60641"
	},
	{
		"venue_id": "yelpTphN-KFZErtq2w9CrrCS-Q",
		"venue_name": "CH Distillery",
		"latitude": 41.8846370998956,
		"longitude": -87.6422654490474,
		"address1": "564 W Randolph St",
		"address2": "",
		"address3": "",
		"city": "Chicago",
		"state": "IL",
		"zip_code": "60661"
	},
	{
		"venue_id": "yelpcLaMG2ztKxqqLhRRpP9HNg",
		"venue_name": "Ipsento 606",
		"latitude": 41.91443,
		"longitude": -87.68326,
		"address1": "1813 N Milwaukee Ave",
		"address2": "",
		"address3": "",
		"city": "Chicago",
		"state": "IL",
		"zip_code": "60647"
	},
	{
		"venue_id": "yelpSy8ZjqYOE62tnpf0b1qa1g",
		"venue_name": "Gale Street Inn",
		"latitude": 41.9699747728431,
		"longitude": -87.762835174799,
		"address1": "4914 N Milwaukee Ave",
		"address2": "",
		"address3": "",
		"city": "Chicago",
		"state": "IL",
		"zip_code": "60630"
	},
	{
		"venue_id": "yelpXVDQYUFhJ4Ur_92eVYs3CA",
		"venue_name": "Vincent Restaurant",
		"latitude": 41.9798175448213,
		"longitude": -87.6675344363907,
		"address1": "1475 W Balmoral Ave",
		"address2": "",
		"address3": "",
		"city": "Chicago",
		"state": "IL",
		"zip_code": "60640"
	},
	{
		"venue_id": "yelp-fYvsZKybtBorDlwxs9T1A",
		"venue_name": "Dos Urban Cantina",
		"latitude": 41.91725,
		"longitude": -87.69841,
		"address1": "2829 W Armitage Ave",
		"address2": "",
		"address3": "",
		"city": "Chicago",
		"state": "IL",
		"zip_code": "60647"
	},
	{
		"venue_id": "yelpumw3lIhc_h9DUGjN0DklxQ",
		"venue_name": "The Delta",
		"latitude": 41.91032,
		"longitude": -87.67186,
		"address1": "1745 W North Ave",
		"address2": "",
		"address3": null,
		"city": "Chicago",
		"state": "IL",
		"zip_code": "60622"
	},
	{
		"venue_id": "yelp2R7ipjEkeQo821P9AnpJGA",
		"venue_name": "Enso Sushi & Bar",
		"latitude": 41.9107586,
		"longitude": -87.6773651,
		"address1": "1613 N Damen Ave",
		"address2": "",
		"address3": "",
		"city": "Chicago",
		"state": "IL",
		"zip_code": "60647"
	},
	{
		"venue_id": "yelpPzPyHLmRSH2ofemXEShkbw",
		"venue_name": "LuxBar",
		"latitude": 41.90177,
		"longitude": -87.62763,
		"address1": "18 E Bellevue",
		"address2": null,
		"address3": "",
		"city": "Chicago",
		"state": "IL",
		"zip_code": "60611"
	},
	{
		"venue_id": "yelpT-t_OAwQ5e_1Lvp6v_RfXQ",
		"venue_name": "Watershed",
		"latitude": 41.8926001,
		"longitude": -87.6279651,
		"address1": "601 N State St",
		"address2": "",
		"address3": "",
		"city": "Chicago",
		"state": "IL",
		"zip_code": "60654"
	},
	{
		"venue_id": "yelpfJkO3cfnNXrLIoYYGBX7_g",
		"venue_name": "Table, Donkey and Stick",
		"latitude": 41.91775,
		"longitude": -87.695965,
		"address1": "2728 W Armitage Ave",
		"address2": "",
		"address3": "",
		"city": "Chicago",
		"state": "IL",
		"zip_code": "60647"
	},
	{
		"venue_id": "yelpllGjSz6hFoEv4xiOWgvJ8g",
		"venue_name": "The Barrelhouse Flat",
		"latitude": 41.92945,
		"longitude": -87.65478,
		"address1": "2624 N Lincoln Ave",
		"address2": "",
		"address3": "",
		"city": "Chicago",
		"state": "IL",
		"zip_code": "60614"
	},
	{
		"venue_id": "yelpxFBQ1md6PDm7YEpJARoxAA",
		"venue_name": "The VIG Chicago",
		"latitude": 41.9099251,
		"longitude": -87.6345035,
		"address1": "1527 N Wells St",
		"address2": null,
		"address3": null,
		"city": "Chicago",
		"state": "IL",
		"zip_code": "60610"
	},
	{
		"venue_id": "yelpQ9uxInveq-RFvpF1jkO8wQ",
		"venue_name": "Band of Bohemia",
		"latitude": 41.96761,
		"longitude": -87.6751,
		"address1": "4710 N Ravenswood Ave",
		"address2": "",
		"address3": "",
		"city": "Chicago",
		"state": "IL",
		"zip_code": "60640"
	},
	{
		"venue_id": "yelp2HCUc0_ALwpoyrZjblrg5A",
		"venue_name": "Pinstripes",
		"latitude": 41.8908475350465,
		"longitude": -87.6161211240793,
		"address1": "435 E Illinois St",
		"address2": "",
		"address3": "",
		"city": "Chicago",
		"state": "IL",
		"zip_code": "60611"
	},
	{
		"venue_id": "yelpmkFBCrtICVpEVOq-_4tBcQ",
		"venue_name": "Tiny Lounge",
		"latitude": 41.9608935815081,
		"longitude": -87.6839137780437,
		"address1": "4352 N Leavitt St",
		"address2": null,
		"address3": "",
		"city": "Chicago",
		"state": "IL",
		"zip_code": "60618"
	},
	{
		"venue_id": "yelpWLcAdMilB7fDFIZLa2vI_w",
		"venue_name": "STK Chicago",
		"latitude": 41.88902,
		"longitude": -87.62864,
		"address1": "9 West Kinzie St",
		"address2": null,
		"address3": null,
		"city": "Chicago",
		"state": "IL",
		"zip_code": "60654"
	},
	{
		"venue_id": "yelp6a_deomxlTJf4oXKxnAG3Q",
		"venue_name": "Mas Alla Del Sol",
		"latitude": 41.9884118474889,
		"longitude": -87.6604411700977,
		"address1": "5848 N Broadway St",
		"address2": "",
		"address3": "",
		"city": "Chicago",
		"state": "IL",
		"zip_code": "60660"
	},
	{
		"venue_id": "yelpr4iweDMqH0NGdPIZ53Buuw",
		"venue_name": "Maria's Packaged Goods and Community Bar",
		"latitude": 41.83818,
		"longitude": -87.65116,
		"address1": "960 W 31st St",
		"address2": "",
		"address3": "",
		"city": "Chicago",
		"state": "IL",
		"zip_code": "60608"
	},
	{
		"venue_id": "yelpiV0dJWBCENr4ZiTgqK4lLQ",
		"venue_name": "Southport & Irving SIP",
		"latitude": 41.95452,
		"longitude": -87.6644318,
		"address1": "4000 N Southport Ave",
		"address2": "",
		"address3": "",
		"city": "Chicago",
		"state": "IL",
		"zip_code": "60613"
	},
	{
		"venue_id": "yelpmBha1l54dLfu86qbsxoaQQ",
		"venue_name": "Billy Sunday",
		"latitude": 41.9278208,
		"longitude": -87.7065507,
		"address1": "3143 W Logan Blvd",
		"address2": "",
		"address3": "",
		"city": "Chicago",
		"state": "IL",
		"zip_code": "60647"
	},
	{
		"venue_id": "yelpfLwNhXatcSoQEI8XeFbrtg",
		"venue_name": "Bangers & Lace",
		"latitude": 41.90357,
		"longitude": -87.67023,
		"address1": "1670 W Division St",
		"address2": "",
		"address3": "",
		"city": "Chicago",
		"state": "IL",
		"zip_code": "60622"
	},
	{
		"venue_id": "yelptL8lLGQaAnKb9I7a0vsGtg",
		"venue_name": "PR Italian Bistro",
		"latitude": 41.953,
		"longitude": -87.65477,
		"address1": "3908 N Sheridan Rd",
		"address2": "",
		"address3": "",
		"city": "Chicago",
		"state": "IL",
		"zip_code": "60613"
	},
	{
		"venue_id": "yelpxAiunROKqYTbRaEw1nvnLg",
		"venue_name": "Kibbitznest Books, Brews & Blarney",
		"latitude": 41.9219975256493,
		"longitude": -87.6650943962952,
		"address1": "2212 N Clybourn Ave",
		"address2": "",
		"address3": null,
		"city": "Chicago",
		"state": "IL",
		"zip_code": "60614"
	},
	{
		"venue_id": "yelpytZzmlgLBM8r3TqY7WAY0A",
		"venue_name": "Club Lucky",
		"latitude": 41.91256,
		"longitude": -87.67367,
		"address1": "1824 W Wabansia Ave",
		"address2": "",
		"address3": "",
		"city": "Chicago",
		"state": "IL",
		"zip_code": "60622"
	},
	{
		"venue_id": "yelp_1rixyDTpzEdBQ7iISH3mw",
		"venue_name": "The California Clipper",
		"latitude": 41.8995106,
		"longitude": -87.6969527,
		"address1": "1002 N California Ave",
		"address2": "",
		"address3": "",
		"city": "Chicago",
		"state": "IL",
		"zip_code": "60622"
	},
	{
		"venue_id": "yelp3wK-MKxgpiTQ7C7HSFbK0w",
		"venue_name": "Bakin' & Eggs",
		"latitude": 41.93823,
		"longitude": -87.66714,
		"address1": "3120 N Lincoln Ave",
		"address2": "",
		"address3": "",
		"city": "Chicago",
		"state": "IL",
		"zip_code": "60657"
	},
	{
		"venue_id": "yelpTjPPHjSDJwrFWvG1W3drtw",
		"venue_name": "Shanghai Terrace",
		"latitude": 41.89624,
		"longitude": -87.62497,
		"address1": "108 E Superior St",
		"address2": "",
		"address3": "",
		"city": "Chicago",
		"state": "IL",
		"zip_code": "60611"
	},
	{
		"venue_id": "yelp2mXTTmT65KzUCf_2l-VS-w",
		"venue_name": "The Duck Inn",
		"latitude": 41.8444817593219,
		"longitude": -87.6601841065537,
		"address1": "2701 S Eleanor",
		"address2": "",
		"address3": "",
		"city": "Chicago",
		"state": "IL",
		"zip_code": "60608"
	},
	{
		"venue_id": "yelpdkN4tBckgSUM39_yI5eGEA",
		"venue_name": "Broken Shaker Chicago",
		"latitude": 41.89233,
		"longitude": -87.62727,
		"address1": "19 East Ohio St",
		"address2": "",
		"address3": "",
		"city": "Chicago",
		"state": "IL",
		"zip_code": "60611"
	},
	{
		"venue_id": "yelpOcayko4Wvm2Oz7-RGx91kw",
		"venue_name": "Del Toro",
		"latitude": 41.85324,
		"longitude": -87.6462,
		"address1": "2133 S Halsted St",
		"address2": "",
		"address3": "",
		"city": "Chicago",
		"state": "IL",
		"zip_code": "60608"
	},
	{
		"venue_id": "yelp7NjkcZVOFfw31A0mPBPSPQ",
		"venue_name": "Proxi",
		"latitude": 41.8842951,
		"longitude": -87.6422749,
		"address1": "565 W Randolph St",
		"address2": "",
		"address3": null,
		"city": "Chicago",
		"state": "IL",
		"zip_code": "60661"
	},
	{
		"venue_id": "yelpAT-tDO0T72d7gacVYXPu7g",
		"venue_name": "The Victor Bar",
		"latitude": 41.9544934,
		"longitude": -87.6785759,
		"address1": "4011 N Damen Ave",
		"address2": "",
		"address3": "",
		"city": "Chicago",
		"state": "IL",
		"zip_code": "60618"
	},
	{
		"venue_id": "yelpID-0tVdM9YatcHzjDfiofg",
		"venue_name": "Fremont",
		"latitude": 41.89063,
		"longitude": -87.6287,
		"address1": "15 W Illinois St",
		"address2": "",
		"address3": "",
		"city": "Chicago",
		"state": "IL",
		"zip_code": "60654"
	},
	{
		"venue_id": "yelpwfxgPtSkiAfkKNBVEWts9g",
		"venue_name": "Bar Roma",
		"latitude": 41.9745114390209,
		"longitude": -87.668036185205,
		"address1": "5101 N Clark St",
		"address2": "",
		"address3": null,
		"city": "Chicago",
		"state": "IL",
		"zip_code": "60640"
	},
	{
		"venue_id": "yelpmOywm85qS-S6sYqO4Ir6bg",
		"venue_name": "Beatnik",
		"latitude": 41.8962675288597,
		"longitude": -87.6676179198911,
		"address1": "1604 W Chicago Ave",
		"address2": "",
		"address3": null,
		"city": "Chicago",
		"state": "IL",
		"zip_code": "60622"
	},
	{
		"venue_id": "yelpcnDJOvf7kErlCj1LgDTe6A",
		"venue_name": "Chicken & Farm Shop",
		"latitude": 41.883746,
		"longitude": -87.648281,
		"address1": "113-125 N Green St",
		"address2": "",
		"address3": "",
		"city": "Chicago",
		"state": "IL",
		"zip_code": "60607"
	},
	{
		"venue_id": "yelpKEurf3alWcf4Z0RqPtTYDQ",
		"venue_name": "Monnie Burke's",
		"latitude": 41.85759,
		"longitude": -87.65562,
		"address1": "1163 W 18th St",
		"address2": null,
		"address3": "",
		"city": "Chicago",
		"state": "IL",
		"zip_code": "60608"
	},
	{
		"venue_id": "yelpAbLaL2AsZMzL5TTYTyuO-w",
		"venue_name": "Rogers Park Social",
		"latitude": 42.0074272,
		"longitude": -87.6662979,
		"address1": "6920 N Glenwood Ave",
		"address2": null,
		"address3": "",
		"city": "Chicago",
		"state": "IL",
		"zip_code": "60626"
	},
	{
		"venue_id": "yelpUBRUh0001F5MbeziBV-BFw",
		"venue_name": "Range",
		"latitude": 41.921427,
		"longitude": -87.656728,
		"address1": "1119 W Webster",
		"address2": "",
		"address3": "",
		"city": "Chicago",
		"state": "IL",
		"zip_code": "60614"
	},
	{
		"venue_id": "yelp7SlA6TVEt5lp-Li3rU0sVA",
		"venue_name": "AceBounce",
		"latitude": 41.8864846,
		"longitude": -87.6311647,
		"address1": "230 N Clark St",
		"address2": null,
		"address3": "",
		"city": "Chicago",
		"state": "IL",
		"zip_code": "60601"
	},
	{
		"venue_id": "yelpngB0iQM1Yz7Nx_tQZqU7NA",
		"venue_name": "Daisies",
		"latitude": 41.92735,
		"longitude": -87.70405,
		"address1": "2523 N Milwaukee Ave",
		"address2": "",
		"address3": null,
		"city": "Chicago",
		"state": "IL",
		"zip_code": "60647"
	},
	{
		"venue_id": "yelpLAhLCarbN4hX0X8BBgzmsg",
		"venue_name": "Furious Spoon - Logan Square",
		"latitude": 41.9249801635742,
		"longitude": -87.7010879516602,
		"address1": "2410 N Milwaukee Ave",
		"address2": null,
		"address3": "",
		"city": "Chicago",
		"state": "IL",
		"zip_code": "60647"
	},
	{
		"venue_id": "yelpO12QxTwfeeavxVx2uKjBlw",
		"venue_name": "Earls Kitchen + Bar",
		"latitude": 41.9086332515198,
		"longitude": -87.6474467969988,
		"address1": "1538 N Clybourn Ave",
		"address2": "",
		"address3": "",
		"city": "Chicago",
		"state": "IL",
		"zip_code": "60642"
	},
	{
		"venue_id": "yelp3ZM20Dzkfj7rhFE9aPU3Tw",
		"venue_name": "Drew's on Halsted",
		"latitude": 41.9403396556238,
		"longitude": -87.6491832733154,
		"address1": "3201 N Halsted St",
		"address2": "",
		"address3": "",
		"city": "Chicago",
		"state": "IL",
		"zip_code": "60657"
	},
	{
		"venue_id": "yelpIJMLIIudGq04iDwQGxTMJA",
		"venue_name": "the Albert",
		"latitude": 41.89368,
		"longitude": -87.62148,
		"address1": "228 E Ontario St",
		"address2": "Fl 1",
		"address3": "",
		"city": "Chicago",
		"state": "IL",
		"zip_code": "60611"
	},
	{
		"venue_id": "yelp8oOZU9ERRyiiz3AP78d1Gw",
		"venue_name": "Roanoke Restaurant",
		"latitude": 41.8818351,
		"longitude": -87.6319349,
		"address1": "135 W Madison St",
		"address2": null,
		"address3": "",
		"city": "Chicago",
		"state": "IL",
		"zip_code": "60602"
	},
	{
		"venue_id": "yelpvyyTRcWa5AfRKcPC9ozn5w",
		"venue_name": "Angelo's Wine Bar",
		"latitude": 41.9613729151644,
		"longitude": -87.7043616771698,
		"address1": "3026 W Montrose Ave",
		"address2": "",
		"address3": "",
		"city": "Chicago",
		"state": "IL",
		"zip_code": "60618"
	},
	{
		"venue_id": "yelpS82Ug9CXLF-mFAi6n33UEA",
		"venue_name": "G & O",
		"latitude": 41.8905555032465,
		"longitude": -87.6591891823589,
		"address1": "459 W Ogden Ave",
		"address2": "",
		"address3": "",
		"city": "Chicago",
		"state": "IL",
		"zip_code": "60642"
	},
	{
		"venue_id": "yelpR50c3h3efIq7V8j2hZsE_A",
		"venue_name": "Fat Cat",
		"latitude": 41.9701070447662,
		"longitude": -87.6599332164817,
		"address1": "4840 N Broadway St",
		"address2": "",
		"address3": "",
		"city": "Chicago",
		"state": "IL",
		"zip_code": "60640"
	},
	{
		"venue_id": "yelp4R8lJFxiZey5CZ3ImiwsgQ",
		"venue_name": "Quiote",
		"latitude": 41.9265,
		"longitude": -87.6978,
		"address1": "2456 N California Ave",
		"address2": null,
		"address3": "",
		"city": "Chicago",
		"state": "IL",
		"zip_code": "60647"
	},
	{
		"venue_id": "yelp_KzZ5hqFD1uJS6gm2tsP2g",
		"venue_name": "Clever Rabbit",
		"latitude": 41.90289,
		"longitude": -87.67793,
		"address1": "2015 W Division St",
		"address2": "",
		"address3": null,
		"city": "Chicago",
		"state": "IL",
		"zip_code": "60622"
	},
	{
		"venue_id": "yelp2kcrnjcmvPgUTqs3m5My8Q",
		"venue_name": "Son of a Butcher by Whisk",
		"latitude": 41.93226,
		"longitude": -87.70148,
		"address1": "2934 W Diversey Ave",
		"address2": "",
		"address3": "",
		"city": "Chicago",
		"state": "IL",
		"zip_code": "60647"
	},
	{
		"venue_id": "yelp9iH-l5ysi--Ht3Q7IFSxMQ",
		"venue_name": "The Sixth",
		"latitude": 41.9687707571803,
		"longitude": -87.6843456923962,
		"address1": "2200 W Lawrence Ave",
		"address2": "",
		"address3": "Lincoln Square",
		"city": "Chicago",
		"state": "IL",
		"zip_code": "60625"
	},
	{
		"venue_id": "yelp5I9mVLHZupksTqU0BsP9Mw",
		"venue_name": "The Madison Bar and Kitchen",
		"latitude": 41.88138,
		"longitude": -87.65321,
		"address1": "1027 W Madison St",
		"address2": null,
		"address3": "",
		"city": "Chicago",
		"state": "IL",
		"zip_code": "60607"
	},
	{
		"venue_id": "yelpowgkvmwgV2EvPrL0xaT6sA",
		"venue_name": "La Josie",
		"latitude": 41.8848,
		"longitude": -87.64729,
		"address1": "740 W Randolph St",
		"address2": "",
		"address3": null,
		"city": "Chicago",
		"state": "IL",
		"zip_code": "60661"
	},
	{
		"venue_id": "yelpsyFfym4JRuHrT_3cUhuF1g",
		"venue_name": "Bernie's Lunch & Supper",
		"latitude": 41.8941497802734,
		"longitude": -87.6373977661133,
		"address1": "660 N Orleans St",
		"address2": null,
		"address3": "",
		"city": "Chicago",
		"state": "IL",
		"zip_code": "60654"
	},
	{
		"venue_id": "yelptezausSlz9qoapwGymYoPg",
		"venue_name": "Hearth And Crust",
		"latitude": 41.95408,
		"longitude": -87.71829,
		"address1": "3608 W Irving Park Rd",
		"address2": "",
		"address3": null,
		"city": "Chicago",
		"state": "IL",
		"zip_code": "60618"
	},
	{
		"venue_id": "yelph8mZa3L5TRGk9EZnpMxuSg",
		"venue_name": "Arun's Thai Restaurant",
		"latitude": 41.95744,
		"longitude": -87.70846,
		"address1": "4156 N Kedzie Ave",
		"address2": "",
		"address3": "",
		"city": "Chicago",
		"state": "IL",
		"zip_code": "60618"
	},
	{
		"venue_id": "yelpPCfWAWgdt3iDiTaUNUkygQ",
		"venue_name": "White Oak Tavern & Inn",
		"latitude": 41.92187,
		"longitude": -87.65869,
		"address1": "1200 W Webster Ave",
		"address2": "",
		"address3": "",
		"city": "Chicago",
		"state": "IL",
		"zip_code": "60614"
	},
	{
		"venue_id": "yelpugCOoUvZZzGBYmOVcM1HiA",
		"venue_name": "Drumbar",
		"latitude": 41.8992665074485,
		"longitude": -87.6217496395111,
		"address1": "201 E Delaware Pl",
		"address2": "",
		"address3": "",
		"city": "Chicago",
		"state": "IL",
		"zip_code": "60611"
	},
	{
		"venue_id": "yelp6Aw8PTmdxFebpuXAZB11dQ",
		"venue_name": "Apogee Lounge",
		"latitude": 41.894205876102,
		"longitude": -87.6284554973245,
		"address1": "2 W Erie St",
		"address2": "Fl 26",
		"address3": null,
		"city": "Chicago",
		"state": "IL",
		"zip_code": "60611"
	},
	{
		"venue_id": "yelpfGAYT6b0vZSGiTISd-zFZg",
		"venue_name": "Cafe Robey",
		"latitude": 41.910642,
		"longitude": -87.678264,
		"address1": "2018 W North Ave",
		"address2": "",
		"address3": null,
		"city": "Chicago",
		"state": "IL",
		"zip_code": "60647"
	},
	{
		"venue_id": "yelpnE5IGY8AVkeKtOzmuFfKqA",
		"venue_name": "Entente",
		"latitude": 41.93714,
		"longitude": -87.66564,
		"address1": "3056 N Lincoln Ave",
		"address2": "",
		"address3": null,
		"city": "Chicago",
		"state": "IL",
		"zip_code": "60657"
	},
	{
		"venue_id": "yelp3jfeh2a7tf4YHeyLQuGjyQ",
		"venue_name": "Charleston",
		"latitude": 41.9198670200347,
		"longitude": -87.6803989999877,
		"address1": "2076 N Hoyne Ave",
		"address2": "",
		"address3": null,
		"city": "Chicago",
		"state": "IL",
		"zip_code": "60647"
	},
	{
		"venue_id": "yelpweNxGBwAOW_CVMBu02CUBQ",
		"venue_name": "Easy Street",
		"latitude": 41.94921,
		"longitude": -87.76721,
		"address1": "3750 N Central Ave",
		"address2": "",
		"address3": null,
		"city": "Chicago",
		"state": "IL",
		"zip_code": "60634"
	},
	{
		"venue_id": "yelpjsBWsX-6ceQxXYZ6E0CMWA",
		"venue_name": "Vol. 39",
		"latitude": 41.88087,
		"longitude": -87.63175,
		"address1": "39 South La Salle St",
		"address2": "",
		"address3": null,
		"city": "Chicago",
		"state": "IL",
		"zip_code": "60603"
	},
	{
		"venue_id": "yelpwmiWWaog8C_PFP4kN6E3Fg",
		"venue_name": "Game Room",
		"latitude": 41.881649,
		"longitude": -87.6250076,
		"address1": "Chicago Athletic Association",
		"address2": "",
		"address3": "12 S Michigan",
		"city": "Chicago",
		"state": "IL",
		"zip_code": "60603"
	},
	{
		"venue_id": "yelpLiiqteXtHGwXOVy7rF2rjQ",
		"venue_name": "The Double Tavern",
		"latitude": 41.9245086093512,
		"longitude": -87.7154904576721,
		"address1": "3545 W Fullerton Ave",
		"address2": "",
		"address3": "",
		"city": "Chicago",
		"state": "IL",
		"zip_code": "60647"
	},
	{
		"venue_id": "yelpvwjgTD_eSgkkwjKYRBBKBQ",
		"venue_name": "Celeste",
		"latitude": 41.889783,
		"longitude": -87.631672,
		"address1": "111 W Hubbard St",
		"address2": "",
		"address3": "",
		"city": "Chicago",
		"state": "IL",
		"zip_code": "60654"
	},
	{
		"venue_id": "yelpk_9eji4mAhTkS01m8q4SSw",
		"venue_name": "I|O Godfrey",
		"latitude": 41.8946369886093,
		"longitude": -87.6319992814758,
		"address1": "127 W Huron At Lasalle",
		"address2": "",
		"address3": null,
		"city": "Chicago",
		"state": "IL",
		"zip_code": "60654"
	},
	{
		"venue_id": "yelpoWgKuZYat0oWzUrsxmmb8w",
		"venue_name": "Best Intentions",
		"latitude": 41.91707,
		"longitude": -87.7101,
		"address1": "3281 W Armitage Ave",
		"address2": "",
		"address3": "",
		"city": "Chicago",
		"state": "IL",
		"zip_code": "60647"
	},
	{
		"venue_id": "yelpxZJj3bjE45Lfa2TeXzg5oQ",
		"venue_name": "Broken English Taco Pub - Lincoln Park",
		"latitude": 41.92865,
		"longitude": -87.65352,
		"address1": "2576 N. Lincoln Ave",
		"address2": "",
		"address3": null,
		"city": "Chicago",
		"state": "IL",
		"zip_code": "60614"
	},
	{
		"venue_id": "yelpzDBpKDT-vMHoHtBxOTkqiA",
		"venue_name": "Willow Room",
		"latitude": 41.9139586307373,
		"longitude": -87.6485445788551,
		"address1": "1800 N Halsted St",
		"address2": "",
		"address3": null,
		"city": "Chicago",
		"state": "IL",
		"zip_code": "60614"
	},
	{
		"venue_id": "yelpIY1Daz2ijJuy0BZmrUz8zw",
		"venue_name": "Publican Anker",
		"latitude": 41.9099917,
		"longitude": -87.6770808,
		"address1": "1576 N Milwaukee Ave",
		"address2": "",
		"address3": null,
		"city": "Chicago",
		"state": "IL",
		"zip_code": "60622"
	},
	{
		"venue_id": "yelpu0QARNxvVpmfJ1BdhyWI0w",
		"venue_name": "Boleo",
		"latitude": 41.8807491198048,
		"longitude": -87.6315721359599,
		"address1": "122 W Monroe St",
		"address2": "Fl 15",
		"address3": null,
		"city": "Chicago",
		"state": "IL",
		"zip_code": "60603"
	},
	{
		"venue_id": "yelp7ITzyNC7zvFi2fFG_g9ANg",
		"venue_name": "Rhine Hall Distillery",
		"latitude": 41.8872146774598,
		"longitude": -87.677706175897,
		"address1": "2010 W Fulton St",
		"address2": "",
		"address3": "",
		"city": "Chicago",
		"state": "IL",
		"zip_code": "60612"
	},
	{
		"venue_id": "yelpelHhPaHknD_2hNjPiEBtvg",
		"venue_name": "Masada",
		"latitude": 41.9219680428811,
		"longitude": -87.6976264490733,
		"address1": "2206 N California Ave",
		"address2": "",
		"address3": "",
		"city": "Chicago",
		"state": "IL",
		"zip_code": "60647"
	},
	{
		"venue_id": "yelpejUYpwbXRnT-6PYWJwVOZQ",
		"venue_name": "Azucar Tapas Restaurant and Cocktail Bar",
		"latitude": 41.92984,
		"longitude": -87.70719,
		"address1": "2647 N Kedzie Ave",
		"address2": "",
		"address3": "",
		"city": "Chicago",
		"state": "IL",
		"zip_code": "60647"
	},
	{
		"venue_id": "yelpFFS2APAuCw0E5n7lXk4F5w",
		"venue_name": "Remedy",
		"latitude": 41.9160385131836,
		"longitude": -87.6866683959961,
		"address1": "1910 N Milwaukee Ave",
		"address2": "",
		"address3": null,
		"city": "Chicago",
		"state": "IL",
		"zip_code": "60647"
	},
	{
		"venue_id": "yelpAhGJ0ss_fajxoNsDlqANlg",
		"venue_name": "Waterhouse",
		"latitude": 41.9435806274414,
		"longitude": -87.6708602905273,
		"address1": "3407 N Paulina St",
		"address2": "",
		"address3": "",
		"city": "Chicago",
		"state": "IL",
		"zip_code": "60657"
	},
	{
		"venue_id": "yelpBHSJyn_HnqbT5NCzI6Y5ew",
		"venue_name": "Mezcalina",
		"latitude": 41.885224,
		"longitude": -87.618684,
		"address1": "333 E Benton Pl",
		"address2": "Ste 100",
		"address3": "",
		"city": "Chicago",
		"state": "IL",
		"zip_code": "60601"
	},
	{
		"venue_id": "yelp0XWCt0FnJKkhfi_4w3pYNQ",
		"venue_name": "Broken English Taco Pub -\u00a0Old Town",
		"latitude": 41.9077814189061,
		"longitude": -87.6348029987569,
		"address1": "1400 N. Wells St",
		"address2": "",
		"address3": null,
		"city": "Chicago",
		"state": "IL",
		"zip_code": "60610"
	},
	{
		"venue_id": "yelpJcE9gHI9shys6n7GclqiBw",
		"venue_name": "Bordel",
		"latitude": 41.90298,
		"longitude": -87.67079,
		"address1": "1721 W Division St",
		"address2": "",
		"address3": "",
		"city": "Chicago",
		"state": "IL",
		"zip_code": "60622"
	},
	{
		"venue_id": "yelpLSjo8IRutgwoRSsjSiWpuA",
		"venue_name": "2Twenty2 Tavern",
		"latitude": 41.878833353388,
		"longitude": -87.6262705028057,
		"address1": "222 S Wabash Ave",
		"address2": "",
		"address3": null,
		"city": "Chicago",
		"state": "IL",
		"zip_code": "60604"
	},
	{
		"venue_id": "yelpdNp99d8nWWuxmSR0ZLyJxQ",
		"venue_name": "Small Cheval",
		"latitude": 41.88511,
		"longitude": -87.63851,
		"address1": "150 N Riverside Plz",
		"address2": "",
		"address3": null,
		"city": "Chicago",
		"state": "IL",
		"zip_code": "60606"
	},
	{
		"venue_id": "yelpeZjUg-62tXW-GjAW34wguA",
		"venue_name": "Income Tax",
		"latitude": 41.9904347,
		"longitude": -87.6601041,
		"address1": "5959 N Broadway",
		"address2": "",
		"address3": null,
		"city": "Chicago",
		"state": "IL",
		"zip_code": "60660"
	},
	{
		"venue_id": "yelpp5aez3TntyNQBza56g4KBg",
		"venue_name": "The Walk In Chicago",
		"latitude": 41.9308832,
		"longitude": -87.7101341,
		"address1": "2727 N Milwaukee Ave",
		"address2": null,
		"address3": "",
		"city": "Chicago",
		"state": "IL",
		"zip_code": "60647"
	},
	{
		"venue_id": "yelpHmZPTPbozz_IeCxWhVpy_w",
		"venue_name": "SPIN Chicago",
		"latitude": 41.8886647,
		"longitude": -87.6282297735412,
		"address1": "344 N State St",
		"address2": "",
		"address3": "",
		"city": "Chicago",
		"state": "IL",
		"zip_code": "60654"
	},
	{
		"venue_id": "yelpU763eYcewDO4sUdBoTJVLg",
		"venue_name": "Windy City Playhouse",
		"latitude": 41.9542427062988,
		"longitude": -87.7038421630859,
		"address1": "3014 W Irving Park Rd",
		"address2": "",
		"address3": "",
		"city": "Chicago",
		"state": "IL",
		"zip_code": "60618"
	},
	{
		"venue_id": "yelpKzZFCaXVo68eRa08nvW97Q",
		"venue_name": "Bassment",
		"latitude": 41.889817,
		"longitude": -87.637859,
		"address1": "353 W Hubbard St",
		"address2": "",
		"address3": "Lower Level",
		"city": "Chicago",
		"state": "IL",
		"zip_code": "60654"
	},
	{
		"venue_id": "yelpHnJWq0-DN1rAsAtAosz3sA",
		"venue_name": "Two Lights Seafood & Oyster",
		"latitude": 41.91086,
		"longitude": -87.63585,
		"address1": "227 W North Ave",
		"address2": "",
		"address3": null,
		"city": "Chicago",
		"state": "IL",
		"zip_code": "60610"
	},
	{
		"venue_id": "yelpcrqI5d62p9hSG7sgY7z_Yw",
		"venue_name": "Waydown",
		"latitude": 41.88717,
		"longitude": -87.65184,
		"address1": "311 N Morgan St",
		"address2": "",
		"address3": null,
		"city": "Chicago",
		"state": "IL",
		"zip_code": "60607"
	},
	{
		"venue_id": "yelp71wFYbQu5VymDJa4JmPrDA",
		"venue_name": "The Heavy Feather",
		"latitude": 41.9242172241211,
		"longitude": -87.6989364624023,
		"address1": "2357 North Milwaukee Ave",
		"address2": "Fl 2",
		"address3": "",
		"city": "Chicago",
		"state": "IL",
		"zip_code": "60647"
	},
	{
		"venue_id": "yelpNGOd3wHTeYoUGo91Zve3hg",
		"venue_name": "The Arrogant Frog Bar",
		"latitude": 41.9249687194824,
		"longitude": -87.6630249023438,
		"address1": "1365 W Fullerton Ave",
		"address2": null,
		"address3": "",
		"city": "Chicago",
		"state": "IL",
		"zip_code": "60614"
	},
	{
		"venue_id": "yelpB6hAfBFi77_CczayHHZgEQ",
		"venue_name": "Kitsune",
		"latitude": 41.9585699,
		"longitude": -87.6816494,
		"address1": "4229 N Lincoln Ave",
		"address2": "",
		"address3": null,
		"city": "Chicago",
		"state": "IL",
		"zip_code": "60618"
	},
	{
		"venue_id": "yelpsnl-kAybUetExttl6hwfzw",
		"venue_name": "The Pink Squirrel",
		"latitude": 41.9251040358586,
		"longitude": -87.7010438078388,
		"address1": "2414 N Milwaukee Ave",
		"address2": null,
		"address3": "",
		"city": "Chicago",
		"state": "IL",
		"zip_code": "60647"
	},
	{
		"venue_id": "yelpFo0S1uTcqfGy0JomhJ8InQ",
		"venue_name": "Cerise",
		"latitude": 41.8860669,
		"longitude": -87.6259885,
		"address1": "203 N Wabash",
		"address2": "",
		"address3": "",
		"city": "Chicago",
		"state": "IL",
		"zip_code": "60601"
	},
	{
		"venue_id": "yelplCXZp0Shg8Mxty6v7xwZGg",
		"venue_name": "The Twisted Vine Chicago",
		"latitude": 41.94639,
		"longitude": -87.6498,
		"address1": "3530 N Halsted St",
		"address2": "",
		"address3": "",
		"city": "Chicago",
		"state": "IL",
		"zip_code": "60657"
	},
	{
		"venue_id": "yelpRbrIMRq0ekh4_yz6lyfp_g",
		"venue_name": "Tack Room",
		"latitude": 41.857633622772,
		"longitude": -87.6572770441824,
		"address1": "1807 S Allport St",
		"address2": "",
		"address3": "",
		"city": "Chicago",
		"state": "IL",
		"zip_code": "60608"
	},
	{
		"venue_id": "yelprvKhV_bht0WAJ2V-C85Ugw",
		"venue_name": "Woodhaven Bar and Kitchen",
		"latitude": 41.8952699,
		"longitude": -87.63158,
		"address1": "712 N Clark St",
		"address2": null,
		"address3": "",
		"city": "Chicago",
		"state": "IL",
		"zip_code": "60654"
	},
	{
		"venue_id": "yelpXL3kNO7mW7sZ2lLiJxvoEA",
		"venue_name": "Maya Del Sol",
		"latitude": 41.88603,
		"longitude": -87.79398,
		"address1": "144 S Oak Park Ave",
		"address2": "",
		"address3": "",
		"city": "Oak Park",
		"state": "IL",
		"zip_code": "60302"
	},
	{
		"venue_id": "yelp6uqwTS3aIBO1Fox8ILHv3Q",
		"venue_name": "Drawing Room",
		"latitude": 41.881664,
		"longitude": -87.624969,
		"address1": "12 S Michigan Ave",
		"address2": "Fl 2",
		"address3": "Chicago Athletic Association",
		"city": "Chicago",
		"state": "IL",
		"zip_code": "60603"
	},
	{
		"venue_id": "yelpf8tNuasQ-1iO4n0ismUNhg",
		"venue_name": "Devereaux",
		"latitude": 41.90241,
		"longitude": -87.6289,
		"address1": "1112 N State St",
		"address2": "Fl 18",
		"address3": null,
		"city": "Chicago",
		"state": "IL",
		"zip_code": "60610"
	},
	{
		"venue_id": "yelpeiAGDMO4Rf5Q4V-F9-0JGw",
		"venue_name": "Half Sour",
		"latitude": 41.87241,
		"longitude": -87.63028,
		"address1": "755 S Clark St",
		"address2": "",
		"address3": null,
		"city": "Chicago",
		"state": "IL",
		"zip_code": "60605"
	},
	{
		"venue_id": "yelpjhD3YftmGYeZtI1zbaohIQ",
		"venue_name": "The Tankard",
		"latitude": 41.9112526,
		"longitude": -87.6784449,
		"address1": "1635 N Milwaukee Ave",
		"address2": "",
		"address3": null,
		"city": "Chicago",
		"state": "IL",
		"zip_code": "60647"
	},
	{
		"venue_id": "yelp_mHm429cxck-Z9b0omgDrA",
		"venue_name": "Ovie Bar & Grill",
		"latitude": 41.8837166,
		"longitude": -87.639953,
		"address1": "120 N Canal St",
		"address2": null,
		"address3": "",
		"city": "Chicago",
		"state": "IL",
		"zip_code": "60606"
	},
	{
		"venue_id": "yelpCX38LpcESN4WqA70X8zi0A",
		"venue_name": "The Ladies' Room",
		"latitude": 41.9319451,
		"longitude": -87.7018058,
		"address1": "2957 W Diversey Ave",
		"address2": null,
		"address3": "",
		"city": "Chicago",
		"state": "IL",
		"zip_code": "60647"
	},
	{
		"venue_id": "yelpc6s7LYHo8lGclLXcKoOwMg",
		"venue_name": "Spilt Milk",
		"latitude": 41.9250095435773,
		"longitude": -87.6972445833682,
		"address1": "2758 W Fullerton Ave",
		"address2": "",
		"address3": null,
		"city": "Chicago",
		"state": "IL",
		"zip_code": "60647"
	},
	{
		"venue_id": "yelpDUhNqMWK7svsVf70fGUxHQ",
		"venue_name": "Ph.D Pub",
		"latitude": 41.86555,
		"longitude": -87.64659,
		"address1": "1257 S Halsted St",
		"address2": null,
		"address3": "",
		"city": "Chicago",
		"state": "IL",
		"zip_code": "60607"
	},
	{
		"venue_id": "yelpKPblL_UbpgEwUbZEUscTvA",
		"venue_name": "Redhead Piano Bar",
		"latitude": 41.89353,
		"longitude": -87.6287399,
		"address1": "16 W Ontario St",
		"address2": "",
		"address3": "",
		"city": "Chicago",
		"state": "IL",
		"zip_code": "60654"
	},
	{
		"venue_id": "yelpPi-z6d8RrFPN8nLDOj4Bkg",
		"venue_name": "Marchesa",
		"latitude": 41.89188,
		"longitude": -87.63378,
		"address1": "535 N Wells St",
		"address2": null,
		"address3": "",
		"city": "Chicago",
		"state": "IL",
		"zip_code": "60654"
	},
	{
		"venue_id": "yelpMrYs_To1VO8Ot5j_19XBBg",
		"venue_name": "Harbee Liquor & Tavern",
		"latitude": 41.85762,
		"longitude": -87.66059,
		"address1": "1345 W 18th St",
		"address2": "",
		"address3": "",
		"city": "Chicago",
		"state": "IL",
		"zip_code": "60608"
	},
	{
		"venue_id": "yelp4PdLQvTQyzhSfcF4u5P0tQ",
		"venue_name": "Taste of Havana",
		"latitude": 41.92744,
		"longitude": -87.70424,
		"address1": "2529 N Milwaukee Ave",
		"address2": "",
		"address3": null,
		"city": "Chicago",
		"state": "IL",
		"zip_code": "60647"
	},
	{
		"venue_id": "yelpHoxEP3HD8ZPmFsXxwmvt5Q",
		"venue_name": "Z Bar",
		"latitude": 41.89624,
		"longitude": -87.62497,
		"address1": "108 E Superior St",
		"address2": "",
		"address3": null,
		"city": "Chicago",
		"state": "IL",
		"zip_code": "60611"
	},
	{
		"venue_id": "yelpKlcKi7yOfwzQQWqoFI6Ypw",
		"venue_name": "1959 Kitchen & Bar",
		"latitude": 41.9112749,
		"longitude": -87.6359433,
		"address1": "230 W North Ave",
		"address2": "",
		"address3": "The Second City",
		"city": "Chicago",
		"state": "IL",
		"zip_code": "60610"
	},
	{
		"venue_id": "yelphfg4AUtRjOLzYjZUPDowIg",
		"venue_name": "Taste222",
		"latitude": 41.8864177399767,
		"longitude": -87.6400191709399,
		"address1": "222 N Canal St",
		"address2": "",
		"address3": null,
		"city": "Chicago",
		"state": "IL",
		"zip_code": "60606"
	},
	{
		"venue_id": "yelpuKsmkLZETXitUV9RW5bP3g",
		"venue_name": "City's Edge Chicago",
		"latitude": 41.9975928291085,
		"longitude": -87.7612422779202,
		"address1": "5310 W Devon Ave",
		"address2": "",
		"address3": null,
		"city": "Chicago",
		"state": "IL",
		"zip_code": "60646"
	},
	{
		"venue_id": "yelpZB5nWGG3cY-3_kykpFRQDw",
		"venue_name": "Marshall's Landing",
		"latitude": 41.88862,
		"longitude": -87.63539,
		"address1": "222 Merchandise Mart Plz",
		"address2": "Ste 225",
		"address3": null,
		"city": "Chicago",
		"state": "IL",
		"zip_code": "60654"
	},
	{
		"venue_id": "yelpPPZg2l7W8oZDLETk5oGuhw",
		"venue_name": "Larry's",
		"latitude": 41.96939,
		"longitude": -87.65582,
		"address1": "1020 W Lawrence Ave",
		"address2": "",
		"address3": "",
		"city": "Chicago",
		"state": "IL",
		"zip_code": "60640"
	},
	{
		"venue_id": "yelpCpsO4PdsNb4v1GtbFZkRiQ",
		"venue_name": "Union Full Board",
		"latitude": 41.94547,
		"longitude": -87.65482,
		"address1": "3473 N Clark St",
		"address2": null,
		"address3": null,
		"city": "Chicago",
		"state": "IL",
		"zip_code": "60657"
	},
	{
		"venue_id": "yelpWTAqUE1_e2NMkdcGz9lVrQ",
		"venue_name": "The Izakaya at Momotaro",
		"latitude": 41.88588,
		"longitude": -87.64845,
		"address1": "820 W Lake St",
		"address2": "",
		"address3": null,
		"city": "Chicago",
		"state": "IL",
		"zip_code": "60607"
	},
	{
		"venue_id": "yelpKBO3etX9XrY9NbBdVvwSjQ",
		"venue_name": "Kite String Cantina",
		"latitude": 41.94661,
		"longitude": -87.67589,
		"address1": "1851 W Addison St",
		"address2": null,
		"address3": "",
		"city": "Chicago",
		"state": "IL",
		"zip_code": "60613"
	},
	{
		"venue_id": "yelp6qLxkamrwQpLt8AaIRloRA",
		"venue_name": "Dutch & Doc's",
		"latitude": 41.947281017767,
		"longitude": -87.6566306031308,
		"address1": "3600 N Clark St",
		"address2": "",
		"address3": null,
		"city": "Chicago",
		"state": "IL",
		"zip_code": "60613"
	},
	{
		"venue_id": "yelpK_72cZu9_30eRXS7A_2TFA",
		"venue_name": "Up Room",
		"latitude": 41.9104849660987,
		"longitude": -87.678285,
		"address1": "2018 W North Ave",
		"address2": "Fl 13",
		"address3": "The Robey",
		"city": "Chicago",
		"state": "IL",
		"zip_code": "60647"
	},
	{
		"venue_id": "yelpJGJs1iA9sZXEvDbFEI_jWg",
		"venue_name": "Mordecai",
		"latitude": 41.94792,
		"longitude": -87.6575,
		"address1": "3632 N Clark St",
		"address2": "",
		"address3": null,
		"city": "Chicago",
		"state": "IL",
		"zip_code": "60613"
	},
	{
		"venue_id": "yelpotNL_e7mtLqaihbHeB4AYA",
		"venue_name": "Nola pub",
		"latitude": 41.9456953,
		"longitude": -87.6550152,
		"address1": "3481 N Clark St",
		"address2": null,
		"address3": "",
		"city": "Chicago",
		"state": "IL",
		"zip_code": "60657"
	},
	{
		"venue_id": "yelphVUINnit4I2kR35KFDSNuQ",
		"venue_name": "Big Star",
		"latitude": 41.9482197123419,
		"longitude": -87.6575085148215,
		"address1": "3640 N Clark St",
		"address2": "",
		"address3": null,
		"city": "Chicago",
		"state": "IL",
		"zip_code": "60613"
	},
	{
		"venue_id": "yelpkJwW0lV8ebxbUqr6d-9-dA",
		"venue_name": "Fulton Market Company",
		"latitude": 41.8858492,
		"longitude": -87.6496751,
		"address1": "205 N Peoria St",
		"address2": "",
		"address3": null,
		"city": "Chicago",
		"state": "IL",
		"zip_code": "60607"
	},
	{
		"venue_id": "yelpZAKH7Q3paPCJJ-QlvOM5nw",
		"venue_name": "Rocks North Center",
		"latitude": 41.9570099,
		"longitude": -87.68109,
		"address1": "4138 N Lincoln Ave",
		"address2": null,
		"address3": null,
		"city": "Chicago",
		"state": "IL",
		"zip_code": "60618"
	},
	{
		"venue_id": "yelpJntMBuVk3FmZGH7qPB5d4w",
		"venue_name": "The Franklin Tap",
		"latitude": 41.87746,
		"longitude": -87.63478,
		"address1": "325 S Franklin St",
		"address2": "",
		"address3": "",
		"city": "Chicago",
		"state": "IL",
		"zip_code": "60606"
	},
	{
		"venue_id": "yelp4V0Qwxhu0dZTF-IjRBOZIg",
		"venue_name": "Tied House",
		"latitude": 41.93958,
		"longitude": -87.66342,
		"address1": "3157 N Southport Ave",
		"address2": null,
		"address3": "",
		"city": "Chicago",
		"state": "IL",
		"zip_code": "60657"
	},
	{
		"venue_id": "yelpjFAS3shtLKTbB_dZ9UPZSg",
		"venue_name": "Todos Santos",
		"latitude": 41.9265,
		"longitude": -87.6978,
		"address1": "2456 N California Ave",
		"address2": "",
		"address3": "",
		"city": "Chicago",
		"state": "IL",
		"zip_code": "60647"
	},
	{
		"venue_id": "yelpkPmHNNOy-dsUxWLsdEE59w",
		"venue_name": "Big Hill Bar & Grill",
		"latitude": 41.98278,
		"longitude": -87.71165,
		"address1": "3307 W Bryn Mawr Ave",
		"address2": "",
		"address3": null,
		"city": "Chicago",
		"state": "IL",
		"zip_code": "60659"
	},
	{
		"venue_id": "yelpno23azYWYSAjJel10oSTMA",
		"venue_name": "Deuces and The Diamond Club",
		"latitude": 41.9458099,
		"longitude": -87.6551768,
		"address1": "3505 N Clark St",
		"address2": "",
		"address3": "",
		"city": "Chicago",
		"state": "IL",
		"zip_code": "60657"
	},
	{
		"venue_id": "yelpktHCSRqn7jNu-BPRXTeG9Q",
		"venue_name": "Carbon Arc Bar & Board",
		"latitude": 41.965308898417,
		"longitude": -87.6866131648421,
		"address1": "4614 North Lincoln Ave",
		"address2": "",
		"address3": null,
		"city": "Chicago",
		"state": "IL",
		"zip_code": "60625"
	},
	{
		"venue_id": "yelpaehWvh8YUAKYk7dx3Sy55Q",
		"venue_name": "The Rabbit Hole",
		"latitude": 41.90419,
		"longitude": -87.63477,
		"address1": "1208 N Wells St",
		"address2": null,
		"address3": "",
		"city": "Chicago",
		"state": "IL",
		"zip_code": "60610"
	},
	{
		"venue_id": "yelpAs_APiJoKmvcm5HhiekWyA",
		"venue_name": "Shore Club",
		"latitude": 41.915102052533,
		"longitude": -87.6265955626787,
		"address1": "1603 N Lakeshore Dr",
		"address2": null,
		"address3": null,
		"city": "Chicago",
		"state": "IL",
		"zip_code": "60611"
	},
	{
		"venue_id": "yelpPzNAxJFwACXoTWE_q6f9AQ",
		"venue_name": "Caff\u00e8 Oliva",
		"latitude": 41.8930064208813,
		"longitude": -87.6133322994751,
		"address1": "550 E Grand Ave",
		"address2": "",
		"address3": "",
		"city": "Chicago",
		"state": "IL",
		"zip_code": "60611"
	},
	{
		"venue_id": "yelpVtVw_fYKsx-iZwEcRBAGvQ",
		"venue_name": "Tiny Tavern",
		"latitude": 41.891269,
		"longitude": -87.605882,
		"address1": "600 E Grand Ave",
		"address2": null,
		"address3": "",
		"city": "Chicago",
		"state": "IL",
		"zip_code": "60611"
	},
	{
		"venue_id": "yelpIyzWoAy_2x43_-5fZ2V65w",
		"venue_name": "Shakers On Clark",
		"latitude": 41.9393005,
		"longitude": -87.6508179,
		"address1": "3160 N Clark St",
		"address2": "",
		"address3": "",
		"city": "Chicago",
		"state": "IL",
		"zip_code": "60657"
	},
	{
		"venue_id": "yelpEXmkYu2dhGQjydFv23b-_A",
		"venue_name": "Bottled Blonde Chicago",
		"latitude": 41.891031,
		"longitude": -87.6342254,
		"address1": "504 N Wells St",
		"address2": "",
		"address3": "",
		"city": "Chicago",
		"state": "IL",
		"zip_code": "60654"
	},
	{
		"venue_id": "yelpuuzHIvHMrH4ysQzj1Wp6wA",
		"venue_name": "Benihana",
		"latitude": 41.898959782447,
		"longitude": -87.6237752078778,
		"address1": "875 N Michigan Ave",
		"address2": "",
		"address3": null,
		"city": "Chicago",
		"state": "IL",
		"zip_code": "60611"
	},
	{
		"venue_id": "yelpTZDBetXKtKw3Zlyr695Lnw",
		"venue_name": "Blind Barber",
		"latitude": 41.88696,
		"longitude": -87.65188,
		"address1": "948 W Fulton Market",
		"address2": null,
		"address3": "",
		"city": "Chicago",
		"state": "IL",
		"zip_code": "60607"
	},
	{
		"venue_id": "yelpQ-u8C-xY6xSaS9rvtEqIyQ",
		"venue_name": "County Barbeque",
		"latitude": 41.86958,
		"longitude": -87.66115,
		"address1": "1352 W Taylor St",
		"address2": null,
		"address3": "",
		"city": "Chicago",
		"state": "IL",
		"zip_code": "60607"
	},
	{
		"venue_id": "yelp7TJgQBOXYdrIr34S-yzglw",
		"venue_name": "Ludlow Liquors",
		"latitude": 41.9355614,
		"longitude": -87.6975651,
		"address1": "2959 N California Ave",
		"address2": "",
		"address3": null,
		"city": "Chicago",
		"state": "IL",
		"zip_code": "60618"
	},
	{
		"venue_id": "yelpSLgo2vxGDAVKZRzR_4baRQ",
		"venue_name": "The Front Room Chicago",
		"latitude": 41.88466,
		"longitude": -87.64923,
		"address1": "844 W Randolph St",
		"address2": "",
		"address3": null,
		"city": "Chicago",
		"state": "IL",
		"zip_code": "60607"
	},
	{
		"venue_id": "yelpBnJWHx4o_9vx9f2UxMljKA",
		"venue_name": "The Green Room Tap",
		"latitude": 41.85774,
		"longitude": -87.658,
		"address1": "1802 S Allport St",
		"address2": "",
		"address3": null,
		"city": "Chicago",
		"state": "IL",
		"zip_code": "60608"
	},
	{
		"venue_id": "yelp7ZF4cVQ87cuz7h_EDYP4Bg",
		"venue_name": "Social Twenty Five",
		"latitude": 41.88982,
		"longitude": -87.6290999,
		"address1": "25 W Hubbard St",
		"address2": "",
		"address3": "",
		"city": "Chicago",
		"state": "IL",
		"zip_code": "60654"
	},
	{
		"venue_id": "yelpWpHADJayQodCYAioDTSM9g",
		"venue_name": "Beatnik On The River",
		"latitude": 41.88531,
		"longitude": -87.63726,
		"address1": "180 N Upper Wacker Dr",
		"address2": "",
		"address3": null,
		"city": "Chicago",
		"state": "IL",
		"zip_code": "60606"
	},
	{
		"venue_id": "yelpZj1nbFn_hqWRNh_VvhP08A",
		"venue_name": "Y",
		"latitude": 41.8933049,
		"longitude": -87.6351608,
		"address1": "224 W Ontario St",
		"address2": "",
		"address3": "",
		"city": "Chicago",
		"state": "IL",
		"zip_code": "60654"
	},
	{
		"venue_id": "yelpJeoQphJ9x2_0bBYsMQBMtw",
		"venue_name": "The Heritage",
		"latitude": 41.8797532428734,
		"longitude": -87.809843569994,
		"address1": "7403 Madison St",
		"address2": "",
		"address3": null,
		"city": "Forest Park",
		"state": "IL",
		"zip_code": "60130"
	},
	{
		"venue_id": "yelpSUG5XtgrhfcFncFrHL1bdA",
		"venue_name": "Point & Feather",
		"latitude": 41.8898784,
		"longitude": -87.6316175,
		"address1": "113 W Hubbard St",
		"address2": "",
		"address3": null,
		"city": "Chicago",
		"state": "IL",
		"zip_code": "60654"
	},
	{
		"venue_id": "yelpUF9DACe58e4JNYMK_8wYjw",
		"venue_name": "Twisted Cantina",
		"latitude": 41.85873,
		"longitude": -87.66079,
		"address1": "1640 S Blue Island Ave",
		"address2": "",
		"address3": null,
		"city": "Chicago",
		"state": "IL",
		"zip_code": "60608"
	},
	{
		"venue_id": "yelpvw8dpQgTkcxVd_PyPwTbVw",
		"venue_name": "Bounce Chicago",
		"latitude": 41.89684,
		"longitude": -87.63679,
		"address1": "324 W Chicago Ave",
		"address2": "",
		"address3": null,
		"city": "Chicago",
		"state": "IL",
		"zip_code": "60654"
	},
	{
		"venue_id": "yelpeoCRoRxHpWxaoDg1bTciJw",
		"venue_name": "Holloway's Bar",
		"latitude": 41.8897364,
		"longitude": -87.6299012,
		"address1": "410 N Dearborn St",
		"address2": "2nd Floor",
		"address3": null,
		"city": "Chicago",
		"state": "IL",
		"zip_code": "60654"
	},
	{
		"venue_id": "yelpXVemdtyUOQPG73oZo3g6tQ",
		"venue_name": "Emporium Popups",
		"latitude": 41.9242475019079,
		"longitude": -87.699443682915,
		"address1": "2367 N Milwaukee Ave",
		"address2": "",
		"address3": null,
		"city": "Chicago",
		"state": "IL",
		"zip_code": "60647"
	},
	{
		"venue_id": "yelpnFPm6bpBVgkZU_-iGD7ubQ",
		"venue_name": "TUKO CANTINA",
		"latitude": 41.90351,
		"longitude": -87.67639,
		"address1": "1938 W Division St",
		"address2": null,
		"address3": "",
		"city": "Chicago",
		"state": "IL",
		"zip_code": "60622"
	},
	{
		"venue_id": "yelpo_N4l0-qSxnuEwL0IrXlxw",
		"venue_name": "The Bureau Bar",
		"latitude": 41.8599655842271,
		"longitude": -87.625438682735,
		"address1": "75 E 16th St",
		"address2": "",
		"address3": "",
		"city": "Chicago",
		"state": "IL",
		"zip_code": "60616"
	},
	{
		"venue_id": "yelpTwO_7y6GWEFARJ1I62k56Q",
		"venue_name": "Backdoor Saloon",
		"latitude": 41.88466,
		"longitude": -87.64923,
		"address1": "844 W Randolph St",
		"address2": "Fl 2",
		"address3": null,
		"city": "Chicago",
		"state": "IL",
		"zip_code": "60607"
	},
	{
		"venue_id": "yelpxDnFjnaZJ1egGMb4UiMoCw",
		"venue_name": "Optima Chicago",
		"latitude": 41.9054,
		"longitude": -87.63486,
		"address1": "1252 N Wells St",
		"address2": "",
		"address3": null,
		"city": "Chicago",
		"state": "IL",
		"zip_code": "60610"
	},
	{
		"venue_id": "yelpYnpFjtWh_RCznkhDWKRHAQ",
		"venue_name": "Early Society",
		"latitude": 41.8865,
		"longitude": -87.63075,
		"address1": "77 W Wacker Dr",
		"address2": "",
		"address3": "",
		"city": "Chicago",
		"state": "IL",
		"zip_code": "60601"
	},
	{
		"venue_id": "yelpc7tmhGMgFpcgW5johbjeRw",
		"venue_name": "Meeting House Tavern",
		"latitude": 41.973231,
		"longitude": -87.667822,
		"address1": "5025 N Clark St",
		"address2": "",
		"address3": null,
		"city": "Chicago",
		"state": "IL",
		"zip_code": "60640"
	},
	{
		"venue_id": "yelpyuPkGRoguRFVrGuTI5afEw",
		"venue_name": "Lavergne's Tavern",
		"latitude": 41.83414,
		"longitude": -87.78771,
		"address1": "6546 Windsor Ave",
		"address2": "",
		"address3": "",
		"city": "Berwyn",
		"state": "IL",
		"zip_code": "60402"
	},
	{
		"venue_id": "yelpy1wiz7jtgV1oiYkYlr1xfg",
		"venue_name": "ETA Restaurant + Bar",
		"latitude": 41.889985,
		"longitude": -87.6191292,
		"address1": "455 N Park Dr",
		"address2": "",
		"address3": null,
		"city": "Chicago",
		"state": "IL",
		"zip_code": "60611"
	},
	{
		"venue_id": "yelpSy8W9dOTHoBdECNV4VcaBw",
		"venue_name": "Revival Cafe Bar",
		"latitude": 41.8799369,
		"longitude": -87.6306651,
		"address1": "125 S Clark St",
		"address2": "",
		"address3": null,
		"city": "Chicago",
		"state": "IL",
		"zip_code": "60603"
	},
	{
		"venue_id": "yelpJlqeXHn4ouz_mwtPJXkVWQ",
		"venue_name": "Chicago Burger Company",
		"latitude": 41.8891247130441,
		"longitude": -87.619828980426,
		"address1": "301 E N Water St",
		"address2": "",
		"address3": "",
		"city": "Chicago",
		"state": "IL",
		"zip_code": "60611"
	},
	{
		"venue_id": "yelpsKC1JXbzybWmWdBDZvSP4g",
		"venue_name": "AIRE",
		"latitude": 41.88096,
		"longitude": -87.63116,
		"address1": "100 W Monroe St",
		"address2": null,
		"address3": "",
		"city": "Chicago",
		"state": "IL",
		"zip_code": "60603"
	},
	{
		"venue_id": "yelpBNaElIaBfIZjyxc4Eo7WLw",
		"venue_name": "LH Rooftop",
		"latitude": 41.887788,
		"longitude": -87.625329,
		"address1": "85 E Wacker Dr",
		"address2": null,
		"address3": "",
		"city": "Chicago",
		"state": "IL",
		"zip_code": "60601"
	},
	{
		"venue_id": "yelpko3La3ULR0UapYaXJJD7kA",
		"venue_name": "Neon Wilderness",
		"latitude": 41.9046201592741,
		"longitude": -87.6688311219825,
		"address1": "1270 N Milwaukee Ave",
		"address2": "",
		"address3": null,
		"city": "Chicago",
		"state": "IL",
		"zip_code": "60622"
	},
	{
		"venue_id": "yelpXxNyhy1_SU7643B1lMFehA",
		"venue_name": "Di Maggio Cafe",
		"latitude": 41.9673274,
		"longitude": -87.8105555,
		"address1": "7326 W Lawrence Ave",
		"address2": null,
		"address3": "",
		"city": "Harwood Heights",
		"state": "IL",
		"zip_code": "60706"
	},
	{
		"venue_id": "yelp2ZJ8Pr0OhDYEsF8KuITTzQ",
		"venue_name": "Lobby Bar at Palmer House",
		"latitude": 41.88032,
		"longitude": -87.62693,
		"address1": "17 E Monroe St",
		"address2": "",
		"address3": "",
		"city": "Chicago",
		"state": "IL",
		"zip_code": "60603"
	},
	{
		"venue_id": "yelpJ2k5JinpSnwiwD0Q_q5taw",
		"venue_name": "Shinya Ramen House",
		"latitude": 41.8352,
		"longitude": -87.64657,
		"address1": "3240 S Halsted St",
		"address2": "",
		"address3": null,
		"city": "Chicago",
		"state": "IL",
		"zip_code": "60608"
	},
	{
		"venue_id": "yelpjmCHsktM_K6Vg7bRlAes2Q",
		"venue_name": "Frosty's Christmas Bar",
		"latitude": 41.9062351,
		"longitude": -87.648522,
		"address1": "809 W Evergreen Ave",
		"address2": null,
		"address3": "",
		"city": "Chicago",
		"state": "IL",
		"zip_code": "60642"
	},
	{
		"venue_id": "yelptd0YqHr5KZYkgbI55MgnIg",
		"venue_name": "DrinkHaus Supper Club",
		"latitude": 41.87831,
		"longitude": -87.64805,
		"address1": "820 W Jackson Blvd",
		"address2": null,
		"address3": "",
		"city": "Chicago",
		"state": "IL",
		"zip_code": "60607"
	},
	{
		"venue_id": "yelpocv5OY8gUizO8Im-2SSuXA",
		"venue_name": "Disco",
		"latitude": 41.88978,
		"longitude": -87.6316,
		"address1": "111 W Hubbard St",
		"address2": null,
		"address3": "",
		"city": "Chicago",
		"state": "IL",
		"zip_code": "60654"
	},
	{
		"venue_id": "yelp4MOTVKKcqSec9GUZsQjXGw",
		"venue_name": "Room 13",
		"latitude": 41.94065,
		"longitude": -87.65452,
		"address1": "3222 N Sheffield Ave",
		"address2": "",
		"address3": null,
		"city": "Chicago",
		"state": "IL",
		"zip_code": "60657"
	},
	{
		"venue_id": "yelpmM8IrFugec_AS_RoLEgz1w",
		"venue_name": "The Living Room",
		"latitude": 41.88769,
		"longitude": -87.62286,
		"address1": "151 East Wacker Dr",
		"address2": "",
		"address3": "Hyatt Regency Chicago",
		"city": "Chicago",
		"state": "IL",
		"zip_code": "60601"
	},
	{
		"venue_id": "yelp-Aq_8f994k4HaRBbwOxCRg",
		"venue_name": "Habitant",
		"latitude": 41.891571,
		"longitude": -87.626153,
		"address1": "55 E Grand Ave",
		"address2": "",
		"address3": "",
		"city": "Chicago",
		"state": "IL",
		"zip_code": "60611"
	},
	{
		"venue_id": "yelpaMx7cfRX7uUxhsyThlQ0Lg",
		"venue_name": "Key Club",
		"latitude": 41.89025,
		"longitude": -87.63179,
		"address1": "110 W Hubbard St",
		"address2": "Fl 3",
		"address3": "Hubbard Inn",
		"city": "Chicago",
		"state": "IL",
		"zip_code": "60654"
	},
	{
		"venue_id": "yelp5ItZTfjjlMCjS4x1i4SKAw",
		"venue_name": "Happy's: A Holiday Bar",
		"latitude": 41.88165,
		"longitude": -87.62501,
		"address1": "12 Michigan Ave",
		"address2": "",
		"address3": null,
		"city": "Chicago",
		"state": "IL",
		"zip_code": "60603"
	},
	{
		"venue_id": "yelpX5rCxpIR0VLVHFmuHdVxOg",
		"venue_name": "Per.So.Na",
		"latitude": 41.87649,
		"longitude": -87.63402,
		"address1": "408 S Wells St",
		"address2": null,
		"address3": "",
		"city": "Chicago",
		"state": "IL",
		"zip_code": "60607"
	},
	{
		"venue_id": "yelpm1DTqUljcp5t62RHAEhsag",
		"venue_name": "Renaissance Bronzeville",
		"latitude": 41.8099120438155,
		"longitude": -87.6162457531672,
		"address1": "4641 S King Dr",
		"address2": "",
		"address3": null,
		"city": "Chicago",
		"state": "IL",
		"zip_code": "60653"
	},
	{
		"venue_id": "yelpepyn8GlJ_ikc_LZ7bIBhFg",
		"venue_name": "Dorian's",
		"latitude": 41.9104257244175,
		"longitude": -87.6766826628237,
		"address1": "1939 W North Ave",
		"address2": null,
		"address3": "",
		"city": "Chicago",
		"state": "IL",
		"zip_code": "60622"
	},
	{
		"venue_id": "yelpdQgyFgF6Ysr9JvGYMncvvQ",
		"venue_name": "Bunny Slope",
		"latitude": 41.89226,
		"longitude": -87.6275,
		"address1": "15 East Ohio St",
		"address2": "",
		"address3": null,
		"city": "Chicago",
		"state": "IL",
		"zip_code": "60601"
	},
	{
		"venue_id": "yelpavXMDkAi206MP_0S8iKK2w",
		"venue_name": "La Mez Agave Lounge",
		"latitude": 41.8894500732422,
		"longitude": -87.6315841674805,
		"address1": "108 W Kinzie St",
		"address2": "",
		"address3": "",
		"city": "Chicago",
		"state": "IL",
		"zip_code": "60654"
	},
	{
		"venue_id": "yelpTKurECnU98fwhlS_iYHZAw",
		"venue_name": "Bodega",
		"latitude": 41.8922397134157,
		"longitude": -87.6275006309152,
		"address1": "15 East Ohio St",
		"address2": "",
		"address3": null,
		"city": "Chicago",
		"state": "IL",
		"zip_code": "60611"
	},
	{
		"venue_id": "yelpkKr5sDnLWtagorr0XD7_hg",
		"venue_name": "Noyane",
		"latitude": 41.89384,
		"longitude": -87.62505,
		"address1": "101 E Erie St",
		"address2": "",
		"address3": null,
		"city": "Chicago",
		"state": "IL",
		"zip_code": "60611"
	},
	{
		"venue_id": "yelpRX0HT4oUv2zeiZ_fivFAOw",
		"venue_name": "Blind Dragon",
		"latitude": 41.892832,
		"longitude": -87.6339551,
		"address1": "613 N Wells",
		"address2": null,
		"address3": "",
		"city": "Chicago",
		"state": "IL",
		"zip_code": "60654"
	},
	{
		"venue_id": "yelpUqoxOHG50O9R48lg2WOdBg",
		"venue_name": "Yokocho",
		"latitude": 41.90354,
		"longitude": -87.67166,
		"address1": "1742 W Division",
		"address2": "Back Alley",
		"address3": "",
		"city": "Chicago",
		"state": "IL",
		"zip_code": "60622"
	},
	{
		"venue_id": "yelpxBBbHpGbRbhMYNv3A49J-A",
		"venue_name": "Bar S\u00f3tano",
		"latitude": 41.8905,
		"longitude": -87.63079,
		"address1": "443 N Clark St",
		"address2": "",
		"address3": null,
		"city": "Chicago",
		"state": "IL",
		"zip_code": "60654"
	},
	{
		"venue_id": "yelpTepMBfs5K4FXlP0JbUp9tw",
		"venue_name": "The Darling",
		"latitude": 41.8842036198178,
		"longitude": -87.6501741668959,
		"address1": "905 W Randolph St",
		"address2": "",
		"address3": null,
		"city": "Chicago",
		"state": "IL",
		"zip_code": "60607"
	},
	{
		"venue_id": "yelpTWnje9Kf7v0xCBzvumsalQ",
		"venue_name": "Tunnel",
		"latitude": 41.8890363,
		"longitude": -87.632964,
		"address1": "151 W Kinzie St",
		"address2": "",
		"address3": "",
		"city": "Chicago",
		"state": "IL",
		"zip_code": "60654"
	},
	{
		"venue_id": "yelpDVhxR5AFTtF7kQwkcmUZJQ",
		"venue_name": "Pete's Place",
		"latitude": 41.95365,
		"longitude": -87.69927,
		"address1": "2825 W Irving Park Rd",
		"address2": "",
		"address3": null,
		"city": "Chicago",
		"state": "IL",
		"zip_code": "60618"
	},
	{
		"venue_id": "yelpAau8aNGpLEdWrrvXlKjnsQ",
		"venue_name": "Streeterville Social",
		"latitude": 41.890168,
		"longitude": -87.61957,
		"address1": "455 N Park Dr",
		"address2": "",
		"address3": "",
		"city": "Chicago",
		"state": "IL",
		"zip_code": "60611"
	},
	{
		"venue_id": "yelpFz0CWGVjihYPr0ReNXcOjQ",
		"venue_name": "W XYZ Bar",
		"latitude": 41.89137,
		"longitude": -87.63081,
		"address1": "515 North Clark St",
		"address2": null,
		"address3": null,
		"city": "Chicago",
		"state": "IL",
		"zip_code": "60654"
	},
	{
		"venue_id": "yelptzMTn3ZOKSBMlqfYJI7hCQ",
		"venue_name": "Leviathan",
		"latitude": 41.8941686,
		"longitude": -87.6283048,
		"address1": "660 N State St",
		"address2": "2nd Floor",
		"address3": null,
		"city": "Chicago",
		"state": "IL",
		"zip_code": "60654"
	},
	{
		"venue_id": "yelpSP2TfATEEkJFQfXOZXpSpg",
		"venue_name": "Cava",
		"latitude": 41.8890863723509,
		"longitude": -87.6331488299106,
		"address1": "155 W Kinzie St",
		"address2": "",
		"address3": null,
		"city": "Chicago",
		"state": "IL",
		"zip_code": "60654"
	},
	{
		"venue_id": "yelpSGR_bElEif7uL5wTxqeNLg",
		"venue_name": "Grand Central Bar",
		"latitude": 41.88658,
		"longitude": -87.63433,
		"address1": "205 W Wacker Dr",
		"address2": "",
		"address3": null,
		"city": "Chicago",
		"state": "IL",
		"zip_code": "60606"
	},
	{
		"venue_id": "yelpU1JoD9GWi14tmXcV7EvXyQ",
		"venue_name": "Rocks River North",
		"latitude": 41.89633,
		"longitude": -87.63092,
		"address1": "751 N Clark St",
		"address2": null,
		"address3": "",
		"city": "Chicago",
		"state": "IL",
		"zip_code": "60654"
	},
	{
		"venue_id": "yelpvtvTJZdVEdz66LYKL8Yuvg",
		"venue_name": "Tinker to Evers",
		"latitude": 41.94547,
		"longitude": -87.65482,
		"address1": "3473 N Clark St",
		"address2": null,
		"address3": "",
		"city": "Chicago",
		"state": "IL",
		"zip_code": "60657"
	},
	{
		"venue_id": "yelp18SGZMi4VGbDPZqWrGW6mA",
		"venue_name": "Tavern Club at 333",
		"latitude": 41.88764,
		"longitude": -87.62421,
		"address1": "333 N Michigan Ave",
		"address2": "Fl 4",
		"address3": null,
		"city": "Chicago",
		"state": "IL",
		"zip_code": "60601"
	},
	{
		"venue_id": "yelp4VzcNTp5Ls7GyFpwN8sKfA",
		"venue_name": "Movie Mondays at the Drake's Palm Court",
		"latitude": 41.900436,
		"longitude": -87.623405,
		"address1": "140 East Walton Pl",
		"address2": "",
		"address3": "",
		"city": "Chicago",
		"state": "IL",
		"zip_code": "60611"
	},
	{
		"venue_id": "yelp18o8AYE-tI2I2PwrOGCrnQ",
		"venue_name": "Sky Terrace",
		"latitude": 41.89315,
		"longitude": -87.62143,
		"address1": "233 E Ontario St",
		"address2": "",
		"address3": "Ivy Boutique Hotel",
		"city": "Chicago",
		"state": "IL",
		"zip_code": "60611"
	},
	{
		"venue_id": "yelpLckzL2_CK-y_bDtN4JYNQQ",
		"venue_name": "Hana",
		"latitude": 41.8881444,
		"longitude": -87.6297077,
		"address1": "320 N Dearborn St",
		"address2": null,
		"address3": "",
		"city": "Chicago",
		"state": "IL",
		"zip_code": "60654"
	},
	{
		"venue_id": "yelp_QiHIfNTk6frYpVUDxVPAQ",
		"venue_name": "V Bar",
		"latitude": 41.84087,
		"longitude": -87.7831351,
		"address1": "2717 Ridgeland Ave",
		"address2": "",
		"address3": "",
		"city": "Berwyn",
		"state": "IL",
		"zip_code": "60402"
	}
]