[
	{
		"venue_id": "yelp8H1RDvOi-xFpwJhE37D8cQ",
		"venue_name": "The Second City Theatre",
		"latitude": 41.911603,
		"longitude": -87.6349079,
		"address1": "1616 N Wells St",
		"address2": "",
		"address3": "",
		"city": "Chicago",
		"state": "IL",
		"zip_code": "60614"
	},
	{
		"venue_id": "yelpyyxTgM5zJPnAf1k5tn9njw",
		"venue_name": "The Gallery Cabaret",
		"latitude": 41.9182586669922,
		"longitude": -87.6852798461914,
		"address1": "2020 N Oakley Ave",
		"address2": "",
		"address3": "",
		"city": "Chicago",
		"state": "IL",
		"zip_code": "60647"
	},
	{
		"venue_id": "yelpvYp2hHGprOwydCb-9uRIRw",
		"venue_name": "Trickery",
		"latitude": 41.9452426,
		"longitude": -87.6492851,
		"address1": "3453 N Halsted",
		"address2": null,
		"address3": "",
		"city": "Chicago",
		"state": "IL",
		"zip_code": "60657"
	},
	{
		"venue_id": "yelpYGBCK8E-2I-1EDwoP8uecw",
		"venue_name": "CSz Theater Chicago",
		"latitude": 41.93964,
		"longitude": -87.65273,
		"address1": "929 W. Belmont Ave",
		"address2": "",
		"address3": "",
		"city": "Chicago",
		"state": "IL",
		"zip_code": "60657"
	},
	{
		"venue_id": "yelpv42UtPH-Hbz1vyWwUzvvUQ",
		"venue_name": "Laugh Factory Chicago",
		"latitude": 41.9397183,
		"longitude": -87.6442112,
		"address1": "3175 N Broadway",
		"address2": null,
		"address3": "",
		"city": "Chicago",
		"state": "IL",
		"zip_code": "60657"
	},
	{
		"venue_id": "yelpm-qUhCHyilx0PCrBOEF5Ow",
		"venue_name": "iO Theater",
		"latitude": 41.9084975,
		"longitude": -87.651764,
		"address1": "1501 N Kingsbury St",
		"address2": "",
		"address3": "",
		"city": "Chicago",
		"state": "IL",
		"zip_code": "60642"
	},
	{
		"venue_id": "yelpadYvsEfFXYISzamHpDFOiw",
		"venue_name": "UP Comedy Club",
		"latitude": 41.9115393307563,
		"longitude": -87.6351070404053,
		"address1": "230 W North Ave",
		"address2": "Fl 3",
		"address3": "",
		"city": "Chicago",
		"state": "IL",
		"zip_code": "60614"
	},
	{
		"venue_id": "yelpxHPnYRr6-gVo-QbMU4KkGQ",
		"venue_name": "BATSU! Chicago",
		"latitude": 41.910218,
		"longitude": -87.634209,
		"address1": "Kamehachi Sushi Bar's Hachi Lounge",
		"address2": "1531 N Wells St",
		"address3": "",
		"city": "Chicago",
		"state": "IL",
		"zip_code": "60610"
	},
	{
		"venue_id": "yelpAaPS1hh83RZhC2mX7EwPpw",
		"venue_name": "Tommy Gun's Garage",
		"latitude": 41.853588,
		"longitude": -87.6256149,
		"address1": "2114 S Wabash Ave",
		"address2": "",
		"address3": "",
		"city": "Chicago",
		"state": "IL",
		"zip_code": "60616"
	},
	{
		"venue_id": "yelppEEDN3T5fDo72cKzdlf-MQ",
		"venue_name": "Zanies Comedy Club",
		"latitude": 41.91054,
		"longitude": -87.63501,
		"address1": "1548 N Wells St",
		"address2": "",
		"address3": "",
		"city": "Chicago",
		"state": "IL",
		"zip_code": "60610"
	},
	{
		"venue_id": "yelpLBxQbaSww5nQGioXZFqMGg",
		"venue_name": "Comedians You Should Know",
		"latitude": 41.893246,
		"longitude": -87.6203949,
		"address1": "622 N Fairbanks Ct",
		"address2": null,
		"address3": "",
		"city": "Chicago",
		"state": "IL",
		"zip_code": "60611"
	},
	{
		"venue_id": "yelpxMwdRUPoXYIRLy8qduD2Ag",
		"venue_name": "Pressure Billiards & Cafe",
		"latitude": 41.99704,
		"longitude": -87.67088,
		"address1": "6318 N Clark St",
		"address2": "",
		"address3": "",
		"city": "Chicago",
		"state": "IL",
		"zip_code": "60660"
	},
	{
		"venue_id": "yelpww2hVfjY1YKSQPCwmKzjdQ",
		"venue_name": "The Crowd Theater",
		"latitude": 41.9536473282456,
		"longitude": -87.649837516738,
		"address1": "3935 N Broadway",
		"address2": null,
		"address3": "",
		"city": "Chicago",
		"state": "IL",
		"zip_code": "60613"
	},
	{
		"venue_id": "yelpShkswqnnCL-bbTX8cVLOlA",
		"venue_name": "VAMP",
		"latitude": 41.938507,
		"longitude": -87.654411,
		"address1": "3110 N Sheffield Ave",
		"address2": null,
		"address3": "",
		"city": "Chicago",
		"state": "IL",
		"zip_code": "60657"
	},
	{
		"venue_id": "yelp8PjCbb74vK9rmYgsaBEN7g",
		"venue_name": "CIC Theater",
		"latitude": 41.9544649,
		"longitude": -87.6649899,
		"address1": "1422 W Irving Park Rd",
		"address2": null,
		"address3": "",
		"city": "Chicago",
		"state": "IL",
		"zip_code": "60613"
	},
	{
		"venue_id": "yelpvGDA7a89MIhxpokq8UgHyQ",
		"venue_name": "The Annoyance Theatre and Bar",
		"latitude": 41.9396905,
		"longitude": -87.6513157,
		"address1": "851 W Belmont Ave",
		"address2": "",
		"address3": "",
		"city": "Chicago",
		"state": "IL",
		"zip_code": "60657"
	},
	{
		"venue_id": "yelpZpICY-RwBj5N-1l6QGFkhA",
		"venue_name": "The Playground Theater",
		"latitude": 41.940198,
		"longitude": -87.6490635,
		"address1": "3209 N Halsted St",
		"address2": "",
		"address3": "",
		"city": "Chicago",
		"state": "IL",
		"zip_code": "60657"
	},
	{
		"venue_id": "yelpVUmVFi9SecTPPaPclAT0-g",
		"venue_name": "The Comedy Bar",
		"latitude": 41.891,
		"longitude": -87.63293,
		"address1": "500 N LaSalle St",
		"address2": "",
		"address3": "",
		"city": "Chicago",
		"state": "IL",
		"zip_code": "60654"
	},
	{
		"venue_id": "yelpHhmRfEl_L-hplDrRos7yrg",
		"venue_name": "Lincoln Lodge",
		"latitude": 41.9446399,
		"longitude": -87.6539404,
		"address1": "956 W Newport Ave",
		"address2": "",
		"address3": "The Gun Theater",
		"city": "Chicago",
		"state": "IL",
		"zip_code": "60657"
	},
	{
		"venue_id": "yelpNuyDucG-BFEkkZbB6fqYPQ",
		"venue_name": "MCL Chicago",
		"latitude": 41.9385101,
		"longitude": -87.6545217,
		"address1": "3110 N Sheffield Ave",
		"address2": "",
		"address3": "",
		"city": "Chicago",
		"state": "IL",
		"zip_code": "60657"
	},
	{
		"venue_id": "yelpTmIwrgOx3EWzywTGShsZRQ",
		"venue_name": "Cornservatory",
		"latitude": 41.958122,
		"longitude": -87.6817713,
		"address1": "4210 N Lincoln Ave",
		"address2": null,
		"address3": "",
		"city": "Chicago",
		"state": "IL",
		"zip_code": "60618"
	},
	{
		"venue_id": "yelphxd0ArrXtC_oujUToPzQdg",
		"venue_name": "Chicago Underground Comedy",
		"latitude": 41.9398,
		"longitude": -87.68094,
		"address1": "2100 W Belmont Ave",
		"address2": "",
		"address3": "",
		"city": "Chicago",
		"state": "IL",
		"zip_code": "60618"
	},
	{
		"venue_id": "yelplK0IiJc7OwaSQDSQv2XWdA",
		"venue_name": "Cigars & Stripes BBQ Lounge",
		"latitude": 41.82815,
		"longitude": -87.79098,
		"address1": "6715 Ogden Ave",
		"address2": "",
		"address3": "",
		"city": "Berwyn",
		"state": "IL",
		"zip_code": "60402"
	},
	{
		"venue_id": "yelp8fGKCWX7X3icdZ2nc6dkrg",
		"venue_name": "Under The Gun Theater",
		"latitude": 41.9444589,
		"longitude": -87.6541915,
		"address1": "956 W Newport Ave",
		"address2": "",
		"address3": "",
		"city": "Chicago",
		"state": "IL",
		"zip_code": "60657"
	},
	{
		"venue_id": "yelpate9S3PonIsTjd2mvH-x-Q",
		"venue_name": "Spamilton - An American Parody",
		"latitude": 41.91211,
		"longitude": -87.64795,
		"address1": "1641 N Halsted St",
		"address2": "",
		"address3": "The Royal George Theater",
		"city": "Chicago",
		"state": "IL",
		"zip_code": "60614"
	},
	{
		"venue_id": "yelpMOvjsVB-Rxew-Dno89E5hg",
		"venue_name": "The Chicago Improv Den",
		"latitude": 41.9061622619629,
		"longitude": -87.6703643798828,
		"address1": "The Den Theatre",
		"address2": "",
		"address3": "1333 N Milwaukee",
		"city": "Chicago",
		"state": "IL",
		"zip_code": "60622"
	},
	{
		"venue_id": "yelp1hmmirT0wreXmf_YPk9SVg",
		"venue_name": "The Sidebar Show",
		"latitude": 41.94347,
		"longitude": -87.6782913,
		"address1": "1958 W Roscoe St",
		"address2": null,
		"address3": "",
		"city": "Chicago",
		"state": "IL",
		"zip_code": "60657"
	},
	{
		"venue_id": "yelpvu3MwRCwx4m3EpDzBPjL1g",
		"venue_name": "The Dinner Detective",
		"latitude": 41.8999859690666,
		"longitude": -87.6230806857347,
		"address1": "10 East Grand Ave",
		"address2": "",
		"address3": "",
		"city": "Chicago",
		"state": "IL",
		"zip_code": "60611"
	},
	{
		"venue_id": "yelpWTrcP6DOxCiX_qYXrb53kg",
		"venue_name": "@North Bar",
		"latitude": 41.91037,
		"longitude": -87.66914,
		"address1": "1637 W North Ave",
		"address2": null,
		"address3": "",
		"city": "Chicago",
		"state": "IL",
		"zip_code": "60622"
	},
	{
		"venue_id": "yelpOST-LF7TgaYc7wTrX7-ReA",
		"venue_name": "The Comedy Clubhouse",
		"latitude": 41.908709516013,
		"longitude": -87.6678524446523,
		"address1": "1462 N Ashland",
		"address2": "",
		"address3": "",
		"city": "Chicago",
		"state": "IL",
		"zip_code": "60622"
	},
	{
		"venue_id": "yelpgz57dPXz-USVdoxJn6AHtA",
		"venue_name": "Laugh Out Loud - Chicago",
		"latitude": 41.9517365098,
		"longitude": -87.6769836992025,
		"address1": "3851 N Lincoln Ave",
		"address2": "",
		"address3": "",
		"city": "Chicago",
		"state": "IL",
		"zip_code": "60613"
	},
	{
		"venue_id": "yelphwCYxBUr3_cZ-V3kkisXXg",
		"venue_name": "Tinderella Comedy",
		"latitude": 41.9059779,
		"longitude": -87.6703025,
		"address1": "1331 N Milwaukee Ave",
		"address2": null,
		"address3": "",
		"city": "Chicago",
		"state": "IL",
		"zip_code": "60657"
	},
	{
		"venue_id": "yelp1KzKIoV9uRE-W4DR1uSGHQ",
		"venue_name": "The Blind Bet Show",
		"latitude": 41.9399414,
		"longitude": -87.6701889,
		"address1": "1638 W Belmont Ave",
		"address2": null,
		"address3": "",
		"city": "Chicago",
		"state": "IL",
		"zip_code": "60657"
	},
	{
		"venue_id": "yelpOc8Sql3w24uY1KLfumNJiw",
		"venue_name": "Point Break: Live",
		"latitude": 41.95276,
		"longitude": -87.71729,
		"address1": "3931 N Elston Ave",
		"address2": "",
		"address3": "New Rock Theater",
		"city": "Chicago",
		"state": "IL",
		"zip_code": "60618"
	},
	{
		"venue_id": "yelpf321Dfl3Dow4_QQNRCKRPA",
		"venue_name": "Thirsty Improv at the Apollo",
		"latitude": 41.9279889,
		"longitude": -87.652754,
		"address1": "2540 N Lincoln",
		"address2": "",
		"address3": "",
		"city": "Chicago",
		"state": "IL",
		"zip_code": "60614"
	},
	{
		"venue_id": "yelpteCEBfdwm6BAmAqDNsUreQ",
		"venue_name": "Stand Up Stand Up",
		"latitude": 41.909574,
		"longitude": -87.676261,
		"address1": "1540 N Milwaukee Ave",
		"address2": null,
		"address3": "",
		"city": "Chicago",
		"state": "IL",
		"zip_code": "60622"
	},
	{
		"venue_id": "yelpZNrb6uL5es8ZI4tfX2c85A",
		"venue_name": "Comedy of Chicago",
		"latitude": 41.8842506408691,
		"longitude": -87.6324462890625,
		"address1": "",
		"address2": null,
		"address3": "",
		"city": "Chicago",
		"state": "IL",
		"zip_code": ""
	},
	{
		"venue_id": "yelpEVC4RwBOA0o1nBl7tswLIQ",
		"venue_name": "Best Night Ever Show",
		"latitude": 41.95006,
		"longitude": -87.65901,
		"address1": "3740 N Clark St",
		"address2": null,
		"address3": "GMan Tavern",
		"city": "Chicago",
		"state": "IL",
		"zip_code": "60613"
	},
	{
		"venue_id": "yelp89-e9nJiDxCe9_FiVxxGKQ",
		"venue_name": "One Group Mind Theater",
		"latitude": 41.9087879821174,
		"longitude": -87.6678256317973,
		"address1": "1462 N Ashland Ave",
		"address2": "",
		"address3": "",
		"city": "Chicago",
		"state": "IL",
		"zip_code": "60622"
	},
	{
		"venue_id": "yelpKeiwwOdMpZe6zK_MXdWm2g",
		"venue_name": "Stand-Up Throw Down",
		"latitude": 41.921856,
		"longitude": -87.697662,
		"address1": "2200 N California Ave",
		"address2": null,
		"address3": "",
		"city": "Chicago",
		"state": "IL",
		"zip_code": "60647"
	},
	{
		"venue_id": "yelpOGN9K9PBG35aX50wh_uNCg",
		"venue_name": "Nothing Personal - Chicago Improv",
		"latitude": 41.9385,
		"longitude": -87.65445,
		"address1": "3110 N Sheffield Ave",
		"address2": "",
		"address3": "Studio BE",
		"city": "Chicago",
		"state": "IL",
		"zip_code": "60657"
	},
	{
		"venue_id": "yelpctgpRpwj4DVp9Ez2QY48fQ",
		"venue_name": "The Wind Up",
		"latitude": 41.9395961612463,
		"longitude": -87.6443143934011,
		"address1": "Laugh Factory",
		"address2": "",
		"address3": "3175 N Broadway",
		"city": "Chicago",
		"state": "IL",
		"zip_code": "60613"
	},
	{
		"venue_id": "yelpaTnbkj9vimhGMFLMm6uijg",
		"venue_name": "Rat Pack Comedy",
		"latitude": 41.9546599,
		"longitude": -87.6548399,
		"address1": "4000 N Sheridan Rd",
		"address2": null,
		"address3": "",
		"city": "Chicago",
		"state": "IL",
		"zip_code": "60613"
	},
	{
		"venue_id": "yelp2uGGVZ0t356vD3cSo6WH5Q",
		"venue_name": "Here Is Your Alibi",
		"latitude": 41.9901161,
		"longitude": -87.6585007,
		"address1": "1106 W Thorndale Ave",
		"address2": null,
		"address3": "",
		"city": "Chicago",
		"state": "IL",
		"zip_code": "60660"
	},
	{
		"venue_id": "yelp3d9tBUdwb7bfpopU724ydg",
		"venue_name": "Hoo HA Comedy",
		"latitude": 41.9491271972656,
		"longitude": -87.6583557128906,
		"address1": "3700 N Clark",
		"address2": null,
		"address3": "",
		"city": "Chicago",
		"state": "IL",
		"zip_code": "60613"
	},
	{
		"venue_id": "yelproAndcwGIVBh3HfZJUXiRw",
		"venue_name": "The Blind Bet",
		"latitude": 41.9399414,
		"longitude": -87.6701889,
		"address1": "1638 W Belmont Ave",
		"address2": "",
		"address3": "The Pony Inn",
		"city": "Chicago",
		"state": "IL",
		"zip_code": "60657"
	},
	{
		"venue_id": "yelpe3RvL8N5cnrYtNcyzxK1Ew",
		"venue_name": "98.6 Presents: Free Show",
		"latitude": 41.9444663822651,
		"longitude": -87.6529524475336,
		"address1": "954 W Newport Ave",
		"address2": "",
		"address3": "",
		"city": "Chicago",
		"state": "IL",
		"zip_code": "60657"
	},
	{
		"venue_id": "yelptvigNDZ9bm_mEzlhtDg2Dw",
		"venue_name": "Improv Unlimited",
		"latitude": 41.88839,
		"longitude": -87.80283,
		"address1": "1107 Lake St",
		"address2": null,
		"address3": "",
		"city": "Oak Park",
		"state": "IL",
		"zip_code": "60301"
	}
]