[
	{
		"venue_id": "yelpo54U2VkQama8FI30qDkWvw",
		"venue_name": "The Chicago Diner",
		"latitude": 41.94402,
		"longitude": -87.64904,
		"address1": "3411 N Halsted St",
		"address2": "",
		"address3": "",
		"city": "Chicago",
		"state": "IL",
		"zip_code": "60657"
	},
	{
		"venue_id": "yelpo4MU9gK7epWUMv2WVW1qrA",
		"venue_name": "Yolk - Streeterville",
		"latitude": 41.8924891,
		"longitude": -87.618153,
		"address1": "355 E Ohio St",
		"address2": "",
		"address3": "",
		"city": "Chicago",
		"state": "IL",
		"zip_code": "60611"
	},
	{
		"venue_id": "yelpLtdmG2krPWyN3ruqqPMt_g",
		"venue_name": "Southport Grocery & Cafe",
		"latitude": 41.946743,
		"longitude": -87.664357,
		"address1": "3552 N Southport Ave",
		"address2": "Ste 1",
		"address3": "",
		"city": "Chicago",
		"state": "IL",
		"zip_code": "60657"
	},
	{
		"venue_id": "yelpZbXgwfVDjb2tz08FGWmSAA",
		"venue_name": "Folklore Argentine Grill",
		"latitude": 41.9034461975098,
		"longitude": -87.6799240112305,
		"address1": "2100 W Division St",
		"address2": "",
		"address3": "",
		"city": "Chicago",
		"state": "IL",
		"zip_code": "60622"
	},
	{
		"venue_id": "yelpTQp4_qJFrn_aO6Y1IOZgCg",
		"venue_name": "Gus's World Famous Fried Chicken",
		"latitude": 41.8866488028888,
		"longitude": -87.6494031537698,
		"address1": "847 W Fulton Market",
		"address2": "",
		"address3": "",
		"city": "Chicago",
		"state": "IL",
		"zip_code": "60607"
	},
	{
		"venue_id": "yelp27cckuU8ONgwWKxf7fUW3g",
		"venue_name": "Kitchen 17",
		"latitude": 41.9387532348521,
		"longitude": -87.6448537381136,
		"address1": "3132 N Broadway St",
		"address2": "",
		"address3": "",
		"city": "Chicago",
		"state": "IL",
		"zip_code": "60657"
	},
	{
		"venue_id": "yelp0F80pfvLYzKdHhSakhbYAg",
		"venue_name": "Min's Noodle House\u6e14\u5bb6\u91cd\u5e86\u5c0f\u9762",
		"latitude": 41.8353899,
		"longitude": -87.64586,
		"address1": "3235 S Halsted St",
		"address2": null,
		"address3": "",
		"city": "Chicago",
		"state": "IL",
		"zip_code": "60608"
	},
	{
		"venue_id": "yelp3vCuQ2D6EcmyBGT0vWj9yw",
		"venue_name": "Kitschn on Roscoe",
		"latitude": 41.94293,
		"longitude": -87.67878,
		"address1": "2005 W Roscoe St",
		"address2": "",
		"address3": "",
		"city": "Chicago",
		"state": "IL",
		"zip_code": "60618"
	},
	{
		"venue_id": "yelpuM0bo8IaXddPZlIYfDSHhQ",
		"venue_name": "Miss Ricky's",
		"latitude": 41.8860646,
		"longitude": -87.6258528,
		"address1": "203 N Wabash Ave",
		"address2": "Virgin Hotels Chicago",
		"address3": "",
		"city": "Chicago",
		"state": "IL",
		"zip_code": "60601"
	},
	{
		"venue_id": "yelpD_z82lpxA7NHz6haG6tFCA",
		"venue_name": "Joey G's Mac & Cheese",
		"latitude": 41.8992818235698,
		"longitude": -87.6864664523301,
		"address1": "2351 W Augusta",
		"address2": null,
		"address3": "",
		"city": "Chicago",
		"state": "IL",
		"zip_code": "60622"
	},
	{
		"venue_id": "yelprN1upqZhz-1_FV4TdGkO5w",
		"venue_name": "Baker Miller Bakery & Millhouse",
		"latitude": 41.9663791,
		"longitude": -87.6868644,
		"address1": "4655 N Lincoln Ave",
		"address2": "",
		"address3": "",
		"city": "Chicago",
		"state": "IL",
		"zip_code": "60625"
	},
	{
		"venue_id": "yelp5RyVuJ4EBVQugH_zzKj__g",
		"venue_name": "The French Lunchbox",
		"latitude": 41.8839695,
		"longitude": -87.6410747,
		"address1": "131 N Clinton St",
		"address2": null,
		"address3": "",
		"city": "Chicago",
		"state": "IL",
		"zip_code": "60661"
	},
	{
		"venue_id": "yelpbtvVCM9JW_6l7TRMOunKbg",
		"venue_name": "Grassroots Grill Neighborhood Restaurant",
		"latitude": 41.9502011,
		"longitude": -87.6639223,
		"address1": "3747 N Southport Ave",
		"address2": "",
		"address3": "",
		"city": "Chicago",
		"state": "IL",
		"zip_code": "60613"
	},
	{
		"venue_id": "yelp30zk6IO36tbutrSvpv9IKA",
		"venue_name": "Jibarito's on Harlem",
		"latitude": 41.9403601057798,
		"longitude": -87.806540094316,
		"address1": "3317 N Harlem Ave",
		"address2": "",
		"address3": null,
		"city": "Chicago",
		"state": "IL",
		"zip_code": "60634"
	},
	{
		"venue_id": "yelpKy6VeoI1-0M0Z46v5gSWwg",
		"venue_name": "The Steak Out",
		"latitude": 41.85365,
		"longitude": -87.62675,
		"address1": "2113 S State St",
		"address2": null,
		"address3": "",
		"city": "Chicago",
		"state": "IL",
		"zip_code": "60616"
	},
	{
		"venue_id": "yelpWhm6z5A8IbPQu2_KgnOWvw",
		"venue_name": "Boston Market",
		"latitude": 41.93679,
		"longitude": -87.6686849,
		"address1": "3020 N Ashland Ave",
		"address2": "",
		"address3": "",
		"city": "Chicago",
		"state": "IL",
		"zip_code": "60657"
	},
	{
		"venue_id": "yelpY_Sy3bPGZJd6uONtNh431Q",
		"venue_name": "Luella's Gospel Bird",
		"latitude": 41.91796,
		"longitude": -87.67748,
		"address1": "2009 N Damen Ave",
		"address2": "",
		"address3": null,
		"city": "Chicago",
		"state": "IL",
		"zip_code": "60647"
	},
	{
		"venue_id": "yelpy1wiz7jtgV1oiYkYlr1xfg",
		"venue_name": "ETA Restaurant + Bar",
		"latitude": 41.889985,
		"longitude": -87.6191292,
		"address1": "455 N Park Dr",
		"address2": "",
		"address3": null,
		"city": "Chicago",
		"state": "IL",
		"zip_code": "60611"
	},
	{
		"venue_id": "yelpKV1MZzaPHhdxsUyCrt99aQ",
		"venue_name": "Famous Dave's Bar-B-Que",
		"latitude": 41.84606,
		"longitude": -87.80609,
		"address1": "7201 W 25th St",
		"address2": "",
		"address3": "",
		"city": "North Riverside",
		"state": "IL",
		"zip_code": "60546"
	},
	{
		"venue_id": "yelpyM_UvIAmwAjq_ovtr2J0sw",
		"venue_name": "Tastebuds",
		"latitude": 41.88035,
		"longitude": -87.72908,
		"address1": "4123 W Madison St",
		"address2": "",
		"address3": "",
		"city": "Chicago",
		"state": "IL",
		"zip_code": "60624"
	},
	{
		"venue_id": "yelpepyn8GlJ_ikc_LZ7bIBhFg",
		"venue_name": "Dorian's",
		"latitude": 41.9104257244175,
		"longitude": -87.6766826628237,
		"address1": "1939 W North Ave",
		"address2": null,
		"address3": "",
		"city": "Chicago",
		"state": "IL",
		"zip_code": "60622"
	},
	{
		"venue_id": "yelpDM5nFuQwXx7eTAIeiSiobA",
		"venue_name": "El Conde S.A.",
		"latitude": 41.8580704,
		"longitude": -87.6651535,
		"address1": "1536 W 18th St",
		"address2": "",
		"address3": "",
		"city": "Chicago",
		"state": "IL",
		"zip_code": "60608"
	},
	{
		"venue_id": "yelp2p7nUsqFEHC6ahJEw4l5Jg",
		"venue_name": "Boston Market",
		"latitude": 41.8884051,
		"longitude": -87.8058766,
		"address1": "7211 W Lake St",
		"address2": "",
		"address3": "",
		"city": "River Forest",
		"state": "IL",
		"zip_code": "60305"
	}
]