[
	{
		"venue_id": "yelp1hJYOI26FjCQ-Ce6iKAvug",
		"venue_name": "Cafecito",
		"latitude": 41.875725,
		"longitude": -87.626566,
		"address1": "26 E Congress Pkwy",
		"address2": "",
		"address3": "",
		"city": "Chicago",
		"state": "IL",
		"zip_code": "60605"
	},
	{
		"venue_id": "yelpmCHto10PBQOKnefm7gholg",
		"venue_name": "90 Miles Cuban Caf\u00e9",
		"latitude": 41.9176864624023,
		"longitude": -87.6918029785156,
		"address1": "2540 W Armitage Ave",
		"address2": "",
		"address3": "",
		"city": "Chicago",
		"state": "IL",
		"zip_code": "60647"
	},
	{
		"venue_id": "yelpKay0151fB9BoQ_AF57Zl2A",
		"venue_name": "Cafecito",
		"latitude": 41.8823605,
		"longitude": -87.6337765,
		"address1": "7 N Wells St",
		"address2": "",
		"address3": "",
		"city": "Chicago",
		"state": "IL",
		"zip_code": "60602"
	},
	{
		"venue_id": "yelpIuFEm-19YYh49T5ZlvwkDA",
		"venue_name": "90 Miles Cuban Caf\u00e9",
		"latitude": 41.9380569458008,
		"longitude": -87.6858062744141,
		"address1": "3101 N Clybourn Ave",
		"address2": "",
		"address3": "",
		"city": "Chicago",
		"state": "IL",
		"zip_code": "60618"
	},
	{
		"venue_id": "yelp8dqQ4RV4AMC6sHzwsjCz9Q",
		"venue_name": "El Cubanito",
		"latitude": 41.9278468763324,
		"longitude": -87.7265240997076,
		"address1": "2555 N Pulaski Rd",
		"address2": "",
		"address3": "",
		"city": "Chicago",
		"state": "IL",
		"zip_code": "60639"
	},
	{
		"venue_id": "yelp6XGYBXKAc_gPUMXCrmb8qA",
		"venue_name": "Havana",
		"latitude": 41.88967,
		"longitude": -87.6314,
		"address1": "412 N Clark St",
		"address2": "",
		"address3": "",
		"city": "Chicago",
		"state": "IL",
		"zip_code": "60654"
	},
	{
		"venue_id": "yelpJSw23BvU6mF-6S02d5ijBA",
		"venue_name": "Se\u00f1or Pan Cafe",
		"latitude": 41.9244149,
		"longitude": -87.7423467,
		"address1": "4612 W Fullerton Ave",
		"address2": "",
		"address3": "",
		"city": "Chicago",
		"state": "IL",
		"zip_code": "60639"
	},
	{
		"venue_id": "yelpiw6I57dVB_blHYdbamMTJw",
		"venue_name": "Nacional 27",
		"latitude": 41.89489726738,
		"longitude": -87.637452219798,
		"address1": "325 W Huron St",
		"address2": "",
		"address3": "",
		"city": "Chicago",
		"state": "IL",
		"zip_code": "60654"
	},
	{
		"venue_id": "yelpqfv0rYo8rAY0DgmL18hZTg",
		"venue_name": "Cuba 312",
		"latitude": 41.943481,
		"longitude": -87.680633,
		"address1": "2054 W Roscoe St",
		"address2": null,
		"address3": "",
		"city": "Chicago",
		"state": "IL",
		"zip_code": "60618"
	},
	{
		"venue_id": "yelpJPI7g_Q7x6Q6S30a3ic6Mg",
		"venue_name": "Paladar",
		"latitude": 41.9231462,
		"longitude": -87.6879753,
		"address1": "2252 N Western Ave",
		"address2": "",
		"address3": "",
		"city": "Chicago",
		"state": "IL",
		"zip_code": "60647"
	},
	{
		"venue_id": "yelp1AwTFlZTeFxINxC5e9VIpA",
		"venue_name": "Habana Libre Restaurant",
		"latitude": 41.8962642,
		"longitude": -87.6640126,
		"address1": "1440 W Chicago Ave",
		"address2": null,
		"address3": "",
		"city": "Chicago",
		"state": "IL",
		"zip_code": "60642"
	},
	{
		"venue_id": "yelpUgbdeOxrVJy1pa_RGf7njA",
		"venue_name": "La Unica Food Mart",
		"latitude": 41.998011511669,
		"longitude": -87.6683912,
		"address1": "1515 W Devon Ave",
		"address2": "",
		"address3": "",
		"city": "Chicago",
		"state": "IL",
		"zip_code": "60660"
	},
	{
		"venue_id": "yelp4oATsYP0OF0ciHz-_-c_Lw",
		"venue_name": "1492 Cuban Fusion",
		"latitude": 41.909976,
		"longitude": -87.692779,
		"address1": "2615 West North Ave",
		"address2": "",
		"address3": null,
		"city": "Chicago",
		"state": "IL",
		"zip_code": "60647"
	},
	{
		"venue_id": "yelp6o35KF_Z2N-6KsDJvBJzzA",
		"venue_name": "Se\u00f1or Pan Cafe Tapas & Vinos",
		"latitude": 41.96865,
		"longitude": -87.74055,
		"address1": "4821 N Elston Ave",
		"address2": "",
		"address3": "",
		"city": "Chicago",
		"state": "IL",
		"zip_code": "60630"
	},
	{
		"venue_id": "yelppAHABLrE2cVSFPQvk_xu7Q",
		"venue_name": "Bia's Caf\u00e9 Marianao",
		"latitude": 41.946,
		"longitude": -87.73617,
		"address1": "4323 W Addison St",
		"address2": "",
		"address3": null,
		"city": "Chicago",
		"state": "IL",
		"zip_code": "60641"
	},
	{
		"venue_id": "yelpepdAvPKt726YCe48gD6Ldw",
		"venue_name": "Kerelys Cuban Cafe & Pizzeria",
		"latitude": 41.9346478,
		"longitude": -87.7168702,
		"address1": "2934 N Milwaukee Ave",
		"address2": "",
		"address3": "",
		"city": "Chicago",
		"state": "IL",
		"zip_code": "60618"
	},
	{
		"venue_id": "yelpBb3AQCst7df3YF0RD1D5Og",
		"venue_name": "Cafeteria Yesenia",
		"latitude": 41.816395,
		"longitude": -87.665543,
		"address1": "4244 S Ashland Ave",
		"address2": "",
		"address3": "",
		"city": "Chicago",
		"state": "IL",
		"zip_code": "60609"
	},
	{
		"venue_id": "yelp9xEtH_FYjzdIxAZr5PKrbw",
		"venue_name": "Tropicuba",
		"latitude": 41.92261,
		"longitude": -87.7024,
		"address1": "3000 W Lyndale St",
		"address2": null,
		"address3": "",
		"city": "Chicago",
		"state": "IL",
		"zip_code": "60647"
	},
	{
		"venue_id": "yelpy6L7ug49rUckTHN8-IwN9w",
		"venue_name": "D'Cuba Restaurant",
		"latitude": 41.9236640930176,
		"longitude": -87.7680358886719,
		"address1": "5653 W Fullerton Ave",
		"address2": null,
		"address3": null,
		"city": "Chicago",
		"state": "IL",
		"zip_code": "60639"
	},
	{
		"venue_id": "yelp4PdLQvTQyzhSfcF4u5P0tQ",
		"venue_name": "Taste of Havana",
		"latitude": 41.92744,
		"longitude": -87.70424,
		"address1": "2529 N Milwaukee Ave",
		"address2": "",
		"address3": null,
		"city": "Chicago",
		"state": "IL",
		"zip_code": "60647"
	},
	{
		"venue_id": "yelphmd6GHmkw9Txe9rJs_kt4w",
		"venue_name": "Cafeteria Marianao",
		"latitude": 41.9167547335194,
		"longitude": -87.7471506780101,
		"address1": "4825 W Armitage Ave",
		"address2": "",
		"address3": "",
		"city": "Chicago",
		"state": "IL",
		"zip_code": "60639"
	},
	{
		"venue_id": "yelpTAbh6bLDRYXfAwn7Kbk6cw",
		"venue_name": "Se\u00f1or Pan Caf\u00e9",
		"latitude": 41.9313151,
		"longitude": -87.7529374,
		"address1": "5059 W Diversey Ave",
		"address2": "",
		"address3": "",
		"city": "Chicago",
		"state": "IL",
		"zip_code": "60639"
	},
	{
		"venue_id": "yelpHmzdlrpNM4hS27BJ-YRNiw",
		"venue_name": "Bayan Ko",
		"latitude": 41.96169,
		"longitude": -87.67492,
		"address1": "1810 W Montrose Ave",
		"address2": "",
		"address3": null,
		"city": "Chicago",
		"state": "IL",
		"zip_code": "60613"
	},
	{
		"venue_id": "yelp1e4EwmIROSP9brcpLc8tew",
		"venue_name": "Sazon Cubano",
		"latitude": 41.9241849,
		"longitude": -87.7620437,
		"address1": "5422 W Fullerton",
		"address2": null,
		"address3": "",
		"city": "Chicago",
		"state": "IL",
		"zip_code": "60639"
	},
	{
		"venue_id": "yelp5zGiZuMAGtYdhIwyINSlcw",
		"venue_name": "Cafe Cubano",
		"latitude": 41.909072,
		"longitude": -87.812278,
		"address1": "7426 W North Ave",
		"address2": "",
		"address3": "",
		"city": "Elmwood Park",
		"state": "IL",
		"zip_code": "60707"
	},
	{
		"venue_id": "yelpqSrQDsG2BYdCmphu3-qrvA",
		"venue_name": "Congas",
		"latitude": 41.9801907898559,
		"longitude": -87.8032832220197,
		"address1": "7021 W Higgins Ave",
		"address2": "",
		"address3": "",
		"city": "Chicago",
		"state": "IL",
		"zip_code": "60656"
	},
	{
		"venue_id": "yelpS6CDUshDpmHzF3uZWB3DUA",
		"venue_name": "Babalu Cuban Cocina",
		"latitude": 41.8842506408691,
		"longitude": -87.6324462890625,
		"address1": "",
		"address2": "",
		"address3": "",
		"city": "Chicago",
		"state": "IL",
		"zip_code": ""
	},
	{
		"venue_id": "yelphbSy6ytQCIDnWJCbaWjcmA",
		"venue_name": "TriBecca Cubano",
		"latitude": 41.87979,
		"longitude": -87.63051,
		"address1": "125 S Clark St",
		"address2": "",
		"address3": "Revival Food Hall",
		"city": "Chicago",
		"state": "IL",
		"zip_code": "60603"
	},
	{
		"venue_id": "yelpnmR_0Gci_uz0TYzXuhLH9g",
		"venue_name": "Cafe Media Noche",
		"latitude": 41.83263,
		"longitude": -87.79437,
		"address1": "6836 Windsor Ave",
		"address2": "",
		"address3": null,
		"city": "Berwyn",
		"state": "IL",
		"zip_code": "60402"
	}
]