[
	{
		"venue_id": "yelprzWulqWwBqVOFVEa8sdaiQ",
		"venue_name": "Chicago Cultural Center",
		"latitude": 41.883771,
		"longitude": -87.6249639,
		"address1": "78 E Washington St",
		"address2": "",
		"address3": "",
		"city": "Chicago",
		"state": "IL",
		"zip_code": "60602"
	},
	{
		"venue_id": "yelpT3PnQ2gkn_LYlv-Q3ncj-A",
		"venue_name": "Irish American Heritage Center",
		"latitude": 41.9649313,
		"longitude": -87.7441317,
		"address1": "4626 N Knox Ave",
		"address2": "",
		"address3": "",
		"city": "Chicago",
		"state": "IL",
		"zip_code": "60630"
	},
	{
		"venue_id": "yelpNfNnPZ6nsdd0WMGRan6IOw",
		"venue_name": "DANK Haus German American Cultural Center",
		"latitude": 41.9679638743401,
		"longitude": -87.6889342814684,
		"address1": "4740 N Western Ave",
		"address2": "",
		"address3": "",
		"city": "Chicago",
		"state": "IL",
		"zip_code": "60625"
	},
	{
		"venue_id": "yelp3TF92CS4gqJd43nVcJot7Q",
		"venue_name": "Swedish American Museum",
		"latitude": 41.9766599,
		"longitude": -87.6682977,
		"address1": "5211 N Clark St",
		"address2": "",
		"address3": "",
		"city": "Chicago",
		"state": "IL",
		"zip_code": "60640"
	},
	{
		"venue_id": "yelpFsZLQLQ_ow0rvpchyaNZGA",
		"venue_name": "The Copernicus Center",
		"latitude": 41.9681240042027,
		"longitude": -87.7585367699753,
		"address1": "5216 W Lawrence Ave",
		"address2": "",
		"address3": "",
		"city": "Chicago",
		"state": "IL",
		"zip_code": "60630"
	},
	{
		"venue_id": "yelp7fkeLXyvQMaE9QemeX4utg",
		"venue_name": "Universidad Nacional Autonoma de Mexico",
		"latitude": 41.894028,
		"longitude": -87.6378179,
		"address1": "350 W Erie St",
		"address2": "Ste 300",
		"address3": "",
		"city": "Chicago",
		"state": "IL",
		"zip_code": "60654"
	},
	{
		"venue_id": "yelptaL0a10-5imyZ19MrLrPHA",
		"venue_name": "Instituto Cervantes",
		"latitude": 41.8923091,
		"longitude": -87.6292376,
		"address1": "31 W Ohio St",
		"address2": "",
		"address3": "",
		"city": "Chicago",
		"state": "IL",
		"zip_code": "60654"
	},
	{
		"venue_id": "yelpq932hAGKaa3eSI4FoLYElQ",
		"venue_name": "Africaribe Cultural Center",
		"latitude": 41.9028251,
		"longitude": -87.6914379,
		"address1": "2547 W Division St",
		"address2": "",
		"address3": "",
		"city": "Chicago",
		"state": "IL",
		"zip_code": "60622"
	},
	{
		"venue_id": "yelpcEl3bMqMz-2Fg3sTCZgQ4A",
		"venue_name": "International Latino Cultural Center",
		"latitude": 41.8945388793945,
		"longitude": -87.6330413818359,
		"address1": "676 N LaSalle St",
		"address2": "Ste 520",
		"address3": "",
		"city": "Chicago",
		"state": "IL",
		"zip_code": "60654"
	},
	{
		"venue_id": "yelpepdx08FksM8B2TWklUEGwg",
		"venue_name": "Lincoln Park Cultural Center",
		"latitude": 41.9197611,
		"longitude": -87.6361666,
		"address1": "2045 N Lincoln Park W",
		"address2": "",
		"address3": "",
		"city": "Chicago",
		"state": "IL",
		"zip_code": "60614"
	},
	{
		"venue_id": "yelpX9b45JLCieATdkTgR8iJdQ",
		"venue_name": "Soka Gakkai International Culture Center",
		"latitude": 41.8625516,
		"longitude": -87.6255289,
		"address1": "1455 S Wabash Ave",
		"address2": "",
		"address3": "",
		"city": "Chicago",
		"state": "IL",
		"zip_code": "60605"
	},
	{
		"venue_id": "yelp_l_EWoVSNwd13aTRbZ9gmA",
		"venue_name": "Goethe-Institut Chicago",
		"latitude": 41.8847961425781,
		"longitude": -87.6249542236328,
		"address1": "150 N Michigan Ave",
		"address2": "Ste 200",
		"address3": "",
		"city": "Chicago",
		"state": "IL",
		"zip_code": "60601"
	},
	{
		"venue_id": "yelpfamkx1LFbxnlfFlBPF0Pqg",
		"venue_name": "Croatian Cultural Center of Chicago",
		"latitude": 41.9974009,
		"longitude": -87.7014306,
		"address1": "2845 W Devon Ave",
		"address2": "",
		"address3": "",
		"city": "Chicago",
		"state": "IL",
		"zip_code": "60659"
	},
	{
		"venue_id": "yelpBhHAYWpibALd_6kbnEGNQQ",
		"venue_name": "Japanese Culture Center",
		"latitude": 41.94015,
		"longitude": -87.65491,
		"address1": "1016 W Belmont Ave",
		"address2": "",
		"address3": "",
		"city": "Chicago",
		"state": "IL",
		"zip_code": "60657"
	},
	{
		"venue_id": "yelpNzXesG6AhDnmtHZlsTWc-A",
		"venue_name": "Harold Washington Cultural Center",
		"latitude": 41.80916,
		"longitude": -87.61569,
		"address1": "4701 S King Dr",
		"address2": "",
		"address3": "",
		"city": "Chicago",
		"state": "IL",
		"zip_code": "60615"
	},
	{
		"venue_id": "yelpz836b7BiMgPkOrL0tyKJbQ",
		"venue_name": "Lgbt Neighbors In Bridgeport Chicago",
		"latitude": 41.8487091064453,
		"longitude": -87.6709365844727,
		"address1": "",
		"address2": "",
		"address3": "",
		"city": "Chicago",
		"state": "IL",
		"zip_code": "60608"
	},
	{
		"venue_id": "yelpTjVi9Z0f2BQlXthCAI6zAQ",
		"venue_name": "Olin Studio",
		"latitude": 41.85014,
		"longitude": -87.6756,
		"address1": "1957 W 23rd St",
		"address2": null,
		"address3": "",
		"city": "Chicago",
		"state": "IL",
		"zip_code": "60608"
	},
	{
		"venue_id": "yelprrNfMUZBLJTUSgQ3CLsY3g",
		"venue_name": "Puerto Rican Cultural Center",
		"latitude": 41.90264,
		"longitude": -87.69597,
		"address1": "2739 W Division St",
		"address2": "",
		"address3": "",
		"city": "Chicago",
		"state": "IL",
		"zip_code": "60622"
	},
	{
		"venue_id": "yelphcA4hETWtemWiw5dAr7UWg",
		"venue_name": "Gerber Hart Library and Archives",
		"latitude": 41.999916,
		"longitude": -87.671646,
		"address1": "6500 N Clark St",
		"address2": "",
		"address3": "",
		"city": "Chicago",
		"state": "IL",
		"zip_code": "60626"
	},
	{
		"venue_id": "yelpao5P_Ez_KRqSjVBWr3E1eg",
		"venue_name": "Japanese American Service Committee",
		"latitude": 41.9623544,
		"longitude": -87.6658951,
		"address1": "4427 N Clark St",
		"address2": "",
		"address3": "",
		"city": "Chicago",
		"state": "IL",
		"zip_code": "60640"
	},
	{
		"venue_id": "yelpW8cPMaDjwV0ZAGsHfM21RA",
		"venue_name": "African American Cultural Center",
		"latitude": 41.8711095038728,
		"longitude": -87.6464470848441,
		"address1": "830 S Halsted St",
		"address2": "Ste 207",
		"address3": null,
		"city": "Chicago",
		"state": "IL",
		"zip_code": "60607"
	},
	{
		"venue_id": "yelpef5MCKTaC38vz-ruHw-zoA",
		"venue_name": "Shop at the Cultural Center",
		"latitude": 41.8833949,
		"longitude": -87.6250484,
		"address1": "78 E Washington St",
		"address2": "",
		"address3": "Chicago Cultural Center",
		"city": "Chicago",
		"state": "IL",
		"zip_code": "60602"
	},
	{
		"venue_id": "yelpMSBXbE6z-C0SyPC7xnTH6g",
		"venue_name": "Ukrainian Cultural Center",
		"latitude": 41.8955192565918,
		"longitude": -87.6836090087891,
		"address1": "2247 W Chicago Ave",
		"address2": "",
		"address3": "",
		"city": "Chicago",
		"state": "IL",
		"zip_code": "60622"
	},
	{
		"venue_id": "yelpP7vjNZ2smn7MEyPB_qir7Q",
		"venue_name": "Serbian American Museum St. Sava",
		"latitude": 41.9380188,
		"longitude": -87.6413727,
		"address1": "448 W Barry Ave",
		"address2": "",
		"address3": "",
		"city": "Chicago",
		"state": "IL",
		"zip_code": "60657"
	},
	{
		"venue_id": "yelpE2OSO1uoSSU5I9-_MEoonQ",
		"venue_name": "Uptown Multi Cultural Art Center",
		"latitude": 41.9653649,
		"longitude": -87.6697653,
		"address1": "1630 W Wilson Ave",
		"address2": "",
		"address3": "",
		"city": "Chicago",
		"state": "IL",
		"zip_code": "60640"
	},
	{
		"venue_id": "yelpZXkLojH7f0Rq-nk06MIB8g",
		"venue_name": "Shivalya Hindu Cultural Center",
		"latitude": 41.891796,
		"longitude": -87.636383,
		"address1": "318 W Grand Ave",
		"address2": "Ste 201",
		"address3": "",
		"city": "Chicago",
		"state": "IL",
		"zip_code": "60654"
	}
]