[
	{
		"venue_id": "yelpiw6I57dVB_blHYdbamMTJw",
		"venue_name": "Nacional 27",
		"latitude": 41.89489726738,
		"longitude": -87.637452219798,
		"address1": "325 W Huron St",
		"address2": "",
		"address3": "",
		"city": "Chicago",
		"state": "IL",
		"zip_code": "60654"
	},
	{
		"venue_id": "yelphO5ZAyr7yqBJFWN_CMMPNA",
		"venue_name": "Smart Bar",
		"latitude": 41.94979,
		"longitude": -87.65891,
		"address1": "3730 N Clark St",
		"address2": "",
		"address3": "",
		"city": "Chicago",
		"state": "IL",
		"zip_code": "60613"
	},
	{
		"venue_id": "yelpdBy3RoibRdEjGvkdAcw4ww",
		"venue_name": "The Drop Lounge",
		"latitude": 41.9169064,
		"longitude": -87.6365454,
		"address1": "1909 N Lincoln Ave",
		"address2": null,
		"address3": "",
		"city": "Chicago",
		"state": "IL",
		"zip_code": "60614"
	},
	{
		"venue_id": "yelpI2ke2-jIbXLkMFoxCGMIPA",
		"venue_name": "El Hefe",
		"latitude": 41.8900083,
		"longitude": -87.628553,
		"address1": "15 W Hubbard St",
		"address2": "",
		"address3": "",
		"city": "Chicago",
		"state": "IL",
		"zip_code": "60654"
	},
	{
		"venue_id": "yelppCmGbfvMC4qPHRUD_oe8ew",
		"venue_name": "Berlin",
		"latitude": 41.940052,
		"longitude": -87.6537225,
		"address1": "954 W Belmont Ave",
		"address2": "",
		"address3": "",
		"city": "Chicago",
		"state": "IL",
		"zip_code": "60657"
	},
	{
		"venue_id": "yelpUaiuYT0UB4bRoSCEUIrDtQ",
		"venue_name": "Beauty Bar",
		"latitude": 41.89639,
		"longitude": -87.66413,
		"address1": "1444 W Chicago Ave",
		"address2": "",
		"address3": "",
		"city": "Chicago",
		"state": "IL",
		"zip_code": "60642"
	},
	{
		"venue_id": "yelptnY33MdbcR7FjECJwJbu_A",
		"venue_name": "Exit",
		"latitude": 41.9105903203482,
		"longitude": -87.6610111804954,
		"address1": "1315 W North Ave",
		"address2": "",
		"address3": "",
		"city": "Chicago",
		"state": "IL",
		"zip_code": "60642"
	},
	{
		"venue_id": "yelpidrHZmUFg6kpBkb5XzG1tw",
		"venue_name": "Late Bar",
		"latitude": 41.9394798,
		"longitude": -87.7163467,
		"address1": "3534 W Belmont",
		"address2": "",
		"address3": "",
		"city": "Chicago",
		"state": "IL",
		"zip_code": "60618"
	},
	{
		"venue_id": "yelpFo0S1uTcqfGy0JomhJ8InQ",
		"venue_name": "Cerise",
		"latitude": 41.8860669,
		"longitude": -87.6259885,
		"address1": "203 N Wabash",
		"address2": "",
		"address3": "",
		"city": "Chicago",
		"state": "IL",
		"zip_code": "60601"
	},
	{
		"venue_id": "yelpNfigrGVZr3-LLZnyGlM3nQ",
		"venue_name": "Joy District",
		"latitude": 41.8899377283746,
		"longitude": -87.6314447365695,
		"address1": "112 Hubbard St",
		"address2": "",
		"address3": "",
		"city": "Chicago",
		"state": "IL",
		"zip_code": "60654"
	},
	{
		"venue_id": "yelpyNKWaa8N6WrD6GRYp8V7pw",
		"venue_name": "The Underground",
		"latitude": 41.89109,
		"longitude": -87.63034,
		"address1": "56 W Illinois St",
		"address2": "",
		"address3": "",
		"city": "Chicago",
		"state": "IL",
		"zip_code": "60610"
	},
	{
		"venue_id": "yelpkHym1xqOZjR1f2vACC24pA",
		"venue_name": "Sound-Bar",
		"latitude": 41.8933049,
		"longitude": -87.6352126,
		"address1": "226 W Ontario St",
		"address2": "",
		"address3": "",
		"city": "Chicago",
		"state": "IL",
		"zip_code": "60654"
	},
	{
		"venue_id": "yelpyCaZqH7OgisBoywmADC2Ow",
		"venue_name": "Scarlet",
		"latitude": 41.9424438476562,
		"longitude": -87.6496887207031,
		"address1": "3320 N Halsted St",
		"address2": "",
		"address3": "",
		"city": "Chicago",
		"state": "IL",
		"zip_code": "60657"
	},
	{
		"venue_id": "yelpZJMgEycQB5e9ImszzSS5xg",
		"venue_name": "The Hangge-Uppe",
		"latitude": 41.90339,
		"longitude": -87.62918,
		"address1": "14 W Elm St",
		"address2": "",
		"address3": "",
		"city": "Chicago",
		"state": "IL",
		"zip_code": "60610"
	},
	{
		"venue_id": "yelpo8yNGkQNkOFdQk0YX95F2w",
		"venue_name": "Studio Paris Nightclub",
		"latitude": 41.8898862,
		"longitude": -87.6302636,
		"address1": "59 W Hubbard St",
		"address2": "Fl 2",
		"address3": "",
		"city": "Chicago",
		"state": "IL",
		"zip_code": "60654"
	},
	{
		"venue_id": "yelpA_-t-gjBxE2W05kuhqjDzA",
		"venue_name": "The Rec Room",
		"latitude": 41.8901771978216,
		"longitude": -87.62873434166,
		"address1": "18 W Hubbard St",
		"address2": "",
		"address3": "Lower Level",
		"city": "Chicago",
		"state": "IL",
		"zip_code": "60654"
	},
	{
		"venue_id": "yelpz2cMwcoyDyPuPnZCv1xfLA",
		"venue_name": "The SoFo Tap",
		"latitude": 41.9724273681641,
		"longitude": -87.6675415039062,
		"address1": "4923 N Clark St",
		"address2": null,
		"address3": "",
		"city": "Chicago",
		"state": "IL",
		"zip_code": "60640"
	},
	{
		"venue_id": "yelpLRInWnT8MzjKUM-RQLcbsA",
		"venue_name": "TAO Chicago",
		"latitude": 41.89369,
		"longitude": -87.63008,
		"address1": "632 N Dearborn St",
		"address2": null,
		"address3": "",
		"city": "Chicago",
		"state": "IL",
		"zip_code": "60654"
	},
	{
		"venue_id": "yelpbjTtIFdCrQKSbR1Qndv_Vw",
		"venue_name": "Debonair Social Club",
		"latitude": 41.910092,
		"longitude": -87.6767021,
		"address1": "1575 N Milwaukee Ave",
		"address2": null,
		"address3": "",
		"city": "Chicago",
		"state": "IL",
		"zip_code": "60647"
	},
	{
		"venue_id": "yelpp0UquNGFSGewziWPevA0Ng",
		"venue_name": "Dylans Tavern & Grill",
		"latitude": 41.8799,
		"longitude": -87.64144,
		"address1": "118 S Clinton St",
		"address2": "",
		"address3": "",
		"city": "Chicago",
		"state": "IL",
		"zip_code": "60661"
	},
	{
		"venue_id": "yelprZnb4GqUX1aOC8JL30Sx3Q",
		"venue_name": "The Mid",
		"latitude": 41.887104,
		"longitude": -87.647866,
		"address1": "306 N Halsted St",
		"address2": "",
		"address3": "",
		"city": "Chicago",
		"state": "IL",
		"zip_code": "60661"
	},
	{
		"venue_id": "yelpttCXis19h8BOtlLSocU2yQ",
		"venue_name": "The Apartment",
		"latitude": 41.92317,
		"longitude": -87.64516,
		"address1": "2251 N Lincoln Ave",
		"address2": "",
		"address3": "",
		"city": "Chicago",
		"state": "IL",
		"zip_code": "60614"
	},
	{
		"venue_id": "yelpnzrrlKGfM7YppTK0ZA10ww",
		"venue_name": "East Room",
		"latitude": 41.9238369,
		"longitude": -87.699338,
		"address1": "2354 N Milwaukee Ave",
		"address2": "",
		"address3": "",
		"city": "Chicago",
		"state": "IL",
		"zip_code": "60647"
	},
	{
		"venue_id": "yelpE5PgIgCxWDSaNbyW8-H-0g",
		"venue_name": "Hydrate",
		"latitude": 41.945351310694,
		"longitude": -87.649598645819,
		"address1": "3458 N Halsted St",
		"address2": "",
		"address3": "",
		"city": "Chicago",
		"state": "IL",
		"zip_code": "60657"
	},
	{
		"venue_id": "yelpARxjMaBpMFfM1Pyi3rEP3w",
		"venue_name": "Stereo Nightclub",
		"latitude": 41.93153,
		"longitude": -87.76698,
		"address1": "5616 W Diversey Ave",
		"address2": "",
		"address3": "",
		"city": "Chicago",
		"state": "IL",
		"zip_code": "60639"
	},
	{
		"venue_id": "yelp7ZF4cVQ87cuz7h_EDYP4Bg",
		"venue_name": "Social Twenty Five",
		"latitude": 41.88982,
		"longitude": -87.6290999,
		"address1": "25 W Hubbard St",
		"address2": "",
		"address3": "",
		"city": "Chicago",
		"state": "IL",
		"zip_code": "60654"
	},
	{
		"venue_id": "yelpmKRsc_b8pi4eQsIxlQ-0dw",
		"venue_name": "The Original Mother's",
		"latitude": 41.9040752,
		"longitude": -87.6292366,
		"address1": "26 W Division St",
		"address2": "",
		"address3": "",
		"city": "Chicago",
		"state": "IL",
		"zip_code": "60610"
	},
	{
		"venue_id": "yelpR7s4BwxKABHdlPCn4u7_JQ",
		"venue_name": "The Call",
		"latitude": 41.983351,
		"longitude": -87.669183,
		"address1": "1547 W Bryn Mawr Ave",
		"address2": "",
		"address3": "",
		"city": "Chicago",
		"state": "IL",
		"zip_code": "60660"
	},
	{
		"venue_id": "yelpZj1nbFn_hqWRNh_VvhP08A",
		"venue_name": "Y",
		"latitude": 41.8933049,
		"longitude": -87.6351608,
		"address1": "224 W Ontario St",
		"address2": "",
		"address3": "",
		"city": "Chicago",
		"state": "IL",
		"zip_code": "60654"
	},
	{
		"venue_id": "yelpUF9DACe58e4JNYMK_8wYjw",
		"venue_name": "Twisted Cantina",
		"latitude": 41.85873,
		"longitude": -87.66079,
		"address1": "1640 S Blue Island Ave",
		"address2": "",
		"address3": null,
		"city": "Chicago",
		"state": "IL",
		"zip_code": "60608"
	},
	{
		"venue_id": "yelpavGMiwuYUWQP61NQEW6wrw",
		"venue_name": "The Big City Tap",
		"latitude": 41.9399949,
		"longitude": -87.6545199,
		"address1": "1010 W Belmont Ave",
		"address2": null,
		"address3": "",
		"city": "Chicago",
		"state": "IL",
		"zip_code": "60657"
	},
	{
		"venue_id": "yelpuMHy8pweWndSPdiBNyXtYA",
		"venue_name": "Cuvee",
		"latitude": 41.8941993713379,
		"longitude": -87.6361846923828,
		"address1": "308 W Erie St",
		"address2": "",
		"address3": "",
		"city": "Chicago",
		"state": "IL",
		"zip_code": "60654"
	},
	{
		"venue_id": "yelpSu41TMNtKbNIYKpQD0e-lQ",
		"venue_name": "Lite",
		"latitude": 41.892943,
		"longitude": -87.634836,
		"address1": "215 W Ontario St",
		"address2": "",
		"address3": "",
		"city": "Chicago",
		"state": "IL",
		"zip_code": "60654"
	},
	{
		"venue_id": "yelpk64pzZO79-vVbPx6p8Ephg",
		"venue_name": "PRYSM Nightclub",
		"latitude": 41.9093583721087,
		"longitude": -87.6524699851871,
		"address1": "1543 N Kingsbury St",
		"address2": "",
		"address3": null,
		"city": "Chicago",
		"state": "IL",
		"zip_code": "60642"
	},
	{
		"venue_id": "yelpocv5OY8gUizO8Im-2SSuXA",
		"venue_name": "Disco",
		"latitude": 41.88978,
		"longitude": -87.6316,
		"address1": "111 W Hubbard St",
		"address2": null,
		"address3": "",
		"city": "Chicago",
		"state": "IL",
		"zip_code": "60654"
	},
	{
		"venue_id": "yelpsp10QI-XDe404UTtNRAj8A",
		"venue_name": "Chicago by Night",
		"latitude": 41.9386719,
		"longitude": -87.7667998,
		"address1": "5600 W Belmont Ave",
		"address2": "",
		"address3": "",
		"city": "Chicago",
		"state": "IL",
		"zip_code": "60634"
	},
	{
		"venue_id": "yelpVK_sKeFkOm3uqQr3t0eI5Q",
		"venue_name": "Transit Nightclub",
		"latitude": 41.88517,
		"longitude": -87.66377,
		"address1": "1431 W Lake St",
		"address2": "",
		"address3": "",
		"city": "Chicago",
		"state": "IL",
		"zip_code": "60607"
	},
	{
		"venue_id": "yelpaMx7cfRX7uUxhsyThlQ0Lg",
		"venue_name": "Key Club",
		"latitude": 41.89025,
		"longitude": -87.63179,
		"address1": "110 W Hubbard St",
		"address2": "Fl 3",
		"address3": "Hubbard Inn",
		"city": "Chicago",
		"state": "IL",
		"zip_code": "60654"
	},
	{
		"venue_id": "yelpCZBIdwYtOgymNojP9cXQew",
		"venue_name": "LiqrBox",
		"latitude": 41.89869,
		"longitude": -87.63695,
		"address1": "873 N Orleans St",
		"address2": "",
		"address3": null,
		"city": "Chicago",
		"state": "IL",
		"zip_code": "60610"
	},
	{
		"venue_id": "yelpnPi1iS2byxa_ICSM1b0i0Q",
		"venue_name": "8fifty8",
		"latitude": 41.88588,
		"longitude": -87.64961,
		"address1": "858 W Lake St",
		"address2": "",
		"address3": "",
		"city": "Chicago",
		"state": "IL",
		"zip_code": "60607"
	},
	{
		"venue_id": "yelpj9vLZfOZegJrfcb2LjQclg",
		"venue_name": "Manhandler Saloon",
		"latitude": 41.9174385070801,
		"longitude": -87.6488342285156,
		"address1": "1948 N Halsted St",
		"address2": "",
		"address3": "",
		"city": "Chicago",
		"state": "IL",
		"zip_code": "60614"
	},
	{
		"venue_id": "yelp_2wNvKQKY8Bq97c-xa6lyA",
		"venue_name": "Latin Bliss Nightclub",
		"latitude": 41.981761932373,
		"longitude": -87.6925811767578,
		"address1": "5515 N Lincoln Ave",
		"address2": "",
		"address3": "",
		"city": "Chicago",
		"state": "IL",
		"zip_code": "60625"
	},
	{
		"venue_id": "yelp9Q6CJ63kYoUatKPVMcZ1hw",
		"venue_name": "The Copa Lounge",
		"latitude": 41.911901,
		"longitude": -87.650536,
		"address1": "2916 N Broadway st",
		"address2": "",
		"address3": "",
		"city": "Chicago",
		"state": "IL",
		"zip_code": "60657"
	},
	{
		"venue_id": "yelpBY7FxrhH4AZAc2pbqrx7Lg",
		"venue_name": "Martini Club",
		"latitude": 41.9375343322754,
		"longitude": -87.7668151855469,
		"address1": "3124 N Central Ave",
		"address2": "",
		"address3": "",
		"city": "Chicago",
		"state": "IL",
		"zip_code": "60641"
	},
	{
		"venue_id": "yelpTWnje9Kf7v0xCBzvumsalQ",
		"venue_name": "Tunnel",
		"latitude": 41.8890363,
		"longitude": -87.632964,
		"address1": "151 W Kinzie St",
		"address2": "",
		"address3": "",
		"city": "Chicago",
		"state": "IL",
		"zip_code": "60654"
	},
	{
		"venue_id": "yelpmGDqIrTzKPQ_CkT_JnVJ3Q",
		"venue_name": "Splash Chicago",
		"latitude": 41.9429018592994,
		"longitude": -87.649184308286,
		"address1": "3339 N Halsted St",
		"address2": "",
		"address3": null,
		"city": "Chicago",
		"state": "IL",
		"zip_code": "60657"
	},
	{
		"venue_id": "yelpVjGkemp6CCt3KLfVhjmyog",
		"venue_name": "Annex Nightclub",
		"latitude": 41.910685,
		"longitude": -87.677299,
		"address1": "1958 W North Ave",
		"address2": "",
		"address3": null,
		"city": "Chicago",
		"state": "IL",
		"zip_code": "60622"
	},
	{
		"venue_id": "yelpC-pqjr3_p0rrSqzueh-UCQ",
		"venue_name": "The Filthy Libertine",
		"latitude": 41.9114646911621,
		"longitude": -87.6498413085938,
		"address1": "1615 N Clybourn Ave",
		"address2": "",
		"address3": "",
		"city": "Chicago",
		"state": "IL",
		"zip_code": "60614"
	},
	{
		"venue_id": "yelpuTEGJQmk4PPaDGmKRWBiFw",
		"venue_name": "Caffe Piccolo",
		"latitude": 41.99072,
		"longitude": -87.6950899,
		"address1": "2610-12 W Peterson Ave",
		"address2": "",
		"address3": "",
		"city": "Chicago",
		"state": "IL",
		"zip_code": "60659"
	},
	{
		"venue_id": "yelpLshJpZcYv1knlZJ1DIHFag",
		"venue_name": "Club Volkan",
		"latitude": 41.84615,
		"longitude": -87.70473,
		"address1": "2501 S Kedzie Ave",
		"address2": "",
		"address3": "",
		"city": "Chicago",
		"state": "IL",
		"zip_code": "60623"
	},
	{
		"venue_id": "yelpSbJdNgfnz7maYPY5pULJDw",
		"venue_name": "Watra Night Club",
		"latitude": 41.8061999,
		"longitude": -87.7239,
		"address1": "4758 S Pulaski Rd",
		"address2": null,
		"address3": "",
		"city": "Chicago",
		"state": "IL",
		"zip_code": "60632"
	},
	{
		"venue_id": "yelpevuW14kCncxBdIVhONOT5Q",
		"venue_name": "Society 2201",
		"latitude": 41.88562,
		"longitude": -87.68196,
		"address1": "2201 W Walnut St",
		"address2": "",
		"address3": "",
		"city": "Chicago",
		"state": "IL",
		"zip_code": "60612"
	},
	{
		"venue_id": "yelp-9wNlDBEkCb-Bk8tK9huuA",
		"venue_name": "Tropical Storm Sound",
		"latitude": 41.90347,
		"longitude": -87.67923,
		"address1": "2050 W Division St",
		"address2": "",
		"address3": "",
		"city": "Chicago",
		"state": "IL",
		"zip_code": "60622"
	},
	{
		"venue_id": "yelpA1a_KLAmQqT0ABSN-FD3ww",
		"venue_name": "bassline lounge",
		"latitude": 41.8518072132542,
		"longitude": -87.6236498824622,
		"address1": "2239 S Michigan Ave",
		"address2": "",
		"address3": null,
		"city": "Chicago",
		"state": "IL",
		"zip_code": "60616"
	},
	{
		"venue_id": "yelphzzeyQCg2Y7tT6kd9omzJQ",
		"venue_name": "Niedersachsen Club Chicago",
		"latitude": 41.964412689209,
		"longitude": -87.6860809326172,
		"address1": "4548 N Lincoln Ave",
		"address2": "",
		"address3": "",
		"city": "Chicago",
		"state": "IL",
		"zip_code": "60625"
	},
	{
		"venue_id": "yelpxXZ457b0M5tdsRRHWGGmsA",
		"venue_name": "Fantasy Night Club",
		"latitude": 41.94856,
		"longitude": -87.64908,
		"address1": "3641 N Halsted St",
		"address2": "",
		"address3": "",
		"city": "Chicago",
		"state": "IL",
		"zip_code": "60613"
	},
	{
		"venue_id": "yelpwhFOxulUpo7-rxBu5eMbaA",
		"venue_name": "Steve's Sports Bar & Lounge",
		"latitude": 41.91035,
		"longitude": -87.71519,
		"address1": "3524 W North Ave",
		"address2": "",
		"address3": "",
		"city": "Chicago",
		"state": "IL",
		"zip_code": "60647"
	},
	{
		"venue_id": "yelpcGMDog5az2sKahqew8QqjA",
		"venue_name": "Mother's Shenannigans Corporate Ofcs",
		"latitude": 41.9040749,
		"longitude": -87.6295276,
		"address1": "22 W Division St",
		"address2": "",
		"address3": "",
		"city": "Chicago",
		"state": "IL",
		"zip_code": "60610"
	},
	{
		"venue_id": "yelp-E0nNGhq7pwE7HvnSZmUig",
		"venue_name": "Club Henri",
		"latitude": 41.893353,
		"longitude": -87.627141,
		"address1": "10 E Ontario",
		"address2": "",
		"address3": "",
		"city": "Chicago",
		"state": "IL",
		"zip_code": "60611"
	},
	{
		"venue_id": "yelpiipn-XxcK7c0lH89-YdepA",
		"venue_name": "Prop House",
		"latitude": 41.91271,
		"longitude": -87.66321,
		"address1": "1675 N Elston Ave",
		"address2": "",
		"address3": "",
		"city": "Chicago",
		"state": "IL",
		"zip_code": "60622"
	},
	{
		"venue_id": "yelpoad1uXY1FJFi46O18xqRJA",
		"venue_name": "Club Koncrete",
		"latitude": 41.9127129,
		"longitude": -87.663153,
		"address1": "1675 N Elston Ave",
		"address2": "",
		"address3": "",
		"city": "Chicago",
		"state": "IL",
		"zip_code": "60642"
	},
	{
		"venue_id": "yelpC6HNIG-i-9ngovdRD_8fRA",
		"venue_name": "Hot Stop",
		"latitude": 41.93538,
		"longitude": -87.74715,
		"address1": "3000 N Cicero Ave",
		"address2": "",
		"address3": "",
		"city": "Chicago",
		"state": "IL",
		"zip_code": "60641"
	},
	{
		"venue_id": "yelp9v20fPxYK3bOUl5tcqDCGg",
		"venue_name": "The El Rey Ballroom",
		"latitude": 41.830005645752,
		"longitude": -87.6854476928711,
		"address1": "3504 S Western Ave",
		"address2": "",
		"address3": "",
		"city": "Chicago",
		"state": "IL",
		"zip_code": "60609"
	},
	{
		"venue_id": "yelpKKhNmTjm7jy5fwbooaz_kw",
		"venue_name": "Club Lex Beat Laboratory",
		"latitude": 41.87283,
		"longitude": -87.66293,
		"address1": "1426 W Lexington",
		"address2": "",
		"address3": "",
		"city": "Chicago",
		"state": "IL",
		"zip_code": "60607"
	},
	{
		"venue_id": "yelphsC9pFqRcN88H8eksvkxAg",
		"venue_name": "Illusions Social Club",
		"latitude": 41.9032974243164,
		"longitude": -87.6898498535156,
		"address1": "2504 W Division",
		"address2": "",
		"address3": "",
		"city": "Chicago",
		"state": "IL",
		"zip_code": "60686"
	},
	{
		"venue_id": "yelpwL_zYf-1OXfeL8SNuufmTQ",
		"venue_name": "Lodge Management Group",
		"latitude": 41.9040849,
		"longitude": -87.62903,
		"address1": "8 W Division St",
		"address2": "Ste 200",
		"address3": "",
		"city": "Chicago",
		"state": "IL",
		"zip_code": "60610"
	},
	{
		"venue_id": "yelpoZKPMq0ZSj9X9E-JlWBFQA",
		"venue_name": "Los Globos",
		"latitude": 41.837188,
		"longitude": -87.714241,
		"address1": "3059 S Central Park Ave",
		"address2": "",
		"address3": "",
		"city": "Chicago",
		"state": "IL",
		"zip_code": "60623"
	}
]