[
	{
		"venue_id": "yelppYCNRWXsfHsHEa0-cVa3GQ",
		"venue_name": "The Empty Bottle",
		"latitude": 41.90047,
		"longitude": -87.68663,
		"address1": "1035 N Western Ave",
		"address2": "",
		"address3": "",
		"city": "Chicago",
		"state": "IL",
		"zip_code": "60622"
	},
	{
		"venue_id": "yelpv0X7NblU3NmG0_g87-aHiw",
		"venue_name": "Richard's Bar",
		"latitude": 41.89098,
		"longitude": -87.64685,
		"address1": "491 N Milwaukee Ave",
		"address2": "",
		"address3": "",
		"city": "Chicago",
		"state": "IL",
		"zip_code": "60654"
	},
	{
		"venue_id": "yelp5oCdd7n_IINlIrDlNACuTQ",
		"venue_name": "Skylark",
		"latitude": 41.85279,
		"longitude": -87.64619,
		"address1": "2149 S Halsted St",
		"address2": "",
		"address3": "",
		"city": "Chicago",
		"state": "IL",
		"zip_code": "60608"
	},
	{
		"venue_id": "yelp6QT-YirAXDUyQL0ikTPywQ",
		"venue_name": "Rossi's Liquors",
		"latitude": 41.88974,
		"longitude": -87.62819,
		"address1": "412 N State St",
		"address2": "",
		"address3": "",
		"city": "Chicago",
		"state": "IL",
		"zip_code": "60654"
	},
	{
		"venue_id": "yelpgYngvyYN0-iqXqjk55mfpA",
		"venue_name": "Billy Goat Tavern",
		"latitude": 41.8904001382989,
		"longitude": -87.6244565199671,
		"address1": "430 N Michigan Ave",
		"address2": "",
		"address3": "",
		"city": "Chicago",
		"state": "IL",
		"zip_code": "60611"
	},
	{
		"venue_id": "yelp51hKiQfGwowwpmry84HcGw",
		"venue_name": "Hungry Brain",
		"latitude": 41.93921,
		"longitude": -87.68644,
		"address1": "2319 W Belmont Ave",
		"address2": "",
		"address3": "",
		"city": "Chicago",
		"state": "IL",
		"zip_code": "60618"
	},
	{
		"venue_id": "yelp3Yw8i4DTPR5a7SpQJMMS9Q",
		"venue_name": "Honky Tonk BBQ",
		"latitude": 41.85779,
		"longitude": -87.65678,
		"address1": "1800 S Racine Ave",
		"address2": "",
		"address3": "",
		"city": "Chicago",
		"state": "IL",
		"zip_code": "60608"
	},
	{
		"venue_id": "yelpq4P8Ifx3VATzdhbrkzIEHA",
		"venue_name": "Galway Bay",
		"latitude": 41.932995,
		"longitude": -87.641603,
		"address1": "500 W Diversey Pkwy",
		"address2": null,
		"address3": "",
		"city": "Chicago",
		"state": "IL",
		"zip_code": "60657"
	},
	{
		"venue_id": "yelpdGUjOqWlsitxWGivmd58pw",
		"venue_name": "Old Town Ale House",
		"latitude": 41.910923,
		"longitude": -87.635551,
		"address1": "219 W North Ave",
		"address2": "",
		"address3": "",
		"city": "Chicago",
		"state": "IL",
		"zip_code": "60610"
	},
	{
		"venue_id": "yelpPodX69Zho5y2Nl1h0SeIlQ",
		"venue_name": "Happy Village",
		"latitude": 41.901296107314,
		"longitude": -87.6745942609487,
		"address1": "1059 N Wolcott Ave",
		"address2": "",
		"address3": "",
		"city": "Chicago",
		"state": "IL",
		"zip_code": "60622"
	},
	{
		"venue_id": "yelprid5BaGA3ZCt7An1_MXAGA",
		"venue_name": "Ten Cat Tavern",
		"latitude": 41.9534225463867,
		"longitude": -87.6685409545898,
		"address1": "3931 N Ashland Ave",
		"address2": "",
		"address3": "",
		"city": "Chicago",
		"state": "IL",
		"zip_code": "60613"
	},
	{
		"venue_id": "yelpgynvhFSIqYBiMxcc3_xt2g",
		"venue_name": "Bernice's Tavern",
		"latitude": 41.83527,
		"longitude": -87.64658,
		"address1": "3238 S Halsted St",
		"address2": "",
		"address3": "",
		"city": "Chicago",
		"state": "IL",
		"zip_code": "60608"
	},
	{
		"venue_id": "yelpLhrcp1HYmLU87rVzmObMog",
		"venue_name": "The Corner Bar",
		"latitude": 41.9220352172852,
		"longitude": -87.6829681396484,
		"address1": "2224 N Leavitt St",
		"address2": "",
		"address3": "",
		"city": "Chicago",
		"state": "IL",
		"zip_code": "60647"
	},
	{
		"venue_id": "yelpN-Jbaq9l7j-vS2mrE7nsug",
		"venue_name": "aliveOne",
		"latitude": 41.931449,
		"longitude": -87.648582,
		"address1": "2683 N Halsted St",
		"address2": "",
		"address3": "",
		"city": "Chicago",
		"state": "IL",
		"zip_code": "60614"
	},
	{
		"venue_id": "yelp110tcBIM87nspoFGu0BJZA",
		"venue_name": "Go Tavern and Liquors",
		"latitude": 41.917128,
		"longitude": -87.707788,
		"address1": "3219 W Armitage Ave",
		"address2": "",
		"address3": "",
		"city": "Chicago",
		"state": "IL",
		"zip_code": "60647"
	},
	{
		"venue_id": "yelpm4tf0OEtJZCmeh2UadbnHQ",
		"venue_name": "Christina's Place",
		"latitude": 41.950182,
		"longitude": -87.707814,
		"address1": "3759 N Kedzie Ave",
		"address2": null,
		"address3": "",
		"city": "Chicago",
		"state": "IL",
		"zip_code": "60618"
	},
	{
		"venue_id": "yelpcDw5nStgSKFaR0pzkP23RA",
		"venue_name": "Timber Lanes",
		"latitude": 41.9540451,
		"longitude": -87.6760132,
		"address1": "1851 W Irving Park Rd",
		"address2": "",
		"address3": "",
		"city": "Chicago",
		"state": "IL",
		"zip_code": "60613"
	},
	{
		"venue_id": "yelpeMAcqcHzdMEC-svlXC3rLA",
		"venue_name": "Lemming's Tavern",
		"latitude": 41.91528,
		"longitude": -87.67787,
		"address1": "1850 N Damen Ave",
		"address2": "",
		"address3": "",
		"city": "Chicago",
		"state": "IL",
		"zip_code": "60647"
	},
	{
		"venue_id": "yelpBJf3Re-JvtgZYm7svyJpSQ",
		"venue_name": "Rose's Lounge",
		"latitude": 41.93007,
		"longitude": -87.65563,
		"address1": "2656 N Lincoln Ave",
		"address2": "",
		"address3": "",
		"city": "Chicago",
		"state": "IL",
		"zip_code": "60614"
	},
	{
		"venue_id": "yelpM3hZpinudK6RMLc1J_X6TQ",
		"venue_name": "Nisei Lounge",
		"latitude": 41.9447272270918,
		"longitude": -87.6540628820658,
		"address1": "3439 N Sheffield Ave",
		"address2": "",
		"address3": "",
		"city": "Chicago",
		"state": "IL",
		"zip_code": "60657"
	},
	{
		"venue_id": "yelpLiiqteXtHGwXOVy7rF2rjQ",
		"venue_name": "The Double Tavern",
		"latitude": 41.9245086093512,
		"longitude": -87.7154904576721,
		"address1": "3545 W Fullerton Ave",
		"address2": "",
		"address3": "",
		"city": "Chicago",
		"state": "IL",
		"zip_code": "60647"
	},
	{
		"venue_id": "yelpUrZ3VPmKz_qqcAJL188-hA",
		"venue_name": "Streeter's Tavern",
		"latitude": 41.8968133010677,
		"longitude": -87.6259952814984,
		"address1": "50 E Chicago Ave",
		"address2": "",
		"address3": "",
		"city": "Chicago",
		"state": "IL",
		"zip_code": "60611"
	},
	{
		"venue_id": "yelpF-znaN67IIjDS7UefPfIzA",
		"venue_name": "Archie's Iowa & Rockwell Tavern",
		"latitude": 41.8977699279785,
		"longitude": -87.6919937133789,
		"address1": "2600 W Iowa St",
		"address2": "",
		"address3": "",
		"city": "Chicago",
		"state": "IL",
		"zip_code": "60622"
	},
	{
		"venue_id": "yelpoWgKuZYat0oWzUrsxmmb8w",
		"venue_name": "Best Intentions",
		"latitude": 41.91707,
		"longitude": -87.7101,
		"address1": "3281 W Armitage Ave",
		"address2": "",
		"address3": "",
		"city": "Chicago",
		"state": "IL",
		"zip_code": "60647"
	},
	{
		"venue_id": "yelpHkjLE16WEPkF57sfp65rpA",
		"venue_name": "Sportsman's Club",
		"latitude": 41.89897,
		"longitude": -87.6872999,
		"address1": "948 N Western Ave",
		"address2": "",
		"address3": "",
		"city": "Chicago",
		"state": "IL",
		"zip_code": "60622"
	},
	{
		"venue_id": "yelpEaCNpV5IJFIl7hBUBpCDjw",
		"venue_name": "Rainbo Club",
		"latitude": 41.9025546,
		"longitude": -87.6774195,
		"address1": "1150 N Damen Ave",
		"address2": "",
		"address3": "",
		"city": "Chicago",
		"state": "IL",
		"zip_code": "60622"
	},
	{
		"venue_id": "yelpLTDwF1XOfDCbK2cQ8IHgPA",
		"venue_name": "Town Hall Pub",
		"latitude": 41.943008,
		"longitude": -87.649703,
		"address1": "3340 N Halsted St",
		"address2": "",
		"address3": "",
		"city": "Chicago",
		"state": "IL",
		"zip_code": "60657"
	},
	{
		"venue_id": "yelpGgYJkddrOeMCJctnDVQm1Q",
		"venue_name": "Bob Inn",
		"latitude": 41.9245452880859,
		"longitude": -87.6930084228516,
		"address1": "2609 W Fullerton Ave",
		"address2": "",
		"address3": "",
		"city": "Chicago",
		"state": "IL",
		"zip_code": "60647"
	},
	{
		"venue_id": "yelpafc3JvXhp23qixbC9atBkA",
		"venue_name": "Side Street Saloon",
		"latitude": 41.93451,
		"longitude": -87.66588,
		"address1": "1456 W George St",
		"address2": "",
		"address3": "",
		"city": "Chicago",
		"state": "IL",
		"zip_code": "60657"
	},
	{
		"venue_id": "yelpAJw1pkVQJ-DmXU89CgZ9-w",
		"venue_name": "Shamrock Club",
		"latitude": 41.8893394730647,
		"longitude": -87.6346463334214,
		"address1": "210 W Kinzie St",
		"address2": "",
		"address3": "",
		"city": "Chicago",
		"state": "IL",
		"zip_code": "60654"
	},
	{
		"venue_id": "yelpYAR6Ry6sPTCmslLNZcvOtA",
		"venue_name": "Friar Tuck",
		"latitude": 41.9364450283252,
		"longitude": -87.6448488235474,
		"address1": "3010 N Broadway St",
		"address2": "",
		"address3": "",
		"city": "Chicago",
		"state": "IL",
		"zip_code": "60657"
	},
	{
		"venue_id": "yelp1MZZF9fvB3rlkUW1v4K3Xg",
		"venue_name": "Liar's Club",
		"latitude": 41.92479,
		"longitude": -87.67062,
		"address1": "1665 W Fullerton Ave",
		"address2": "",
		"address3": "",
		"city": "Chicago",
		"state": "IL",
		"zip_code": "60614"
	},
	{
		"venue_id": "yelpCLGi3U9zMZuZUKJ8quw3gA",
		"venue_name": "Rite Liquors",
		"latitude": 41.9030418395996,
		"longitude": -87.6694030761719,
		"address1": "1649 W Division St",
		"address2": "",
		"address3": "",
		"city": "Chicago",
		"state": "IL",
		"zip_code": "60622"
	},
	{
		"venue_id": "yelp9n3HT3gUAscuDxssqpL6Nw",
		"venue_name": "Shoes Pub",
		"latitude": 41.9181149665449,
		"longitude": -87.6566554131382,
		"address1": "1134 W Armitage Ave",
		"address2": "Ste 1",
		"address3": "",
		"city": "Chicago",
		"state": "IL",
		"zip_code": "60614"
	},
	{
		"venue_id": "yelptnY33MdbcR7FjECJwJbu_A",
		"venue_name": "Exit",
		"latitude": 41.9105903203482,
		"longitude": -87.6610111804954,
		"address1": "1315 W North Ave",
		"address2": "",
		"address3": "",
		"city": "Chicago",
		"state": "IL",
		"zip_code": "60642"
	},
	{
		"venue_id": "yelp3Idhzbu3qHyLHz0X73-T1Q",
		"venue_name": "The Mutiny Corp",
		"latitude": 41.9258346557617,
		"longitude": -87.6880645751953,
		"address1": "2428 N Western Ave",
		"address2": "",
		"address3": "",
		"city": "Chicago",
		"state": "IL",
		"zip_code": "60647"
	},
	{
		"venue_id": "yelptCDzICMqnMxrnpLrtZECew",
		"venue_name": "O's Tap",
		"latitude": 41.9189,
		"longitude": -87.68783,
		"address1": "2044 N Western Ave",
		"address2": "",
		"address3": "",
		"city": "Chicago",
		"state": "IL",
		"zip_code": "60647"
	},
	{
		"venue_id": "yelpBMyqlgQnRBNnKRcN0PfT6A",
		"venue_name": "The Barrel",
		"latitude": 41.8546845,
		"longitude": -87.6757751,
		"address1": "2015 S Damen Ave",
		"address2": "",
		"address3": "",
		"city": "Chicago",
		"state": "IL",
		"zip_code": "60608"
	},
	{
		"venue_id": "yelpwFTN5WWfOIwx4Rmd-BcKTQ",
		"venue_name": "Carol's Pub",
		"latitude": 41.9669315,
		"longitude": -87.6668761,
		"address1": "4659 N Clark St",
		"address2": "",
		"address3": "",
		"city": "Chicago",
		"state": "IL",
		"zip_code": "60640"
	},
	{
		"venue_id": "yelpz_jQAXL_MWorV9NBvBNd3Q",
		"venue_name": "Nilda's Place",
		"latitude": 41.89799,
		"longitude": -87.67448,
		"address1": "1858 W Iowa St",
		"address2": "",
		"address3": "",
		"city": "Chicago",
		"state": "IL",
		"zip_code": "60622"
	},
	{
		"venue_id": "yelpNLrjoiMNPwpftp1TzdtW9g",
		"venue_name": "J&M Tap",
		"latitude": 41.8992344,
		"longitude": -87.6818573,
		"address1": "957 N Leavitt",
		"address2": "",
		"address3": "",
		"city": "Chicago",
		"state": "IL",
		"zip_code": "60622"
	},
	{
		"venue_id": "yelpU0srsr4F2BxU_5599fsHUg",
		"venue_name": "Jefferson Park Grill",
		"latitude": 41.9704818725586,
		"longitude": -87.7627716064453,
		"address1": "5364 W Gale St",
		"address2": "",
		"address3": "",
		"city": "Chicago",
		"state": "IL",
		"zip_code": "60630"
	},
	{
		"venue_id": "yelpbjGYUfkL6SmUABT59uSNlQ",
		"venue_name": "Monsignor Murphys",
		"latitude": 41.93712,
		"longitude": -87.64401,
		"address1": "3019 N Broadway St",
		"address2": "",
		"address3": "",
		"city": "Chicago",
		"state": "IL",
		"zip_code": "60657"
	},
	{
		"venue_id": "yelpsMZInXSE5TirNpHizNVY0A",
		"venue_name": "Second Story Bar",
		"latitude": 41.892408,
		"longitude": -87.6232293,
		"address1": "157 E Ohio St",
		"address2": "Fl 2",
		"address3": null,
		"city": "Chicago",
		"state": "IL",
		"zip_code": "60611"
	},
	{
		"venue_id": "yelpucwQx1wQzoCNJOW0lvSEdQ",
		"venue_name": "The Elbo Room",
		"latitude": 41.9339462,
		"longitude": -87.6604149,
		"address1": "2871 N Lincoln Ave",
		"address2": "",
		"address3": "",
		"city": "Chicago",
		"state": "IL",
		"zip_code": "60657"
	},
	{
		"venue_id": "yelptBuJCcKXuXw_1sWmTw10xw",
		"venue_name": "Snickers Bar & Grill",
		"latitude": 41.89075,
		"longitude": -87.62822,
		"address1": "448 N State St",
		"address2": "",
		"address3": "",
		"city": "Chicago",
		"state": "IL",
		"zip_code": "60610"
	},
	{
		"venue_id": "yelp7u59_9i77XtwbBvNHFEbyw",
		"venue_name": "Joe's On Broadway",
		"latitude": 41.947474,
		"longitude": -87.647127,
		"address1": "3563 N Broadway St",
		"address2": "",
		"address3": "",
		"city": "Chicago",
		"state": "IL",
		"zip_code": "60657"
	},
	{
		"venue_id": "yelpi9yAkTEiy5ZRLV82c8dIeQ",
		"venue_name": "Slippery Slope",
		"latitude": 41.92422,
		"longitude": -87.69893,
		"address1": "2357 N Milwaukee Ave",
		"address2": "",
		"address3": "",
		"city": "Chicago",
		"state": "IL",
		"zip_code": "60647"
	},
	{
		"venue_id": "yelpgDbfK2timeFuOhqhkxuQ9Q",
		"venue_name": "Ola's Liquor",
		"latitude": 41.899097442627,
		"longitude": -87.6767959594727,
		"address1": "947 N Damen Ave",
		"address2": "",
		"address3": "",
		"city": "Chicago",
		"state": "IL",
		"zip_code": "60622"
	},
	{
		"venue_id": "yelp-178WV6XoVE0z2Kk-peKzA",
		"venue_name": "Moe's Tavern",
		"latitude": 41.93486,
		"longitude": -87.71633,
		"address1": "2937 N Milwaukee Ave",
		"address2": "",
		"address3": "",
		"city": "Chicago",
		"state": "IL",
		"zip_code": "60618"
	},
	{
		"venue_id": "yelpMUfPFffKW16-Wm_E2QPN4g",
		"venue_name": "Ed and Jean's Tavern",
		"latitude": 41.9179573059082,
		"longitude": -87.6789855957031,
		"address1": "2032 W Armitage Ave",
		"address2": null,
		"address3": "",
		"city": "Chicago",
		"state": "IL",
		"zip_code": "60647"
	},
	{
		"venue_id": "yelpibVYesiOQbnlqUNNedq0Eg",
		"venue_name": "Tin Lizzie",
		"latitude": 41.927632,
		"longitude": -87.6415101,
		"address1": "2483 N Clark St",
		"address2": "",
		"address3": "",
		"city": "Chicago",
		"state": "IL",
		"zip_code": "60614"
	},
	{
		"venue_id": "yelpZJMgEycQB5e9ImszzSS5xg",
		"venue_name": "The Hangge-Uppe",
		"latitude": 41.90339,
		"longitude": -87.62918,
		"address1": "14 W Elm St",
		"address2": "",
		"address3": "",
		"city": "Chicago",
		"state": "IL",
		"zip_code": "60610"
	},
	{
		"venue_id": "yelpbWHyJeZxqfa1OP-2gJ9sZQ",
		"venue_name": "Montrose Saloon",
		"latitude": 41.96097,
		"longitude": -87.70227,
		"address1": "2933 W Montrose Ave",
		"address2": null,
		"address3": "",
		"city": "Chicago",
		"state": "IL",
		"zip_code": "60618"
	},
	{
		"venue_id": "yelp02xmrt6Q_MDuINA901AjCw",
		"venue_name": "Keenan O'Reilly's",
		"latitude": 41.95299,
		"longitude": -87.66939,
		"address1": "3916 N Ashland Ave",
		"address2": "",
		"address3": "",
		"city": "Chicago",
		"state": "IL",
		"zip_code": "60613"
	},
	{
		"venue_id": "yelpC-NO4mQXovCu7m1xcfjQaQ",
		"venue_name": "Grace and Leavitt Tavern",
		"latitude": 41.95019,
		"longitude": -87.68332,
		"address1": "2157 W Grace Ave",
		"address2": null,
		"address3": "",
		"city": "Chicago",
		"state": "IL",
		"zip_code": "60618"
	},
	{
		"venue_id": "yelpkyVY8fz7aJrGT08mFghbTA",
		"venue_name": "Sovereign Liquors",
		"latitude": 41.9947224,
		"longitude": -87.6605924,
		"address1": "6202 N Broadway St",
		"address2": "",
		"address3": "",
		"city": "Chicago",
		"state": "IL",
		"zip_code": "60660"
	},
	{
		"venue_id": "yelpp-u-yT3FPke_8FcPeNcRzA",
		"venue_name": "Phyllis' Musical Inn",
		"latitude": 41.90353,
		"longitude": -87.6725699,
		"address1": "1800 W Division St",
		"address2": null,
		"address3": "",
		"city": "Chicago",
		"state": "IL",
		"zip_code": "60622"
	},
	{
		"venue_id": "yelp3S4KJ0NTQdsljQsx3a9Oig",
		"venue_name": "The Native",
		"latitude": 41.925350189209,
		"longitude": -87.7008056640625,
		"address1": "2417 N Milwaukee Ave",
		"address2": "",
		"address3": null,
		"city": "Chicago",
		"state": "IL",
		"zip_code": "60647"
	},
	{
		"venue_id": "yelp1e7uzputtiUdtJynq-8xeA",
		"venue_name": "Underbar",
		"latitude": 41.94076,
		"longitude": -87.68768,
		"address1": "3243 N Western Ave",
		"address2": null,
		"address3": "",
		"city": "Chicago",
		"state": "IL",
		"zip_code": "60618"
	},
	{
		"venue_id": "yelpNyQPiqSLnzDjLiniOy9OFw",
		"venue_name": "Sky-Ride Tap",
		"latitude": 41.8767451,
		"longitude": -87.6310115,
		"address1": "105 W Van Buren St",
		"address2": "",
		"address3": "",
		"city": "Chicago",
		"state": "IL",
		"zip_code": "60605"
	},
	{
		"venue_id": "yelp-3om0QkYNBM85TsDdqsV-w",
		"venue_name": "Jacqueline's",
		"latitude": 41.9437923,
		"longitude": -87.6452014,
		"address1": "3420 N Broadway St",
		"address2": "",
		"address3": "",
		"city": "Chicago",
		"state": "IL",
		"zip_code": "60657"
	},
	{
		"venue_id": "yelp19gvebbqcEFMzKI5GcBb3g",
		"venue_name": "Burton Place",
		"latitude": 41.90904,
		"longitude": -87.6344699,
		"address1": "1447 N Wells St",
		"address2": "",
		"address3": "",
		"city": "Chicago",
		"state": "IL",
		"zip_code": "60610"
	},
	{
		"venue_id": "yelpTtCxG7RiPpqfWez-JNGYxA",
		"venue_name": "Ravens",
		"latitude": 41.92437,
		"longitude": -87.64011,
		"address1": "2326 N Clark St",
		"address2": "",
		"address3": "",
		"city": "Chicago",
		"state": "IL",
		"zip_code": "60614"
	},
	{
		"venue_id": "yelpI2Atom_d1Sf93Ib2Pw_kMA",
		"venue_name": "Lange's Lounge",
		"latitude": 41.94539,
		"longitude": -87.66417,
		"address1": "3500 N Southport Ave",
		"address2": "",
		"address3": "",
		"city": "Chicago",
		"state": "IL",
		"zip_code": "60657"
	},
	{
		"venue_id": "yelp-EisoQo3_VyvCCuHJNOzcA",
		"venue_name": "Di's Den",
		"latitude": 41.95362,
		"longitude": -87.75492,
		"address1": "5100 W Irving Park Rd",
		"address2": "",
		"address3": "",
		"city": "Chicago",
		"state": "IL",
		"zip_code": "60641"
	},
	{
		"venue_id": "yelpe0A-rRQhGWRa7W3jlRiBcg",
		"venue_name": "Double Bubble",
		"latitude": 41.99205,
		"longitude": -87.6604649,
		"address1": "6036 N Broadway",
		"address2": "",
		"address3": "",
		"city": "Chicago",
		"state": "IL",
		"zip_code": "60660"
	},
	{
		"venue_id": "yelpm4qDrrdTKfO2mydIAP7iIA",
		"venue_name": "Zakopane",
		"latitude": 41.90355,
		"longitude": -87.67132,
		"address1": "1734 W Division St",
		"address2": "",
		"address3": "",
		"city": "Chicago",
		"state": "IL",
		"zip_code": "60622"
	},
	{
		"venue_id": "yelphwvv_ACf6r7OHUyB9mYgmg",
		"venue_name": "O'Neil's on Wells",
		"latitude": 41.8763000650196,
		"longitude": -87.6334118843079,
		"address1": "411 S Wells St",
		"address2": "",
		"address3": "",
		"city": "Chicago",
		"state": "IL",
		"zip_code": "60607"
	},
	{
		"venue_id": "yelp2QdG_DbtgaWpcdhCaIwMZw",
		"venue_name": "Jefferson Inn",
		"latitude": 41.96958,
		"longitude": -87.76266,
		"address1": "4874 N Milwaukee Ave",
		"address2": "",
		"address3": "",
		"city": "Chicago",
		"state": "IL",
		"zip_code": "60630"
	},
	{
		"venue_id": "yelpRVhwUVOFwiruQwZ9f5ZAsQ",
		"venue_name": "Driftwood",
		"latitude": 41.9616551,
		"longitude": -87.6554009,
		"address1": "1021 W Montrose Ave",
		"address2": "",
		"address3": "",
		"city": "Chicago",
		"state": "IL",
		"zip_code": "60613"
	},
	{
		"venue_id": "yelpaFcRg82KXu2MAL9FCJc9HQ",
		"venue_name": "Loafers",
		"latitude": 41.96884,
		"longitude": -87.69399,
		"address1": "2600 W Lawrence Ave",
		"address2": "",
		"address3": "",
		"city": "Chicago",
		"state": "IL",
		"zip_code": "60625"
	},
	{
		"venue_id": "yelpyIykfBCX6Y6hdKDfomra1g",
		"venue_name": "Loop Tavern",
		"latitude": 41.8960965,
		"longitude": -87.6678102,
		"address1": "1610 W Chicago Ave",
		"address2": "",
		"address3": "",
		"city": "Chicago",
		"state": "IL",
		"zip_code": "60622"
	},
	{
		"venue_id": "yelpSC3ReL3IEFpsJYYT_b1Cnw",
		"venue_name": "Save More Lounge",
		"latitude": 41.9556541442871,
		"longitude": -87.6801910400391,
		"address1": "4060 N Lincoln Ave",
		"address2": null,
		"address3": "",
		"city": "Chicago",
		"state": "IL",
		"zip_code": "60618"
	},
	{
		"venue_id": "yelpASPPt2NMNo3WON25XsZj5A",
		"venue_name": "Max's Place",
		"latitude": 41.9659538269043,
		"longitude": -87.6665344238281,
		"address1": "4621 N Clark St",
		"address2": null,
		"address3": "",
		"city": "Chicago",
		"state": "IL",
		"zip_code": "60640"
	},
	{
		"venue_id": "yelpHoXo98HjFQ1uuq_xOvkEEw",
		"venue_name": "Caminos De Michoacan Bar",
		"latitude": 41.8547592163086,
		"longitude": -87.6684036254883,
		"address1": "1659 W Cullerton",
		"address2": null,
		"address3": "",
		"city": "Chicago",
		"state": "IL",
		"zip_code": "60608"
	},
	{
		"venue_id": "yelpp_OqtEhooCA4wpm7Cob14Q",
		"venue_name": "Nick's on Wilson",
		"latitude": 41.9655049,
		"longitude": -87.6590462,
		"address1": "1140 W Wilson Ave",
		"address2": "",
		"address3": "",
		"city": "Chicago",
		"state": "IL",
		"zip_code": "60640"
	},
	{
		"venue_id": "yelpA69459eg9PSWjoLNtHiV8w",
		"venue_name": "The Hometavern",
		"latitude": 41.9330978393555,
		"longitude": -87.6599273681641,
		"address1": "2828 N Lincoln Ave",
		"address2": "",
		"address3": "",
		"city": "Chicago",
		"state": "IL",
		"zip_code": "60657"
	},
	{
		"venue_id": "yelpVBSiblJLfKJHnwybt7mhtQ",
		"venue_name": "Fritzy's Tavern",
		"latitude": 41.994272,
		"longitude": -87.670537,
		"address1": "6156 N Clark St",
		"address2": "",
		"address3": "",
		"city": "Chicago",
		"state": "IL",
		"zip_code": "60660"
	},
	{
		"venue_id": "yelpvG6JydnM5RyfZqXrb6P_0Q",
		"venue_name": "Claddagh Ring",
		"latitude": 41.97618,
		"longitude": -87.6871199,
		"address1": "2306 W Foster Ave",
		"address2": null,
		"address3": "",
		"city": "Chicago",
		"state": "IL",
		"zip_code": "60625"
	},
	{
		"venue_id": "yelpsJNjOCLbw2J_g59GMKeeGA",
		"venue_name": "Shinnick's Pub",
		"latitude": 41.825431,
		"longitude": -87.643882,
		"address1": "3758 S Union Ave",
		"address2": "",
		"address3": "",
		"city": "Chicago",
		"state": "IL",
		"zip_code": "60609"
	},
	{
		"venue_id": "yelpLt93TIa5pmoeK4zQe5Dk1w",
		"venue_name": "Water Hole Lounge",
		"latitude": 41.862881,
		"longitude": -87.68633,
		"address1": "1400 S Western Ave",
		"address2": "",
		"address3": "",
		"city": "Chicago",
		"state": "IL",
		"zip_code": "60608"
	},
	{
		"venue_id": "yelp0E1BAap_Z7NRafGmz1s5Tw",
		"venue_name": "Liberty Lounge",
		"latitude": 41.942497253418,
		"longitude": -87.6877517700195,
		"address1": "3341 N Western Ave",
		"address2": "",
		"address3": "",
		"city": "Chicago",
		"state": "IL",
		"zip_code": "60618"
	},
	{
		"venue_id": "yelpUgD8IWu9a7KfXx3728-Bow",
		"venue_name": "Sunnyday Tap",
		"latitude": 41.970829,
		"longitude": -87.7440109,
		"address1": "4953 N Elston Ave",
		"address2": "",
		"address3": "",
		"city": "Chicago",
		"state": "IL",
		"zip_code": "60630"
	},
	{
		"venue_id": "yelpQx2ONWVV7RIiigeZko59Ag",
		"venue_name": "Brunos Lounge",
		"latitude": 42.0019428,
		"longitude": -87.6609471,
		"address1": "6562 N Sheridan Rd",
		"address2": "",
		"address3": "",
		"city": "Chicago",
		"state": "IL",
		"zip_code": "60626"
	},
	{
		"venue_id": "yelp7yVkHcwBxntW6ArPm5HeoA",
		"venue_name": "Foley's Bar & Grill",
		"latitude": 41.9540451,
		"longitude": -87.6759412,
		"address1": "1841 W Irving Park Rd",
		"address2": "",
		"address3": "",
		"city": "Chicago",
		"state": "IL",
		"zip_code": "60613"
	},
	{
		"venue_id": "yelpxcdcSShlwXplHqZRhqj5zQ",
		"venue_name": "The Dugout Bar",
		"latitude": 41.9475,
		"longitude": -87.65392,
		"address1": "950 W Addison St",
		"address2": "Ste B & 1",
		"address3": "",
		"city": "Chicago",
		"state": "IL",
		"zip_code": "60613"
	},
	{
		"venue_id": "yelpzbMd4tIg841O9b91vIMRNg",
		"venue_name": "Lilly's",
		"latitude": 41.92763,
		"longitude": -87.65158,
		"address1": "2515 N Lincoln Ave",
		"address2": "",
		"address3": "",
		"city": "Chicago",
		"state": "IL",
		"zip_code": "60614"
	},
	{
		"venue_id": "yelpdQPjdrj_Bl2V5c3A93KHAA",
		"venue_name": "T & A Too",
		"latitude": 41.9573461866051,
		"longitude": -87.7156383783364,
		"address1": "4156 N St Louis Ave",
		"address2": "",
		"address3": "",
		"city": "Chicago",
		"state": "IL",
		"zip_code": "60618"
	},
	{
		"venue_id": "yelp3cEXHjgXi_wGL85Cu_Jx4w",
		"venue_name": "St Pauli Club",
		"latitude": 41.9744281,
		"longitude": -87.6919728,
		"address1": "5109 N Lincoln Ave",
		"address2": "",
		"address3": "",
		"city": "Chicago",
		"state": "IL",
		"zip_code": "60625"
	},
	{
		"venue_id": "yelpCTZmw0SLajqVcfDrlZV_zg",
		"venue_name": "Fuller's Pub",
		"latitude": 41.9537951,
		"longitude": -87.7082657,
		"address1": "3203 W Irving Park Rd",
		"address2": "",
		"address3": "",
		"city": "Chicago",
		"state": "IL",
		"zip_code": "60618"
	},
	{
		"venue_id": "yelpiPkx_CCUKfOrTBYeyVCxPQ",
		"venue_name": "Goldyburgers",
		"latitude": 41.8859006,
		"longitude": -87.8078511,
		"address1": "7316 Circle Ave",
		"address2": "",
		"address3": "",
		"city": "Forest Park",
		"state": "IL",
		"zip_code": "60130"
	},
	{
		"venue_id": "yelpJ_5yO-izzbzW0G1tReZePA",
		"venue_name": "Casey's Corner",
		"latitude": 41.9974545,
		"longitude": -87.6986376,
		"address1": "2733 W Devon Ave",
		"address2": "",
		"address3": "",
		"city": "Chicago",
		"state": "IL",
		"zip_code": "60659"
	},
	{
		"venue_id": "yelpiHVqLEb3HSEt0TI-27Ol_w",
		"venue_name": "Bridgeport Inn",
		"latitude": 41.8415107727051,
		"longitude": -87.6576309204102,
		"address1": "2901 S Archer Ave",
		"address2": "",
		"address3": "",
		"city": "Chicago",
		"state": "IL",
		"zip_code": "60608"
	},
	{
		"venue_id": "yelpbsrl5EeDAEtetWLz1fm4yA",
		"venue_name": "Bristol Lounge",
		"latitude": 41.9370231628418,
		"longitude": -87.7210006713867,
		"address1": "3084 N Milwaukee Ave",
		"address2": "",
		"address3": "",
		"city": "Chicago",
		"state": "IL",
		"zip_code": "60618"
	},
	{
		"venue_id": "yelp5UlQK6N92IsVtAuD4NIJCA",
		"venue_name": "Blueberry Hill",
		"latitude": 41.878391,
		"longitude": -87.814445,
		"address1": "427 Des Plaines Ave",
		"address2": "",
		"address3": "",
		"city": "Forest Park",
		"state": "IL",
		"zip_code": "60130"
	},
	{
		"venue_id": "yelpJ2J2UK00K-9nGXrp2vmx8A",
		"venue_name": "Sunnyside Tap",
		"latitude": 41.9617,
		"longitude": -87.68905,
		"address1": "4410 N Western Ave",
		"address2": "",
		"address3": "",
		"city": "Chicago",
		"state": "IL",
		"zip_code": "60625"
	},
	{
		"venue_id": "yelpl3r1PL_LHcqpjLGmKi6pLQ",
		"venue_name": "Jack's Place",
		"latitude": 41.8578491210938,
		"longitude": -87.6427383422852,
		"address1": "618 W 18th St",
		"address2": "",
		"address3": "",
		"city": "Chicago",
		"state": "IL",
		"zip_code": "60616"
	},
	{
		"venue_id": "yelpL3CrUgYsMAkt_QWqUVNTjA",
		"venue_name": "Edelweiss Tavern",
		"latitude": 41.9394111633301,
		"longitude": -87.7227401733398,
		"address1": "3808 W Belmont Ave",
		"address2": "",
		"address3": "",
		"city": "Chicago",
		"state": "IL",
		"zip_code": "60618"
	},
	{
		"venue_id": "yelp0DMEeMB166k4Tfq69ea8qQ",
		"venue_name": "Smilin' Jim's Saloon",
		"latitude": 41.99636,
		"longitude": -87.69019,
		"address1": "6306 N Western Ave",
		"address2": "",
		"address3": "",
		"city": "Chicago",
		"state": "IL",
		"zip_code": "60659"
	},
	{
		"venue_id": "yelpYbiBf1mFNMyD1xdbDEDnBQ",
		"venue_name": "Kelly's Tavern",
		"latitude": 41.8142509460449,
		"longitude": -87.6404571533203,
		"address1": "4403 S Wallace St",
		"address2": "",
		"address3": "",
		"city": "Chicago",
		"state": "IL",
		"zip_code": "60609"
	},
	{
		"venue_id": "yelpiYFnyARTqDLNcfCKiNi5AA",
		"venue_name": "Sofia's",
		"latitude": 41.9339,
		"longitude": -87.72738,
		"address1": "2906 N Pulaski",
		"address2": "",
		"address3": "",
		"city": "Chicago",
		"state": "IL",
		"zip_code": "60641"
	},
	{
		"venue_id": "yelp6phjE3t-z04hTx9l6oseoA",
		"venue_name": "Las Vegas Nite Club",
		"latitude": 41.9173849,
		"longitude": -87.7195246,
		"address1": "3702 W Armitage Ave",
		"address2": "",
		"address3": "",
		"city": "Chicago",
		"state": "IL",
		"zip_code": "60647"
	},
	{
		"venue_id": "yelpGIgb9qo_v7ayJlBBdx5RXw",
		"venue_name": "Xavier Players Club",
		"latitude": 41.8128324,
		"longitude": -87.6847277,
		"address1": "4456 S Western Ave",
		"address2": "",
		"address3": "",
		"city": "Chicago",
		"state": "IL",
		"zip_code": "60609"
	},
	{
		"venue_id": "yelpdaQH8xsoU-HJuAFLbE9wOw",
		"venue_name": "Shortstop Lounge",
		"latitude": 41.879783,
		"longitude": -87.810852,
		"address1": "7425 Madison St",
		"address2": "",
		"address3": "",
		"city": "Forest Park",
		"state": "IL",
		"zip_code": "60130"
	},
	{
		"venue_id": "yelpOpLUWyley5H5oqidkR3T8g",
		"venue_name": "Duffy's Tavern",
		"latitude": 41.879776,
		"longitude": -87.812774,
		"address1": "7513 Madison St",
		"address2": "",
		"address3": "",
		"city": "Forest Park",
		"state": "IL",
		"zip_code": "60130"
	},
	{
		"venue_id": "yelp9478Z9v7EJlPtI-Lx5R6_g",
		"venue_name": "Jimmy Mack Bar",
		"latitude": 41.9825820922852,
		"longitude": -87.7811431884766,
		"address1": "5581 N Northwest Hwy",
		"address2": "",
		"address3": "",
		"city": "Chicago",
		"state": "IL",
		"zip_code": "60630"
	},
	{
		"venue_id": "yelpbpG_s8w3CqbgUGwEy7b_Ig",
		"venue_name": "M & I Lounge",
		"latitude": 41.94521,
		"longitude": -87.79736,
		"address1": "6835 W Addison St",
		"address2": "",
		"address3": "",
		"city": "Chicago",
		"state": "IL",
		"zip_code": "60634"
	},
	{
		"venue_id": "yelpcJ-HsQp2PQVMesqPQ2t8NA",
		"venue_name": "Lakeview Men's Club",
		"latitude": 41.9318,
		"longitude": -87.6412,
		"address1": "2732 N Pine Grove Ave",
		"address2": null,
		"address3": null,
		"city": "Chicago",
		"state": "IL",
		"zip_code": "60614"
	},
	{
		"venue_id": "yelp-NePLptmLM741sOxMEcoNg",
		"venue_name": "La Botana",
		"latitude": 41.80543,
		"longitude": -87.72389,
		"address1": "4818 S Pulaski Rd",
		"address2": "",
		"address3": "",
		"city": "Chicago",
		"state": "IL",
		"zip_code": "60632"
	},
	{
		"venue_id": "yelpcI3wqBqTPv5FobUR37bZ2g",
		"venue_name": "Czar Bar",
		"latitude": 41.9035301208496,
		"longitude": -87.6729431152344,
		"address1": "1812 W Division St",
		"address2": "",
		"address3": "",
		"city": "Chicago",
		"state": "IL",
		"zip_code": "60622"
	},
	{
		"venue_id": "yelpqmNSLetV6GktGmlYmNYDJA",
		"venue_name": "Connie and Johnny's",
		"latitude": 41.916972,
		"longitude": -87.721048,
		"address1": "3745 W Armitage",
		"address2": "",
		"address3": "",
		"city": "Chicago",
		"state": "IL",
		"zip_code": "60647"
	},
	{
		"venue_id": "yelpdMaYQ1SZYouK7V6ER0kshw",
		"venue_name": "Homer's",
		"latitude": 41.811916,
		"longitude": -87.661087,
		"address1": "4518 S McDowell Ave",
		"address2": null,
		"address3": null,
		"city": "Chicago",
		"state": "IL",
		"zip_code": "60609"
	},
	{
		"venue_id": "yelpuRX4D7psgGhFmKOxhH3zmQ",
		"venue_name": "Skylark Lounge",
		"latitude": 41.8506698608398,
		"longitude": -87.7251052856445,
		"address1": "4007 W Ogden",
		"address2": "",
		"address3": "",
		"city": "Chicago",
		"state": "IL",
		"zip_code": "60623"
	},
	{
		"venue_id": "yelppfdGQITxFRAKOtBfi4qTdQ",
		"venue_name": "Circle Inn of Forest Park",
		"latitude": 41.8859806,
		"longitude": -87.8076964,
		"address1": "7300 Circle Ave",
		"address2": "",
		"address3": "",
		"city": "Forest Park",
		"state": "IL",
		"zip_code": "60130"
	},
	{
		"venue_id": "yelpHUcdP-HT8JHkURAtfcClJw",
		"venue_name": "Errico's Club 30",
		"latitude": 41.86528,
		"longitude": -87.76748,
		"address1": "5713 W Roosevelt Rd",
		"address2": "",
		"address3": "",
		"city": "Cicero",
		"state": "IL",
		"zip_code": "60804"
	},
	{
		"venue_id": "yelp30JoZvsLoHxOXkBTBYSNPg",
		"venue_name": "Sheehans",
		"latitude": 41.82984,
		"longitude": -87.64574,
		"address1": "3529 S Halsted St",
		"address2": "",
		"address3": "",
		"city": "Chicago",
		"state": "IL",
		"zip_code": "60686"
	},
	{
		"venue_id": "yelpC6HNIG-i-9ngovdRD_8fRA",
		"venue_name": "Hot Stop",
		"latitude": 41.93538,
		"longitude": -87.74715,
		"address1": "3000 N Cicero Ave",
		"address2": "",
		"address3": "",
		"city": "Chicago",
		"state": "IL",
		"zip_code": "60641"
	},
	{
		"venue_id": "yelpSZT7S7n9GWMetv-J4TOnXQ",
		"venue_name": "Boston's Tavern",
		"latitude": 41.84517,
		"longitude": -87.63866,
		"address1": "451 W 26th St",
		"address2": "",
		"address3": "",
		"city": "Chicago",
		"state": "IL",
		"zip_code": "60616"
	},
	{
		"venue_id": "yelp9bEbCYqlr884otlVCLjeSw",
		"venue_name": "Quan's Oasis",
		"latitude": 41.8308063,
		"longitude": -87.8027417,
		"address1": "3333 Harlem Ave",
		"address2": "",
		"address3": "",
		"city": "Berwyn",
		"state": "IL",
		"zip_code": "60402"
	},
	{
		"venue_id": "yelpEb6PFoBYgM761ania55N6w",
		"venue_name": "Primo Lounge",
		"latitude": 41.9335975646973,
		"longitude": -87.7071151733398,
		"address1": "2853 N Kedzie Ave",
		"address2": "",
		"address3": "",
		"city": "Chicago",
		"state": "IL",
		"zip_code": "60618"
	},
	{
		"venue_id": "yelptaqiVunyh996V3PPYg_ZRw",
		"venue_name": "Celtic Corner",
		"latitude": 41.931095123291,
		"longitude": -87.8091278076172,
		"address1": "7300 W Diversy Ave",
		"address2": "",
		"address3": "",
		"city": "Elmwood Park",
		"state": "IL",
		"zip_code": "60707"
	},
	{
		"venue_id": "yelpeXxxUNLNlgI9NrsQDUPr6g",
		"venue_name": "No Name Pub",
		"latitude": 41.8097594,
		"longitude": -87.801745,
		"address1": "4511 Harlem Ave",
		"address2": "",
		"address3": "",
		"city": "Forest View",
		"state": "IL",
		"zip_code": "60402"
	}
]