[
	{
		"venue_id": "yelpQn10NEhycm3k5HQoueDYSQ",
		"venue_name": "Do-Rite Donuts & Coffee",
		"latitude": 41.8846392380926,
		"longitude": -87.6301468588139,
		"address1": "50 West Randolph St",
		"address2": "",
		"address3": "",
		"city": "Chicago",
		"state": "IL",
		"zip_code": "60601"
	},
	{
		"venue_id": "yelpcyoEeLb5rc9ZAeTO2dkEUQ",
		"venue_name": "Do-Rite Donuts & Chicken",
		"latitude": 41.894028,
		"longitude": -87.6213298,
		"address1": "233 E Erie St",
		"address2": "",
		"address3": "",
		"city": "Chicago",
		"state": "IL",
		"zip_code": "60611"
	},
	{
		"venue_id": "yelppsz-vCo_OxNt21o6D0UfAw",
		"venue_name": "Firecakes Donuts",
		"latitude": 41.89027,
		"longitude": -87.63078,
		"address1": "68 W Hubbard St",
		"address2": "",
		"address3": "",
		"city": "Chicago",
		"state": "IL",
		"zip_code": "60654"
	},
	{
		"venue_id": "yelprV5_DmeyMKKIWLme-m9XAg",
		"venue_name": "The Doughnut Vault",
		"latitude": 41.889371,
		"longitude": -87.635325,
		"address1": "401 1/2 N Franklin St",
		"address2": "",
		"address3": "",
		"city": "Chicago",
		"state": "IL",
		"zip_code": "60654"
	},
	{
		"venue_id": "yelptzxnPFzKhLN1lu6Yn9g2tg",
		"venue_name": "Stan's Donuts & Coffee",
		"latitude": 41.9100468,
		"longitude": -87.6776249,
		"address1": "1560 N Damen Ave",
		"address2": "",
		"address3": "",
		"city": "Chicago",
		"state": "IL",
		"zip_code": "60622"
	},
	{
		"venue_id": "yelpz-G2QyFrbf7Bw1Ikx1TLNA",
		"venue_name": "BomboBar",
		"latitude": 41.8847444365834,
		"longitude": -87.6487682261245,
		"address1": "832 W Randolph St",
		"address2": "",
		"address3": "",
		"city": "Chicago",
		"state": "IL",
		"zip_code": "60607"
	},
	{
		"venue_id": "yelp5OhatEA7e3NyUPMTbU_EAA",
		"venue_name": "Everybody's Coffee",
		"latitude": 41.9652724,
		"longitude": -87.6535798,
		"address1": "935 W Wilson Ave",
		"address2": "",
		"address3": "",
		"city": "Chicago",
		"state": "IL",
		"zip_code": "60640"
	},
	{
		"venue_id": "yelpC9cB74_jNHfEEO1NPtMFMQ",
		"venue_name": "Somethin' Sweet Donuts",
		"latitude": 41.924464,
		"longitude": -87.754371,
		"address1": "5112 W Fullerton Ave",
		"address2": "",
		"address3": "",
		"city": "Chicago",
		"state": "IL",
		"zip_code": "60639"
	},
	{
		"venue_id": "yelpxMCLMQY0G7OvNHqJEz8eEg",
		"venue_name": "Do-Rite Donuts & Chicken",
		"latitude": 41.8853451,
		"longitude": -87.6519216,
		"address1": "181 N Morgan St",
		"address2": null,
		"address3": "",
		"city": "Chicago",
		"state": "IL",
		"zip_code": "60607"
	},
	{
		"venue_id": "yelpkcTO5R9SPjQCe2DMiFkOKw",
		"venue_name": "Firecakes Donuts",
		"latitude": 41.92706,
		"longitude": -87.64095,
		"address1": "2453 N Clark St",
		"address2": "",
		"address3": "",
		"city": "Chicago",
		"state": "IL",
		"zip_code": "60614"
	},
	{
		"venue_id": "yelp5Ztwcg5GmMSqne-kQ0UOBw",
		"venue_name": "Stan's Donuts & Coffee",
		"latitude": 41.893903150112,
		"longitude": -87.6205265079346,
		"address1": "259 E Erie St",
		"address2": "",
		"address3": "",
		"city": "Chicago",
		"state": "IL",
		"zip_code": "60611"
	},
	{
		"venue_id": "yelp4ICyyRqbGEGfca9-gEFEMA",
		"venue_name": "Stan's Donuts & Coffee",
		"latitude": 41.9328558280364,
		"longitude": -87.6450350759388,
		"address1": "2800 N Clark St",
		"address2": "",
		"address3": "",
		"city": "Chicago",
		"state": "IL",
		"zip_code": "60657"
	},
	{
		"venue_id": "yelpPokmIF1VLiQ7y-9XGeN13w",
		"venue_name": "Stan's Donuts & Coffee",
		"latitude": 41.8675761788046,
		"longitude": -87.6263164356351,
		"address1": "26 E Roosevelt Rd",
		"address2": "",
		"address3": "",
		"city": "Chicago",
		"state": "IL",
		"zip_code": "60605"
	},
	{
		"venue_id": "yelpVScrypD_qyg_Jzbz59BXmg",
		"venue_name": "Backlot Coffee",
		"latitude": 41.9533408903263,
		"longitude": -87.7319341152907,
		"address1": "3982 N Avondale Ave",
		"address2": "",
		"address3": null,
		"city": "Chicago",
		"state": "IL",
		"zip_code": "60641"
	},
	{
		"venue_id": "yelpomhhzRZeqA-nmqSl12JNFA",
		"venue_name": "Beavers Donuts",
		"latitude": 41.8842020810888,
		"longitude": -87.6414942725727,
		"address1": "131 N Clinton St",
		"address2": "",
		"address3": "",
		"city": "Chicago",
		"state": "IL",
		"zip_code": "60661"
	},
	{
		"venue_id": "yelpNM70tneo1D_LREM8Eg1qag",
		"venue_name": "Stan's Donuts & Coffee",
		"latitude": 41.885377,
		"longitude": -87.624226,
		"address1": "181 N Michigan Ave",
		"address2": "",
		"address3": null,
		"city": "Chicago",
		"state": "IL",
		"zip_code": "60601"
	},
	{
		"venue_id": "yelp2o0tkh4Om4laCkGipPOEZQ",
		"venue_name": "Stan's Donuts & Coffee",
		"latitude": 41.891983,
		"longitude": -87.623542,
		"address1": "535 N Michigan Ave",
		"address2": "",
		"address3": "",
		"city": "Chicago",
		"state": "IL",
		"zip_code": "60611"
	},
	{
		"venue_id": "yelpKuCt5PnJhEGhDy2KKCgVMg",
		"venue_name": "Earl's BBQ",
		"latitude": 41.9687919460585,
		"longitude": -87.778013125062,
		"address1": "4835 N Austin",
		"address2": "",
		"address3": "",
		"city": "Chicago",
		"state": "IL",
		"zip_code": "60630"
	},
	{
		"venue_id": "yelpZCjy7wZ62b7yA0GNlueomQ",
		"venue_name": "Doughnut Vault Canal",
		"latitude": 41.8840430473447,
		"longitude": -87.6392692673889,
		"address1": "111 N Canal St",
		"address2": "",
		"address3": "",
		"city": "Chicago",
		"state": "IL",
		"zip_code": "60606"
	},
	{
		"venue_id": "yelpIYWpenxmCeY_N-rvfk3dNQ",
		"venue_name": "Rudy's Bakery",
		"latitude": 41.94348,
		"longitude": -87.68001,
		"address1": "2038 W Roscoe St",
		"address2": "",
		"address3": "",
		"city": "Chicago",
		"state": "IL",
		"zip_code": "60618"
	},
	{
		"venue_id": "yelp4sE9jWPo8PGCNwxpzUQzKQ",
		"venue_name": "Donut Delight",
		"latitude": 41.9136129314033,
		"longitude": -87.6973849162459,
		"address1": "1750 N California Ave",
		"address2": "",
		"address3": "",
		"city": "Chicago",
		"state": "IL",
		"zip_code": "60647"
	},
	{
		"venue_id": "yelpIMKOWlnz-RQXFR9bI1CTbQ",
		"venue_name": "Doughnut Vault Van",
		"latitude": 41.8892501,
		"longitude": -87.6353651,
		"address1": "401 N Franklin St",
		"address2": null,
		"address3": "",
		"city": "Chicago",
		"state": "IL",
		"zip_code": "60654"
	},
	{
		"venue_id": "yelpO-kqVTEMsvUxTFKxgIHemQ",
		"venue_name": "West Town Bakery",
		"latitude": 41.8922397,
		"longitude": -87.6275007,
		"address1": "15 E Ohio St",
		"address2": "Ste A",
		"address3": "",
		"city": "Chicago",
		"state": "IL",
		"zip_code": "60611"
	},
	{
		"venue_id": "yelp7tnzE7vTyXCVVcXXcqJOUw",
		"venue_name": "Huck Finn Restaurant",
		"latitude": 41.83191,
		"longitude": -87.67573,
		"address1": "3414 S Archer Ave",
		"address2": "",
		"address3": "",
		"city": "Chicago",
		"state": "IL",
		"zip_code": "60608"
	},
	{
		"venue_id": "yelpXGVGPeCGLoCewbgHI6m2Bw",
		"venue_name": "Stan's Donuts & Coffee",
		"latitude": 41.9420384,
		"longitude": -87.6446362,
		"address1": "3300 N Broadway",
		"address2": "",
		"address3": "",
		"city": "Chicago",
		"state": "IL",
		"zip_code": "60657"
	},
	{
		"venue_id": "yelpybRXuh0o1-lvIf1MUUfP-A",
		"venue_name": "Dunkin' Donuts",
		"latitude": 41.89626,
		"longitude": -87.63615,
		"address1": "309 W Chicago Ave",
		"address2": "Fl 1",
		"address3": "",
		"city": "Chicago",
		"state": "IL",
		"zip_code": "60610"
	},
	{
		"venue_id": "yelp37UJURHAdz7jcjH4lb3ufg",
		"venue_name": "Dunkin' Donuts",
		"latitude": 41.886896,
		"longitude": -87.623218,
		"address1": "233 N Michigan Ave",
		"address2": "",
		"address3": "",
		"city": "Chicago",
		"state": "IL",
		"zip_code": "60601"
	},
	{
		"venue_id": "yelpHB9V7USLhtfiZe0F_bKEDg",
		"venue_name": "Dunkin' Donuts",
		"latitude": 41.8855,
		"longitude": -87.64194,
		"address1": "555 W Lake St",
		"address2": "",
		"address3": "",
		"city": "Chicago",
		"state": "IL",
		"zip_code": "60661"
	},
	{
		"venue_id": "yelpyNKgV5v-rkUAlrl92iuv4Q",
		"venue_name": "Baskin-Robbins / Dunkin' Donuts",
		"latitude": 41.8927726745605,
		"longitude": -87.622444152832,
		"address1": "200 E Ohio St",
		"address2": "",
		"address3": "",
		"city": "Chicago",
		"state": "IL",
		"zip_code": "60611"
	},
	{
		"venue_id": "yelpcIiJPGkanRdrqYkHOrFVcg",
		"venue_name": "Dunkin' Donuts",
		"latitude": 41.8768031036375,
		"longitude": -87.6244366818977,
		"address1": "406 S Michigan Ave",
		"address2": "",
		"address3": "",
		"city": "Chicago",
		"state": "IL",
		"zip_code": "60605"
	},
	{
		"venue_id": "yelpSoDtz7LGA-nUB0WGooc-KA",
		"venue_name": "Dunkin' Donuts",
		"latitude": 41.8883705,
		"longitude": -87.6353607,
		"address1": "222 Merchandise Mart Plz",
		"address2": "",
		"address3": "",
		"city": "Chicago",
		"state": "IL",
		"zip_code": "60654"
	},
	{
		"venue_id": "yelpFCQiWSEZaJCgyBXYCWO3zQ",
		"venue_name": "Dunkin' Donuts",
		"latitude": 41.9362244646867,
		"longitude": -87.6688628516792,
		"address1": "3000 N Ashland Ave",
		"address2": "",
		"address3": "",
		"city": "Chicago",
		"state": "IL",
		"zip_code": "60657"
	},
	{
		"venue_id": "yelpCIdNaZgNsZN-NYDNgkTO_A",
		"venue_name": "Dunkin' Donuts",
		"latitude": 41.8840714,
		"longitude": -87.6341705,
		"address1": "205 W Randolph St",
		"address2": "",
		"address3": "",
		"city": "Chicago",
		"state": "IL",
		"zip_code": "60606"
	},
	{
		"venue_id": "yelptsudkhLVlsaCdPJz5GCGPQ",
		"venue_name": "Dunkin' Donuts",
		"latitude": 41.8715250492096,
		"longitude": -87.6693769544363,
		"address1": "1713 W Polk St",
		"address2": "",
		"address3": "",
		"city": "Chicago",
		"state": "IL",
		"zip_code": "60612"
	},
	{
		"venue_id": "yelps-lowgRbfttrb9sna1Uq3Q",
		"venue_name": "The Dapper Doughnut",
		"latitude": 41.8839695,
		"longitude": -87.6410747,
		"address1": "131 N Clinton St",
		"address2": "",
		"address3": null,
		"city": "Chicago",
		"state": "IL",
		"zip_code": "60661"
	},
	{
		"venue_id": "yelpsycBoQLfNibTGAC9dgmiRQ",
		"venue_name": "Dunkin' Donuts",
		"latitude": 41.860343,
		"longitude": -87.623527,
		"address1": "1575 S Michigan Ave",
		"address2": "",
		"address3": "",
		"city": "Chicago",
		"state": "IL",
		"zip_code": "60605"
	},
	{
		"venue_id": "yelpQqKUbNSsPuuP48Q28QJ-0A",
		"venue_name": "Dunkin' Donuts",
		"latitude": 41.9472200147935,
		"longitude": -87.6540099084377,
		"address1": "947 W Addison St",
		"address2": "",
		"address3": "",
		"city": "Chicago",
		"state": "IL",
		"zip_code": "60613"
	},
	{
		"venue_id": "yelpWp0kUoHrB2tPqMogVHg8-Q",
		"venue_name": "Dunkin' Donuts",
		"latitude": 41.881621,
		"longitude": -87.634121,
		"address1": "201 W Madison St",
		"address2": "",
		"address3": "",
		"city": "Chicago",
		"state": "IL",
		"zip_code": "60606"
	},
	{
		"venue_id": "yelpkMntXJQiqAh_fkFWTGu4Qg",
		"venue_name": "Dunkin' Donuts",
		"latitude": 41.8857152760029,
		"longitude": -87.6269879937172,
		"address1": "27 E Lake St",
		"address2": null,
		"address3": null,
		"city": "Chicago",
		"state": "IL",
		"zip_code": "60601"
	},
	{
		"venue_id": "yelpdW6afI4CM2YdON8GTm0Gzg",
		"venue_name": "Dunkin' Donuts",
		"latitude": 41.9686951,
		"longitude": -87.672826,
		"address1": "1743 W Lawrence Ave",
		"address2": "",
		"address3": "",
		"city": "Chicago",
		"state": "IL",
		"zip_code": "60640"
	},
	{
		"venue_id": "yelpvUDDL1mYusaN04kgqLAe1A",
		"venue_name": "Dunkin' Donuts",
		"latitude": 41.9324319367312,
		"longitude": -87.6880250126123,
		"address1": "2800 N Western Ave",
		"address2": "",
		"address3": "",
		"city": "Chicago",
		"state": "IL",
		"zip_code": "60618"
	},
	{
		"venue_id": "yelpqf0u6g2fclZHnfrStGOuQA",
		"venue_name": "Dunkin' Donuts",
		"latitude": 42.0008211,
		"longitude": -87.6607469,
		"address1": "1200 W Loyola Ave",
		"address2": "",
		"address3": "",
		"city": "Chicago",
		"state": "IL",
		"zip_code": "60626"
	},
	{
		"venue_id": "yelp_Pc85b7RKS80_PAKBR6I9A",
		"venue_name": "Dunkin' Donuts",
		"latitude": 41.8780580596504,
		"longitude": -87.6292400323373,
		"address1": "39 W Jackson Blvd",
		"address2": "",
		"address3": "",
		"city": "Chicago",
		"state": "IL",
		"zip_code": "60604"
	},
	{
		"venue_id": "yelpDkDUKcWAxtEXyAqte_SBlQ",
		"venue_name": "Dunkin' Donuts",
		"latitude": 41.9756376816636,
		"longitude": -87.6602007250559,
		"address1": "5130 N Broadway St",
		"address2": "",
		"address3": "",
		"city": "Chicago",
		"state": "IL",
		"zip_code": "60686"
	},
	{
		"venue_id": "yelpChmrr3hAhCngdhFIHTIHlA",
		"venue_name": "Dunkin' Donuts",
		"latitude": 41.8239517,
		"longitude": -87.6500168,
		"address1": "970 W Pershing Rd",
		"address2": "",
		"address3": "",
		"city": "Chicago",
		"state": "IL",
		"zip_code": "60609"
	},
	{
		"venue_id": "yelp-HAmIoZhBlBKMkw8rvdeCQ",
		"venue_name": "Dunkin' Donuts",
		"latitude": 41.9051476763576,
		"longitude": -87.6677399433329,
		"address1": "1244 N Ashland Ave",
		"address2": "",
		"address3": "",
		"city": "Chicago",
		"state": "IL",
		"zip_code": "60622"
	},
	{
		"venue_id": "yelphvrnONN_rR4UQfrc8zUJFg",
		"venue_name": "Dunkin' Donuts",
		"latitude": 41.9973665655112,
		"longitude": -87.6607219561336,
		"address1": "6332 N Broadway",
		"address2": "",
		"address3": "",
		"city": "Chicago",
		"state": "IL",
		"zip_code": "60686"
	},
	{
		"venue_id": "yelppEFUww65RMtMDesY4c4yEQ",
		"venue_name": "Dunkin' Donuts",
		"latitude": 41.9650088213595,
		"longitude": -87.6569524760441,
		"address1": "4547 N Broadway St",
		"address2": "",
		"address3": "",
		"city": "Chicago",
		"state": "IL",
		"zip_code": "60640"
	},
	{
		"venue_id": "yelpw4OKJEDf-GSBh7J6i7y29A",
		"venue_name": "Firecakes Donuts",
		"latitude": 41.8867550346226,
		"longitude": -87.6342081409446,
		"address1": "205 W Lower Wacker Dr",
		"address2": "",
		"address3": null,
		"city": "Chicago",
		"state": "IL",
		"zip_code": "60606"
	},
	{
		"venue_id": "yelpkISrWlpAbJYWkzH5SOMrbQ",
		"venue_name": "Dunkin' Donuts",
		"latitude": 41.8379221,
		"longitude": -87.6454803,
		"address1": "749 W 31st St",
		"address2": "",
		"address3": "",
		"city": "Chicago",
		"state": "IL",
		"zip_code": "60616"
	},
	{
		"venue_id": "yelpAK9QbYuE-Hw3l_iIT0zkJg",
		"venue_name": "Dunkin' Donuts",
		"latitude": 41.9253547956887,
		"longitude": -87.6529438022598,
		"address1": "947 W Fullerton Ave",
		"address2": "",
		"address3": "",
		"city": "Chicago",
		"state": "IL",
		"zip_code": "60614"
	},
	{
		"venue_id": "yelpDyYDnfJtcXz-y6SutmwgAA",
		"venue_name": "Dunkin' Donuts",
		"latitude": 41.8770334893868,
		"longitude": -87.6399188601189,
		"address1": "310-A S Canal St",
		"address2": "",
		"address3": "",
		"city": "Chicago",
		"state": "IL",
		"zip_code": "60606"
	},
	{
		"venue_id": "yelpoWSjrSJ6JTrx2I2oZju_8w",
		"venue_name": "Dunkin' Donuts",
		"latitude": 41.87754,
		"longitude": -87.62721,
		"address1": "333 S State St",
		"address2": "",
		"address3": "",
		"city": "Chicago",
		"state": "IL",
		"zip_code": "60604"
	},
	{
		"venue_id": "yelpvOio26B8H17W8jfylB2d8g",
		"venue_name": "Dunkin' Donuts",
		"latitude": 41.8778496,
		"longitude": -87.6414566,
		"address1": "547 W Jackson Blvd",
		"address2": "Ste 125",
		"address3": null,
		"city": "Chicago",
		"state": "IL",
		"zip_code": "60661"
	},
	{
		"venue_id": "yelpwEmbpdeioE4J-p7IHRQZfg",
		"venue_name": "Dunkin' Donuts",
		"latitude": 41.9615849107504,
		"longitude": -87.66666457057,
		"address1": "1441 W Montrose Ave",
		"address2": null,
		"address3": "",
		"city": "Chicago",
		"state": "IL",
		"zip_code": "60613"
	},
	{
		"venue_id": "yelppQ0sG8FVL0bDAgbS1SnT5Q",
		"venue_name": "Dunkin' Donuts",
		"latitude": 41.877876,
		"longitude": -87.63478,
		"address1": "229 W Jackson Blvd",
		"address2": "",
		"address3": "",
		"city": "Chicago",
		"state": "IL",
		"zip_code": "60606"
	},
	{
		"venue_id": "yelptiHhA6Tx_sdgBBNMzDoAVA",
		"venue_name": "Firecakes",
		"latitude": 41.887283,
		"longitude": -87.803707,
		"address1": "104 N Maple Ave",
		"address2": null,
		"address3": "",
		"city": "Oak Park",
		"state": "IL",
		"zip_code": "60302"
	},
	{
		"venue_id": "yelp-UiYjaVNeeOTHb0ElUlhgg",
		"venue_name": "Dunkin' Donuts",
		"latitude": 41.9542867,
		"longitude": -87.6885949,
		"address1": "4010 N Western Ave",
		"address2": "",
		"address3": "",
		"city": "Chicago",
		"state": "IL",
		"zip_code": "60618"
	},
	{
		"venue_id": "yelpcKwNE0LiHrY_HfCfm868RA",
		"venue_name": "Dunkin' Donuts",
		"latitude": 41.8964195,
		"longitude": -87.6554626,
		"address1": "801 N Milwaukee Ave",
		"address2": "",
		"address3": "",
		"city": "Chicago",
		"state": "IL",
		"zip_code": "60642"
	},
	{
		"venue_id": "yelpYcX5XgsYacg0TTd54Qs0pw",
		"venue_name": "Dunkin' Donuts",
		"latitude": 41.8856151,
		"longitude": -87.6287838,
		"address1": "27 W Lake St",
		"address2": "",
		"address3": "",
		"city": "Chicago",
		"state": "IL",
		"zip_code": "60601"
	},
	{
		"venue_id": "yelpmsBfGczoxKXmp5JUrDGkew",
		"venue_name": "Dunkin' Donuts",
		"latitude": 41.8928191065788,
		"longitude": -87.6226454973221,
		"address1": "607 N St Clair St",
		"address2": "",
		"address3": "",
		"city": "Chicago",
		"state": "IL",
		"zip_code": "60611"
	},
	{
		"venue_id": "yelp-_HMS2r9HkGnL0CE03zuxw",
		"venue_name": "Dunkin' Donuts",
		"latitude": 41.8676937981383,
		"longitude": -87.639518366976,
		"address1": "500 W Roosevelt Rd",
		"address2": "",
		"address3": "",
		"city": "Chicago",
		"state": "IL",
		"zip_code": "60607"
	},
	{
		"venue_id": "yelp99FuZndgbp-nTsPgHxe_Gw",
		"venue_name": "Dunkin' Donuts",
		"latitude": 41.97337,
		"longitude": -87.7482,
		"address1": "5050 N Cicero Ave",
		"address2": "",
		"address3": "",
		"city": "Chicago",
		"state": "IL",
		"zip_code": "60630"
	},
	{
		"venue_id": "yelpLjkNyQ2gnhgrCNyZMZANnw",
		"venue_name": "Dunkin' Donuts",
		"latitude": 41.9540645,
		"longitude": -87.6500079,
		"address1": "3949 N Broadway St",
		"address2": "",
		"address3": "",
		"city": "Chicago",
		"state": "IL",
		"zip_code": "60613"
	},
	{
		"venue_id": "yelpSSdOr9QeXau2utRvtGuaRQ",
		"venue_name": "Dunkin' Donuts",
		"latitude": 41.946815,
		"longitude": -87.710716,
		"address1": "3310 W Addison St",
		"address2": "",
		"address3": "",
		"city": "Chicago",
		"state": "IL",
		"zip_code": "60618"
	},
	{
		"venue_id": "yelpoo3PSQdjUA1Jf_RZQSRAkg",
		"venue_name": "Dunkin' Donuts",
		"latitude": 41.9679679870605,
		"longitude": -87.7298965454102,
		"address1": "4045 W Lawrence Ave",
		"address2": "",
		"address3": "",
		"city": "Chicago",
		"state": "IL",
		"zip_code": "60630"
	},
	{
		"venue_id": "yelpUjBgNXFFxMriz5uVuLBeqA",
		"venue_name": "Dunkin' Donuts",
		"latitude": 41.8790245056152,
		"longitude": -87.6344909667969,
		"address1": "211 W Adams St",
		"address2": "",
		"address3": "",
		"city": "Chicago",
		"state": "IL",
		"zip_code": "60606"
	},
	{
		"venue_id": "yelpepqL0djIWJoPznOWyVRqZQ",
		"venue_name": "Dunkin' Donuts",
		"latitude": 41.874282,
		"longitude": -87.6263589,
		"address1": "600 S Wabash Ave",
		"address2": "",
		"address3": "",
		"city": "Chicago",
		"state": "IL",
		"zip_code": "60605"
	},
	{
		"venue_id": "yelpXlDZcAaT_5LhNFf9Wast9w",
		"venue_name": "Dunkin Donut",
		"latitude": 41.9468154907227,
		"longitude": -87.7107162475586,
		"address1": "3310 W Addison St",
		"address2": "",
		"address3": "",
		"city": "Chicago",
		"state": "IL",
		"zip_code": "60618"
	},
	{
		"venue_id": "yelpD6ab-U1SPsNat9XL8j5RJA",
		"venue_name": "Dunkin' Donuts",
		"latitude": 41.8783749,
		"longitude": -87.625643,
		"address1": "62 E Jackson Blvd",
		"address2": "",
		"address3": "",
		"city": "Chicago",
		"state": "IL",
		"zip_code": "60604"
	},
	{
		"venue_id": "yelpLk7lnhd-9vIgTQvMvxcWBA",
		"venue_name": "Dunkin' Donuts",
		"latitude": 41.9459665,
		"longitude": -87.6880525,
		"address1": "3535 N Western Ave",
		"address2": "",
		"address3": "",
		"city": "Chicago",
		"state": "IL",
		"zip_code": "60618"
	},
	{
		"venue_id": "yelplwG5LGDnXCMXsr0WQZPOtA",
		"venue_name": "Dunkin' Donuts",
		"latitude": 41.9222,
		"longitude": -87.69519,
		"address1": "2247 N Milwaukee Ave",
		"address2": null,
		"address3": "",
		"city": "Chicago",
		"state": "IL",
		"zip_code": "60647"
	},
	{
		"venue_id": "yelpmTm-dRm246mI5Iz1bktOSw",
		"venue_name": "Dunkin' Donuts",
		"latitude": 41.8121490478516,
		"longitude": -87.7068176269531,
		"address1": "4453 S Archer Ave",
		"address2": "",
		"address3": "",
		"city": "Chicago",
		"state": "IL",
		"zip_code": "60632"
	},
	{
		"venue_id": "yelpnH1suPChxEny22nXPFSizA",
		"venue_name": "Dunkin' Donuts",
		"latitude": 41.96027,
		"longitude": -87.7674202,
		"address1": "4354 N Central Ave",
		"address2": "",
		"address3": "",
		"city": "Chicago",
		"state": "IL",
		"zip_code": "60634"
	},
	{
		"venue_id": "yelpHTOFpNfbmrL1AqdzlOvB1w",
		"venue_name": "Dunkin' Donuts",
		"latitude": 41.8831251,
		"longitude": -87.6250869,
		"address1": "75 E Washington St",
		"address2": "",
		"address3": "",
		"city": "Chicago",
		"state": "IL",
		"zip_code": "60602"
	},
	{
		"venue_id": "yelpZYxhYyPh6DKq1XI5N2XZUA",
		"venue_name": "Dunkin' Donuts",
		"latitude": 41.9836011528969,
		"longitude": -87.6592770963907,
		"address1": "1127 W Bryn Mawr Ave",
		"address2": "",
		"address3": "",
		"city": "Chicago",
		"state": "IL",
		"zip_code": "60660"
	},
	{
		"venue_id": "yelpgs3YJI5WBsjw0Gsa-BUIAw",
		"venue_name": "Dunkin' Donuts",
		"latitude": 41.8894759,
		"longitude": -87.6268029,
		"address1": "404 N Wabash Ave",
		"address2": "",
		"address3": "",
		"city": "Chicago",
		"state": "IL",
		"zip_code": "60611"
	},
	{
		"venue_id": "yelpg_ACpi3xKTbO8wBEN8vnMA",
		"venue_name": "Dunkin' Donuts",
		"latitude": 41.9388999938965,
		"longitude": -87.7221832275391,
		"address1": "3801 W Belmont",
		"address2": "",
		"address3": "",
		"city": "Chicago",
		"state": "IL",
		"zip_code": "60618"
	},
	{
		"venue_id": "yelp6w398dn_4mJy29SrZqi9jA",
		"venue_name": "Dunkin' Donuts",
		"latitude": 41.9324417114258,
		"longitude": -87.6497039794922,
		"address1": "801 W Diversey Pkwy",
		"address2": "",
		"address3": "",
		"city": "Chicago",
		"state": "IL",
		"zip_code": "60614"
	},
	{
		"venue_id": "yelp48yJy7M__BcR-Xal2LCxcA",
		"venue_name": "Dunkin' Donuts",
		"latitude": 41.9540764429022,
		"longitude": -87.7272167618837,
		"address1": "3960 W Irving Park Rd",
		"address2": null,
		"address3": null,
		"city": "Chicago",
		"state": "IL",
		"zip_code": "60618"
	},
	{
		"venue_id": "yelpQRSL-1ULUiD2XkWr1NXyhA",
		"venue_name": "Dunkin' Donuts",
		"latitude": 41.89072,
		"longitude": -87.666755,
		"address1": "1535 W Grand Ave",
		"address2": "",
		"address3": "",
		"city": "Chicago",
		"state": "IL",
		"zip_code": "60622"
	},
	{
		"venue_id": "yelpXBv8dp9t2EqAWSGNadtpWQ",
		"venue_name": "Dunkin' Donuts",
		"latitude": 41.8813351,
		"longitude": -87.6655271,
		"address1": "1519 W Madison St",
		"address2": "",
		"address3": "",
		"city": "Chicago",
		"state": "IL",
		"zip_code": "60607"
	},
	{
		"venue_id": "yelpae6T--eTNgjhPfepH38x_w",
		"venue_name": "Dunkin' Donuts",
		"latitude": 41.9280745,
		"longitude": -87.785798,
		"address1": "2640 N Narragansett Ave",
		"address2": "",
		"address3": "",
		"city": "Chicago",
		"state": "IL",
		"zip_code": "60639"
	},
	{
		"venue_id": "yelp3_qCoKd4CRMVAQGQWZpTDQ",
		"venue_name": "Dunkin' Donuts",
		"latitude": 41.9239597032649,
		"longitude": -87.6398290852104,
		"address1": "2300 N Clark St",
		"address2": "",
		"address3": "",
		"city": "Chicago",
		"state": "IL",
		"zip_code": "60614"
	},
	{
		"venue_id": "yelpPXOQZYj-StxbaZUykcRkxA",
		"venue_name": "Do-Rite Donuts & Chicken",
		"latitude": 41.8977443,
		"longitude": -87.6239084,
		"address1": "835 N Michigan Ave",
		"address2": "Fl2",
		"address3": "",
		"city": "Chicago",
		"state": "IL",
		"zip_code": "60611"
	},
	{
		"venue_id": "yelpLWDE14V751GRgkC391Tl6Q",
		"venue_name": "Dunkin' Donuts",
		"latitude": 41.8822243,
		"longitude": -87.6263531,
		"address1": "6 N Wabash Ave",
		"address2": "",
		"address3": "",
		"city": "Chicago",
		"state": "IL",
		"zip_code": "60602"
	},
	{
		"venue_id": "yelp7l4zeq9E77TjphRmGkuB4g",
		"venue_name": "Dunkin' Donuts",
		"latitude": 41.94673,
		"longitude": -87.67333,
		"address1": "1755 W Addison St",
		"address2": "",
		"address3": "",
		"city": "Chicago",
		"state": "IL",
		"zip_code": "60613"
	},
	{
		"venue_id": "yelpaM3iSm2bhucUx0ycms47cg",
		"venue_name": "Dunkin' Donuts",
		"latitude": 41.88534,
		"longitude": -87.6347399,
		"address1": "215 W Lake St",
		"address2": "",
		"address3": "",
		"city": "Chicago",
		"state": "IL",
		"zip_code": "60606"
	},
	{
		"venue_id": "yelp_kHtOtLJGegsaYyd3K3-zw",
		"venue_name": "Dunkin' Donuts",
		"latitude": 41.847110748291,
		"longitude": -87.64599609375,
		"address1": "2477 S Archer Ave",
		"address2": "",
		"address3": "",
		"city": "Chicago",
		"state": "IL",
		"zip_code": "60616"
	},
	{
		"venue_id": "yelprZvgMLEEtoeAU5d1ikVuTw",
		"venue_name": "Dunkin' Donuts",
		"latitude": 41.9245681762695,
		"longitude": -87.6923217773438,
		"address1": "2565 W Fullerton Ave",
		"address2": "",
		"address3": "",
		"city": "Chicago",
		"state": "IL",
		"zip_code": "60647"
	},
	{
		"venue_id": "yelpUZYfJwkTzR4tIevwPEdXbQ",
		"venue_name": "Dunkin' Donuts / Baskin-Robbins",
		"latitude": 41.953762,
		"longitude": -87.752463,
		"address1": "5000 W Irving Park Rd",
		"address2": "",
		"address3": "",
		"city": "Chicago",
		"state": "IL",
		"zip_code": "60641"
	},
	{
		"venue_id": "yelpBz3YFYwERmlHMa_GkuLQNg",
		"venue_name": "Dunkin' Donuts",
		"latitude": 41.953624,
		"longitude": -87.705833,
		"address1": "3101 W Irving Park Rd",
		"address2": "",
		"address3": "",
		"city": "Chicago",
		"state": "IL",
		"zip_code": "60618"
	},
	{
		"venue_id": "yelpxOM1nwL8RDIvhPw9r6x1Jw",
		"venue_name": "Dunkin' Donuts",
		"latitude": 41.99001,
		"longitude": -87.71432,
		"address1": "3401 W Peterson Ave",
		"address2": null,
		"address3": null,
		"city": "Chicago",
		"state": "IL",
		"zip_code": "60659"
	},
	{
		"venue_id": "yelphlqA_jR7zxCAFnMVdCD_CQ",
		"venue_name": "Dunkin' Donuts",
		"latitude": 41.93978,
		"longitude": -87.71289,
		"address1": "3214 N Kimball Ave",
		"address2": "",
		"address3": "",
		"city": "Chicago",
		"state": "IL",
		"zip_code": "60618"
	},
	{
		"venue_id": "yelpKw-OufeQPDMNFC90hx7KKw",
		"venue_name": "Dunkin' Donuts",
		"latitude": 41.9109585285732,
		"longitude": -87.6380544729751,
		"address1": "333 W North Ave",
		"address2": "",
		"address3": "",
		"city": "Chicago",
		"state": "IL",
		"zip_code": "60610"
	},
	{
		"venue_id": "yelpS-SKedTGpKK6oCX0HI4g_A",
		"venue_name": "Dunkin' Donuts",
		"latitude": 41.9662857,
		"longitude": -87.6886951,
		"address1": "4645 N Western Ave",
		"address2": "Ste 49",
		"address3": "",
		"city": "Chicago",
		"state": "IL",
		"zip_code": "60625"
	},
	{
		"venue_id": "yelpcMyNnmRUCeVpMWemMqNNqA",
		"venue_name": "Dunkin' Donuts",
		"latitude": 41.9976399,
		"longitude": -87.8085,
		"address1": "7240 W Devon Ave",
		"address2": "",
		"address3": "",
		"city": "Chicago",
		"state": "IL",
		"zip_code": "60631"
	},
	{
		"venue_id": "yelpeah6d-FbKwj5JERwoJWejg",
		"venue_name": "Dunkin' Donuts",
		"latitude": 41.87931,
		"longitude": -87.626388,
		"address1": "31 E Adams St",
		"address2": "",
		"address3": "",
		"city": "Chicago",
		"state": "IL",
		"zip_code": "60603"
	},
	{
		"venue_id": "yelprYfqwFZFrbHMK4reJp5Tyg",
		"venue_name": "Dunkin' Donuts",
		"latitude": 41.923583984375,
		"longitude": -87.7458953857422,
		"address1": "2337 N Cicero Ave",
		"address2": "",
		"address3": "",
		"city": "Chicago",
		"state": "IL",
		"zip_code": "60639"
	},
	{
		"venue_id": "yelpdmzqjAj7-7SdItpfhVCDjQ",
		"venue_name": "Dunkin' Donut",
		"latitude": 41.9099451,
		"longitude": -87.7098071,
		"address1": "3309 W North Ave",
		"address2": "",
		"address3": "",
		"city": "Chicago",
		"state": "IL",
		"zip_code": "60647"
	},
	{
		"venue_id": "yelptUdf0eIkUuWkYx4P4neQig",
		"venue_name": "Dunkin' Donuts",
		"latitude": 41.8741180747747,
		"longitude": -87.6307283341885,
		"address1": "626 S Clark St",
		"address2": null,
		"address3": null,
		"city": "Chicago",
		"state": "IL",
		"zip_code": "60605"
	},
	{
		"venue_id": "yelp33ucq-Mk7-zEKb5NFD6mbA",
		"venue_name": "Dunkin' Donuts",
		"latitude": 41.9042426510804,
		"longitude": -87.6312674351876,
		"address1": "1201 North Clark St",
		"address2": "",
		"address3": "",
		"city": "Chicago",
		"state": "IL",
		"zip_code": "60610"
	},
	{
		"venue_id": "yelpPYWFnFfvZLfg2RvIU05i_Q",
		"venue_name": "Dunkin' Donuts",
		"latitude": 41.9030104741936,
		"longitude": -87.6802601505482,
		"address1": "2111 W Division St",
		"address2": "",
		"address3": "",
		"city": "Chicago",
		"state": "IL",
		"zip_code": "60622"
	},
	{
		"venue_id": "yelpO_dTrCdw2WqniITAtVZ5fw",
		"venue_name": "Baskin-Robbins / Dunkin' Donuts",
		"latitude": 41.86654,
		"longitude": -87.66862,
		"address1": "1651 W Roosevelt Rd",
		"address2": "",
		"address3": "",
		"city": "Chicago",
		"state": "IL",
		"zip_code": "60608"
	},
	{
		"venue_id": "yelpkTeL1tg6uaGfAfbpylRysw",
		"venue_name": "Dunkin' Donuts",
		"latitude": 41.8829744,
		"longitude": -87.6499144,
		"address1": "901 W Washington Blvd",
		"address2": null,
		"address3": "",
		"city": "Chicago",
		"state": "IL",
		"zip_code": "60661"
	},
	{
		"venue_id": "yelpGE_mzx8hrwCGqn3ZkQmhRg",
		"venue_name": "Dunkin' Donuts / Baskin-Robbins",
		"latitude": 41.9759177881019,
		"longitude": -87.7875704577136,
		"address1": "5205 N Nagle Ave",
		"address2": "",
		"address3": "",
		"city": "Chicago",
		"state": "IL",
		"zip_code": "60630"
	},
	{
		"venue_id": "yelp2kU1YngNSciNjlyc7Vr0ZQ",
		"venue_name": "Dunkin' Donuts",
		"latitude": 41.9761581420898,
		"longitude": -87.6927108764648,
		"address1": "5200 N Lincoln Ave",
		"address2": "",
		"address3": "",
		"city": "Chicago",
		"state": "IL",
		"zip_code": "60625"
	},
	{
		"venue_id": "yelpwfsTd1Nv-60CL4rT9oObsA",
		"venue_name": "Dunkin' Donuts",
		"latitude": 41.8517221539938,
		"longitude": -87.7053981091225,
		"address1": "3201 W Cermak Rd",
		"address2": "",
		"address3": "",
		"city": "Chicago",
		"state": "IL",
		"zip_code": "60623"
	},
	{
		"venue_id": "yelpOTgb2DnHclJLfp_P4ibNFg",
		"venue_name": "Dunkin' Donuts",
		"latitude": 41.9117122373432,
		"longitude": -87.686932682991,
		"address1": "1651 N Western Ave",
		"address2": "",
		"address3": null,
		"city": "Chicago",
		"state": "IL",
		"zip_code": "60647"
	},
	{
		"venue_id": "yelp0_alCbjWGEvPUUN2AjE_Ag",
		"venue_name": "Dunkin' Donuts",
		"latitude": 41.9728492,
		"longitude": -87.7776085,
		"address1": "5949 W Higgins Ave",
		"address2": null,
		"address3": null,
		"city": "Chicago",
		"state": "IL",
		"zip_code": "60630"
	},
	{
		"venue_id": "yelpV-CgdZNH5DUJFXE6aMXSog",
		"venue_name": "Dunkin' Donuts",
		"latitude": 41.994355,
		"longitude": -87.659591,
		"address1": "1117 W Granville Ave",
		"address2": "",
		"address3": null,
		"city": "Chicago",
		"state": "IL",
		"zip_code": "60660"
	},
	{
		"venue_id": "yelpLMnpDxLniBN21Vx_VW3Rgg",
		"venue_name": "Dunkin' Donuts",
		"latitude": 41.997683608843,
		"longitude": -87.708419252925,
		"address1": "3132 W Devon Ave",
		"address2": "",
		"address3": "",
		"city": "Chicago",
		"state": "IL",
		"zip_code": "60659"
	},
	{
		"venue_id": "yelpEi0Y5-tWobexwXHP8tvQqw",
		"venue_name": "Dunkin' Donuts",
		"latitude": 41.8577197478958,
		"longitude": -87.6685963748225,
		"address1": "1710 W 18th St",
		"address2": "",
		"address3": "",
		"city": "Chicago",
		"state": "IL",
		"zip_code": "60608"
	},
	{
		"venue_id": "yelpJwo0sfP6Wu1R8jb0Ja0XSg",
		"venue_name": "Mr. B's Old Fashioned Donuts",
		"latitude": 41.8800651,
		"longitude": -87.7254851,
		"address1": "25 S Pulaski Rd",
		"address2": null,
		"address3": null,
		"city": "Chicago",
		"state": "IL",
		"zip_code": "60652"
	},
	{
		"venue_id": "yelpQiXw0EK7SqDHwde6SS5BPQ",
		"venue_name": "Dunkin' Donuts",
		"latitude": 41.82269,
		"longitude": -87.69069,
		"address1": "3910 S Archer Ave",
		"address2": "",
		"address3": "",
		"city": "Chicago",
		"state": "IL",
		"zip_code": "60632"
	},
	{
		"venue_id": "yelpHgKQ4dU-r2AB7PCNwj8gHw",
		"venue_name": "Dunkin' Donuts",
		"latitude": 41.881842,
		"longitude": -87.631144,
		"address1": "105 W Madison St",
		"address2": "",
		"address3": "",
		"city": "Chicago",
		"state": "IL",
		"zip_code": "60602"
	},
	{
		"venue_id": "yelp7mX1xEK1BiNNuF7MOlsbRA",
		"venue_name": "Dunkin' Donuts",
		"latitude": 41.9662857,
		"longitude": -87.6886951,
		"address1": "4645-49 N Western Ave",
		"address2": "",
		"address3": "Western Brown Line Train Station",
		"city": "Chicago",
		"state": "IL",
		"zip_code": "60686"
	},
	{
		"venue_id": "yelp1CPAZ-npMC66MpiO4rVPRg",
		"venue_name": "Dunkin' Donuts",
		"latitude": 41.9250951,
		"longitude": -87.661605,
		"address1": "1331 W Fullerton Ave",
		"address2": "",
		"address3": "",
		"city": "Chicago",
		"state": "IL",
		"zip_code": "60614"
	},
	{
		"venue_id": "yelpjkJG1fBTWV52Orl84GJ8tw",
		"venue_name": "Dunkin' Donuts/ Baskin Robbins",
		"latitude": 41.8849306,
		"longitude": -87.6219964,
		"address1": "200 E Randolph St",
		"address2": "",
		"address3": "",
		"city": "Chicago",
		"state": "IL",
		"zip_code": "60601"
	},
	{
		"venue_id": "yelpTxim47lQ5t47f-IOitvRYA",
		"venue_name": "Dunkin' Donuts",
		"latitude": 41.8876902,
		"longitude": -87.6206535,
		"address1": "303 E Wacker Dr",
		"address2": "",
		"address3": "",
		"city": "Chicago",
		"state": "IL",
		"zip_code": "60601"
	},
	{
		"venue_id": "yelpP2ttU0rGgSHsyRilT6z4wA",
		"venue_name": "Dunkin' Donuts",
		"latitude": 41.9308815002441,
		"longitude": -87.7756500244141,
		"address1": "5959 W Diversey Ave",
		"address2": "",
		"address3": "",
		"city": "Chicago",
		"state": "IL",
		"zip_code": "60639"
	},
	{
		"venue_id": "yelpXJJlWDMsgw_0pwME28gZcQ",
		"venue_name": "Dunkin' Donuts",
		"latitude": 41.8807572126389,
		"longitude": -87.6254108548164,
		"address1": "71 E Monroe St",
		"address2": "",
		"address3": "",
		"city": "Chicago",
		"state": "IL",
		"zip_code": "60603"
	},
	{
		"venue_id": "yelpNlw7u_0heiGnvt6cTphKpA",
		"venue_name": "Dunkin' Donuts",
		"latitude": 41.9181289111588,
		"longitude": -87.6724490895867,
		"address1": "1768 W Armitage Ave",
		"address2": "",
		"address3": "",
		"city": "Chicago",
		"state": "IL",
		"zip_code": "60622"
	},
	{
		"venue_id": "yelptejsttfGuZoetZTn5vCBTA",
		"venue_name": "Dunkin' Donuts",
		"latitude": 41.9510702,
		"longitude": -87.7470477,
		"address1": "3843 N Cicero Ave",
		"address2": "",
		"address3": "",
		"city": "Chicago",
		"state": "IL",
		"zip_code": "60641"
	},
	{
		"venue_id": "yelpIgQEs7DjgqgrELrDYKEO3A",
		"venue_name": "Dunkin' Donuts",
		"latitude": 41.88338,
		"longitude": -87.63487,
		"address1": "220 W Washington St",
		"address2": "",
		"address3": "",
		"city": "Chicago",
		"state": "IL",
		"zip_code": "60606"
	},
	{
		"venue_id": "yelpFnvifVC2-fqhTdqYbDzkeA",
		"venue_name": "Dunkin' Donuts",
		"latitude": 41.8315635,
		"longitude": -87.6168026,
		"address1": "3481 S King Dr",
		"address2": "",
		"address3": "",
		"city": "Chicago",
		"state": "IL",
		"zip_code": "60616"
	},
	{
		"venue_id": "yelpz-AJa95lpN_OsLRUMZ62sA",
		"venue_name": "Dunkin' Donuts / Baskin-Robbins",
		"latitude": 41.910059,
		"longitude": -87.711527,
		"address1": "3347 W N Ave",
		"address2": null,
		"address3": null,
		"city": "Chicago",
		"state": "IL",
		"zip_code": "60647"
	},
	{
		"venue_id": "yelp6PezwGOOzDH5efQDjLyWLw",
		"venue_name": "Dunkin' Donuts",
		"latitude": 41.9958373904228,
		"longitude": -87.6703660190105,
		"address1": "6250 N Clark St",
		"address2": "",
		"address3": "",
		"city": "Chicago",
		"state": "IL",
		"zip_code": "60660"
	},
	{
		"venue_id": "yelpPl6gKCPgn_3D9asrqOn7Mg",
		"venue_name": "Dunkin' Donuts",
		"latitude": 41.9693604,
		"longitude": -87.7083162,
		"address1": "4821 N Kedzie Ave",
		"address2": null,
		"address3": "",
		"city": "Chicago",
		"state": "IL",
		"zip_code": "60625"
	},
	{
		"venue_id": "yelpBgwuG6lYvqloVvqBaH-Sqg",
		"venue_name": "Dunkin' Donuts",
		"latitude": 41.8964429,
		"longitude": -87.6863815,
		"address1": "823 N Western Ave",
		"address2": "",
		"address3": "",
		"city": "Chicago",
		"state": "IL",
		"zip_code": "60622"
	},
	{
		"venue_id": "yelpJqnpDgkUpgwa4VnEW78x-A",
		"venue_name": "Dunkin' Donuts",
		"latitude": 41.8767111,
		"longitude": -87.6332149,
		"address1": "400 S Financial Pl",
		"address2": "",
		"address3": "",
		"city": "Chicago",
		"state": "IL",
		"zip_code": "60605"
	},
	{
		"venue_id": "yelpuua8ZQLFcIN2Tuy32CLRvg",
		"venue_name": "Dunkin' Donuts",
		"latitude": 41.95825,
		"longitude": -87.75199,
		"address1": "4245 N Milwaukee Ave",
		"address2": null,
		"address3": null,
		"city": "Chicago",
		"state": "IL",
		"zip_code": "60641"
	},
	{
		"venue_id": "yelpi8PV9FT1GiKv25oHUZ0TRA",
		"venue_name": "Dunkin' Donuts",
		"latitude": 41.852283,
		"longitude": -87.684895,
		"address1": "2356 W Cermak Rd",
		"address2": "",
		"address3": "",
		"city": "Chicago",
		"state": "IL",
		"zip_code": "60686"
	},
	{
		"venue_id": "yelpoiZUQplT0Df3HYvX4ZhLpg",
		"venue_name": "Dunkin' Donuts / Baskin-Robbins",
		"latitude": 41.9317,
		"longitude": -87.71342,
		"address1": "3427 W Diversey Ave",
		"address2": "",
		"address3": "",
		"city": "Chicago",
		"state": "IL",
		"zip_code": "60647"
	},
	{
		"venue_id": "yelpLt3nfd2TI3OGxfseahFcMQ",
		"venue_name": "Dunkin' Donuts / Baskin-Robbins",
		"latitude": 41.9692323,
		"longitude": -87.7617558,
		"address1": "4867 N Milwaukee Ave",
		"address2": "",
		"address3": "",
		"city": "Chicago",
		"state": "IL",
		"zip_code": "60630"
	},
	{
		"venue_id": "yelpywsuddAW7PzPPINIYGCVZw",
		"venue_name": "Dunkin' Donuts",
		"latitude": 41.9959907837274,
		"longitude": -87.7870790804681,
		"address1": "6342 N Milwaukee Ave",
		"address2": "",
		"address3": "",
		"city": "Chicago",
		"state": "IL",
		"zip_code": "60646"
	},
	{
		"venue_id": "yelpe6Y3ucckO91Yphh7xABhKQ",
		"venue_name": "Stan's Donuts",
		"latitude": 41.8852,
		"longitude": -87.65904,
		"address1": "1301 W Lake St",
		"address2": null,
		"address3": null,
		"city": "Chicago",
		"state": "IL",
		"zip_code": "60607"
	},
	{
		"venue_id": "yelpDaC8_r8rLbxSAH03rCNC3Q",
		"venue_name": "Dunkin' Donuts",
		"latitude": 41.9529502093792,
		"longitude": -87.7867826074362,
		"address1": "6408 W Irving Park Rd",
		"address2": "",
		"address3": "",
		"city": "Chicago",
		"state": "IL",
		"zip_code": "60634"
	},
	{
		"venue_id": "yelpkSswx0hIfscUv37y7r1Dnw",
		"venue_name": "Dunkin' Donuts",
		"latitude": 41.8179369311948,
		"longitude": -87.7233667119451,
		"address1": "4113 S Pulaski Rd",
		"address2": "",
		"address3": "",
		"city": "Chicago",
		"state": "IL",
		"zip_code": "60632"
	},
	{
		"venue_id": "yelpgbjLw3w3lbyomwV8MDq21A",
		"venue_name": "Dunkin' Donuts",
		"latitude": 41.840332,
		"longitude": -87.704589,
		"address1": "2801 S Kedzie Ave",
		"address2": "",
		"address3": "",
		"city": "Chicago",
		"state": "IL",
		"zip_code": "60623"
	},
	{
		"venue_id": "yelpg0Y9UP8Wm64dv-8gnt1Vkw",
		"venue_name": "Dunkin Donuts",
		"latitude": 41.8968066185285,
		"longitude": -87.6286801323295,
		"address1": "10 W Chicago Ave",
		"address2": "",
		"address3": "",
		"city": "Chicago",
		"state": "IL",
		"zip_code": "60654"
	},
	{
		"venue_id": "yelpiqYLwm9OqPqrQf5NKTUBnA",
		"venue_name": "Dunkin' Donuts",
		"latitude": 41.866634,
		"longitude": -87.625313,
		"address1": "1231 S Wabash Ave",
		"address2": null,
		"address3": null,
		"city": "Chicago",
		"state": "IL",
		"zip_code": "60605"
	},
	{
		"venue_id": "yelp3otpMDt3Ze-VLXYs5HXIaQ",
		"venue_name": "Dunkin' Donuts",
		"latitude": 41.882036626339,
		"longitude": -87.6387749612331,
		"address1": "2 N Riverside Dr",
		"address2": "",
		"address3": "",
		"city": "Chicago",
		"state": "IL",
		"zip_code": "60686"
	},
	{
		"venue_id": "yelpGvQHqP2rFKcSr81QPGe_Zg",
		"venue_name": "Dunkin' Donuts",
		"latitude": 41.885097,
		"longitude": -87.631523,
		"address1": "100 W Randolph St",
		"address2": "",
		"address3": "",
		"city": "Chicago",
		"state": "IL",
		"zip_code": "60601"
	},
	{
		"venue_id": "yelpZOhDyHHoUS34Kmf-E8lxUw",
		"venue_name": "Dunkin' Donuts",
		"latitude": 41.896748,
		"longitude": -87.706896,
		"address1": "800 N Kedzie Ave",
		"address2": "",
		"address3": "",
		"city": "Chicago",
		"state": "IL",
		"zip_code": "60651"
	},
	{
		"venue_id": "yelprxRoKE8qav35Q61ddggSxw",
		"venue_name": "Dunkin' Donuts",
		"latitude": 41.91667,
		"longitude": -87.75247,
		"address1": "5050 W Grand Ave",
		"address2": null,
		"address3": null,
		"city": "Chicago",
		"state": "IL",
		"zip_code": "60607"
	},
	{
		"venue_id": "yelpJtNKSoTIa2qkiiEDAf-3IA",
		"venue_name": "Dunkin' Donuts",
		"latitude": 41.8846780147572,
		"longitude": -87.6432566772461,
		"address1": "500 W Madison St",
		"address2": "",
		"address3": "",
		"city": "Chicago",
		"state": "IL",
		"zip_code": "60661"
	},
	{
		"venue_id": "yelpkUnI4LcEqgIQS93je7glCA",
		"venue_name": "Dunkin' Donuts",
		"latitude": 41.9386444091797,
		"longitude": -87.7814254760742,
		"address1": "6200 W Belmont Ave",
		"address2": null,
		"address3": null,
		"city": "Chicago",
		"state": "IL",
		"zip_code": "60634"
	},
	{
		"venue_id": "yelpGO9jpHizivW1py_x_vcENQ",
		"venue_name": "Dunkin' Donuts",
		"latitude": 41.9456351,
		"longitude": -87.7765633,
		"address1": "6001 W Addison St",
		"address2": "",
		"address3": "",
		"city": "Chicago",
		"state": "IL",
		"zip_code": "60634"
	},
	{
		"venue_id": "yelpDTsZvCVpM5sU2jsNSbOofQ",
		"venue_name": "Dunkin' Donuts",
		"latitude": 41.9106979370117,
		"longitude": -87.6765975952148,
		"address1": "1938 W North Ave",
		"address2": "",
		"address3": "",
		"city": "Chicago",
		"state": "IL",
		"zip_code": "60622"
	},
	{
		"venue_id": "yelpl3sjYI1fDoj3KJNLiXLsQQ",
		"venue_name": "Dunkin' Donuts",
		"latitude": 41.808151,
		"longitude": -87.74279,
		"address1": "4649 S Cicero Ave",
		"address2": "",
		"address3": "",
		"city": "Chicago",
		"state": "IL",
		"zip_code": "60632"
	},
	{
		"venue_id": "yelpa0gEA9uq1qLoNoRSTc-FZQ",
		"venue_name": "Dunkin' Donuts",
		"latitude": 41.95245,
		"longitude": -87.8067,
		"address1": "7171 W Irving Park Rd",
		"address2": "",
		"address3": "",
		"city": "Chicago",
		"state": "IL",
		"zip_code": "60634"
	},
	{
		"venue_id": "yelpZ65WtDTP635Lp9pSCCFdVA",
		"venue_name": "Dunkin' Donuts",
		"latitude": 41.8789866,
		"longitude": -87.6395754,
		"address1": "210 S Canal St",
		"address2": "",
		"address3": "",
		"city": "Chicago",
		"state": "IL",
		"zip_code": "60606"
	},
	{
		"venue_id": "yelpk6ka_R8q92P4fghF-_JC2g",
		"venue_name": "Dunkin' Donuts",
		"latitude": 41.99568,
		"longitude": -87.6902,
		"address1": "6254 N Western Ave",
		"address2": "",
		"address3": "",
		"city": "Chicago",
		"state": "IL",
		"zip_code": "60659"
	},
	{
		"venue_id": "yelpOxqV9j5DCq4R7AEtvEJ1lA",
		"venue_name": "Doughnut Vault",
		"latitude": 41.89962,
		"longitude": -87.62513,
		"address1": "900 N Michigan Ave",
		"address2": "Level 1",
		"address3": null,
		"city": "Chicago",
		"state": "IL",
		"zip_code": "60611"
	},
	{
		"venue_id": "yelpsbx1FVSXBMuxHteDog6mew",
		"venue_name": "Dunkin' Donuts",
		"latitude": 41.8786994,
		"longitude": -87.6278249,
		"address1": "230 S State St",
		"address2": "",
		"address3": "",
		"city": "Chicago",
		"state": "IL",
		"zip_code": "60604"
	},
	{
		"venue_id": "yelp-2BCQhGTt-iIIn0k3yW_3w",
		"venue_name": "Dunkin' Donuts",
		"latitude": 41.8850479125977,
		"longitude": -87.6198348999023,
		"address1": "300 E Randolph St",
		"address2": "",
		"address3": "",
		"city": "Chicago",
		"state": "IL",
		"zip_code": "60601"
	},
	{
		"venue_id": "yelpqFml-1VjCU5tjEbwbhFzUg",
		"venue_name": "Dunkin' Donuts",
		"latitude": 41.8862237511104,
		"longitude": -87.8051848973558,
		"address1": "7200 Circle Ave",
		"address2": "",
		"address3": "",
		"city": "Forest Park",
		"state": "IL",
		"zip_code": "60130"
	},
	{
		"venue_id": "yelpHxied4DJgW_FfER1FSodfg",
		"venue_name": "Dunkin' Donuts",
		"latitude": 41.90262,
		"longitude": -87.69727,
		"address1": "2805 W Division St",
		"address2": "",
		"address3": "",
		"city": "Chicago",
		"state": "IL",
		"zip_code": "60622"
	},
	{
		"venue_id": "yelpevy8uiczcmkfSU1S3_A_hg",
		"venue_name": "Dunkin' Donuts",
		"latitude": 41.8800201,
		"longitude": -87.6408234,
		"address1": "117 S Clinton St",
		"address2": null,
		"address3": null,
		"city": "Chicago",
		"state": "IL",
		"zip_code": "60661"
	},
	{
		"venue_id": "yelppTgQeo7HwpjfbRXNilwyQA",
		"venue_name": "Dunkin' Donuts",
		"latitude": 41.99095,
		"longitude": -87.6794199,
		"address1": "1954 W Peterson Ave",
		"address2": "",
		"address3": "",
		"city": "Chicago",
		"state": "IL",
		"zip_code": "60660"
	},
	{
		"venue_id": "yelpfqZTF9OEYOBMW9YDr4eKBQ",
		"venue_name": "Dunkin Donuts",
		"latitude": 41.9683133202973,
		"longitude": -87.7130193462934,
		"address1": "4755 N Kimball",
		"address2": "",
		"address3": "",
		"city": "Chicago",
		"state": "IL",
		"zip_code": "60625"
	},
	{
		"venue_id": "yelph2Z0-6h31ECHkhdxbAKTxA",
		"venue_name": "Dunkin' Donuts",
		"latitude": 41.8834571838379,
		"longitude": -87.6330490112305,
		"address1": "166 W Washington Ave",
		"address2": "",
		"address3": "",
		"city": "Chicago",
		"state": "IL",
		"zip_code": "60602"
	},
	{
		"venue_id": "yelp381nPOnj17C7GcZRMOPLsA",
		"venue_name": "Dunkin' Donuts",
		"latitude": 41.904535,
		"longitude": -87.6482349,
		"address1": "1234 N Halsted St",
		"address2": "",
		"address3": "",
		"city": "Chicago",
		"state": "IL",
		"zip_code": "60642"
	},
	{
		"venue_id": "yelp0zjC7Pn9_9fAaieV-H7_qw",
		"venue_name": "Dunkin' Donuts",
		"latitude": 41.9183499,
		"longitude": -87.72636,
		"address1": "2035 N Pulaski Rd",
		"address2": "",
		"address3": "",
		"city": "Chicago",
		"state": "IL",
		"zip_code": "60639"
	},
	{
		"venue_id": "yelpgb1jjgfHf4rZXZl6HGmYmw",
		"venue_name": "Dunkin Donuts",
		"latitude": 41.8157485506574,
		"longitude": -87.6655447483063,
		"address1": "4302 S Ashland Ave",
		"address2": "",
		"address3": null,
		"city": "Chicago",
		"state": "IL",
		"zip_code": "60609"
	},
	{
		"venue_id": "yelpycF6_JmgmenIdTb3pwCPNQ",
		"venue_name": "Dunkin' Donuts / Baskin-Robbins",
		"latitude": 41.92424,
		"longitude": -87.7678,
		"address1": "5650 W Fullerton Ave",
		"address2": "",
		"address3": "",
		"city": "Chicago",
		"state": "IL",
		"zip_code": "60639"
	},
	{
		"venue_id": "yelpL4FeybElSZan12ED-znvmg",
		"venue_name": "Dunkin' Donuts",
		"latitude": 41.909484,
		"longitude": -87.784744,
		"address1": "6336 W North Ave",
		"address2": "",
		"address3": "",
		"city": "Chicago",
		"state": "IL",
		"zip_code": "60639"
	},
	{
		"venue_id": "yelpYrHwITlNGwSGR9z8j3b0xA",
		"venue_name": "Dunkin Donuts",
		"latitude": 41.93853,
		"longitude": -87.74896,
		"address1": "4851 W Belmont Ave",
		"address2": "",
		"address3": null,
		"city": "Chicago",
		"state": "IL",
		"zip_code": "60641"
	},
	{
		"venue_id": "yelpIUBh60Ha017yo6JPIdwzqA",
		"venue_name": "Dunkin' Donuts / Baskin-Robbins",
		"latitude": 41.87968,
		"longitude": -87.7805,
		"address1": "217 W Madison St",
		"address2": "",
		"address3": "",
		"city": "Oak Park",
		"state": "IL",
		"zip_code": "60304"
	},
	{
		"venue_id": "yelpovRESlehS7bvqEG2_FkIhQ",
		"venue_name": "Dunkin' Donuts",
		"latitude": 41.8847993,
		"longitude": -87.6316443,
		"address1": "100 W Randolph St",
		"address2": "Ste 112",
		"address3": "",
		"city": "Chicago",
		"state": "IL",
		"zip_code": "60601"
	},
	{
		"venue_id": "yelpk14VGU6SMiE8uZelByl1mw",
		"venue_name": "Dunkin' Donuts",
		"latitude": 41.86428,
		"longitude": -87.68624,
		"address1": "2401 W Ogden Ave",
		"address2": "",
		"address3": "",
		"city": "Chicago",
		"state": "IL",
		"zip_code": "60608"
	},
	{
		"venue_id": "yelph_h53gKiDLz6dpzRKwkYjQ",
		"venue_name": "Dunkin' Donuts",
		"latitude": 41.8103883233802,
		"longitude": -87.5923665982533,
		"address1": "1400 E 47th St",
		"address2": "Unit B",
		"address3": "",
		"city": "Chicago",
		"state": "IL",
		"zip_code": "60653"
	},
	{
		"venue_id": "yelp6mOJEYPE2WL9ZYkGHOW53Q",
		"venue_name": "Dunkin' Donuts",
		"latitude": 41.8831332,
		"longitude": -87.6862888,
		"address1": "101 N Western Ave",
		"address2": null,
		"address3": null,
		"city": "Chicago",
		"state": "IL",
		"zip_code": "60612"
	},
	{
		"venue_id": "yelpYDIArAM8F_gO-XWEKZ5dRQ",
		"venue_name": "Dunkin Donuts",
		"latitude": 41.8676147,
		"longitude": -87.6268997,
		"address1": "22 E Roosevelt Rd",
		"address2": "",
		"address3": "",
		"city": "Chicago",
		"state": "IL",
		"zip_code": "60605"
	},
	{
		"venue_id": "yelpSmAfsv-dODIx5XdUv8g1Zw",
		"venue_name": "Dunkin Donuts",
		"latitude": 41.88658,
		"longitude": -87.63433,
		"address1": "205 W Wacker Dr",
		"address2": null,
		"address3": "",
		"city": "Chicago",
		"state": "IL",
		"zip_code": "60606"
	},
	{
		"venue_id": "yelpVS8Vu-uNPH17Qou1_S54jw",
		"venue_name": "Dunkin' Donuts",
		"latitude": 41.9238014,
		"longitude": -87.7567368,
		"address1": "5201 W Fullerton Ave",
		"address2": "",
		"address3": "",
		"city": "Chicago",
		"state": "IL",
		"zip_code": "60639"
	},
	{
		"venue_id": "yelpPS6NgFlfovSEhoIl8wrAfw",
		"venue_name": "Dunkin' Donuts",
		"latitude": 41.9317,
		"longitude": -87.71342,
		"address1": "3427 W Diversey Ave",
		"address2": "",
		"address3": "",
		"city": "Chicago",
		"state": "IL",
		"zip_code": "60647"
	},
	{
		"venue_id": "yelphbSy6ytQCIDnWJCbaWjcmA",
		"venue_name": "TriBecca Cubano",
		"latitude": 41.87979,
		"longitude": -87.63051,
		"address1": "125 S Clark St",
		"address2": "",
		"address3": "Revival Food Hall",
		"city": "Chicago",
		"state": "IL",
		"zip_code": "60603"
	},
	{
		"venue_id": "yelp-0f8Uv_vz_bAxjrN0i4O-A",
		"venue_name": "Dunkin' Donuts",
		"latitude": 41.9534026,
		"longitude": -87.7361776,
		"address1": "4313 W Irving Park Rd",
		"address2": null,
		"address3": null,
		"city": "Chicago",
		"state": "IL",
		"zip_code": "60641"
	},
	{
		"venue_id": "yelpSByXhD1OwCpjN-Gr4_Ty8w",
		"venue_name": "Dunkin Donuts",
		"latitude": 41.9792351945859,
		"longitude": -87.8069158564917,
		"address1": "5401 N Harlem Ave",
		"address2": "",
		"address3": "",
		"city": "Chicago",
		"state": "IL",
		"zip_code": "60656"
	},
	{
		"venue_id": "yelpkvbdDlAxK4B9SfqbvsWqHQ",
		"venue_name": "Dunkin' Donuts",
		"latitude": 41.8915464545777,
		"longitude": -87.6280046266842,
		"address1": "521 N State St",
		"address2": "",
		"address3": "Cta Grand Station Red Line",
		"city": "Chicago",
		"state": "IL",
		"zip_code": "60654"
	},
	{
		"venue_id": "yelpGG0yJcxs9gEPBcedxDeBew",
		"venue_name": "Dunkin' Donuts",
		"latitude": 41.887092,
		"longitude": -87.623073,
		"address1": "233 N Michigan Ave",
		"address2": "",
		"address3": "",
		"city": "Chicago",
		"state": "IL",
		"zip_code": "60601"
	},
	{
		"venue_id": "yelpLSK5GGOSSxF2mMb3uj-uYg",
		"venue_name": "Dunkin' Donuts",
		"latitude": 41.8767086,
		"longitude": -87.6332927,
		"address1": "177 W Van Buren St",
		"address2": "",
		"address3": "",
		"city": "Chicago",
		"state": "IL",
		"zip_code": "60605"
	},
	{
		"venue_id": "yelpGR5EtFrB0CbDmE-I9Nss7g",
		"venue_name": "Dunkin' Donuts",
		"latitude": 41.878955,
		"longitude": -87.628181,
		"address1": "220 S State St",
		"address2": "",
		"address3": "",
		"city": "Chicago",
		"state": "IL",
		"zip_code": "60604"
	},
	{
		"venue_id": "yelpTF_lSsVxZI9aRMwUUPCL0w",
		"venue_name": "Dunkin' Donuts",
		"latitude": 41.9679679870605,
		"longitude": -87.7298965454102,
		"address1": "4045 W Lawrence Ave",
		"address2": "",
		"address3": "",
		"city": "Chicago",
		"state": "IL",
		"zip_code": "60630"
	},
	{
		"venue_id": "yelpsSA_wJGuuFUW0JJYztyGAw",
		"venue_name": "Dunkin' Donuts",
		"latitude": 41.9398285188808,
		"longitude": -87.6534913251211,
		"address1": "945 W Belmont Ave",
		"address2": "",
		"address3": "",
		"city": "Chicago",
		"state": "IL",
		"zip_code": "60657"
	},
	{
		"venue_id": "yelpzfO5eSmt71d2brztg8z2eg",
		"venue_name": "Dunkin' Donuts",
		"latitude": 41.8959007,
		"longitude": -87.6210403,
		"address1": "250 E Superior St",
		"address2": "Fl 2",
		"address3": "Prentice Women's Hospital",
		"city": "Chicago",
		"state": "IL",
		"zip_code": "60611"
	},
	{
		"venue_id": "yelpaSy2JTJlA5CopsPVr40LlA",
		"venue_name": "Dunkin' Donuts",
		"latitude": 41.8856151,
		"longitude": -87.6287838,
		"address1": "27 W Lake St",
		"address2": "",
		"address3": "",
		"city": "Chicago",
		"state": "IL",
		"zip_code": "60601"
	},
	{
		"venue_id": "yelp8Va2wXkwe7PLt9nEmP8-Fw",
		"venue_name": "Dunkin' Donuts",
		"latitude": 41.80783,
		"longitude": -87.70334,
		"address1": "4701 S Kedzie Ave",
		"address2": "",
		"address3": "",
		"city": "Chicago",
		"state": "IL",
		"zip_code": "60632"
	},
	{
		"venue_id": "yelpy63oAs6C_1On2siSzmLK_Q",
		"venue_name": "Dunkin' Donuts",
		"latitude": 41.8531964377667,
		"longitude": -87.6502990722656,
		"address1": "3359 N Harlem Ave",
		"address2": "",
		"address3": "",
		"city": "Chicago",
		"state": "IL",
		"zip_code": "60634"
	},
	{
		"venue_id": "yelp8CpB5iepNdlR8LiczL0n2g",
		"venue_name": "Dunkin' Donuts",
		"latitude": 41.882036626339,
		"longitude": -87.6387749612331,
		"address1": "2 N Riverside Plz",
		"address2": "",
		"address3": "",
		"city": "Chicago",
		"state": "IL",
		"zip_code": "60606"
	},
	{
		"venue_id": "yelps_05f9MzcR743BEk32i4BQ",
		"venue_name": "Dunkin' Donuts",
		"latitude": 41.9857118,
		"longitude": -87.6990512,
		"address1": "5723 N California Ave",
		"address2": "",
		"address3": "",
		"city": "Chicago",
		"state": "IL",
		"zip_code": "60659"
	},
	{
		"venue_id": "yelpc1xzrwMFYZ9umt8yhKReJA",
		"venue_name": "Dunkin Donuts",
		"latitude": 41.9317088,
		"longitude": -87.7431033,
		"address1": "4644 W Diversey Ave",
		"address2": "",
		"address3": "",
		"city": "Chicago",
		"state": "IL",
		"zip_code": "60639"
	},
	{
		"venue_id": "yelpwpqvuR3xSGlau_LAd1nOew",
		"venue_name": "Dunkin' Donuts",
		"latitude": 41.8526849831226,
		"longitude": -87.6502990722656,
		"address1": "547 W Jackson Blvd Lbby 1",
		"address2": null,
		"address3": null,
		"city": "Chicago",
		"state": "IL",
		"zip_code": "60661"
	},
	{
		"venue_id": "yelpNuCjc77uRNW5u4gb0leANg",
		"venue_name": "Dunkin' Dounts",
		"latitude": 41.8770681449326,
		"longitude": -87.6275938639097,
		"address1": "399 S State St",
		"address2": "",
		"address3": "",
		"city": "Chicago",
		"state": "IL",
		"zip_code": "60604"
	},
	{
		"venue_id": "yelp_90KZufdNVCe8nOCUJ2Zag",
		"venue_name": "Dunkin' Donuts / Baskin-Robbins",
		"latitude": 41.93615,
		"longitude": -87.76606,
		"address1": "3039 N Central Ave",
		"address2": "",
		"address3": "",
		"city": "Chicago",
		"state": "IL",
		"zip_code": "60634"
	},
	{
		"venue_id": "yelpQ3NBwlsHWanokji3t3tHkw",
		"venue_name": "Dunkin' Donuts",
		"latitude": 41.8077921,
		"longitude": -87.6458686,
		"address1": "825 W 47th Pl",
		"address2": "",
		"address3": "",
		"city": "Chicago",
		"state": "IL",
		"zip_code": "60609"
	},
	{
		"venue_id": "yelpOz1uIiqrYhUF-HaIKLxmMQ",
		"venue_name": "Dunkin' Donuts",
		"latitude": 41.8652653804557,
		"longitude": -87.7687323465943,
		"address1": "5737 W Roosevelt Rd",
		"address2": "",
		"address3": "",
		"city": "Cicero",
		"state": "IL",
		"zip_code": "60804"
	},
	{
		"venue_id": "yelpc0aRBoJLQ0ArHBZqJ1pDvw",
		"venue_name": "Dunkin' Donuts / Baskin-Robbins",
		"latitude": 41.86541,
		"longitude": -87.79463,
		"address1": "6820 Roosevelt Rd",
		"address2": "",
		"address3": "",
		"city": "Oak Park",
		"state": "IL",
		"zip_code": "60304"
	},
	{
		"venue_id": "yelpv3OYvQnxoLdtF6ax2kS-HA",
		"venue_name": "Dunkin' Donuts",
		"latitude": 41.9021988,
		"longitude": -87.7171783,
		"address1": "3601 W Grand Ave",
		"address2": "",
		"address3": "",
		"city": "Chicago",
		"state": "IL",
		"zip_code": "60651"
	},
	{
		"venue_id": "yelpgvss_xzS_04X1S3kurHjlw",
		"venue_name": "Dunkin' Donuts",
		"latitude": 41.8522101,
		"longitude": -87.7441551,
		"address1": "2147 S Cicero Ave",
		"address2": "",
		"address3": "",
		"city": "Cicero",
		"state": "IL",
		"zip_code": "60804"
	},
	{
		"venue_id": "yelppJq8iwkXxrnirgZtrhu0HA",
		"venue_name": "Dunkin' Donuts",
		"latitude": 41.88285,
		"longitude": -87.650314,
		"address1": "909 W Washington Blvd",
		"address2": "",
		"address3": "",
		"city": "Chicago",
		"state": "IL",
		"zip_code": "60607"
	},
	{
		"venue_id": "yelppWRrOSKHV2yW5lH_tSV_rw",
		"venue_name": "Dunkin' Donuts",
		"latitude": 41.85271,
		"longitude": -87.65945,
		"address1": "1316 W Cermak Rd",
		"address2": "",
		"address3": null,
		"city": "Chicago",
		"state": "IL",
		"zip_code": "60608"
	},
	{
		"venue_id": "yelppSo64l-ILQhq6STbJq2xgg",
		"venue_name": "Dunkin' Donuts",
		"latitude": 41.8290917,
		"longitude": -87.6802836,
		"address1": "3528 S Leavitt St",
		"address2": "",
		"address3": "",
		"city": "Chicago",
		"state": "IL",
		"zip_code": "60609"
	},
	{
		"venue_id": "yelpsnx5izjkX4HIOPXMpGRVwg",
		"venue_name": "Dunkin' Donuts",
		"latitude": 42.0077851,
		"longitude": -87.665336,
		"address1": "1357 W Morse Ave",
		"address2": null,
		"address3": null,
		"city": "Chicago",
		"state": "IL",
		"zip_code": "60626"
	},
	{
		"venue_id": "yelpDl4tYgOxaKo6EZ-oy3xEeg",
		"venue_name": "Dunkin' Donuts",
		"latitude": 41.8831251,
		"longitude": -87.6250869,
		"address1": "75 E Washington St",
		"address2": "",
		"address3": "",
		"city": "Chicago",
		"state": "IL",
		"zip_code": "60602"
	},
	{
		"venue_id": "yelpDMSN6nO3Ttgzi9tUhcGf7g",
		"venue_name": "Dunkin' Donuts",
		"latitude": 41.9087255,
		"longitude": -87.8048443,
		"address1": "7117 N Ave",
		"address2": null,
		"address3": null,
		"city": "Oak Park",
		"state": "IL",
		"zip_code": "60302"
	},
	{
		"venue_id": "yelp9yE_pUUneYeZ5GCqidPZNQ",
		"venue_name": "Dunkin' Donuts",
		"latitude": 41.8847993,
		"longitude": -87.6316443,
		"address1": "100 W Randolph St",
		"address2": "",
		"address3": "C-10",
		"city": "Chicago",
		"state": "IL",
		"zip_code": "60601"
	},
	{
		"venue_id": "yelpU2-UO-ejw6xpvkr8PyUi5Q",
		"venue_name": "Dunkin' Donuts",
		"latitude": 41.9415392922863,
		"longitude": -87.8067013896506,
		"address1": "3359 N Harlem Ave",
		"address2": "",
		"address3": "",
		"city": "Chicago",
		"state": "IL",
		"zip_code": "60634"
	},
	{
		"venue_id": "yelp3CzqMF-he82xFvJR7pn-Fw",
		"venue_name": "Dunkin' Donuts",
		"latitude": 41.81015,
		"longitude": -87.80171,
		"address1": "4501 Harlem Ave",
		"address2": null,
		"address3": null,
		"city": "Forest View",
		"state": "IL",
		"zip_code": "60402"
	},
	{
		"venue_id": "yelpUFKf2XZf5UN3nlRsvmqxFg",
		"venue_name": "Dunkin' Donuts",
		"latitude": 41.939188,
		"longitude": -87.70306,
		"address1": "3001 W Belmont Ave",
		"address2": null,
		"address3": null,
		"city": "Chicago",
		"state": "IL",
		"zip_code": "60618"
	},
	{
		"venue_id": "yelpMGuhRtQzpQgbUNczyea1XQ",
		"venue_name": "Dunkin' Donuts",
		"latitude": 41.8249435424805,
		"longitude": -87.7983551025391,
		"address1": "7020 Ogden Ave",
		"address2": "",
		"address3": "",
		"city": "Berwyn",
		"state": "IL",
		"zip_code": "60402"
	},
	{
		"venue_id": "yelp9Ec-dGdvLlWi0avcyZ3Whw",
		"venue_name": "Dunkin' Donuts",
		"latitude": 41.9538366107481,
		"longitude": -87.7869619058701,
		"address1": "4036 N Narragansett Ave",
		"address2": "",
		"address3": null,
		"city": "Chicago",
		"state": "IL",
		"zip_code": "60634"
	},
	{
		"venue_id": "yelprFsNX7VarOj0Kbq1IPqWKw",
		"venue_name": "Dunkin' Donuts",
		"latitude": 41.9687399,
		"longitude": -87.7081199,
		"address1": "3152 W Lawrence Ave",
		"address2": "",
		"address3": "",
		"city": "Chicago",
		"state": "IL",
		"zip_code": "60625"
	},
	{
		"venue_id": "yelpQRJgJF6P5R7UVQGpcNDmZw",
		"venue_name": "Dunkin' Donuts / Baskin-Robbins",
		"latitude": 41.92367,
		"longitude": -87.80647,
		"address1": "7201 W Grand Ave",
		"address2": "",
		"address3": "",
		"city": "Elmwood Park",
		"state": "IL",
		"zip_code": "60707"
	},
	{
		"venue_id": "yelpsGk6D4Rgq8sxo3-jyXDX0A",
		"venue_name": "Dunkin' Donuts",
		"latitude": 41.9055495411158,
		"longitude": -87.7263041585684,
		"address1": "1345 N Pulaski Rd",
		"address2": "",
		"address3": "",
		"city": "Chicago",
		"state": "IL",
		"zip_code": "60651"
	},
	{
		"venue_id": "yelpFn28QgvbtLDP2lKGcGrepQ",
		"venue_name": "Dunkin' Donuts",
		"latitude": 41.902214050293,
		"longitude": -87.7171859741211,
		"address1": "3601 W Grand Ave",
		"address2": null,
		"address3": null,
		"city": "Chicago",
		"state": "IL",
		"zip_code": "60651"
	},
	{
		"venue_id": "yelpb-eGXlwOrNfFOk1sLBMZdw",
		"venue_name": "Dunkin' Donuts",
		"latitude": 41.9238,
		"longitude": -87.7567399,
		"address1": "5201 W Fullerton Ave",
		"address2": null,
		"address3": null,
		"city": "Chicago",
		"state": "IL",
		"zip_code": "60639"
	},
	{
		"venue_id": "yelpRYZ2OWrImvTfhlq59W4AjQ",
		"venue_name": "Dunkin' Donuts / Baskin-Robbins",
		"latitude": 41.9958373904228,
		"longitude": -87.6703660190105,
		"address1": "6250 N Clark St",
		"address2": "",
		"address3": "",
		"city": "Chicago",
		"state": "IL",
		"zip_code": "60660"
	},
	{
		"venue_id": "yelpmYIIztivtyTuKXifukgIyw",
		"venue_name": "Dunkin' Donuts",
		"latitude": 41.829953,
		"longitude": -87.665817,
		"address1": "3510 S Ashland Ave",
		"address2": "",
		"address3": "",
		"city": "Chicago",
		"state": "IL",
		"zip_code": "60609"
	},
	{
		"venue_id": "yelpLqCAkHpJySOyqsATCeQV_A",
		"venue_name": "Dunkin' Donuts",
		"latitude": 42.0048637390137,
		"longitude": -87.7477264404297,
		"address1": "6801 N Cicero Ave",
		"address2": "",
		"address3": "",
		"city": "Lincolnwood",
		"state": "IL",
		"zip_code": "60712"
	},
	{
		"venue_id": "yelpGQ6aI6wN24f3zFMzJh9Jqg",
		"venue_name": "Dunkin' Donuts",
		"latitude": 41.894601,
		"longitude": -87.755902,
		"address1": "782 N Laramie Ave",
		"address2": null,
		"address3": null,
		"city": "Chicago",
		"state": "IL",
		"zip_code": "60607"
	},
	{
		"venue_id": "yelpfTk41i8wCEESUokCxAEGhg",
		"venue_name": "Dunkin' Donuts",
		"latitude": 41.850262,
		"longitude": -87.788742,
		"address1": "6601 W Cermak Rd",
		"address2": "",
		"address3": "",
		"city": "Berwyn",
		"state": "IL",
		"zip_code": "60402"
	},
	{
		"venue_id": "yelpdK2qYu7Le1XLcyCYEgaoyg",
		"venue_name": "Dunkin' Donuts",
		"latitude": 41.92367,
		"longitude": -87.80647,
		"address1": "7201 W Grand Ave",
		"address2": "",
		"address3": "",
		"city": "Elmwood Park",
		"state": "IL",
		"zip_code": "60707"
	},
	{
		"venue_id": "yelpI53Vboby1-oA1_Oqq_op9g",
		"venue_name": "Mobil / Dunkin' Donuts",
		"latitude": 41.8378150493278,
		"longitude": -87.8029811382294,
		"address1": "2945 S Harlem Ave",
		"address2": "",
		"address3": "",
		"city": "Berwyn",
		"state": "IL",
		"zip_code": "60402"
	},
	{
		"venue_id": "yelpFRWy1lsnkUIlhajXWrhUnw",
		"venue_name": "Dunkin' Donuts / Baskin-Robbins",
		"latitude": 41.8588385,
		"longitude": -87.7643074,
		"address1": "1548 S Central Ave",
		"address2": "",
		"address3": "",
		"city": "Cicero",
		"state": "IL",
		"zip_code": "60804"
	},
	{
		"venue_id": "yelpgDaTMznEWHy8H6UveChfzg",
		"venue_name": "Dunkin' Donuts",
		"latitude": 41.8351599470057,
		"longitude": -87.74374589324,
		"address1": "3150 S Cicero Ave",
		"address2": "",
		"address3": "",
		"city": "Cicero",
		"state": "IL",
		"zip_code": "60804"
	},
	{
		"venue_id": "yelpt5ceX0_Iq-bGZtWdIpCYcA",
		"venue_name": "Dunkin' Donuts",
		"latitude": 42.0007400512695,
		"longitude": -87.7236480712891,
		"address1": "6599 Lincoln Ave",
		"address2": "",
		"address3": "",
		"city": "Lincolnwood",
		"state": "IL",
		"zip_code": "60712"
	},
	{
		"venue_id": "yelpoYz2eZd_iU8XqMQYPlLdhg",
		"venue_name": "Dunkin Donuts-Baskin Robins",
		"latitude": 41.8502502441406,
		"longitude": -87.7887573242188,
		"address1": "6601 Cermak Rd",
		"address2": "",
		"address3": "",
		"city": "Berwyn",
		"state": "IL",
		"zip_code": "60402"
	},
	{
		"venue_id": "yelpXwEog0Z9dhIVBhkJOzKkyQ",
		"venue_name": "Mobil/Dunkin Donuts",
		"latitude": 41.8360786437988,
		"longitude": -87.7680816650391,
		"address1": "5756 W Ogden",
		"address2": "",
		"address3": "",
		"city": "Cicero",
		"state": "IL",
		"zip_code": "60804"
	}
]