[
  {
    "venue_id": "EB_23753861",
    "venue_name": "Emporium Chicago - Arcade Bar Venue",
    "latitude": 41.9065508,
    "longitude": -87.67172210000001,
    "address1": "1366 North Milwaukee Avenue",
    "address2": "",
    "address3": "",
    "city": "Chicago",
    "state": "IL",
    "zip_code": "60622"
  },
  {
    "venue_id": "EB_27496571",
    "venue_name": "1765 N Elston Ave",
    "latitude": 41.9149578,
    "longitude": -87.66404669999997,
    "address1": "1765 North Elston Avenue",
    "address2": "Suite110",
    "address3": "",
    "city": "Chicago",
    "state": "IL",
    "zip_code": "60642"
  },
  {
    "venue_id": "EB_27762358",
    "venue_name": "",
    "latitude": 41.8853849,
    "longitude": -87.6523211,
    "address1": "180 North Morgan Street",
    "address2": "",
    "address3": "",
    "city": "Chicago",
    "state": "IL",
    "zip_code": "60607"
  },
  {
    "venue_id": "EB_26810941",
    "venue_name": "Solstice Chicago",
    "latitude": 41.8836059,
    "longitude": -87.63938200000001,
    "address1": "111 North Canal St.",
    "address2": "#700",
    "address3": "",
    "city": "Chicago",
    "state": "IL",
    "zip_code": "60606"
  },
  {
    "venue_id": "EB_27657902",
    "venue_name": "",
    "latitude": 41.8846425,
    "longitude": -87.6296888,
    "address1": "150 N Dearborn St",
    "address2": "",
    "address3": "",
    "city": "Chicago 60601",
    "state": "IL",
    "zip_code": "60601 "
  },
  {
    "venue_id": "EB_27190066",
    "venue_name": "Patio Theater",
    "latitude": 41.9531385,
    "longitude": -87.7772124,
    "address1": "6008 West Irving Park Road",
    "address2": "",
    "address3": "",
    "city": "Chicago",
    "state": "IL",
    "zip_code": "60634"
  },
  {
    "venue_id": "EB_21015749",
    "venue_name": "Space",
    "latitude": 42.04087659999999,
    "longitude": -87.68009649999999,
    "address1": "1245 Chicago Avenue",
    "address2": "",
    "address3": "",
    "city": "Evanston",
    "state": "IL",
    "zip_code": "60202"
  },
  {
    "venue_id": "EB_27417676",
    "venue_name": "Bulldog Ale House-Chicago",
    "latitude": 41.870234,
    "longitude": -87.6271408,
    "address1": "901 South State Street",
    "address2": "",
    "address3": "",
    "city": "Chicago",
    "state": "IL",
    "zip_code": "60605"
  },
  {
    "venue_id": "EB_27401225",
    "venue_name": "Loretto Hospital",
    "latitude": 41.8721272,
    "longitude": -87.76364860000001,
    "address1": "645 S Central Ave.",
    "address2": "",
    "address3": "",
    "city": "Chicago",
    "state": "Illinois",
    "zip_code": "60644"
  },
  {
    "venue_id": "EB_26498697",
    "venue_name": "AbelCine / CHI",
    "latitude": 41.8594684,
    "longitude": -87.691015,
    "address1": "2602 West 16th Street",
    "address2": "",
    "address3": "",
    "city": "Chicago",
    "state": "IL",
    "zip_code": "60608"
  },
  {
    "venue_id": "EB_27382025",
    "venue_name": "iO Theater",
    "latitude": 41.9085197,
    "longitude": -87.65174209999998,
    "address1": "1501 North Kingsbury Street",
    "address2": "",
    "address3": "",
    "city": "Chicago",
    "state": "IL",
    "zip_code": "60642"
  },
  {
    "venue_id": "EB_23878192",
    "venue_name": "1871",
    "latitude": 41.88838500000001,
    "longitude": -87.6362656,
    "address1": "222 West Merchandise Mart Plaza",
    "address2": "#1212",
    "address3": "",
    "city": "Chicago",
    "state": "IL",
    "zip_code": "60654"
  },
  {
    "venue_id": "EB_26711860",
    "venue_name": "Mojo Media Labs Chicago",
    "latitude": 41.9416774,
    "longitude": -87.67028879999998,
    "address1": "3304 North Lincoln Avenue",
    "address2": "",
    "address3": "",
    "city": "Chicago",
    "state": "IL",
    "zip_code": "60657"
  },
  {
    "venue_id": "EB_22788034",
    "venue_name": "Literacenter",
    "latitude": 41.885383,
    "longitude": -87.64448099999998,
    "address1": "641 W Lake St ",
    "address2": "#200",
    "address3": "",
    "city": "Chicago",
    "state": "IL",
    "zip_code": "60661"
  },
  {
    "venue_id": "EB_27645823",
    "venue_name": "WeWork",
    "latitude": 41.89055749999999,
    "longitude": -87.63172209999999,
    "address1": "111 West Illinois Street",
    "address2": "",
    "address3": "",
    "city": "Chicago",
    "state": "IL",
    "zip_code": "60654"
  },
  {
    "venue_id": "EB_27582964",
    "venue_name": "Bank of America",
    "latitude": 41.87978529999999,
    "longitude": -87.63178820000002,
    "address1": "135 S La Salle St (43rd Floor)",
    "address2": "STE LL18",
    "address3": "",
    "city": "Chicago",
    "state": "NY",
    "zip_code": "60603"
  },
  {
    "venue_id": "EB_10920370",
    "venue_name": "Garfield Park Conservatory",
    "latitude": 41.886243,
    "longitude": -87.71759700000001,
    "address1": "300 North Central Park Avenue",
    "address2": "",
    "address3": "",
    "city": "Chicago",
    "state": "IL",
    "zip_code": "60624"
  },
  {
    "venue_id": "EB_27556284",
    "venue_name": "University of Phoenix",
    "latitude": 41.8860407,
    "longitude": -87.63206380000003,
    "address1": "203 North LaSalle Street",
    "address2": "",
    "address3": "",
    "city": "Chicago",
    "state": "IL",
    "zip_code": "60601"
  },
  {
    "venue_id": "EB_27294828",
    "venue_name": "Bassment Chicago",
    "latitude": 41.8897918,
    "longitude": -87.63771980000001,
    "address1": "353 West Hubbard Street",
    "address2": "Lower Level",
    "address3": "",
    "city": "Chicago",
    "state": "IL",
    "zip_code": "60654"
  },
  {
    "venue_id": "EB_14573675",
    "venue_name": "The Garage at Northwestern",
    "latitude": 42.0597824,
    "longitude": -87.67296620000002,
    "address1": "2311 Campus Drive",
    "address2": "#2300",
    "address3": "",
    "city": "Evanston",
    "state": "IL",
    "zip_code": "60208"
  },
  {
    "venue_id": "EB_27034265",
    "venue_name": "49 Waukegan Rd",
    "latitude": 42.0567448,
    "longitude": -87.79789240000002,
    "address1": "49 Waukegan Road",
    "address2": "",
    "address3": "",
    "city": "Glenview",
    "state": "IL",
    "zip_code": "60025"
  },
  {
    "venue_id": "EB_27728401",
    "venue_name": "House of Blues Chicago",
    "latitude": 41.88824570000001,
    "longitude": -87.62890299999998,
    "address1": "329 North Dearborn Street",
    "address2": "",
    "address3": "",
    "city": "Chicago",
    "state": "IL",
    "zip_code": "60654"
  },
  {
    "venue_id": "EB_27221144",
    "venue_name": "1301 E 47th St",
    "latitude": 41.8854342,
    "longitude": -87.62272580000001,
    "address1": "",
    "address2": "Building 2 ",
    "address3": "",
    "city": "Chicago",
    "state": "IL",
    "zip_code": "60653"
  },
  {
    "venue_id": "EB_27811149",
    "venue_name": "5812 S Ellis Ave",
    "latitude": 41.7886079,
    "longitude": -87.59871329999999,
    "address1": "P-117 Billings Auditorium, 5812 S Ellis Ave, Chicago, IL 60637",
    "address2": "",
    "address3": "",
    "city": "Chicago",
    "state": "IL",
    "zip_code": "60637"
  },
  {
    "venue_id": "EB_27644735",
    "venue_name": "Le M\u00e9ridien Chicago - Oakbrook Center",
    "latitude": 41.85018360000001,
    "longitude": -87.94909719999998,
    "address1": "2100 Spring Road",
    "address2": "",
    "address3": "",
    "city": "Oak Brook",
    "state": "IL",
    "zip_code": "60523"
  },
  {
    "venue_id": "EB_27458242",
    "venue_name": "Polsky Center - Washington Park Classroom",
    "latitude": 41.7995257,
    "longitude": -87.58984479999998,
    "address1": "1452 E 53rd St",
    "address2": "2nd Floor",
    "address3": "",
    "city": "Chicago",
    "state": "IL",
    "zip_code": "60615"
  },
  {
    "venue_id": "EB_27339143",
    "venue_name": "Steinmetz High School",
    "latitude": 41.935631,
    "longitude": -87.784152,
    "address1": "3030 N. Mobile",
    "address2": "CAFETERIA",
    "address3": "",
    "city": "Chicago",
    "state": "",
    "zip_code": ""
  },
  {
    "venue_id": "EB_22728556",
    "venue_name": "Location Provided After Viewing Our 15 Minute Intro Webinar",
    "latitude": 41.8454456,
    "longitude": -87.6365394,
    "address1": "S Michigan Avenue",
    "address2": "",
    "address3": "",
    "city": "Chicago",
    "state": "IL",
    "zip_code": "60616"
  },
  {
    "venue_id": "EB_27601014",
    "venue_name": "",
    "latitude": 41.8785696,
    "longitude": -87.62743519999998,
    "address1": "247 South State Street",
    "address2": "",
    "address3": "",
    "city": "Chicago",
    "state": "IL",
    "zip_code": "60604"
  },
  {
    "venue_id": "EB_26902140",
    "venue_name": "Advocate Children's Hospital - Oak Lawn",
    "latitude": 41.7221204,
    "longitude": -87.7323202,
    "address1": "93rd Street and Kilbourn Ave.",
    "address2": "Stein Auditorium - Conference Center",
    "address3": "",
    "city": "Oak Lawn",
    "state": "IL",
    "zip_code": "60453"
  },
  {
    "venue_id": "EB_13717429",
    "venue_name": "Maggiano's Little Italy",
    "latitude": 41.8916771,
    "longitude": -87.62751459999998,
    "address1": "516 North Clark Street",
    "address2": "Banquet entrance on Grand Ave.",
    "address3": "",
    "city": "Chicago",
    "state": "IL",
    "zip_code": "60654"
  },
  {
    "venue_id": "EB_27383131",
    "venue_name": "Greenbuild Expo Floor (McCormick Place)",
    "latitude": 41.8507901,
    "longitude": -87.62178670000003,
    "address1": "2301 S. Indiana Ave.",
    "address2": "Booth 214 (100 Mile Pavilion)",
    "address3": "",
    "city": "Chicago",
    "state": "IL",
    "zip_code": "60617"
  },
  {
    "venue_id": "EB_27289574",
    "venue_name": "DL loft",
    "latitude": 41.9370474,
    "longitude": -87.66549150000003,
    "address1": "3050 North Lincoln Avenue",
    "address2": "",
    "address3": "",
    "city": "Chicago",
    "state": "IL",
    "zip_code": "60657"
  },
  {
    "venue_id": "EB_27054031",
    "venue_name": "DuSable Museum of African American History",
    "latitude": 41.7919133,
    "longitude": -87.6071968,
    "address1": "740 East 56th Place",
    "address2": "",
    "address3": "",
    "city": "Chicago",
    "state": "IL",
    "zip_code": "60637"
  },
  {
    "venue_id": "EB_27802889",
    "venue_name": "Chicago Ridge Public Library",
    "latitude": 41.703226,
    "longitude": -87.77779369999996,
    "address1": "10400 S. Oxford Ave",
    "address2": "",
    "address3": "",
    "city": "Chicago Ridge",
    "state": "IL",
    "zip_code": "61045"
  },
  {
    "venue_id": "EB_26265048",
    "venue_name": "Product School Chicago",
    "latitude": 41.8797505,
    "longitude": -87.63058480000001,
    "address1": "WeWork National Building, 125 S Clark St",
    "address2": "",
    "address3": "",
    "city": "Chicago",
    "state": "IL",
    "zip_code": "60603"
  },
  {
    "venue_id": "EB_27325661",
    "venue_name": "Bad Axe",
    "latitude": 41.93357,
    "longitude": -87.64593500000001,
    "address1": "2828 North Clark Street",
    "address2": "",
    "address3": "",
    "city": "Chicago",
    "state": "IL",
    "zip_code": "60657"
  },
  {
    "venue_id": "EB_25994460",
    "venue_name": "American Marketing Association",
    "latitude": 41.8849235,
    "longitude": -87.62314859999998,
    "address1": "Prudential Building",
    "address2": "130 E Randolph, 22nd Floor",
    "address3": "",
    "city": "Chicago",
    "state": "IL",
    "zip_code": "60607"
  },
  {
    "venue_id": "EB_5003846",
    "venue_name": "City Hall",
    "latitude": 41.8839109,
    "longitude": -87.63201200000003,
    "address1": "121 North LaSalle Street",
    "address2": "Room 805",
    "address3": "",
    "city": "Chicago",
    "state": "IL",
    "zip_code": "60602"
  },
  {
    "venue_id": "EB_24072817",
    "venue_name": "W Chicago - Lakeshore",
    "latitude": 41.89391860000001,
    "longitude": -87.61536610000002,
    "address1": "644 North Lake Shore Drive",
    "address2": "",
    "address3": "",
    "city": "Chicago",
    "state": "IL",
    "zip_code": "60611"
  },
  {
    "venue_id": "EB_26787125",
    "venue_name": "MakeOffices at River North",
    "latitude": 41.8887576,
    "longitude": -87.63730029999999,
    "address1": "350 N Orleans St #9000n",
    "address2": "",
    "address3": "",
    "city": "Chicago",
    "state": "IL",
    "zip_code": "60654"
  },
  {
    "venue_id": "EB_27636600",
    "venue_name": "McCormick Place",
    "latitude": 41.8514826,
    "longitude": -87.616939,
    "address1": "2301 South King Drive BuildingGreen/LEEDuser booth #1522",
    "address2": "",
    "address3": "",
    "city": "Chicago",
    "state": "IL",
    "zip_code": "60616"
  },
  {
    "venue_id": "EB_23892812",
    "venue_name": "Fusion92",
    "latitude": 41.89335190000001,
    "longitude": -87.64019150000001,
    "address1": "440 West Ontario Street",
    "address2": "",
    "address3": "",
    "city": "Chicago",
    "state": "IL",
    "zip_code": "60654"
  },
  {
    "venue_id": "EB_27767462",
    "venue_name": "University Library",
    "latitude": 42.0530531,
    "longitude": -87.67479850000001,
    "address1": "1970 Campus Drive",
    "address2": "The Forum",
    "address3": "",
    "city": "Evanston",
    "state": "IL",
    "zip_code": "60201"
  },
  {
    "venue_id": "EB_25986311",
    "venue_name": "BFF Bikes",
    "latitude": 41.9176037,
    "longitude": -87.68068570000003,
    "address1": "2113 West Armitage Avenue",
    "address2": "",
    "address3": "",
    "city": "Chicago",
    "state": "IL",
    "zip_code": "60647"
  },
  {
    "venue_id": "EB_22763518",
    "venue_name": "University Library | Ver Steeg Lounge (3rd Floor)",
    "latitude": 42.053528,
    "longitude": -87.67406599999998,
    "address1": "1970 Campus Dr.",
    "address2": "",
    "address3": "",
    "city": "Evanston",
    "state": "IL",
    "zip_code": "60208"
  },
  {
    "venue_id": "EB_27867070",
    "venue_name": "Weichert Realtors",
    "latitude": 41.8922256,
    "longitude": -87.63440889999998,
    "address1": "209 W. Ohio Street",
    "address2": "",
    "address3": "",
    "city": "Chicago",
    "state": "IL",
    "zip_code": "60654"
  },
  {
    "venue_id": "EB_16008102",
    "venue_name": "Open Books",
    "latitude": 41.88538309999999,
    "longitude": -87.64477069999998,
    "address1": "651 West Lake Street",
    "address2": "",
    "address3": "",
    "city": "Chicago",
    "state": "IL",
    "zip_code": "60661"
  },
  {
    "venue_id": "EB_20880651",
    "venue_name": "Thalia Hall",
    "latitude": 41.8577,
    "longitude": -87.6572,
    "address1": "1807 South Allport Street",
    "address2": "",
    "address3": "",
    "city": "Chicago",
    "state": "IL",
    "zip_code": "60608"
  },
  {
    "venue_id": "EB_23753861",
    "venue_name": "Emporium Chicago - Arcade Bar Venue",
    "latitude": 41.9065508,
    "longitude": -87.67172210000001,
    "address1": "1366 North Milwaukee Avenue",
    "address2": "",
    "address3": "",
    "city": "Chicago",
    "state": "IL",
    "zip_code": "60622"
  },
  {
    "venue_id": "EB_27496571",
    "venue_name": "1765 N Elston Ave",
    "latitude": 41.9149578,
    "longitude": -87.66404669999997,
    "address1": "1765 North Elston Avenue",
    "address2": "Suite110",
    "address3": "",
    "city": "Chicago",
    "state": "IL",
    "zip_code": "60642"
  },
  {
    "venue_id": "EB_27762358",
    "venue_name": "",
    "latitude": 41.8853849,
    "longitude": -87.6523211,
    "address1": "180 North Morgan Street",
    "address2": "",
    "address3": "",
    "city": "Chicago",
    "state": "IL",
    "zip_code": "60607"
  },
  {
    "venue_id": "EB_26810941",
    "venue_name": "Solstice Chicago",
    "latitude": 41.8836059,
    "longitude": -87.63938200000001,
    "address1": "111 North Canal St.",
    "address2": "#700",
    "address3": "",
    "city": "Chicago",
    "state": "IL",
    "zip_code": "60606"
  },
  {
    "venue_id": "EB_27657902",
    "venue_name": "",
    "latitude": 41.8846425,
    "longitude": -87.6296888,
    "address1": "150 N Dearborn St",
    "address2": "",
    "address3": "",
    "city": "Chicago 60601",
    "state": "IL",
    "zip_code": "60601 "
  },
  {
    "venue_id": "EB_27190066",
    "venue_name": "Patio Theater",
    "latitude": 41.9531385,
    "longitude": -87.7772124,
    "address1": "6008 West Irving Park Road",
    "address2": "",
    "address3": "",
    "city": "Chicago",
    "state": "IL",
    "zip_code": "60634"
  },
  {
    "venue_id": "EB_21015749",
    "venue_name": "Space",
    "latitude": 42.04087659999999,
    "longitude": -87.68009649999999,
    "address1": "1245 Chicago Avenue",
    "address2": "",
    "address3": "",
    "city": "Evanston",
    "state": "IL",
    "zip_code": "60202"
  },
  {
    "venue_id": "EB_27417676",
    "venue_name": "Bulldog Ale House-Chicago",
    "latitude": 41.870234,
    "longitude": -87.6271408,
    "address1": "901 South State Street",
    "address2": "",
    "address3": "",
    "city": "Chicago",
    "state": "IL",
    "zip_code": "60605"
  },
  {
    "venue_id": "EB_27401225",
    "venue_name": "Loretto Hospital",
    "latitude": 41.8721272,
    "longitude": -87.76364860000001,
    "address1": "645 S Central Ave.",
    "address2": "",
    "address3": "",
    "city": "Chicago",
    "state": "Illinois",
    "zip_code": "60644"
  },
  {
    "venue_id": "EB_26498697",
    "venue_name": "AbelCine / CHI",
    "latitude": 41.8594684,
    "longitude": -87.691015,
    "address1": "2602 West 16th Street",
    "address2": "",
    "address3": "",
    "city": "Chicago",
    "state": "IL",
    "zip_code": "60608"
  },
  {
    "venue_id": "EB_27382025",
    "venue_name": "iO Theater",
    "latitude": 41.9085197,
    "longitude": -87.65174209999998,
    "address1": "1501 North Kingsbury Street",
    "address2": "",
    "address3": "",
    "city": "Chicago",
    "state": "IL",
    "zip_code": "60642"
  },
  {
    "venue_id": "EB_23878192",
    "venue_name": "1871",
    "latitude": 41.88838500000001,
    "longitude": -87.6362656,
    "address1": "222 West Merchandise Mart Plaza",
    "address2": "#1212",
    "address3": "",
    "city": "Chicago",
    "state": "IL",
    "zip_code": "60654"
  },
  {
    "venue_id": "EB_26711860",
    "venue_name": "Mojo Media Labs Chicago",
    "latitude": 41.9416774,
    "longitude": -87.67028879999998,
    "address1": "3304 North Lincoln Avenue",
    "address2": "",
    "address3": "",
    "city": "Chicago",
    "state": "IL",
    "zip_code": "60657"
  },
  {
    "venue_id": "EB_22788034",
    "venue_name": "Literacenter",
    "latitude": 41.885383,
    "longitude": -87.64448099999998,
    "address1": "641 W Lake St ",
    "address2": "#200",
    "address3": "",
    "city": "Chicago",
    "state": "IL",
    "zip_code": "60661"
  },
  {
    "venue_id": "EB_27645823",
    "venue_name": "WeWork",
    "latitude": 41.89055749999999,
    "longitude": -87.63172209999999,
    "address1": "111 West Illinois Street",
    "address2": "",
    "address3": "",
    "city": "Chicago",
    "state": "IL",
    "zip_code": "60654"
  },
  {
    "venue_id": "EB_27582964",
    "venue_name": "Bank of America",
    "latitude": 41.87978529999999,
    "longitude": -87.63178820000002,
    "address1": "135 S La Salle St (43rd Floor)",
    "address2": "STE LL18",
    "address3": "",
    "city": "Chicago",
    "state": "NY",
    "zip_code": "60603"
  },
  {
    "venue_id": "EB_10920370",
    "venue_name": "Garfield Park Conservatory",
    "latitude": 41.886243,
    "longitude": -87.71759700000001,
    "address1": "300 North Central Park Avenue",
    "address2": "",
    "address3": "",
    "city": "Chicago",
    "state": "IL",
    "zip_code": "60624"
  },
  {
    "venue_id": "EB_27556284",
    "venue_name": "University of Phoenix",
    "latitude": 41.8860407,
    "longitude": -87.63206380000003,
    "address1": "203 North LaSalle Street",
    "address2": "",
    "address3": "",
    "city": "Chicago",
    "state": "IL",
    "zip_code": "60601"
  },
  {
    "venue_id": "EB_27294828",
    "venue_name": "Bassment Chicago",
    "latitude": 41.8897918,
    "longitude": -87.63771980000001,
    "address1": "353 West Hubbard Street",
    "address2": "Lower Level",
    "address3": "",
    "city": "Chicago",
    "state": "IL",
    "zip_code": "60654"
  },
  {
    "venue_id": "EB_14573675",
    "venue_name": "The Garage at Northwestern",
    "latitude": 42.0597824,
    "longitude": -87.67296620000002,
    "address1": "2311 Campus Drive",
    "address2": "#2300",
    "address3": "",
    "city": "Evanston",
    "state": "IL",
    "zip_code": "60208"
  },
  {
    "venue_id": "EB_27034265",
    "venue_name": "49 Waukegan Rd",
    "latitude": 42.0567448,
    "longitude": -87.79789240000002,
    "address1": "49 Waukegan Road",
    "address2": "",
    "address3": "",
    "city": "Glenview",
    "state": "IL",
    "zip_code": "60025"
  },
  {
    "venue_id": "EB_27728401",
    "venue_name": "House of Blues Chicago",
    "latitude": 41.88824570000001,
    "longitude": -87.62890299999998,
    "address1": "329 North Dearborn Street",
    "address2": "",
    "address3": "",
    "city": "Chicago",
    "state": "IL",
    "zip_code": "60654"
  },
  {
    "venue_id": "EB_27221144",
    "venue_name": "1301 E 47th St",
    "latitude": 41.8854342,
    "longitude": -87.62272580000001,
    "address1": "",
    "address2": "Building 2 ",
    "address3": "",
    "city": "Chicago",
    "state": "IL",
    "zip_code": "60653"
  },
  {
    "venue_id": "EB_27811149",
    "venue_name": "5812 S Ellis Ave",
    "latitude": 41.7886079,
    "longitude": -87.59871329999999,
    "address1": "P-117 Billings Auditorium, 5812 S Ellis Ave, Chicago, IL 60637",
    "address2": "",
    "address3": "",
    "city": "Chicago",
    "state": "IL",
    "zip_code": "60637"
  },
  {
    "venue_id": "EB_27644735",
    "venue_name": "Le M\u00e9ridien Chicago - Oakbrook Center",
    "latitude": 41.85018360000001,
    "longitude": -87.94909719999998,
    "address1": "2100 Spring Road",
    "address2": "",
    "address3": "",
    "city": "Oak Brook",
    "state": "IL",
    "zip_code": "60523"
  },
  {
    "venue_id": "EB_27458242",
    "venue_name": "Polsky Center - Washington Park Classroom",
    "latitude": 41.7995257,
    "longitude": -87.58984479999998,
    "address1": "1452 E 53rd St",
    "address2": "2nd Floor",
    "address3": "",
    "city": "Chicago",
    "state": "IL",
    "zip_code": "60615"
  },
  {
    "venue_id": "EB_27339143",
    "venue_name": "Steinmetz High School",
    "latitude": 41.935631,
    "longitude": -87.784152,
    "address1": "3030 N. Mobile",
    "address2": "CAFETERIA",
    "address3": "",
    "city": "Chicago",
    "state": "",
    "zip_code": ""
  },
  {
    "venue_id": "EB_22728556",
    "venue_name": "Location Provided After Viewing Our 15 Minute Intro Webinar",
    "latitude": 41.8454456,
    "longitude": -87.6365394,
    "address1": "S Michigan Avenue",
    "address2": "",
    "address3": "",
    "city": "Chicago",
    "state": "IL",
    "zip_code": "60616"
  },
  {
    "venue_id": "EB_27601014",
    "venue_name": "",
    "latitude": 41.8785696,
    "longitude": -87.62743519999998,
    "address1": "247 South State Street",
    "address2": "",
    "address3": "",
    "city": "Chicago",
    "state": "IL",
    "zip_code": "60604"
  },
  {
    "venue_id": "EB_26902140",
    "venue_name": "Advocate Children's Hospital - Oak Lawn",
    "latitude": 41.7221204,
    "longitude": -87.7323202,
    "address1": "93rd Street and Kilbourn Ave.",
    "address2": "Stein Auditorium - Conference Center",
    "address3": "",
    "city": "Oak Lawn",
    "state": "IL",
    "zip_code": "60453"
  },
  {
    "venue_id": "EB_13717429",
    "venue_name": "Maggiano's Little Italy",
    "latitude": 41.8916771,
    "longitude": -87.62751459999998,
    "address1": "516 North Clark Street",
    "address2": "Banquet entrance on Grand Ave.",
    "address3": "",
    "city": "Chicago",
    "state": "IL",
    "zip_code": "60654"
  },
  {
    "venue_id": "EB_27383131",
    "venue_name": "Greenbuild Expo Floor (McCormick Place)",
    "latitude": 41.8507901,
    "longitude": -87.62178670000003,
    "address1": "2301 S. Indiana Ave.",
    "address2": "Booth 214 (100 Mile Pavilion)",
    "address3": "",
    "city": "Chicago",
    "state": "IL",
    "zip_code": "60617"
  },
  {
    "venue_id": "EB_27289574",
    "venue_name": "DL loft",
    "latitude": 41.9370474,
    "longitude": -87.66549150000003,
    "address1": "3050 North Lincoln Avenue",
    "address2": "",
    "address3": "",
    "city": "Chicago",
    "state": "IL",
    "zip_code": "60657"
  },
  {
    "venue_id": "EB_27054031",
    "venue_name": "DuSable Museum of African American History",
    "latitude": 41.7919133,
    "longitude": -87.6071968,
    "address1": "740 East 56th Place",
    "address2": "",
    "address3": "",
    "city": "Chicago",
    "state": "IL",
    "zip_code": "60637"
  },
  {
    "venue_id": "EB_27802889",
    "venue_name": "Chicago Ridge Public Library",
    "latitude": 41.703226,
    "longitude": -87.77779369999996,
    "address1": "10400 S. Oxford Ave",
    "address2": "",
    "address3": "",
    "city": "Chicago Ridge",
    "state": "IL",
    "zip_code": "61045"
  },
  {
    "venue_id": "EB_26265048",
    "venue_name": "Product School Chicago",
    "latitude": 41.8797505,
    "longitude": -87.63058480000001,
    "address1": "WeWork National Building, 125 S Clark St",
    "address2": "",
    "address3": "",
    "city": "Chicago",
    "state": "IL",
    "zip_code": "60603"
  },
  {
    "venue_id": "EB_27325661",
    "venue_name": "Bad Axe",
    "latitude": 41.93357,
    "longitude": -87.64593500000001,
    "address1": "2828 North Clark Street",
    "address2": "",
    "address3": "",
    "city": "Chicago",
    "state": "IL",
    "zip_code": "60657"
  },
  {
    "venue_id": "EB_25994460",
    "venue_name": "American Marketing Association",
    "latitude": 41.8849235,
    "longitude": -87.62314859999998,
    "address1": "Prudential Building",
    "address2": "130 E Randolph, 22nd Floor",
    "address3": "",
    "city": "Chicago",
    "state": "IL",
    "zip_code": "60607"
  },
  {
    "venue_id": "EB_5003846",
    "venue_name": "City Hall",
    "latitude": 41.8839109,
    "longitude": -87.63201200000003,
    "address1": "121 North LaSalle Street",
    "address2": "Room 805",
    "address3": "",
    "city": "Chicago",
    "state": "IL",
    "zip_code": "60602"
  },
  {
    "venue_id": "EB_24072817",
    "venue_name": "W Chicago - Lakeshore",
    "latitude": 41.89391860000001,
    "longitude": -87.61536610000002,
    "address1": "644 North Lake Shore Drive",
    "address2": "",
    "address3": "",
    "city": "Chicago",
    "state": "IL",
    "zip_code": "60611"
  },
  {
    "venue_id": "EB_26787125",
    "venue_name": "MakeOffices at River North",
    "latitude": 41.8887576,
    "longitude": -87.63730029999999,
    "address1": "350 N Orleans St #9000n",
    "address2": "",
    "address3": "",
    "city": "Chicago",
    "state": "IL",
    "zip_code": "60654"
  },
  {
    "venue_id": "EB_27636600",
    "venue_name": "McCormick Place",
    "latitude": 41.8514826,
    "longitude": -87.616939,
    "address1": "2301 South King Drive BuildingGreen/LEEDuser booth #1522",
    "address2": "",
    "address3": "",
    "city": "Chicago",
    "state": "IL",
    "zip_code": "60616"
  },
  {
    "venue_id": "EB_23892812",
    "venue_name": "Fusion92",
    "latitude": 41.89335190000001,
    "longitude": -87.64019150000001,
    "address1": "440 West Ontario Street",
    "address2": "",
    "address3": "",
    "city": "Chicago",
    "state": "IL",
    "zip_code": "60654"
  },
  {
    "venue_id": "EB_27767462",
    "venue_name": "University Library",
    "latitude": 42.0530531,
    "longitude": -87.67479850000001,
    "address1": "1970 Campus Drive",
    "address2": "The Forum",
    "address3": "",
    "city": "Evanston",
    "state": "IL",
    "zip_code": "60201"
  },
  {
    "venue_id": "EB_25986311",
    "venue_name": "BFF Bikes",
    "latitude": 41.9176037,
    "longitude": -87.68068570000003,
    "address1": "2113 West Armitage Avenue",
    "address2": "",
    "address3": "",
    "city": "Chicago",
    "state": "IL",
    "zip_code": "60647"
  },
  {
    "venue_id": "EB_22763518",
    "venue_name": "University Library | Ver Steeg Lounge (3rd Floor)",
    "latitude": 42.053528,
    "longitude": -87.67406599999998,
    "address1": "1970 Campus Dr.",
    "address2": "",
    "address3": "",
    "city": "Evanston",
    "state": "IL",
    "zip_code": "60208"
  },
  {
    "venue_id": "EB_27867070",
    "venue_name": "Weichert Realtors",
    "latitude": 41.8922256,
    "longitude": -87.63440889999998,
    "address1": "209 W. Ohio Street",
    "address2": "",
    "address3": "",
    "city": "Chicago",
    "state": "IL",
    "zip_code": "60654"
  },
  {
    "venue_id": "EB_16008102",
    "venue_name": "Open Books",
    "latitude": 41.88538309999999,
    "longitude": -87.64477069999998,
    "address1": "651 West Lake Street",
    "address2": "",
    "address3": "",
    "city": "Chicago",
    "state": "IL",
    "zip_code": "60661"
  },
  {
    "venue_id": "EB_20880651",
    "venue_name": "Thalia Hall",
    "latitude": 41.8577,
    "longitude": -87.6572,
    "address1": "1807 South Allport Street",
    "address2": "",
    "address3": "",
    "city": "Chicago",
    "state": "IL",
    "zip_code": "60608"
  },
  {
    "venue_id": "EB_27429576",
    "venue_name": "Alulu Brewery and Pub",
    "latitude": 41.854733,
    "longitude": -87.66340300000002,
    "address1": "2011 South Laflin Street",
    "address2": "",
    "address3": "",
    "city": "Chicago",
    "state": "IL",
    "zip_code": "60608"
  },
  {
    "venue_id": "EB_15972271",
    "venue_name": "Community Programs Accelerator",
    "latitude": 41.7995267,
    "longitude": -87.60631719999998,
    "address1": "5225 South Cottage Grove Avenue",
    "address2": "",
    "address3": "",
    "city": "Chicago",
    "state": "IL",
    "zip_code": "60615"
  },
  {
    "venue_id": "EB_23558579",
    "venue_name": "Corner 52",
    "latitude": 41.8011575,
    "longitude": -87.5900739,
    "address1": "1438 East 52nd Street",
    "address2": "",
    "address3": "",
    "city": "Chicago",
    "state": "IL",
    "zip_code": "60615"
  },
  {
    "venue_id": "EB_27602060",
    "venue_name": "Industrious Chicago River North",
    "latitude": 41.89258470000001,
    "longitude": -87.6366448,
    "address1": "320 West Ohio Street",
    "address2": "#3w",
    "address3": "",
    "city": "Chicago",
    "state": "IL",
    "zip_code": "60654"
  },
  {
    "venue_id": "EB_26371193",
    "venue_name": "Evanston Public Library",
    "latitude": 42.0483943,
    "longitude": -87.68003060000001,
    "address1": "1703 Orrington Avenue",
    "address2": "",
    "address3": "",
    "city": "Evanston",
    "state": "IL",
    "zip_code": "60201"
  },
  {
    "venue_id": "EB_23947476",
    "venue_name": "Fourth Presbyterian Church (The Gratz Center)",
    "latitude": 41.8988185,
    "longitude": -87.62519379999998,
    "address1": "126 E. Chestnut St",
    "address2": "",
    "address3": "",
    "city": "Chicago",
    "state": "IL",
    "zip_code": "60611"
  },
  {
    "venue_id": "EB_27400219",
    "venue_name": "WBDC",
    "latitude": 41.8818227,
    "longitude": -87.62481389999999,
    "address1": "8 South Michigan Avenue",
    "address2": "4th Floor",
    "address3": "",
    "city": "Chicago",
    "state": "IL",
    "zip_code": "60603"
  },
  {
    "venue_id": "EB_27196979",
    "venue_name": "",
    "latitude": 41.788,
    "longitude": -87.6003,
    "address1": "Wieboldt Hall, Room 310 D/E",
    "address2": "",
    "address3": "",
    "city": "",
    "state": "",
    "zip_code": ""
  },
  {
    "venue_id": "EB_20279103",
    "venue_name": "1471 S Michigan Ave",
    "latitude": 41.8620747,
    "longitude": -87.62383820000002,
    "address1": "1471 South Michigan Avenue",
    "address2": "",
    "address3": "",
    "city": "Chicago",
    "state": "IL",
    "zip_code": "60605"
  },
  {
    "venue_id": "EB_27730402",
    "venue_name": "UIC Women's Leadership and Resource Center",
    "latitude": 41.8692745,
    "longitude": -87.65449130000002,
    "address1": "1101 W. Taylor St.",
    "address2": "3rd Floor",
    "address3": "",
    "city": "Chicago",
    "state": "IL",
    "zip_code": "60607"
  },
  {
    "venue_id": "EB_27749366",
    "venue_name": "",
    "latitude": 41.8948459,
    "longitude": -87.94063340000002,
    "address1": "232 South York Street",
    "address2": "",
    "address3": "",
    "city": "Elmhurst",
    "state": "IL",
    "zip_code": "60126"
  },
  {
    "venue_id": "EB_24724896",
    "venue_name": "405 West Superior St",
    "latitude": 41.883594,
    "longitude": -87.62829899999997,
    "address1": "3rd Floor",
    "address2": "",
    "address3": "",
    "city": "Chicago",
    "state": "IL",
    "zip_code": "60654"
  },
  {
    "venue_id": "EB_26031969",
    "venue_name": "Anker",
    "latitude": 41.9100543,
    "longitude": -87.67719890000001,
    "address1": "1576 North Milwaukee Avenue",
    "address2": "",
    "address3": "",
    "city": "Chicago",
    "state": "IL",
    "zip_code": "60622"
  },
  {
    "venue_id": "EB_22685066",
    "venue_name": "Bubbles Academy",
    "latitude": 41.9208992,
    "longitude": -87.6721111,
    "address1": "2184 North Elston",
    "address2": "",
    "address3": "",
    "city": "Chicago",
    "state": "IL",
    "zip_code": "60614"
  },
  {
    "venue_id": "EB_23167774",
    "venue_name": "CRC Music & Post",
    "latitude": 41.8927941,
    "longitude": -87.62111670000002,
    "address1": "232 East Ohio St",
    "address2": "",
    "address3": "",
    "city": "Chicago",
    "state": "IL",
    "zip_code": "60611"
  },
  {
    "venue_id": "EB_24729806",
    "venue_name": "3233 S Ashland Ave",
    "latitude": 41.8343742,
    "longitude": -87.6653182,
    "address1": "3233 South Ashland Avenue",
    "address2": "",
    "address3": "",
    "city": "Chicago",
    "state": "IL",
    "zip_code": "60608"
  },
  {
    "venue_id": "EB_27785112",
    "venue_name": "DePaul University School of Law",
    "latitude": 41.8779651,
    "longitude": -87.62632010000004,
    "address1": "25 East Jackson Boulevard",
    "address2": "Lewis 903",
    "address3": "",
    "city": "Chicago",
    "state": "IL",
    "zip_code": "60604"
  },
  {
    "venue_id": "EB_26587187",
    "venue_name": "Cement Mason's Institute",
    "latitude": 41.8784887,
    "longitude": -87.8627859,
    "address1": "739 25th Avenue",
    "address2": "(Enter in the Rear Entrance)",
    "address3": "",
    "city": "Bellwood",
    "state": "IL",
    "zip_code": "60104"
  },
  {
    "venue_id": "EB_27507832",
    "venue_name": "Ballard Designs",
    "latitude": 41.8507986,
    "longitude": -87.95051839999996,
    "address1": "2210 Oakbrook Center",
    "address2": "",
    "address3": "",
    "city": "Oak Brook",
    "state": "60523",
    "zip_code": ""
  },
  {
    "venue_id": "EB_21732918",
    "venue_name": "Mind+Hand",
    "latitude": 41.7948172,
    "longitude": -87.72354610000002,
    "address1": "5400 South Pulaski Road",
    "address2": "2nd Floor ",
    "address3": "",
    "city": "Chicago",
    "state": "IL",
    "zip_code": "60632"
  },
  {
    "venue_id": "EB_21828599",
    "venue_name": "Zanies Comedy Club",
    "latitude": 41.978134,
    "longitude": -87.86767800000001,
    "address1": "5437 Park Place",
    "address2": "",
    "address3": "",
    "city": "Rosemont",
    "state": "IL",
    "zip_code": "60018"
  },
  {
    "venue_id": "EB_27489381",
    "venue_name": "UIC Student Center East, Room 605",
    "latitude": 41.8719123,
    "longitude": -87.6479531,
    "address1": "750 S Halsted St",
    "address2": "",
    "address3": "",
    "city": "Chicago",
    "state": "IL",
    "zip_code": "60607"
  },
  {
    "venue_id": "EB_27766218",
    "venue_name": "",
    "latitude": 41.8864733,
    "longitude": -87.6231449,
    "address1": "225 N. Michigan Avenue Suite 700 ",
    "address2": "",
    "address3": "",
    "city": "Chicago",
    "state": "IL",
    "zip_code": ""
  },
  {
    "venue_id": "EB_27537332",
    "venue_name": "Dr. Martin Luther King Center Service Center",
    "latitude": 41.8164642,
    "longitude": -87.60734739999998,
    "address1": "4314 South Cottage Grove Avenue",
    "address2": "Room 106",
    "address3": "",
    "city": "Chicago",
    "state": "IL",
    "zip_code": "60653"
  },
  {
    "venue_id": "EB_27882183",
    "venue_name": "Gino's East River North",
    "latitude": 41.8910552,
    "longitude": -87.63305539999999,
    "address1": "500 North LaSalle Drive",
    "address2": "",
    "address3": "",
    "city": "Chicago",
    "state": "IL",
    "zip_code": "60654"
  },
  {
    "venue_id": "EB_27518312",
    "venue_name": "Sofitel Chicago Magnificent Mile",
    "latitude": 41.8986655,
    "longitude": -87.62729289999999,
    "address1": "20 East Chestnut Street",
    "address2": "",
    "address3": "",
    "city": "Chicago",
    "state": "IL",
    "zip_code": "60611"
  },
  {
    "venue_id": "EB_27579340",
    "venue_name": "",
    "latitude": 41.8800946,
    "longitude": -87.62469500000003,
    "address1": "122 South Michigan Ave, 14th Floor, Suite 1405",
    "address2": "",
    "address3": "",
    "city": "Chicago",
    "state": "IL",
    "zip_code": ""
  },
  {
    "venue_id": "EB_27712240",
    "venue_name": "BITES - asian kitchen + bar",
    "latitude": 41.9422289,
    "longitude": -87.6522756,
    "address1": "3313 North Clark Street",
    "address2": "",
    "address3": "",
    "city": "Chicago",
    "state": "IL",
    "zip_code": "60657"
  },
  {
    "venue_id": "EB_16565035",
    "venue_name": "",
    "latitude": 41.8781136,
    "longitude": -87.62979819999998,
    "address1": "Online",
    "address2": "",
    "address3": "",
    "city": "Chicago",
    "state": "IL",
    "zip_code": ""
  },
  {
    "venue_id": "EB_27605591",
    "venue_name": "McCormick Place",
    "latitude": 41.8514826,
    "longitude": -87.616939,
    "address1": "2301 South King Drive",
    "address2": "BuildingGreen/LEEDuser booth #1522",
    "address3": "",
    "city": "Chicago",
    "state": "IL",
    "zip_code": "60616"
  },
  {
    "venue_id": "EB_27700407",
    "venue_name": "City of Liverpool College",
    "latitude": 41.9426187,
    "longitude": -87.73590189999999,
    "address1": "Roscoe St",
    "address2": "",
    "address3": "",
    "city": "",
    "state": "",
    "zip_code": ""
  },
  {
    "venue_id": "EB_26120373",
    "venue_name": "Replay Lincoln Park",
    "latitude": 41.93374480000001,
    "longitude": -87.6536097,
    "address1": "2833 North Sheffield Avenue",
    "address2": "",
    "address3": "",
    "city": "Chicago",
    "state": "IL",
    "zip_code": "60657"
  },
  {
    "venue_id": "EB_27438672",
    "venue_name": "Home of Kate Gjaja",
    "latitude": 42.0760791,
    "longitude": -87.6905079,
    "address1": "325 Central Avenue",
    "address2": "",
    "address3": "",
    "city": "Wilmette",
    "state": "IL",
    "zip_code": "60091"
  },
  {
    "venue_id": "EB_23552838",
    "venue_name": "Kennedy-King College",
    "latitude": 41.7782973,
    "longitude": -87.6439004,
    "address1": "6301 South Halsted Street",
    "address2": "Room U-156",
    "address3": "",
    "city": "Chicago",
    "state": "IL",
    "zip_code": "60621"
  },
  {
    "venue_id": "EB_26148255",
    "venue_name": "Museica's Art Studio",
    "latitude": 41.9192151,
    "longitude": -87.6878317,
    "address1": "2052 N. Western Ave. ",
    "address2": "",
    "address3": "",
    "city": "Chicago",
    "state": "IL",
    "zip_code": "60613"
  },
  {
    "venue_id": "EB_27461469",
    "venue_name": "Fulton Market Co.",
    "latitude": 41.8858766,
    "longitude": -87.64960459999998,
    "address1": "205 North Peoria Street",
    "address2": "",
    "address3": "",
    "city": "Chicago",
    "state": "IL",
    "zip_code": "60607"
  },
  {
    "venue_id": "EB_27537884",
    "venue_name": "White Eagle Events & Convention Center",
    "latitude": 42.00528800000001,
    "longitude": -87.79441399999996,
    "address1": "6839 North Milwaukee Avenue",
    "address2": "",
    "address3": "",
    "city": "Niles",
    "state": "IL",
    "zip_code": "60714"
  },
  {
    "venue_id": "EB_19336913",
    "venue_name": "Covenant Home of Chicago",
    "latitude": 41.97608409999999,
    "longitude": -87.6974348,
    "address1": "2720 West Foster Avenue",
    "address2": "",
    "address3": "",
    "city": "Chicago",
    "state": "IL",
    "zip_code": "60625"
  },
  {
    "venue_id": "EB_26966307",
    "venue_name": "Standard Club of Chicago",
    "latitude": 41.877706,
    "longitude": -87.62902199999996,
    "address1": "320 S. Plymouth Ct. ",
    "address2": "",
    "address3": "",
    "city": "Chicago",
    "state": "IL",
    "zip_code": "60604"
  },
  {
    "venue_id": "EB_27173088",
    "venue_name": "WeWork Kinzie",
    "latitude": 41.88951120000001,
    "longitude": -87.6289433,
    "address1": "20 West Kinzie Street",
    "address2": "",
    "address3": "",
    "city": "Chicago",
    "state": "IL",
    "zip_code": "60654"
  },
  {
    "venue_id": "EB_22960501",
    "venue_name": "Urbane Blades",
    "latitude": 41.9003222,
    "longitude": -87.6375812,
    "address1": "948 North Orleans Street",
    "address2": "",
    "address3": "",
    "city": "Chicago",
    "state": "IL",
    "zip_code": "60610"
  },
  {
    "venue_id": "EB_12714346",
    "venue_name": "Institute of Politics",
    "latitude": 41.7911423,
    "longitude": -87.59612140000002,
    "address1": "5707 South Woodlawn Avenue",
    "address2": "",
    "address3": "",
    "city": "Chicago",
    "state": "IL",
    "zip_code": "60637"
  },
  {
    "venue_id": "EB_17631180",
    "venue_name": "Next Door",
    "latitude": 41.93264699999999,
    "longitude": -87.64585399999999,
    "address1": "659 West Diversey Parkway",
    "address2": "",
    "address3": "",
    "city": "Chicago",
    "state": "IL",
    "zip_code": "60657"
  },
  {
    "venue_id": "EB_27636600",
    "venue_name": "McCormick Place",
    "latitude": 41.8514826,
    "longitude": -87.616939,
    "address1": "2301 South King Drive BuildingGreen/LEEDuser booth #1522",
    "address2": "",
    "address3": "",
    "city": "Chicago",
    "state": "IL",
    "zip_code": "60616"
  },
  {
    "venue_id": "EB_19659210",
    "venue_name": "Adler Planetarium",
    "latitude": 41.866333,
    "longitude": -87.60678289999998,
    "address1": "1300 South Lake Shore Drive",
    "address2": "",
    "address3": "",
    "city": "Chicago",
    "state": "IL",
    "zip_code": "60605"
  },
  {
    "venue_id": "EB_22991653",
    "venue_name": "Ampersand Cowork",
    "latitude": 41.92447230000001,
    "longitude": -87.71122969999999,
    "address1": "3317 West Fullerton Avenue",
    "address2": "",
    "address3": "",
    "city": "Chicago",
    "state": "IL",
    "zip_code": "60647"
  },
  {
    "venue_id": "EB_27737498",
    "venue_name": "Revolution Brewing - Brewery & Taproom",
    "latitude": 41.9419416,
    "longitude": -87.70770490000001,
    "address1": "3340 North Kedzie Avenue",
    "address2": "",
    "address3": "",
    "city": "Chicago",
    "state": "IL",
    "zip_code": "60618"
  },
  {
    "venue_id": "EB_27792127",
    "venue_name": "Cruz Blanca Brewery & Taquer\u00eda",
    "latitude": 41.8845986,
    "longitude": -87.6501184,
    "address1": "904 West Randolph Street",
    "address2": "",
    "address3": "",
    "city": "Chicago",
    "state": "IL",
    "zip_code": "60607"
  },
  {
    "venue_id": "EB_25517582",
    "venue_name": "Pizzeria Serio",
    "latitude": 41.9398018,
    "longitude": -87.67152809999999,
    "address1": "1708 West Belmont Avenue",
    "address2": "",
    "address3": "",
    "city": "Chicago",
    "state": "IL",
    "zip_code": "60657"
  },
  {
    "venue_id": "EB_26601128",
    "venue_name": "Your Computer",
    "latitude": 41.8925085,
    "longitude": -87.61616959999998,
    "address1": "",
    "address2": "",
    "address3": "",
    "city": "Chiacgo",
    "state": "IL",
    "zip_code": "60611"
  },
  {
    "venue_id": "EB_27680321",
    "venue_name": "Sheraton Grand Chicago",
    "latitude": 41.8890722,
    "longitude": -87.61982890000002,
    "address1": "301 East North Water Street",
    "address2": "",
    "address3": "",
    "city": "Chicago",
    "state": "IL",
    "zip_code": "60611"
  },
  {
    "venue_id": "EB_27856968",
    "venue_name": "Keller Williams Realty Partners",
    "latitude": 42.0197821,
    "longitude": -87.84798590000003,
    "address1": "700 Busse Highway",
    "address2": "",
    "address3": "",
    "city": "Park Ridge",
    "state": "IL",
    "zip_code": "60068"
  },
  {
    "venue_id": "EB_22369772",
    "venue_name": "REAL ESTATE INVESTOR BUSINESS ORIENTATION",
    "latitude": 41.8337369,
    "longitude": -87.6262408,
    "address1": "Address Sent By Email Upon Registration",
    "address2": "",
    "address3": "",
    "city": "Chicago",
    "state": "IL",
    "zip_code": "60606"
  },
  {
    "venue_id": "EB_27715819",
    "venue_name": "Trader Todd's",
    "latitude": 41.94044239999999,
    "longitude": -87.65436969999996,
    "address1": "3216 North Sheffield Avenue",
    "address2": "",
    "address3": "",
    "city": "Chicago",
    "state": "IL",
    "zip_code": "60657"
  },
  {
    "venue_id": "EB_26878987",
    "venue_name": "Pendulum Space",
    "latitude": 41.9520449,
    "longitude": -87.67467929999998,
    "address1": "1803 West Byron Street",
    "address2": "#216",
    "address3": "",
    "city": "Chicago",
    "state": "IL",
    "zip_code": "60613"
  },
  {
    "venue_id": "EB_12697674",
    "venue_name": "US Small Business Administration",
    "latitude": 41.8822187,
    "longitude": -87.64052959999998,
    "address1": "500 West Madison Street",
    "address2": "Suite 1150",
    "address3": "",
    "city": "Chicago",
    "state": "IL",
    "zip_code": "60661"
  },
  {
    "venue_id": "EB_27614526",
    "venue_name": "EvolveHer",
    "latitude": 41.8933488,
    "longitude": -87.63814839999998,
    "address1": "358 W. Ontario St. #3W",
    "address2": "",
    "address3": "",
    "city": "Chicago",
    "state": "IL",
    "zip_code": "60654"
  },
  {
    "venue_id": "EB_21867297",
    "venue_name": "The Cognitive Clinic",
    "latitude": 41.7101304,
    "longitude": -87.81806449999999,
    "address1": "9944 South Roberts Road",
    "address2": "Suite 202",
    "address3": "",
    "city": "Palos Hills",
    "state": "IL",
    "zip_code": "60465"
  },
  {
    "venue_id": "EB_20505785",
    "venue_name": "Japanese Culture Center",
    "latitude": 41.940162,
    "longitude": -87.6548568,
    "address1": "1016 West Belmont Avenue",
    "address2": "",
    "address3": "",
    "city": "Chicago",
    "state": "IL",
    "zip_code": "60657"
  },
  {
    "venue_id": "EB_26631058",
    "venue_name": "",
    "latitude": 41.8512195,
    "longitude": -87.6170282,
    "address1": "Full address given upon registration",
    "address2": "",
    "address3": "",
    "city": "Chicago",
    "state": "IL",
    "zip_code": "60616"
  },
  {
    "venue_id": "EB_27050097",
    "venue_name": "Conference Call Only 470-200-0080 Code:630450",
    "latitude": 41.8781136,
    "longitude": -87.62979819999998,
    "address1": "",
    "address2": "",
    "address3": "",
    "city": "Chicago",
    "state": "IL",
    "zip_code": ""
  },
  {
    "venue_id": "EB_27847308",
    "venue_name": "Shakers on Clark",
    "latitude": 41.9392232,
    "longitude": -87.65026169999999,
    "address1": "3160 North Clark Street",
    "address2": "",
    "address3": "",
    "city": "Chicago",
    "state": "IL",
    "zip_code": "60657"
  },
  {
    "venue_id": "EB_18182945",
    "venue_name": "Daystar School",
    "latitude": 41.860226,
    "longitude": -87.62823300000002,
    "address1": "1550 South State Street",
    "address2": "",
    "address3": "",
    "city": "Chicago",
    "state": "IL",
    "zip_code": "60605"
  },
  {
    "venue_id": "EB_27878292",
    "venue_name": "Equinox Gold Coast",
    "latitude": 41.8998014,
    "longitude": -87.6243809,
    "address1": "900 Michigan Avenue",
    "address2": "",
    "address3": "",
    "city": "Chicago",
    "state": "IL",
    "zip_code": "60611"
  },
  {
    "venue_id": "EB_22787126",
    "venue_name": "",
    "latitude": 41.90254540000001,
    "longitude": -87.7107858,
    "address1": "1152 North Christiana Avenue",
    "address2": "",
    "address3": "",
    "city": "Chicago",
    "state": "IL",
    "zip_code": "60651"
  },
  {
    "venue_id": "EB_27377578",
    "venue_name": "Schnack Financial Group",
    "latitude": 41.8868931,
    "longitude": -87.78112350000004,
    "address1": "227 South Boulevard",
    "address2": "",
    "address3": "",
    "city": "Oak Park",
    "state": "IL",
    "zip_code": "60302"
  },
  {
    "venue_id": "EB_24929251",
    "venue_name": "The Dill Pickle Food Co-op",
    "latitude": 41.9309636,
    "longitude": -87.71107619999998,
    "address1": "2746 North Milwaukee Avenue",
    "address2": "",
    "address3": "",
    "city": "Chicago",
    "state": "IL",
    "zip_code": "60647"
  },
  {
    "venue_id": "EB_27537368",
    "venue_name": "City Lit Theater",
    "latitude": 41.9838916,
    "longitude": -87.65631259999998,
    "address1": "1020 W. Bryn Mawr Ave.",
    "address2": "",
    "address3": "",
    "city": "Chicago",
    "state": "IL",
    "zip_code": "60660"
  },
  {
    "venue_id": "EB_27649842",
    "venue_name": "965 W Chicago Ave",
    "latitude": 41.8960417,
    "longitude": -87.65132890000001,
    "address1": " 5413, Chicago, IL 60642, United States",
    "address2": "Chicago, IL",
    "address3": "",
    "city": "Chicago",
    "state": "IL",
    "zip_code": "60642"
  },
  {
    "venue_id": "EB_26674867",
    "venue_name": "Roosevelt University",
    "latitude": 41.8687439,
    "longitude": -87.62535730000002,
    "address1": "425 S. Wabash",
    "address2": "WB 1111",
    "address3": "",
    "city": "Chicago",
    "state": "Illinois",
    "zip_code": "60605"
  },
  {
    "venue_id": "EB_27297343",
    "venue_name": "The Comedy Bar ",
    "latitude": 41.8908018,
    "longitude": -87.63268690000001,
    "address1": "500 N LaSalle St",
    "address2": "",
    "address3": "",
    "city": "Chicago",
    "state": "IL",
    "zip_code": "60654"
  },
  {
    "venue_id": "EB_13611617",
    "venue_name": "Mariano's Bucktown",
    "latitude": 41.9207201,
    "longitude": -87.669104,
    "address1": "2112 N. Ashland Ave.",
    "address2": "",
    "address3": "",
    "city": "Chicago",
    "state": "Illinois",
    "zip_code": "60647"
  },
  {
    "venue_id": "EB_23678330",
    "venue_name": "Kryolan City Chicago",
    "latitude": 41.9192463,
    "longitude": -87.6488536,
    "address1": "2034 N Halsted St",
    "address2": "",
    "address3": "",
    "city": "Chicago",
    "state": "IL",
    "zip_code": "60614"
  },
  {
    "venue_id": "EB_25356393",
    "venue_name": "Bourbon On Division",
    "latitude": 41.9033498,
    "longitude": -87.6792436,
    "address1": "2050 W Division St",
    "address2": "",
    "address3": "",
    "city": "Chicago",
    "state": "IL",
    "zip_code": "60622"
  },
  {
    "venue_id": "EB_14573172",
    "venue_name": "Harvest Bible Chapel - Niles Campus",
    "latitude": 42.01558800000001,
    "longitude": -87.78998000000001,
    "address1": "7333 North Caldwell Avenue",
    "address2": "",
    "address3": "",
    "city": "Niles",
    "state": "IL",
    "zip_code": "60714"
  },
  {
    "venue_id": "EB_27602543",
    "venue_name": "Fresh Thyme Farmers Market",
    "latitude": 41.9084379,
    "longitude": -87.81313399999999,
    "address1": "7501 W North Avenue",
    "address2": "",
    "address3": "",
    "city": "River Forest",
    "state": "IL",
    "zip_code": "60305"
  },
  {
    "venue_id": "EB_27514242",
    "venue_name": "Blackstone Branch, Chicago Public Library",
    "latitude": 41.80585120000001,
    "longitude": -87.59038859999998,
    "address1": "4904 South Lake Park Avenue",
    "address2": "",
    "address3": "",
    "city": "Chicago",
    "state": "IL",
    "zip_code": "60615"
  },
  {
    "venue_id": "EB_27432168",
    "venue_name": "Brooks Building",
    "latitude": 41.8779246,
    "longitude": -87.63474429999997,
    "address1": "223 W Jackson Blvd, 11th Floor",
    "address2": "Suite 1100",
    "address3": "",
    "city": "Chicago",
    "state": "IL",
    "zip_code": "60606"
  },
  {
    "venue_id": "EB_27543324",
    "venue_name": "",
    "latitude": 41.8781136,
    "longitude": -87.62979819999998,
    "address1": "",
    "address2": "",
    "address3": "",
    "city": "Chicago",
    "state": "IL",
    "zip_code": ""
  },
  {
    "venue_id": "EB_27304657",
    "venue_name": "3356 N Karlov Ave",
    "latitude": 41.9424892,
    "longitude": -87.72992049999999,
    "address1": "3356 North Karlov Avenue",
    "address2": "",
    "address3": "",
    "city": "Chicago",
    "state": "IL",
    "zip_code": "60641"
  },
  {
    "venue_id": "EB_27605591",
    "venue_name": "McCormick Place",
    "latitude": 41.8514826,
    "longitude": -87.616939,
    "address1": "2301 South King Drive",
    "address2": "BuildingGreen/LEEDuser booth #1522",
    "address3": "",
    "city": "Chicago",
    "state": "IL",
    "zip_code": "60616"
  },
  {
    "venue_id": "EB_24884852",
    "venue_name": "Laugh Factory",
    "latitude": 41.93973400000001,
    "longitude": -87.64403319999997,
    "address1": "3175 North Broadway",
    "address2": "",
    "address3": "",
    "city": "Chicago",
    "state": "IL",
    "zip_code": "60657"
  },
  {
    "venue_id": "EB_23195886",
    "venue_name": "Mind Body Healing Center",
    "latitude": 41.8829466,
    "longitude": -87.63067620000004,
    "address1": "77 West Washington Street",
    "address2": "#1704",
    "address3": "",
    "city": "Chicago",
    "state": "IL",
    "zip_code": "60602"
  },
  {
    "venue_id": "EB_20475365",
    "venue_name": "Weissbluth Pediatrics",
    "latitude": 41.8620747,
    "longitude": -87.62383820000002,
    "address1": "1471 South Michigan Avenue",
    "address2": "",
    "address3": "",
    "city": "Chicago",
    "state": "IL",
    "zip_code": "60605"
  },
  {
    "venue_id": "EB_25860086",
    "venue_name": "Artango Bar & Steakhouse",
    "latitude": 41.9684364,
    "longitude": -87.68830439999999,
    "address1": "4767 North Lincoln Avenue",
    "address2": "",
    "address3": "",
    "city": "Chicago",
    "state": "IL",
    "zip_code": "60625"
  },
  {
    "venue_id": "EB_27909399",
    "venue_name": "Grant Thornton, LLP",
    "latitude": 41.8850775,
    "longitude": -87.6306343,
    "address1": "171 North Clark Street",
    "address2": "Suite 200",
    "address3": "",
    "city": "Chicago",
    "state": "IL",
    "zip_code": "60601"
  },
  {
    "venue_id": "EB_27733593",
    "venue_name": "Soul75 Events",
    "latitude": 41.758573,
    "longitude": -87.61759799999999,
    "address1": "314 East 75th Street ",
    "address2": "",
    "address3": "",
    "city": "Chicago",
    "state": "Illinois",
    "zip_code": "60619"
  },
  {
    "venue_id": "EB_27162226",
    "venue_name": "Concrete Cowboy",
    "latitude": 41.8937033,
    "longitude": -87.63586579999998,
    "address1": "646 North Franklin Street",
    "address2": "",
    "address3": "",
    "city": "Chicago",
    "state": "IL",
    "zip_code": "60654"
  },
  {
    "venue_id": "EB_26113899",
    "venue_name": "",
    "latitude": 41.8741947,
    "longitude": -87.62476959999998,
    "address1": "600 South Michigan Avenue",
    "address2": "RM 401",
    "address3": "",
    "city": "Chicago",
    "state": "IL",
    "zip_code": "60605"
  },
  {
    "venue_id": "EB_10897260",
    "venue_name": "Winnetka Community House",
    "latitude": 42.108191,
    "longitude": -87.73375599999997,
    "address1": "620 Lincoln Avenue",
    "address2": "",
    "address3": "",
    "city": "Winnetka",
    "state": "IL",
    "zip_code": "60093"
  },
  {
    "venue_id": "EB_27601759",
    "venue_name": "Lewis Towers - Loyola University Chicago",
    "latitude": 41.8974,
    "longitude": -87.62537580000003,
    "address1": "111 East Pearson Street",
    "address2": "Room 415",
    "address3": "",
    "city": "Chicago",
    "state": "IL",
    "zip_code": "60611"
  },
  {
    "venue_id": "EB_27636600",
    "venue_name": "McCormick Place",
    "latitude": 41.8514826,
    "longitude": -87.616939,
    "address1": "2301 South King Drive BuildingGreen/LEEDuser booth #1522",
    "address2": "",
    "address3": "",
    "city": "Chicago",
    "state": "IL",
    "zip_code": "60616"
  },
  {
    "venue_id": "EB_27871876",
    "venue_name": "",
    "latitude": 42.0006,
    "longitude": -87.6599,
    "address1": "Student Center MPR ",
    "address2": "",
    "address3": "",
    "city": "",
    "state": "",
    "zip_code": ""
  },
  {
    "venue_id": "EB_26859714",
    "venue_name": "Harper Memorial Library",
    "latitude": 41.78796639999999,
    "longitude": -87.59953639999998,
    "address1": "1116 East 59th Street",
    "address2": "Rm 284",
    "address3": "",
    "city": "Chicago",
    "state": "IL",
    "zip_code": "60637"
  },
  {
    "venue_id": "EB_25769219",
    "venue_name": "MATTER ",
    "latitude": 41.8884096,
    "longitude": -87.6354498,
    "address1": "222 W Merchandise Mart Plaza",
    "address2": "#1230",
    "address3": "",
    "city": "Chicago",
    "state": "IL",
    "zip_code": "60654"
  },
  {
    "venue_id": "EB_13058261",
    "venue_name": "Extreme Toastmasters",
    "latitude": 41.898058,
    "longitude": -87.631674,
    "address1": "100 W Chestnut Street",
    "address2": "",
    "address3": "",
    "city": "Chicago",
    "state": "IL",
    "zip_code": "60610"
  },
  {
    "venue_id": "EB_27870938",
    "venue_name": "Ambassador Chicago",
    "latitude": 41.9059674,
    "longitude": -87.62830259999998,
    "address1": "1301 North State Parkway",
    "address2": "",
    "address3": "",
    "city": "Chicago",
    "state": "IL",
    "zip_code": "60610"
  },
  {
    "venue_id": "EB_22423929",
    "venue_name": "Academy for Global Citizenship",
    "latitude": 41.807413,
    "longitude": -87.74018530000001,
    "address1": "4647 West 47th Street",
    "address2": "",
    "address3": "",
    "city": "Chicago",
    "state": "IL",
    "zip_code": "60632"
  },
  {
    "venue_id": "EB_25714364",
    "venue_name": "Chicago",
    "latitude": 41.84891700000001,
    "longitude": -87.623313,
    "address1": "2411 South Michigan Avenue",
    "address2": "Row 24",
    "address3": "",
    "city": "Chicago",
    "state": "IL",
    "zip_code": "60616"
  },
  {
    "venue_id": "EB_27350906",
    "venue_name": "S Loop \"SLoop\"",
    "latitude": 41.8426866,
    "longitude": -87.62332520000001,
    "address1": "South Michigan Avenue",
    "address2": "Address Given via Text Mess After You Register",
    "address3": "",
    "city": "Chicago",
    "state": "IL",
    "zip_code": "60616"
  },
  {
    "venue_id": "EB_26600422",
    "venue_name": "Exact Location Provided upon registration",
    "latitude": 41.8403395,
    "longitude": -87.61370110000001,
    "address1": "",
    "address2": "",
    "address3": "",
    "city": "Chicago",
    "state": "IL",
    "zip_code": "60616"
  },
  {
    "venue_id": "EB_22668035",
    "venue_name": "St. Thomas the Apostle School",
    "latitude": 41.7960341,
    "longitude": -87.59644220000001,
    "address1": "5467 South Woodlawn Avenue",
    "address2": "",
    "address3": "",
    "city": "Chicago",
    "state": "IL",
    "zip_code": "60615"
  },
  {
    "venue_id": "EB_25556342",
    "venue_name": "921 S Loomis St",
    "latitude": 41.8696375,
    "longitude": -87.66151430000002,
    "address1": "921 South Loomis Street",
    "address2": "",
    "address3": "",
    "city": "Chicago",
    "state": "IL",
    "zip_code": "60607"
  },
  {
    "venue_id": "EB_14225775",
    "venue_name": "Chicago",
    "latitude": 41.8781136,
    "longitude": -87.62979819999998,
    "address1": "",
    "address2": "",
    "address3": "",
    "city": "Chicago",
    "state": "IL",
    "zip_code": ""
  },
  {
    "venue_id": "EB_5344887",
    "venue_name": "Westin Chicago River North Hotel",
    "latitude": 41.8882381,
    "longitude": -87.62987020000003,
    "address1": "320 N Dearborn St",
    "address2": "",
    "address3": "",
    "city": "Chicago",
    "state": "IL",
    "zip_code": "60654"
  },
  {
    "venue_id": "EB_18952329",
    "venue_name": "Chicago IL",
    "latitude": 41.8781136,
    "longitude": -87.62979819999998,
    "address1": "Chicago IL",
    "address2": "",
    "address3": "",
    "city": "Chicago IL",
    "state": "IL",
    "zip_code": ""
  },
  {
    "venue_id": "EB_24602377",
    "venue_name": "online",
    "latitude": 41.879211,
    "longitude": -87.62484999999998,
    "address1": "200 S Michigan Ave",
    "address2": "",
    "address3": "",
    "city": "chicago",
    "state": "IL",
    "zip_code": "60604"
  },
  {
    "venue_id": "EB_25933016",
    "venue_name": "Marquette Building",
    "latitude": 41.8797986,
    "longitude": -87.62955099999999,
    "address1": "140 S Dearborn St",
    "address2": "",
    "address3": "",
    "city": "Chicago",
    "state": "IL",
    "zip_code": "60603"
  },
  {
    "venue_id": "EB_23237976",
    "venue_name": "",
    "latitude": 41.8403395,
    "longitude": -87.61370110000001,
    "address1": "SOUTH LOOP",
    "address2": "",
    "address3": "",
    "city": "Chicago",
    "state": "",
    "zip_code": "60616"
  },
  {
    "venue_id": "EB_23910273",
    "venue_name": "Chicago-Address will be provided after registration",
    "latitude": 41.8781136,
    "longitude": -87.62979819999998,
    "address1": "",
    "address2": "",
    "address3": "",
    "city": "Chicago",
    "state": "IL",
    "zip_code": ""
  },
  {
    "venue_id": "EB_21683696",
    "venue_name": "GT Fish & Oyster and GT Prime",
    "latitude": 41.8929153,
    "longitude": -87.63591250000002,
    "address1": "",
    "address2": "",
    "address3": "",
    "city": "Chicago",
    "state": "IL",
    "zip_code": "60654"
  },
  {
    "venue_id": "EB_23259835",
    "venue_name": "South Loop, Chicago- Please Register Online",
    "latitude": 41.8460691,
    "longitude": -87.62364339999999,
    "address1": "S Michigan Avenue",
    "address2": "",
    "address3": "",
    "city": "Chicago",
    "state": "IL",
    "zip_code": "60616"
  },
  {
    "venue_id": "EB_23719666",
    "venue_name": "Chicago,IL",
    "latitude": 41.8781136,
    "longitude": -87.62979819999998,
    "address1": "",
    "address2": "",
    "address3": "",
    "city": "Chicago,IL",
    "state": "Chicago,IL",
    "zip_code": ""
  },
  {
    "venue_id": "EB_25172987",
    "venue_name": "Ideal Wellness Centers",
    "latitude": 41.8468552,
    "longitude": -87.90529409999999,
    "address1": "1 Westbrook Corporate Center",
    "address2": "#300",
    "address3": "",
    "city": "Westchester",
    "state": "IL",
    "zip_code": "60154"
  },
  {
    "venue_id": "EB_26897873",
    "venue_name": "Loyola Law School",
    "latitude": 41.8972757,
    "longitude": -87.62711489999998,
    "address1": "25 E. Pearson Street",
    "address2": "",
    "address3": "",
    "city": "Chicago",
    "state": "IL",
    "zip_code": "60611"
  },
  {
    "venue_id": "EB_27654168",
    "venue_name": "McCormick Place",
    "latitude": 41.8403395,
    "longitude": -87.61370110000001,
    "address1": "GREENBUILD \u2013 Expo Hall floor (Booth #L803)",
    "address2": "",
    "address3": "",
    "city": "Chicago",
    "state": "IL",
    "zip_code": "60616"
  },
  {
    "venue_id": "EB_26890157",
    "venue_name": "TEC 4950 at Bethel New Life",
    "latitude": 41.901353,
    "longitude": -87.75119699999999,
    "address1": "4950  W. Thomas Street",
    "address2": "",
    "address3": "",
    "city": "Chicago",
    "state": "IL",
    "zip_code": "60651"
  },
  {
    "venue_id": "EB_23942814",
    "venue_name": "Pilotworks Chicago",
    "latitude": 41.8972278,
    "longitude": -87.63830259999997,
    "address1": "820 North Orleans Street",
    "address2": "Suite 235",
    "address3": "",
    "city": "Chicago",
    "state": "IL",
    "zip_code": "60610"
  },
  {
    "venue_id": "EB_24010625",
    "venue_name": "Japanese Culture Center",
    "latitude": 41.9401434,
    "longitude": -87.65486120000003,
    "address1": "1016 West Belmont Avenue",
    "address2": "",
    "address3": "",
    "city": "Chicago",
    "state": "IL",
    "zip_code": "60657"
  },
  {
    "venue_id": "EB_27847328",
    "venue_name": "Wilbur Wright College Library",
    "latitude": 41.959137,
    "longitude": -87.7882634,
    "address1": "4300 North Narragansett Avenue",
    "address2": "L-116",
    "address3": "",
    "city": "Chicago",
    "state": "IL",
    "zip_code": "60634"
  },
  {
    "venue_id": "EB_25959011",
    "venue_name": "Comprehensive Learning Services",
    "latitude": 41.7938604,
    "longitude": -87.5846305,
    "address1": "1642 East 56th Street",
    "address2": "#110",
    "address3": "",
    "city": "Chicago",
    "state": "IL",
    "zip_code": "60637"
  },
  {
    "venue_id": "EB_27529477",
    "venue_name": "Chicago",
    "latitude": 41.8781136,
    "longitude": -87.62979819999998,
    "address1": "",
    "address2": "",
    "address3": "",
    "city": "Chicago",
    "state": "IL",
    "zip_code": ""
  },
  {
    "venue_id": "EB_25555406",
    "venue_name": "2747 W Cermak Rd",
    "latitude": 41.85168619999999,
    "longitude": -87.69487449999997,
    "address1": "2747 West Cermak Road",
    "address2": "",
    "address3": "",
    "city": "Chicago",
    "state": "IL",
    "zip_code": "60608"
  },
  {
    "venue_id": "EB_27619785",
    "venue_name": "Ideal Wellness Centers",
    "latitude": 41.8468552,
    "longitude": -87.90529409999999,
    "address1": "1 Westbrook Corporate Center",
    "address2": "#535",
    "address3": "",
    "city": "Westchester",
    "state": "IL",
    "zip_code": "60154"
  },
  {
    "venue_id": "EB_20938926",
    "venue_name": "Columbia College Chicago",
    "latitude": 41.8742305,
    "longitude": -87.62479059999998,
    "address1": "600 South Michigan Avenue",
    "address2": "Room 1305",
    "address3": "",
    "city": "Chicago",
    "state": "IL",
    "zip_code": "60605"
  },
  {
    "venue_id": "EB_27602025",
    "venue_name": "Row 24 Chicago",
    "latitude": 41.84891700000001,
    "longitude": -87.623313,
    "address1": "2411 South Michigan Avenue",
    "address2": "",
    "address3": "",
    "city": "Chicago",
    "state": "IL",
    "zip_code": "60616"
  },
  {
    "venue_id": "EB_13195859",
    "venue_name": "Inside the main lobby of Congress Plaza Hotel",
    "latitude": 41.875069,
    "longitude": -87.62478499999997,
    "address1": "520 S Michigan Ave",
    "address2": "",
    "address3": "",
    "city": "Chicago,",
    "state": "IL",
    "zip_code": "60605"
  },
  {
    "venue_id": "EB_27558975",
    "venue_name": "Wishbone",
    "latitude": 41.8850874,
    "longitude": -87.64227670000002,
    "address1": "161 N Jefferson",
    "address2": "",
    "address3": "",
    "city": "Chicago",
    "state": "IL",
    "zip_code": "60661"
  },
  {
    "venue_id": "EB_21283763",
    "venue_name": "Emporium Logan Square",
    "latitude": 41.924349,
    "longitude": -87.69921769999996,
    "address1": "2363 North Milwaukee Avenue",
    "address2": "",
    "address3": "",
    "city": "Chicago",
    "state": "IL",
    "zip_code": "60647"
  },
  {
    "venue_id": "EB_23811624",
    "venue_name": "Chicago",
    "latitude": 41.8488771,
    "longitude": -87.6233029,
    "address1": "2411 S. Michigan",
    "address2": "",
    "address3": "",
    "city": "Chicago",
    "state": "IL",
    "zip_code": ""
  },
  {
    "venue_id": "EB_9553519",
    "venue_name": "Howard Driving School",
    "latitude": 41.8797055,
    "longitude": -87.78277300000002,
    "address1": "315 Madison St",
    "address2": "",
    "address3": "",
    "city": "Oak Park",
    "state": "IL",
    "zip_code": "60302"
  },
  {
    "venue_id": "EB_22459398",
    "venue_name": "Chicago",
    "latitude": 41.8803304,
    "longitude": -87.62567919999998,
    "address1": "Regus \u2013 Illinois, Chicago \u2013 55 E. Monroe  Address: 55 E Monroe St Suite 3800, Chicago, IL 60603, USA",
    "address2": "",
    "address3": "",
    "city": "Chicago",
    "state": "IL",
    "zip_code": ""
  },
  {
    "venue_id": "EB_27323999",
    "venue_name": "Cuvee",
    "latitude": 41.8942379,
    "longitude": -87.63614380000001,
    "address1": "308 w erie",
    "address2": "",
    "address3": "",
    "city": "",
    "state": "",
    "zip_code": ""
  },
  {
    "venue_id": "EB_27853674",
    "venue_name": "MC375 Smith Hall",
    "latitude": 41.8781136,
    "longitude": -87.62979819999998,
    "address1": "",
    "address2": "",
    "address3": "",
    "city": "Chicago",
    "state": "IL",
    "zip_code": ""
  },
  {
    "venue_id": "EB_25314603",
    "venue_name": "Taylor Street Tap",
    "latitude": 41.8695034,
    "longitude": -87.66139629999998,
    "address1": "1358 West Taylor Street",
    "address2": "",
    "address3": "",
    "city": "Chicago",
    "state": "IL",
    "zip_code": "60607"
  },
  {
    "venue_id": "EB_22681543",
    "venue_name": "St Thomas the Apostle School",
    "latitude": 41.7959711,
    "longitude": -87.59639709999999,
    "address1": "5467 South Woodlawn Avenue",
    "address2": "",
    "address3": "",
    "city": "Chicago",
    "state": "IL",
    "zip_code": "60615"
  },
  {
    "venue_id": "EB_22957089",
    "venue_name": "Emporium Fulton Market",
    "latitude": 41.8865482,
    "longitude": -87.64901959999997,
    "address1": "839 W Fulton Market",
    "address2": "",
    "address3": "",
    "city": "Chicago",
    "state": "IL",
    "zip_code": "60607"
  },
  {
    "venue_id": "EB_25842698",
    "venue_name": "",
    "latitude": 41.8829298,
    "longitude": -87.63003079999999,
    "address1": "Exact location will be provided after registration",
    "address2": "",
    "address3": "",
    "city": "Chicago",
    "state": "IL",
    "zip_code": "60616"
  },
  {
    "venue_id": "EB_19734580",
    "venue_name": "Chicago Center for Arts & Technology",
    "latitude": 41.86496630000001,
    "longitude": -87.66915999999998,
    "address1": "1701 West 13th Street",
    "address2": "",
    "address3": "",
    "city": "Chicago",
    "state": "IL",
    "zip_code": "60608"
  },
  {
    "venue_id": "EB_25204475",
    "venue_name": "Cicero Public Library",
    "latitude": 41.8507602,
    "longitude": -87.75558260000003,
    "address1": "5225 West Cermak Road",
    "address2": "",
    "address3": "",
    "city": "Cicero",
    "state": "IL",
    "zip_code": "60804"
  },
  {
    "venue_id": "EB_27521484",
    "venue_name": "On you computer",
    "latitude": 41.8781136,
    "longitude": -87.62979819999998,
    "address1": "",
    "address2": "",
    "address3": "",
    "city": "south loop",
    "state": "IL",
    "zip_code": ""
  },
  {
    "venue_id": "EB_26601128",
    "venue_name": "Your Computer",
    "latitude": 41.8925085,
    "longitude": -87.61616959999998,
    "address1": "",
    "address2": "",
    "address3": "",
    "city": "Chiacgo",
    "state": "IL",
    "zip_code": "60611"
  },
  {
    "venue_id": "EB_27614980",
    "venue_name": "Serendipity Labs",
    "latitude": 41.8816467,
    "longitude": -87.63628819999997,
    "address1": "1 South Wacker Drive",
    "address2": "##200",
    "address3": "",
    "city": "Chicago",
    "state": "IL",
    "zip_code": "60606"
  },
  {
    "venue_id": "EB_27519257",
    "venue_name": "On you computer",
    "latitude": 41.8781136,
    "longitude": -87.62979819999998,
    "address1": "",
    "address2": "",
    "address3": "",
    "city": "Downers Grove",
    "state": "IL",
    "zip_code": ""
  },
  {
    "venue_id": "EB_26166479",
    "venue_name": "Chicago",
    "latitude": 41.8781136,
    "longitude": -87.62979819999998,
    "address1": "",
    "address2": "",
    "address3": "",
    "city": "Chicago",
    "state": "IL",
    "zip_code": ""
  },
  {
    "venue_id": "EB_27140928",
    "venue_name": "The Alliance Fran\u00e7aise de Chicago",
    "latitude": 41.897108,
    "longitude": -87.63023199999998,
    "address1": "54 W Chicago Avenue",
    "address2": "",
    "address3": "",
    "city": "Chicago",
    "state": "IL",
    "zip_code": "60610"
  },
  {
    "venue_id": "EB_26600422",
    "venue_name": "Exact Location Provided upon registration",
    "latitude": 41.8403395,
    "longitude": -87.61370110000001,
    "address1": "",
    "address2": "",
    "address3": "",
    "city": "Chicago",
    "state": "IL",
    "zip_code": "60616"
  },
  {
    "venue_id": "EB_27671549",
    "venue_name": "",
    "latitude": 42.0591,
    "longitude": -87.7495,
    "address1": "WESTFIELD OLD ORCHARD MALL 4999 OLD ORCHARD CENTER B13, SKOKIE, IL 60077",
    "address2": "",
    "address3": "",
    "city": "",
    "state": "",
    "zip_code": ""
  },
  {
    "venue_id": "EB_25547980",
    "venue_name": "Venue at Elbo Room",
    "latitude": 41.9342015,
    "longitude": -87.6607525,
    "address1": "2871 N Lincoln Ave",
    "address2": "",
    "address3": "",
    "city": "Chicago",
    "state": "IL",
    "zip_code": "60657"
  },
  {
    "venue_id": "EB_27654151",
    "venue_name": "McCormick Place",
    "latitude": 41.8514826,
    "longitude": -87.616939,
    "address1": "GREENBUILD \u2013 Expo Hall floor (Booth #L803)",
    "address2": "2301 S King Dr",
    "address3": "",
    "city": "Chicago",
    "state": "IL",
    "zip_code": "60616"
  },
  {
    "venue_id": "EB_27197773",
    "venue_name": "New York",
    "latitude": 41.8823598,
    "longitude": -87.61943930000001,
    "address1": "Maggie Daley Park",
    "address2": "",
    "address3": "",
    "city": "New York",
    "state": "NY",
    "zip_code": "60007"
  },
  {
    "venue_id": "EB_27521434",
    "venue_name": "On you computer",
    "latitude": 41.8781136,
    "longitude": -87.62979819999998,
    "address1": "",
    "address2": "",
    "address3": "",
    "city": "lake in the hills",
    "state": "IL",
    "zip_code": ""
  },
  {
    "venue_id": "EB_21652104",
    "venue_name": "Wise Owl Drinkery & Cookhouse",
    "latitude": 41.8770262,
    "longitude": -87.65718179999999,
    "address1": "324 South Racine Avenue",
    "address2": "",
    "address3": "",
    "city": "Chicago, IL",
    "state": "IL",
    "zip_code": "60607"
  },
  {
    "venue_id": "EB_25440868",
    "venue_name": "Open Studio Project Inc",
    "latitude": 42.0342716,
    "longitude": -87.68197329999998,
    "address1": "903 Sherman Avenue",
    "address2": "",
    "address3": "",
    "city": "Evanston",
    "state": "IL",
    "zip_code": "60202"
  },
  {
    "venue_id": "EB_27547591",
    "venue_name": "Brewpoint Coffee - Workshop & Roastery",
    "latitude": 41.91708209999999,
    "longitude": -87.93922020000002,
    "address1": "617 North York Street",
    "address2": "",
    "address3": "",
    "city": "Elmhurst",
    "state": "IL",
    "zip_code": "60126"
  },
  {
    "venue_id": "EB_27870893",
    "venue_name": "Ambassador Chicago",
    "latitude": 41.9059674,
    "longitude": -87.62830259999998,
    "address1": "1301 North State Parkway",
    "address2": "",
    "address3": "",
    "city": "Chicago",
    "state": "IL",
    "zip_code": "60610"
  },
  {
    "venue_id": "EB_27488477",
    "venue_name": "On you computer",
    "latitude": 41.8781136,
    "longitude": -87.62979819999998,
    "address1": "",
    "address2": "",
    "address3": "",
    "city": "Chicago",
    "state": "IL",
    "zip_code": ""
  },
  {
    "venue_id": "EB_27782024",
    "venue_name": "",
    "latitude": 41.8703314,
    "longitude": -87.62357420000001,
    "address1": "",
    "address2": "",
    "address3": "",
    "city": "Chicago",
    "state": "IL",
    "zip_code": "60605"
  },
  {
    "venue_id": "EB_24482303",
    "venue_name": "W Chicago - Lakeshore",
    "latitude": 41.89391860000001,
    "longitude": -87.61536610000002,
    "address1": "644 North Lake Shore Drive",
    "address2": "",
    "address3": "",
    "city": "Chicago",
    "state": "IL",
    "zip_code": "60611"
  },
  {
    "venue_id": "EB_26256011",
    "venue_name": "Frances Cocktail Lounge",
    "latitude": 41.758237,
    "longitude": -87.61786899999998,
    "address1": "307 East 75th Street",
    "address2": "",
    "address3": "",
    "city": "Chicago",
    "state": "IL",
    "zip_code": "60619"
  },
  {
    "venue_id": "EB_27582086",
    "venue_name": "Bassline",
    "latitude": 41.8517697,
    "longitude": -87.62336210000001,
    "address1": "2239 S Michigan Ave",
    "address2": "",
    "address3": "",
    "city": "Chicago",
    "state": "IL",
    "zip_code": "60616"
  },
  {
    "venue_id": "EB_27671183",
    "venue_name": "Unity of Oak Park",
    "latitude": 41.8933626,
    "longitude": -87.7932791,
    "address1": "405 N Euclid",
    "address2": "",
    "address3": "",
    "city": "Oak Park",
    "state": "IL",
    "zip_code": "60302"
  },
  {
    "venue_id": "EB_27634606",
    "venue_name": "Chicago",
    "latitude": 41.8781136,
    "longitude": -87.62979819999998,
    "address1": "",
    "address2": "",
    "address3": "",
    "city": "Chicago",
    "state": "IL",
    "zip_code": ""
  },
  {
    "venue_id": "EB_27454783",
    "venue_name": "1118 N Ashland Ave",
    "latitude": 41.9021021,
    "longitude": -87.66783199999998,
    "address1": "1118 North Ashland Avenue",
    "address2": "",
    "address3": "",
    "city": "Chicago",
    "state": "IL",
    "zip_code": "60622"
  },
  {
    "venue_id": "EB_25960413",
    "venue_name": "2340 E 75th St",
    "latitude": 41.7591839,
    "longitude": -87.56718060000003,
    "address1": "2340 East 75th Street",
    "address2": "",
    "address3": "",
    "city": "Chicago",
    "state": "IL",
    "zip_code": "60649"
  },
  {
    "venue_id": "EB_27654160",
    "venue_name": "McCormick Place",
    "latitude": 41.8514826,
    "longitude": -87.616939,
    "address1": "2301 S King Dr",
    "address2": "GREENBUILD \u2013 Expo Hall floor (Booth #L803)",
    "address3": "",
    "city": "Chicago",
    "state": "IL",
    "zip_code": "60616"
  },
  {
    "venue_id": "EB_26107709",
    "venue_name": "West 40 ISC#2",
    "latitude": 41.86245590000001,
    "longitude": -87.89248169999996,
    "address1": "4413 west roosevelt road",
    "address2": "",
    "address3": "",
    "city": "Hillside",
    "state": "Illinois",
    "zip_code": "60162"
  },
  {
    "venue_id": "EB_27299516",
    "venue_name": "Chicago",
    "latitude": 41.9094138,
    "longitude": -87.6524483,
    "address1": "1543 n kingsbury ",
    "address2": "",
    "address3": "",
    "city": "Chicago",
    "state": "IL",
    "zip_code": ""
  },
  {
    "venue_id": "EB_25966993",
    "venue_name": "",
    "latitude": 41.8781136,
    "longitude": -87.62979819999998,
    "address1": "Address Will Be Provided After Registration",
    "address2": "",
    "address3": "",
    "city": "Chicago",
    "state": "IL",
    "zip_code": ""
  },
  {
    "venue_id": "EB_25414403",
    "venue_name": "Ultimate Rate Mortgage",
    "latitude": 42.0023664,
    "longitude": -87.86506459999998,
    "address1": "2800 S River Rd",
    "address2": "Suite 200",
    "address3": "",
    "city": "Des Plaines",
    "state": "IL",
    "zip_code": "60018"
  },
  {
    "venue_id": "EB_25998226",
    "venue_name": "Mr. Brown's Lounge",
    "latitude": 41.8955118,
    "longitude": -87.68455840000001,
    "address1": "2301 W.Chicago ",
    "address2": "",
    "address3": "",
    "city": "Chicago",
    "state": "IL",
    "zip_code": "60622"
  },
  {
    "venue_id": "EB_26826258",
    "venue_name": "WeJam DJ Academy",
    "latitude": 41.8445277,
    "longitude": -87.62488530000002,
    "address1": "2635 South Wabash",
    "address2": "Suite 305",
    "address3": "",
    "city": "Chicago",
    "state": "IL",
    "zip_code": "60616"
  },
  {
    "venue_id": "EB_26763290",
    "venue_name": "Yoggic",
    "latitude": 41.938523,
    "longitude": -87.65419659999998,
    "address1": "3110 North Sheffield Avenue",
    "address2": "",
    "address3": "",
    "city": "Chicago",
    "state": "IL",
    "zip_code": "60657"
  },
  {
    "venue_id": "EB_18200736",
    "venue_name": "StartingPoint Realty",
    "latitude": 41.94032550000001,
    "longitude": -87.67866900000001,
    "address1": "3224 North Damen Avenue",
    "address2": "",
    "address3": "",
    "city": "Chicago",
    "state": "IL",
    "zip_code": "60618"
  },
  {
    "venue_id": "EB_27303221",
    "venue_name": "ROW 24",
    "latitude": 41.8488589,
    "longitude": -87.62328500000001,
    "address1": "2411 S Michigan Ave",
    "address2": "",
    "address3": "",
    "city": "CHICAGO",
    "state": "IL",
    "zip_code": "60616"
  },
  {
    "venue_id": "EB_25842698",
    "venue_name": "",
    "latitude": 41.8829298,
    "longitude": -87.63003079999999,
    "address1": "Exact location will be provided after registration",
    "address2": "",
    "address3": "",
    "city": "Chicago",
    "state": "IL",
    "zip_code": "60616"
  },
  {
    "venue_id": "EB_26891832",
    "venue_name": "Your Computer",
    "latitude": 41.8781136,
    "longitude": -87.62979819999998,
    "address1": "",
    "address2": "",
    "address3": "",
    "city": "Chicago",
    "state": "IL",
    "zip_code": ""
  },
  {
    "venue_id": "EB_27868185",
    "venue_name": "Mind + Hand",
    "latitude": 41.79484000000001,
    "longitude": -87.723523,
    "address1": "5400 South Pulaski Road",
    "address2": "#2nd floor",
    "address3": "",
    "city": "Chicago",
    "state": "IL",
    "zip_code": "60632"
  },
  {
    "venue_id": "EB_27180756",
    "venue_name": "",
    "latitude": 41.9139,
    "longitude": -87.6773,
    "address1": "RSVP",
    "address2": "",
    "address3": "",
    "city": "",
    "state": "",
    "zip_code": ""
  },
  {
    "venue_id": "EB_26699574",
    "venue_name": "39 W 47th St",
    "latitude": 41.8087925,
    "longitude": -87.62820970000001,
    "address1": "39 West 47th Street",
    "address2": "",
    "address3": "",
    "city": "Chicago",
    "state": "IL",
    "zip_code": "60609"
  },
  {
    "venue_id": "EB_27482305",
    "venue_name": "Chicago",
    "latitude": 41.8703314,
    "longitude": -87.62357420000001,
    "address1": "",
    "address2": "",
    "address3": "",
    "city": "Chicago",
    "state": "IL",
    "zip_code": "60605"
  },
  {
    "venue_id": "EB_25547988",
    "venue_name": "Lounge at Elbo Room",
    "latitude": 41.9342015,
    "longitude": -87.6607525,
    "address1": "2871 N Lincoln Ave",
    "address2": "",
    "address3": "",
    "city": "Chicago",
    "state": "IL",
    "zip_code": "60657"
  },
  {
    "venue_id": "EB_27458589",
    "venue_name": "Shoe's Pub",
    "latitude": 41.91825739999999,
    "longitude": -87.65679799999998,
    "address1": "1134 West Armitage Avenue",
    "address2": "",
    "address3": "",
    "city": "Chicago",
    "state": "IL",
    "zip_code": "60614"
  },
  {
    "venue_id": "EB_27873296",
    "venue_name": "Sprigs and Sprouts Test Kitchen, Lincoln Park",
    "latitude": 41.9217622,
    "longitude": -87.6648586,
    "address1": "2200 North Clybourn Avenue",
    "address2": "Suite 2",
    "address3": "",
    "city": "Chicago",
    "state": "IL",
    "zip_code": "60614"
  },
  {
    "venue_id": "EB_27733633",
    "venue_name": "Soul75 Events",
    "latitude": 41.758573,
    "longitude": -87.61759799999999,
    "address1": "314 East 75th Street",
    "address2": "",
    "address3": "",
    "city": "Chicago",
    "state": "IL",
    "zip_code": "60619"
  },
  {
    "venue_id": "EB_27811374",
    "venue_name": "Equinox Lincoln Park",
    "latitude": 41.914277,
    "longitude": -87.633846,
    "address1": "1750 North Clark Street",
    "address2": "",
    "address3": "",
    "city": "Chicago",
    "state": "IL",
    "zip_code": "60614"
  },
  {
    "venue_id": "EB_27915645",
    "venue_name": "",
    "latitude": 41.8455877,
    "longitude": -87.7539448,
    "address1": "",
    "address2": "",
    "address3": "",
    "city": "Cicero",
    "state": "Illinois",
    "zip_code": ""
  },
  {
    "venue_id": "EB_27886768",
    "venue_name": "Forum 55",
    "latitude": 41.8803304,
    "longitude": -87.62567919999998,
    "address1": "55 East Monroe Street",
    "address2": "",
    "address3": "",
    "city": "Chicago",
    "state": "IL",
    "zip_code": "60603"
  },
  {
    "venue_id": "EB_27673346",
    "venue_name": "Chicago",
    "latitude": 41.8781136,
    "longitude": -87.62979819999998,
    "address1": "Chicago",
    "address2": "",
    "address3": "",
    "city": "Chicago",
    "state": "Illinois",
    "zip_code": ""
  },
  {
    "venue_id": "EB_26900723",
    "venue_name": "The Community House",
    "latitude": 41.7929439,
    "longitude": -87.93588679999999,
    "address1": "415 West 8th Street",
    "address2": "The Rotary North/South Room",
    "address3": "",
    "city": "Hinsdale",
    "state": "IL",
    "zip_code": "60521"
  },
  {
    "venue_id": "EB_27891582",
    "venue_name": "Chicago Chop House",
    "latitude": 41.8934262,
    "longitude": -87.63044719999999,
    "address1": "60 West Ontario Street",
    "address2": "",
    "address3": "",
    "city": "Chicago",
    "state": "IL",
    "zip_code": "60654"
  },
  {
    "venue_id": "EB_27908692",
    "venue_name": "Valley Lodge Tavern",
    "latitude": 42.0762524,
    "longitude": -87.7069085,
    "address1": "1141 Central Ave",
    "address2": "",
    "address3": "",
    "city": "Wilmette",
    "state": "ILLINOIS",
    "zip_code": "60091"
  },
  {
    "venue_id": "EB_21452459",
    "venue_name": "Whiskey Thief Tavern",
    "latitude": 42.046246,
    "longitude": -87.68055470000002,
    "address1": "616 Davis Street",
    "address2": "",
    "address3": "",
    "city": "Evanston",
    "state": "IL",
    "zip_code": "60201"
  },
  {
    "venue_id": "EB_26330843",
    "venue_name": "The Chakra Shoppe",
    "latitude": 41.9726386,
    "longitude": -87.6913677,
    "address1": "5034 N. Lincoln Ave.",
    "address2": "",
    "address3": "",
    "city": "Chicago",
    "state": "IL",
    "zip_code": "60625"
  },
  {
    "venue_id": "EB_27851725",
    "venue_name": "Eatwith Supper Club",
    "latitude": 41.8977309,
    "longitude": -87.69083799999999,
    "address1": "Ukrainian Village",
    "address2": "",
    "address3": "",
    "city": "Chicago",
    "state": "IL",
    "zip_code": "60622"
  },
  {
    "venue_id": "EB_25589074",
    "venue_name": "Whiskey Business",
    "latitude": 41.90675189999999,
    "longitude": -87.67155400000001,
    "address1": "1367 North Milwaukee Avenue",
    "address2": "",
    "address3": "",
    "city": "Chicago",
    "state": "IL",
    "zip_code": "60622"
  }
]