[
  {
    "venue_id": "EB_20882078",
    "venue_name": "The Empty Bottle",
    "latitude": 41.9005,
    "longitude": -87.6866,
    "address1": "1035 North Western Avenue",
    "address2": "",
    "address3": "",
    "city": "Chicago",
    "state": "IL",
    "zip_code": "60622"
  },
  {
    "venue_id": "EB_21015749",
    "venue_name": "Space",
    "latitude": 42.04087659999999,
    "longitude": -87.68009649999999,
    "address1": "1245 Chicago Avenue",
    "address2": "",
    "address3": "",
    "city": "Evanston",
    "state": "IL",
    "zip_code": "60202"
  },
  {
    "venue_id": "EB_27686636",
    "venue_name": "",
    "latitude": 41.8781136,
    "longitude": -87.62979819999998,
    "address1": "",
    "address2": "",
    "address3": "",
    "city": "Chicago",
    "state": "IL",
    "zip_code": ""
  },
  {
    "venue_id": "EB_28016418",
    "venue_name": "Chicago Cultural Center",
    "latitude": 41.8837536,
    "longitude": -87.62495150000001,
    "address1": "78 E Washington St",
    "address2": "Preston Bradley Hall",
    "address3": "",
    "city": "Chicago",
    "state": "IL",
    "zip_code": "60602"
  },
  {
    "venue_id": "EB_27884589",
    "venue_name": "Chicago Athletic Association",
    "latitude": 41.8816695,
    "longitude": -87.62500879999999,
    "address1": "12 South Michigan Avenue",
    "address2": "",
    "address3": "",
    "city": "Chicago",
    "state": "IL",
    "zip_code": "60603"
  },
  {
    "venue_id": "EB_27932585",
    "venue_name": "Harris School of Public Policy - Lecture Hall",
    "latitude": 41.785371,
    "longitude": -87.59707639999999,
    "address1": "1155 East 60th Street",
    "address2": "",
    "address3": "",
    "city": "Chicago",
    "state": "IL",
    "zip_code": "60637"
  },
  {
    "venue_id": "EB_23993919",
    "venue_name": "JC Martini Club",
    "latitude": 41.9374504,
    "longitude": -87.76687779999997,
    "address1": "3124 North Central Avenue",
    "address2": "",
    "address3": "",
    "city": "Chicago",
    "state": "IL",
    "zip_code": "60641"
  },
  {
    "venue_id": "EB_27115340",
    "venue_name": "ActiveCampaign",
    "latitude": 41.88227500000001,
    "longitude": -87.62903599999999,
    "address1": "1 North Dearborn Street",
    "address2": "",
    "address3": "",
    "city": "Chicago",
    "state": "IL",
    "zip_code": "60601"
  },
  {
    "venue_id": "EB_25999682",
    "venue_name": "Wildfire",
    "latitude": 41.893786,
    "longitude": -87.63349779999999,
    "address1": "159 W Erie St",
    "address2": "",
    "address3": "",
    "city": "Chicago",
    "state": "IL",
    "zip_code": "60654"
  },
  {
    "venue_id": "EB_27831967",
    "venue_name": "",
    "latitude": 41.8703314,
    "longitude": -87.62357420000001,
    "address1": "",
    "address2": "",
    "address3": "",
    "city": "Chicago",
    "state": "Illinois",
    "zip_code": "60605"
  },
  {
    "venue_id": "EB_25087700",
    "venue_name": "Links Hall",
    "latitude": 41.93811969999999,
    "longitude": -87.68763819999998,
    "address1": "3111 North Western Avenue",
    "address2": "",
    "address3": "",
    "city": "Chicago",
    "state": "IL",
    "zip_code": "60618"
  },
  {
    "venue_id": "EB_27942928",
    "venue_name": "AMITA Health Adventist Medical Center Hinsdale",
    "latitude": 41.8060175,
    "longitude": -87.9207065,
    "address1": "120 North Oak St. ",
    "address2": "in the Regional Board Room (5th floor)",
    "address3": "",
    "city": "Hinsdale",
    "state": "IL",
    "zip_code": "60521"
  },
  {
    "venue_id": "EB_22957089",
    "venue_name": "Emporium Fulton Market",
    "latitude": 41.8865482,
    "longitude": -87.64901959999997,
    "address1": "839 W Fulton Market",
    "address2": "",
    "address3": "",
    "city": "Chicago",
    "state": "IL",
    "zip_code": "60607"
  },
  {
    "venue_id": "EB_25345411",
    "venue_name": "The Rookery",
    "latitude": 41.89556799999999,
    "longitude": -87.67994899999997,
    "address1": "2109 West Chicago Avenue",
    "address2": "",
    "address3": "",
    "city": "Chicago",
    "state": "IL",
    "zip_code": "60622"
  },
  {
    "venue_id": "EB_21176652",
    "venue_name": "Weissbluth Pediatrics",
    "latitude": 41.8960671,
    "longitude": -87.62358340000003,
    "address1": "737 North Michigan Avenue",
    "address2": "#820",
    "address3": "",
    "city": "Chicago",
    "state": "IL",
    "zip_code": "60611"
  },
  {
    "venue_id": "EB_21272857",
    "venue_name": "Calandra Center for Health and Wellness- Chicago",
    "latitude": 41.8718,
    "longitude": -87.6291,
    "address1": "47 W. Polk St Suite M-5",
    "address2": "",
    "address3": "",
    "city": "Chicago",
    "state": "IL",
    "zip_code": "60605"
  },
  {
    "venue_id": "EB_21585708",
    "venue_name": "Harper Memorial Library",
    "latitude": 41.8683713,
    "longitude": -87.63221149999998,
    "address1": "HM 284",
    "address2": "",
    "address3": "",
    "city": "Chicago",
    "state": "IL",
    "zip_code": "60637"
  },
  {
    "venue_id": "EB_20279103",
    "venue_name": "1471 S Michigan Ave",
    "latitude": 41.8620747,
    "longitude": -87.62383820000002,
    "address1": "1471 South Michigan Avenue",
    "address2": "",
    "address3": "",
    "city": "Chicago",
    "state": "IL",
    "zip_code": "60605"
  },
  {
    "venue_id": "EB_26787125",
    "venue_name": "MakeOffices at River North",
    "latitude": 41.8887576,
    "longitude": -87.63730029999999,
    "address1": "350 N Orleans St #9000n",
    "address2": "",
    "address3": "",
    "city": "Chicago",
    "state": "IL",
    "zip_code": "60654"
  },
  {
    "venue_id": "EB_28057045",
    "venue_name": "EXIT Strategy Realty",
    "latitude": 41.91016329999999,
    "longitude": -87.6837643,
    "address1": "2235 West North Avenue",
    "address2": "",
    "address3": "",
    "city": "Chicago",
    "state": "IL",
    "zip_code": "60647"
  },
  {
    "venue_id": "EB_27927969",
    "venue_name": "Wells Street Market - Piggie Smalls",
    "latitude": 41.88644799999999,
    "longitude": -87.63429300000001,
    "address1": "205 West Wacker Drive",
    "address2": "",
    "address3": "",
    "city": "Chicago",
    "state": "IL",
    "zip_code": "60606"
  },
  {
    "venue_id": "EB_27549196",
    "venue_name": "Northeastern Illinois University",
    "latitude": 41.9805024,
    "longitude": -87.71820020000001,
    "address1": "5500 Saint Louis Avenue",
    "address2": "",
    "address3": "",
    "city": "Chicago",
    "state": "IL",
    "zip_code": "60625"
  },
  {
    "venue_id": "EB_19239559",
    "venue_name": "HVAC Pub",
    "latitude": 41.9463,
    "longitude": -87.6562,
    "address1": "3530 North Clark Street",
    "address2": "",
    "address3": "",
    "city": "Chicago",
    "state": "IL",
    "zip_code": "60657"
  },
  {
    "venue_id": "EB_25356393",
    "venue_name": "Bourbon On Division",
    "latitude": 41.9033498,
    "longitude": -87.6792436,
    "address1": "2050 W Division St",
    "address2": "",
    "address3": "",
    "city": "Chicago",
    "state": "IL",
    "zip_code": "60622"
  },
  {
    "venue_id": "EB_27643705",
    "venue_name": "Angry Pig Tavern",
    "latitude": 41.9101604,
    "longitude": -87.67907360000004,
    "address1": "2039w West North Avenue",
    "address2": "",
    "address3": "",
    "city": "Chicago",
    "state": "IL",
    "zip_code": "60647"
  },
  {
    "venue_id": "EB_27507630",
    "venue_name": "Percy Julian Middle School",
    "latitude": 41.8812718,
    "longitude": -87.7834044,
    "address1": "416 South Ridgeland Avenue",
    "address2": "Auditorium",
    "address3": "",
    "city": "Oak Park",
    "state": "IL",
    "zip_code": "60302"
  },
  {
    "venue_id": "EB_27699940",
    "venue_name": "Mahoney's Pub & Grille",
    "latitude": 41.892361,
    "longitude": -87.65768200000002,
    "address1": "551 North Ogden Avenue",
    "address2": "",
    "address3": "",
    "city": "Chicago",
    "state": "IL",
    "zip_code": "60642"
  },
  {
    "venue_id": "EB_24482303",
    "venue_name": "W Chicago - Lakeshore",
    "latitude": 41.89391860000001,
    "longitude": -87.61536610000002,
    "address1": "644 North Lake Shore Drive",
    "address2": "",
    "address3": "",
    "city": "Chicago",
    "state": "IL",
    "zip_code": "60611"
  },
  {
    "venue_id": "EB_24884852",
    "venue_name": "Laugh Factory",
    "latitude": 41.93973400000001,
    "longitude": -87.64403319999997,
    "address1": "3175 North Broadway",
    "address2": "",
    "address3": "",
    "city": "Chicago",
    "state": "IL",
    "zip_code": "60657"
  },
  {
    "venue_id": "EB_22075988",
    "venue_name": "National Runaway Safeline",
    "latitude": 41.938911,
    "longitude": -87.66714530000002,
    "address1": "3141 B N. Lincoln",
    "address2": "",
    "address3": "",
    "city": "Chicago",
    "state": "IL",
    "zip_code": "60657"
  },
  {
    "venue_id": "EB_19153991",
    "venue_name": "Stage 18 Chicago",
    "latitude": 41.86055210000001,
    "longitude": -87.6891589,
    "address1": "2558 West 16th Street",
    "address2": "",
    "address3": "",
    "city": "Chicago",
    "state": "IL",
    "zip_code": "60608"
  },
  {
    "venue_id": "EB_27901891",
    "venue_name": "Elephant & Castle",
    "latitude": 41.8792499,
    "longitude": -87.63130180000002,
    "address1": "111 West Adams Street",
    "address2": "",
    "address3": "",
    "city": "Chicago",
    "state": "IL",
    "zip_code": "60603"
  },
  {
    "venue_id": "EB_15504175",
    "venue_name": "Untitled Supper Club",
    "latitude": 41.8889649,
    "longitude": -87.63162290000002,
    "address1": "111 West Kinzie Street",
    "address2": "",
    "address3": "",
    "city": "Chicago",
    "state": "IL",
    "zip_code": "60654"
  },
  {
    "venue_id": "EB_27992253",
    "venue_name": "SAE Institute Chicago",
    "latitude": 41.8972273,
    "longitude": -87.63836850000001,
    "address1": "820 North Orleans Street",
    "address2": "#125",
    "address3": "",
    "city": "Chicago",
    "state": "IL",
    "zip_code": "60610"
  },
  {
    "venue_id": "EB_23558579",
    "venue_name": "Corner 52",
    "latitude": 41.8011575,
    "longitude": -87.5900739,
    "address1": "1438 East 52nd Street",
    "address2": "",
    "address3": "",
    "city": "Chicago",
    "state": "IL",
    "zip_code": "60615"
  },
  {
    "venue_id": "EB_27904565",
    "venue_name": "",
    "latitude": 41.8809001,
    "longitude": -87.63598960000002,
    "address1": "71 South Wacker Drive - 6th floor ",
    "address2": "Room 6605",
    "address3": "",
    "city": "Chicago",
    "state": "IL",
    "zip_code": "60606"
  },
  {
    "venue_id": "EB_27432414",
    "venue_name": "Brooks Building",
    "latitude": 41.8779196,
    "longitude": -87.63469509999999,
    "address1": "223 W Jackson St, 11th floor",
    "address2": "Suite 1100",
    "address3": "",
    "city": "Chicago",
    "state": "IL",
    "zip_code": ""
  },
  {
    "venue_id": "EB_26631899",
    "venue_name": "Galleria Marchetti",
    "latitude": 41.8931607,
    "longitude": -87.64853360000001,
    "address1": "825 West Erie Street",
    "address2": "",
    "address3": "",
    "city": "Chicago",
    "state": "IL",
    "zip_code": "60642"
  },
  {
    "venue_id": "EB_24841378",
    "venue_name": "The Robey",
    "latitude": 41.9106222,
    "longitude": -87.67826230000003,
    "address1": "2018 West North Avenue",
    "address2": "",
    "address3": "",
    "city": "Chicago",
    "state": "IL",
    "zip_code": "60647"
  },
  {
    "venue_id": "EB_27856905",
    "venue_name": "Draper and Kramer, Inc.",
    "latitude": 41.8805018,
    "longitude": -87.62566400000003,
    "address1": "55 E. Monroe Street",
    "address2": "39th Floor",
    "address3": "",
    "city": "Chicago",
    "state": "IL",
    "zip_code": "60603"
  },
  {
    "venue_id": "EB_25459520",
    "venue_name": "Ogletree, Deakins, Nash, Smoak & Stewart, P.C.",
    "latitude": 41.8850088,
    "longitude": -87.63629800000001,
    "address1": "155 North Wacker Drive",
    "address2": "Suite 4300",
    "address3": "",
    "city": "Chicago",
    "state": "IL",
    "zip_code": "60606"
  },
  {
    "venue_id": "EB_27890062",
    "venue_name": "The Four Treys Tavern",
    "latitude": 41.9424571,
    "longitude": -87.6782738,
    "address1": "3333 North Damen Avenue",
    "address2": "",
    "address3": "",
    "city": "Chicago",
    "state": "IL",
    "zip_code": "60618"
  },
  {
    "venue_id": "EB_24097493",
    "venue_name": "Chicago Scholars Foundation",
    "latitude": 41.8785491,
    "longitude": -87.62724730000002,
    "address1": "247 South State Street",
    "address2": "#700",
    "address3": "",
    "city": "Chicago",
    "state": "IL",
    "zip_code": "60604"
  },
  {
    "venue_id": "EB_25402853",
    "venue_name": "Todos Santos",
    "latitude": 41.9265047,
    "longitude": -87.69780960000003,
    "address1": "2456 North California Avenue",
    "address2": "",
    "address3": "",
    "city": "Chicago",
    "state": "IL",
    "zip_code": "60647"
  },
  {
    "venue_id": "EB_27662408",
    "venue_name": "2239 S Michigan Ave",
    "latitude": 41.8517697,
    "longitude": -87.62336210000001,
    "address1": "2239 South Michigan Avenue",
    "address2": "",
    "address3": "",
    "city": "Chicago",
    "state": "IL",
    "zip_code": "60616"
  },
  {
    "venue_id": "EB_26475986",
    "venue_name": "Benito Juarez Community Academy",
    "latitude": 41.85285019999999,
    "longitude": -87.66455400000001,
    "address1": "1450 West Cermak Road",
    "address2": "",
    "address3": "",
    "city": "Chicago",
    "state": "IL",
    "zip_code": "60608"
  },
  {
    "venue_id": "EB_27680952",
    "venue_name": "Humboldt Park Library",
    "latitude": 41.9104786,
    "longitude": -87.7052918,
    "address1": "1605 N. Troy St.",
    "address2": "",
    "address3": "",
    "city": "Chicago",
    "state": "IL",
    "zip_code": "60647"
  },
  {
    "venue_id": "EB_28018363",
    "venue_name": "Harris Hall",
    "latitude": 42.0512834,
    "longitude": -87.6762895,
    "address1": "1881 Sheridan Road",
    "address2": "Room 108",
    "address3": "",
    "city": "Evanston",
    "state": "IL",
    "zip_code": "60208"
  },
  {
    "venue_id": "EB_27496855",
    "venue_name": "Macy's",
    "latitude": 41.88387600000001,
    "longitude": -87.62703599999998,
    "address1": "111 North State Street",
    "address2": "",
    "address3": "",
    "city": "Chicago",
    "state": "IL",
    "zip_code": "60602"
  },
  {
    "venue_id": "EB_27665148",
    "venue_name": "TechNexus",
    "latitude": 41.882564,
    "longitude": -87.63742460000003,
    "address1": "20 North Upper Wacker Drive",
    "address2": "##1200",
    "address3": "",
    "city": "Chicago",
    "state": "IL",
    "zip_code": "60606"
  },
  {
    "venue_id": "EB_20882078",
    "venue_name": "The Empty Bottle",
    "latitude": 41.9005,
    "longitude": -87.6866,
    "address1": "1035 North Western Avenue",
    "address2": "",
    "address3": "",
    "city": "Chicago",
    "state": "IL",
    "zip_code": "60622"
  },
  {
    "venue_id": "EB_21015749",
    "venue_name": "Space",
    "latitude": 42.04087659999999,
    "longitude": -87.68009649999999,
    "address1": "1245 Chicago Avenue",
    "address2": "",
    "address3": "",
    "city": "Evanston",
    "state": "IL",
    "zip_code": "60202"
  },
  {
    "venue_id": "EB_27686636",
    "venue_name": "",
    "latitude": 41.8781136,
    "longitude": -87.62979819999998,
    "address1": "",
    "address2": "",
    "address3": "",
    "city": "Chicago",
    "state": "IL",
    "zip_code": ""
  },
  {
    "venue_id": "EB_28016418",
    "venue_name": "Chicago Cultural Center",
    "latitude": 41.8837536,
    "longitude": -87.62495150000001,
    "address1": "78 E Washington St",
    "address2": "Preston Bradley Hall",
    "address3": "",
    "city": "Chicago",
    "state": "IL",
    "zip_code": "60602"
  },
  {
    "venue_id": "EB_27884589",
    "venue_name": "Chicago Athletic Association",
    "latitude": 41.8816695,
    "longitude": -87.62500879999999,
    "address1": "12 South Michigan Avenue",
    "address2": "",
    "address3": "",
    "city": "Chicago",
    "state": "IL",
    "zip_code": "60603"
  },
  {
    "venue_id": "EB_27932585",
    "venue_name": "Harris School of Public Policy - Lecture Hall",
    "latitude": 41.785371,
    "longitude": -87.59707639999999,
    "address1": "1155 East 60th Street",
    "address2": "",
    "address3": "",
    "city": "Chicago",
    "state": "IL",
    "zip_code": "60637"
  },
  {
    "venue_id": "EB_23993919",
    "venue_name": "JC Martini Club",
    "latitude": 41.9374504,
    "longitude": -87.76687779999997,
    "address1": "3124 North Central Avenue",
    "address2": "",
    "address3": "",
    "city": "Chicago",
    "state": "IL",
    "zip_code": "60641"
  },
  {
    "venue_id": "EB_27115340",
    "venue_name": "ActiveCampaign",
    "latitude": 41.88227500000001,
    "longitude": -87.62903599999999,
    "address1": "1 North Dearborn Street",
    "address2": "",
    "address3": "",
    "city": "Chicago",
    "state": "IL",
    "zip_code": "60601"
  },
  {
    "venue_id": "EB_25999682",
    "venue_name": "Wildfire",
    "latitude": 41.893786,
    "longitude": -87.63349779999999,
    "address1": "159 W Erie St",
    "address2": "",
    "address3": "",
    "city": "Chicago",
    "state": "IL",
    "zip_code": "60654"
  },
  {
    "venue_id": "EB_27831967",
    "venue_name": "",
    "latitude": 41.8703314,
    "longitude": -87.62357420000001,
    "address1": "",
    "address2": "",
    "address3": "",
    "city": "Chicago",
    "state": "Illinois",
    "zip_code": "60605"
  },
  {
    "venue_id": "EB_25087700",
    "venue_name": "Links Hall",
    "latitude": 41.93811969999999,
    "longitude": -87.68763819999998,
    "address1": "3111 North Western Avenue",
    "address2": "",
    "address3": "",
    "city": "Chicago",
    "state": "IL",
    "zip_code": "60618"
  },
  {
    "venue_id": "EB_27942928",
    "venue_name": "AMITA Health Adventist Medical Center Hinsdale",
    "latitude": 41.8060175,
    "longitude": -87.9207065,
    "address1": "120 North Oak St. ",
    "address2": "in the Regional Board Room (5th floor)",
    "address3": "",
    "city": "Hinsdale",
    "state": "IL",
    "zip_code": "60521"
  },
  {
    "venue_id": "EB_22957089",
    "venue_name": "Emporium Fulton Market",
    "latitude": 41.8865482,
    "longitude": -87.64901959999997,
    "address1": "839 W Fulton Market",
    "address2": "",
    "address3": "",
    "city": "Chicago",
    "state": "IL",
    "zip_code": "60607"
  },
  {
    "venue_id": "EB_25345411",
    "venue_name": "The Rookery",
    "latitude": 41.89556799999999,
    "longitude": -87.67994899999997,
    "address1": "2109 West Chicago Avenue",
    "address2": "",
    "address3": "",
    "city": "Chicago",
    "state": "IL",
    "zip_code": "60622"
  },
  {
    "venue_id": "EB_21176652",
    "venue_name": "Weissbluth Pediatrics",
    "latitude": 41.8960671,
    "longitude": -87.62358340000003,
    "address1": "737 North Michigan Avenue",
    "address2": "#820",
    "address3": "",
    "city": "Chicago",
    "state": "IL",
    "zip_code": "60611"
  },
  {
    "venue_id": "EB_21272857",
    "venue_name": "Calandra Center for Health and Wellness- Chicago",
    "latitude": 41.8718,
    "longitude": -87.6291,
    "address1": "47 W. Polk St Suite M-5",
    "address2": "",
    "address3": "",
    "city": "Chicago",
    "state": "IL",
    "zip_code": "60605"
  },
  {
    "venue_id": "EB_21585708",
    "venue_name": "Harper Memorial Library",
    "latitude": 41.8683713,
    "longitude": -87.63221149999998,
    "address1": "HM 284",
    "address2": "",
    "address3": "",
    "city": "Chicago",
    "state": "IL",
    "zip_code": "60637"
  },
  {
    "venue_id": "EB_20279103",
    "venue_name": "1471 S Michigan Ave",
    "latitude": 41.8620747,
    "longitude": -87.62383820000002,
    "address1": "1471 South Michigan Avenue",
    "address2": "",
    "address3": "",
    "city": "Chicago",
    "state": "IL",
    "zip_code": "60605"
  },
  {
    "venue_id": "EB_26787125",
    "venue_name": "MakeOffices at River North",
    "latitude": 41.8887576,
    "longitude": -87.63730029999999,
    "address1": "350 N Orleans St #9000n",
    "address2": "",
    "address3": "",
    "city": "Chicago",
    "state": "IL",
    "zip_code": "60654"
  },
  {
    "venue_id": "EB_28057045",
    "venue_name": "EXIT Strategy Realty",
    "latitude": 41.91016329999999,
    "longitude": -87.6837643,
    "address1": "2235 West North Avenue",
    "address2": "",
    "address3": "",
    "city": "Chicago",
    "state": "IL",
    "zip_code": "60647"
  },
  {
    "venue_id": "EB_27927969",
    "venue_name": "Wells Street Market - Piggie Smalls",
    "latitude": 41.88644799999999,
    "longitude": -87.63429300000001,
    "address1": "205 West Wacker Drive",
    "address2": "",
    "address3": "",
    "city": "Chicago",
    "state": "IL",
    "zip_code": "60606"
  },
  {
    "venue_id": "EB_27549196",
    "venue_name": "Northeastern Illinois University",
    "latitude": 41.9805024,
    "longitude": -87.71820020000001,
    "address1": "5500 Saint Louis Avenue",
    "address2": "",
    "address3": "",
    "city": "Chicago",
    "state": "IL",
    "zip_code": "60625"
  },
  {
    "venue_id": "EB_19239559",
    "venue_name": "HVAC Pub",
    "latitude": 41.9463,
    "longitude": -87.6562,
    "address1": "3530 North Clark Street",
    "address2": "",
    "address3": "",
    "city": "Chicago",
    "state": "IL",
    "zip_code": "60657"
  },
  {
    "venue_id": "EB_25356393",
    "venue_name": "Bourbon On Division",
    "latitude": 41.9033498,
    "longitude": -87.6792436,
    "address1": "2050 W Division St",
    "address2": "",
    "address3": "",
    "city": "Chicago",
    "state": "IL",
    "zip_code": "60622"
  },
  {
    "venue_id": "EB_27643705",
    "venue_name": "Angry Pig Tavern",
    "latitude": 41.9101604,
    "longitude": -87.67907360000004,
    "address1": "2039w West North Avenue",
    "address2": "",
    "address3": "",
    "city": "Chicago",
    "state": "IL",
    "zip_code": "60647"
  },
  {
    "venue_id": "EB_27507630",
    "venue_name": "Percy Julian Middle School",
    "latitude": 41.8812718,
    "longitude": -87.7834044,
    "address1": "416 South Ridgeland Avenue",
    "address2": "Auditorium",
    "address3": "",
    "city": "Oak Park",
    "state": "IL",
    "zip_code": "60302"
  },
  {
    "venue_id": "EB_27699940",
    "venue_name": "Mahoney's Pub & Grille",
    "latitude": 41.892361,
    "longitude": -87.65768200000002,
    "address1": "551 North Ogden Avenue",
    "address2": "",
    "address3": "",
    "city": "Chicago",
    "state": "IL",
    "zip_code": "60642"
  },
  {
    "venue_id": "EB_24482303",
    "venue_name": "W Chicago - Lakeshore",
    "latitude": 41.89391860000001,
    "longitude": -87.61536610000002,
    "address1": "644 North Lake Shore Drive",
    "address2": "",
    "address3": "",
    "city": "Chicago",
    "state": "IL",
    "zip_code": "60611"
  },
  {
    "venue_id": "EB_24884852",
    "venue_name": "Laugh Factory",
    "latitude": 41.93973400000001,
    "longitude": -87.64403319999997,
    "address1": "3175 North Broadway",
    "address2": "",
    "address3": "",
    "city": "Chicago",
    "state": "IL",
    "zip_code": "60657"
  },
  {
    "venue_id": "EB_22075988",
    "venue_name": "National Runaway Safeline",
    "latitude": 41.938911,
    "longitude": -87.66714530000002,
    "address1": "3141 B N. Lincoln",
    "address2": "",
    "address3": "",
    "city": "Chicago",
    "state": "IL",
    "zip_code": "60657"
  },
  {
    "venue_id": "EB_19153991",
    "venue_name": "Stage 18 Chicago",
    "latitude": 41.86055210000001,
    "longitude": -87.6891589,
    "address1": "2558 West 16th Street",
    "address2": "",
    "address3": "",
    "city": "Chicago",
    "state": "IL",
    "zip_code": "60608"
  },
  {
    "venue_id": "EB_27901891",
    "venue_name": "Elephant & Castle",
    "latitude": 41.8792499,
    "longitude": -87.63130180000002,
    "address1": "111 West Adams Street",
    "address2": "",
    "address3": "",
    "city": "Chicago",
    "state": "IL",
    "zip_code": "60603"
  },
  {
    "venue_id": "EB_15504175",
    "venue_name": "Untitled Supper Club",
    "latitude": 41.8889649,
    "longitude": -87.63162290000002,
    "address1": "111 West Kinzie Street",
    "address2": "",
    "address3": "",
    "city": "Chicago",
    "state": "IL",
    "zip_code": "60654"
  },
  {
    "venue_id": "EB_27992253",
    "venue_name": "SAE Institute Chicago",
    "latitude": 41.8972273,
    "longitude": -87.63836850000001,
    "address1": "820 North Orleans Street",
    "address2": "#125",
    "address3": "",
    "city": "Chicago",
    "state": "IL",
    "zip_code": "60610"
  },
  {
    "venue_id": "EB_23558579",
    "venue_name": "Corner 52",
    "latitude": 41.8011575,
    "longitude": -87.5900739,
    "address1": "1438 East 52nd Street",
    "address2": "",
    "address3": "",
    "city": "Chicago",
    "state": "IL",
    "zip_code": "60615"
  },
  {
    "venue_id": "EB_27904565",
    "venue_name": "",
    "latitude": 41.8809001,
    "longitude": -87.63598960000002,
    "address1": "71 South Wacker Drive - 6th floor ",
    "address2": "Room 6605",
    "address3": "",
    "city": "Chicago",
    "state": "IL",
    "zip_code": "60606"
  },
  {
    "venue_id": "EB_27432414",
    "venue_name": "Brooks Building",
    "latitude": 41.8779196,
    "longitude": -87.63469509999999,
    "address1": "223 W Jackson St, 11th floor",
    "address2": "Suite 1100",
    "address3": "",
    "city": "Chicago",
    "state": "IL",
    "zip_code": ""
  },
  {
    "venue_id": "EB_26631899",
    "venue_name": "Galleria Marchetti",
    "latitude": 41.8931607,
    "longitude": -87.64853360000001,
    "address1": "825 West Erie Street",
    "address2": "",
    "address3": "",
    "city": "Chicago",
    "state": "IL",
    "zip_code": "60642"
  },
  {
    "venue_id": "EB_24841378",
    "venue_name": "The Robey",
    "latitude": 41.9106222,
    "longitude": -87.67826230000003,
    "address1": "2018 West North Avenue",
    "address2": "",
    "address3": "",
    "city": "Chicago",
    "state": "IL",
    "zip_code": "60647"
  },
  {
    "venue_id": "EB_27856905",
    "venue_name": "Draper and Kramer, Inc.",
    "latitude": 41.8805018,
    "longitude": -87.62566400000003,
    "address1": "55 E. Monroe Street",
    "address2": "39th Floor",
    "address3": "",
    "city": "Chicago",
    "state": "IL",
    "zip_code": "60603"
  },
  {
    "venue_id": "EB_25459520",
    "venue_name": "Ogletree, Deakins, Nash, Smoak & Stewart, P.C.",
    "latitude": 41.8850088,
    "longitude": -87.63629800000001,
    "address1": "155 North Wacker Drive",
    "address2": "Suite 4300",
    "address3": "",
    "city": "Chicago",
    "state": "IL",
    "zip_code": "60606"
  },
  {
    "venue_id": "EB_27890062",
    "venue_name": "The Four Treys Tavern",
    "latitude": 41.9424571,
    "longitude": -87.6782738,
    "address1": "3333 North Damen Avenue",
    "address2": "",
    "address3": "",
    "city": "Chicago",
    "state": "IL",
    "zip_code": "60618"
  },
  {
    "venue_id": "EB_24097493",
    "venue_name": "Chicago Scholars Foundation",
    "latitude": 41.8785491,
    "longitude": -87.62724730000002,
    "address1": "247 South State Street",
    "address2": "#700",
    "address3": "",
    "city": "Chicago",
    "state": "IL",
    "zip_code": "60604"
  },
  {
    "venue_id": "EB_25402853",
    "venue_name": "Todos Santos",
    "latitude": 41.9265047,
    "longitude": -87.69780960000003,
    "address1": "2456 North California Avenue",
    "address2": "",
    "address3": "",
    "city": "Chicago",
    "state": "IL",
    "zip_code": "60647"
  },
  {
    "venue_id": "EB_27662408",
    "venue_name": "2239 S Michigan Ave",
    "latitude": 41.8517697,
    "longitude": -87.62336210000001,
    "address1": "2239 South Michigan Avenue",
    "address2": "",
    "address3": "",
    "city": "Chicago",
    "state": "IL",
    "zip_code": "60616"
  },
  {
    "venue_id": "EB_26475986",
    "venue_name": "Benito Juarez Community Academy",
    "latitude": 41.85285019999999,
    "longitude": -87.66455400000001,
    "address1": "1450 West Cermak Road",
    "address2": "",
    "address3": "",
    "city": "Chicago",
    "state": "IL",
    "zip_code": "60608"
  },
  {
    "venue_id": "EB_27680952",
    "venue_name": "Humboldt Park Library",
    "latitude": 41.9104786,
    "longitude": -87.7052918,
    "address1": "1605 N. Troy St.",
    "address2": "",
    "address3": "",
    "city": "Chicago",
    "state": "IL",
    "zip_code": "60647"
  },
  {
    "venue_id": "EB_28018363",
    "venue_name": "Harris Hall",
    "latitude": 42.0512834,
    "longitude": -87.6762895,
    "address1": "1881 Sheridan Road",
    "address2": "Room 108",
    "address3": "",
    "city": "Evanston",
    "state": "IL",
    "zip_code": "60208"
  },
  {
    "venue_id": "EB_27496855",
    "venue_name": "Macy's",
    "latitude": 41.88387600000001,
    "longitude": -87.62703599999998,
    "address1": "111 North State Street",
    "address2": "",
    "address3": "",
    "city": "Chicago",
    "state": "IL",
    "zip_code": "60602"
  },
  {
    "venue_id": "EB_27665148",
    "venue_name": "TechNexus",
    "latitude": 41.882564,
    "longitude": -87.63742460000003,
    "address1": "20 North Upper Wacker Drive",
    "address2": "##1200",
    "address3": "",
    "city": "Chicago",
    "state": "IL",
    "zip_code": "60606"
  },
  {
    "venue_id": "EB_23811624",
    "venue_name": "Chicago",
    "latitude": 41.8488771,
    "longitude": -87.6233029,
    "address1": "2411 S. Michigan",
    "address2": "",
    "address3": "",
    "city": "Chicago",
    "state": "IL",
    "zip_code": ""
  },
  {
    "venue_id": "EB_27303221",
    "venue_name": "ROW 24",
    "latitude": 41.8488589,
    "longitude": -87.62328500000001,
    "address1": "2411 S Michigan Ave",
    "address2": "",
    "address3": "",
    "city": "CHICAGO",
    "state": "IL",
    "zip_code": "60616"
  },
  {
    "venue_id": "EB_13058261",
    "venue_name": "Extreme Toastmasters",
    "latitude": 41.898058,
    "longitude": -87.631674,
    "address1": "100 W Chestnut Street",
    "address2": "",
    "address3": "",
    "city": "Chicago",
    "state": "IL",
    "zip_code": "60610"
  },
  {
    "venue_id": "EB_21683696",
    "venue_name": "GT Fish & Oyster and GT Prime",
    "latitude": 41.8929153,
    "longitude": -87.63591250000002,
    "address1": "",
    "address2": "",
    "address3": "",
    "city": "Chicago",
    "state": "IL",
    "zip_code": "60654"
  },
  {
    "venue_id": "EB_28084837",
    "venue_name": "Charles A. Hayes Family Investment Center",
    "latitude": 41.806116,
    "longitude": -87.624007,
    "address1": "4859 South Wabash Avenue",
    "address2": "",
    "address3": "",
    "city": "Chicago",
    "state": "IL",
    "zip_code": "60615"
  },
  {
    "venue_id": "EB_23536385",
    "venue_name": "Harold Washington College",
    "latitude": 41.8859116,
    "longitude": -87.62648890000003,
    "address1": "30 East Lake Street",
    "address2": "",
    "address3": "",
    "city": "Chicago",
    "state": "IL",
    "zip_code": "60601"
  },
  {
    "venue_id": "EB_21283763",
    "venue_name": "Emporium Logan Square",
    "latitude": 41.924349,
    "longitude": -87.69921769999996,
    "address1": "2363 North Milwaukee Avenue",
    "address2": "",
    "address3": "",
    "city": "Chicago",
    "state": "IL",
    "zip_code": "60647"
  },
  {
    "venue_id": "EB_26600422",
    "venue_name": "Exact Location Provided upon registration",
    "latitude": 41.8403395,
    "longitude": -87.61370110000001,
    "address1": "",
    "address2": "",
    "address3": "",
    "city": "Chicago",
    "state": "IL",
    "zip_code": "60616"
  },
  {
    "venue_id": "EB_25998226",
    "venue_name": "Mr. Brown's Lounge",
    "latitude": 41.8955118,
    "longitude": -87.68455840000001,
    "address1": "2301 W.Chicago ",
    "address2": "",
    "address3": "",
    "city": "Chicago",
    "state": "IL",
    "zip_code": "60622"
  },
  {
    "venue_id": "EB_26958786",
    "venue_name": "7 E Redwood St",
    "latitude": 41.8675866,
    "longitude": -87.6139657,
    "address1": "15- Key Learning Lab",
    "address2": "",
    "address3": "",
    "city": "Baltimore",
    "state": "MD",
    "zip_code": "21202"
  },
  {
    "venue_id": "EB_20881999",
    "venue_name": "The Promontory",
    "latitude": 41.7991,
    "longitude": -87.5876,
    "address1": "5311 South Lake Park Avenue West",
    "address2": "",
    "address3": "",
    "city": "Chicago",
    "state": "IL",
    "zip_code": "60615"
  },
  {
    "venue_id": "EB_23719666",
    "venue_name": "Chicago,IL",
    "latitude": 41.8781136,
    "longitude": -87.62979819999998,
    "address1": "",
    "address2": "",
    "address3": "",
    "city": "Chicago,IL",
    "state": "Chicago,IL",
    "zip_code": ""
  },
  {
    "venue_id": "EB_23220929",
    "venue_name": "Fine Arts Building, Suite 943",
    "latitude": 41.8764524,
    "longitude": -87.62486899999999,
    "address1": "410 South Michigan Avenue",
    "address2": "",
    "address3": "",
    "city": "Chicago",
    "state": "IL",
    "zip_code": "60605"
  },
  {
    "venue_id": "EB_27203546",
    "venue_name": "73 W Monroe St",
    "latitude": 41.88036049999999,
    "longitude": -87.63025679999998,
    "address1": "73 West Monroe Street",
    "address2": "3rd Floor Conference Room",
    "address3": "",
    "city": "Chicago",
    "state": "IL",
    "zip_code": "60603"
  },
  {
    "venue_id": "EB_24063202",
    "venue_name": "Sip & Paint",
    "latitude": 41.96102020000001,
    "longitude": -87.75511519999998,
    "address1": "4412 North Milwaukee Avenue",
    "address2": "",
    "address3": "",
    "city": "Chicago",
    "state": "IL",
    "zip_code": "60630"
  },
  {
    "venue_id": "EB_19581145",
    "venue_name": "Celtic Knot Public House",
    "latitude": 42.0479642,
    "longitude": -87.68010960000004,
    "address1": "626 Church Street",
    "address2": "",
    "address3": "",
    "city": "Evanston",
    "state": "IL",
    "zip_code": "60201"
  },
  {
    "venue_id": "EB_13195859",
    "venue_name": "Inside the main lobby of Congress Plaza Hotel",
    "latitude": 41.875069,
    "longitude": -87.62478499999997,
    "address1": "520 S Michigan Ave",
    "address2": "",
    "address3": "",
    "city": "Chicago,",
    "state": "IL",
    "zip_code": "60605"
  },
  {
    "venue_id": "EB_26085128",
    "venue_name": "Avalon Branch, Chicago Public Library",
    "latitude": 41.746338,
    "longitude": -87.58621,
    "address1": "8148 South Stony Island Avenue",
    "address2": "",
    "address3": "",
    "city": "Chicago",
    "state": "IL",
    "zip_code": "60617"
  },
  {
    "venue_id": "EB_25204475",
    "venue_name": "Cicero Public Library",
    "latitude": 41.8507602,
    "longitude": -87.75558260000003,
    "address1": "5225 West Cermak Road",
    "address2": "",
    "address3": "",
    "city": "Cicero",
    "state": "IL",
    "zip_code": "60804"
  },
  {
    "venue_id": "EB_25172987",
    "venue_name": "Ideal Wellness Centers",
    "latitude": 41.8468552,
    "longitude": -87.90529409999999,
    "address1": "1 Westbrook Corporate Center",
    "address2": "#300",
    "address3": "",
    "city": "Westchester",
    "state": "IL",
    "zip_code": "60154"
  },
  {
    "venue_id": "EB_23259835",
    "venue_name": "South Loop, Chicago- Please Register Online",
    "latitude": 41.8460691,
    "longitude": -87.62364339999999,
    "address1": "S Michigan Avenue",
    "address2": "",
    "address3": "",
    "city": "Chicago",
    "state": "IL",
    "zip_code": "60616"
  },
  {
    "venue_id": "EB_18200736",
    "venue_name": "StartingPoint Realty",
    "latitude": 41.94032550000001,
    "longitude": -87.67866900000001,
    "address1": "3224 North Damen Avenue",
    "address2": "",
    "address3": "",
    "city": "Chicago",
    "state": "IL",
    "zip_code": "60618"
  },
  {
    "venue_id": "EB_21315362",
    "venue_name": "720 Bar at Hilton Chicago",
    "latitude": 41.8725329,
    "longitude": -87.62485019999997,
    "address1": "720 South Michigan Avenue",
    "address2": "",
    "address3": "",
    "city": "Chicago",
    "state": "IL",
    "zip_code": "60605"
  },
  {
    "venue_id": "EB_27350906",
    "venue_name": "S Loop \"SLoop\"",
    "latitude": 41.8426866,
    "longitude": -87.62332520000001,
    "address1": "South Michigan Avenue",
    "address2": "Address Given via Text Mess After You Register",
    "address3": "",
    "city": "Chicago",
    "state": "IL",
    "zip_code": "60616"
  },
  {
    "venue_id": "EB_27297372",
    "venue_name": "The Comedy Bar ",
    "latitude": 41.8908018,
    "longitude": -87.63268690000001,
    "address1": "500 N LaSalle St",
    "address2": "",
    "address3": "",
    "city": "Chicago",
    "state": "IL",
    "zip_code": "60654"
  },
  {
    "venue_id": "EB_25555406",
    "venue_name": "2747 W Cermak Rd",
    "latitude": 41.85168619999999,
    "longitude": -87.69487449999997,
    "address1": "2747 West Cermak Road",
    "address2": "",
    "address3": "",
    "city": "Chicago",
    "state": "IL",
    "zip_code": "60608"
  },
  {
    "venue_id": "EB_25547980",
    "venue_name": "Venue at Elbo Room",
    "latitude": 41.9342015,
    "longitude": -87.6607525,
    "address1": "2871 N Lincoln Ave",
    "address2": "",
    "address3": "",
    "city": "Chicago",
    "state": "IL",
    "zip_code": "60657"
  },
  {
    "venue_id": "EB_23195886",
    "venue_name": "Mind Body Healing Center",
    "latitude": 41.8829466,
    "longitude": -87.63067620000004,
    "address1": "77 West Washington Street",
    "address2": "#1704",
    "address3": "",
    "city": "Chicago",
    "state": "IL",
    "zip_code": "60602"
  },
  {
    "venue_id": "EB_18952329",
    "venue_name": "Chicago IL",
    "latitude": 41.8781136,
    "longitude": -87.62979819999998,
    "address1": "Chicago IL",
    "address2": "",
    "address3": "",
    "city": "Chicago IL",
    "state": "IL",
    "zip_code": ""
  },
  {
    "venue_id": "EB_27602025",
    "venue_name": "Row 24 Chicago",
    "latitude": 41.84891700000001,
    "longitude": -87.623313,
    "address1": "2411 South Michigan Avenue",
    "address2": "",
    "address3": "",
    "city": "Chicago",
    "state": "IL",
    "zip_code": "60616"
  },
  {
    "venue_id": "EB_22369772",
    "venue_name": "REAL ESTATE INVESTOR BUSINESS ORIENTATION",
    "latitude": 41.8337369,
    "longitude": -87.6262408,
    "address1": "Address Sent By Email Upon Registration",
    "address2": "",
    "address3": "",
    "city": "Chicago",
    "state": "IL",
    "zip_code": "60606"
  },
  {
    "venue_id": "EB_26631058",
    "venue_name": "",
    "latitude": 41.8512195,
    "longitude": -87.6170282,
    "address1": "Full address given upon registration",
    "address2": "",
    "address3": "",
    "city": "Chicago",
    "state": "IL",
    "zip_code": "60616"
  },
  {
    "venue_id": "EB_26231992",
    "venue_name": "Third Coast Comics",
    "latitude": 41.9995728,
    "longitude": -87.6604767,
    "address1": "6443 North Sheridan Road",
    "address2": "",
    "address3": "",
    "city": "Chicago",
    "state": "IL",
    "zip_code": "60626"
  },
  {
    "venue_id": "EB_23237976",
    "venue_name": "",
    "latitude": 41.8403395,
    "longitude": -87.61370110000001,
    "address1": "SOUTH LOOP",
    "address2": "",
    "address3": "",
    "city": "Chicago",
    "state": "",
    "zip_code": "60616"
  },
  {
    "venue_id": "EB_26745743",
    "venue_name": "724 W Hubbard St",
    "latitude": 41.890291,
    "longitude": -87.6468792,
    "address1": "724 West Hubbard Street",
    "address2": "",
    "address3": "",
    "city": "Chicago",
    "state": "IL",
    "zip_code": "60654"
  },
  {
    "venue_id": "EB_24468609",
    "venue_name": "HiFi Personal Fitness",
    "latitude": 41.8972381,
    "longitude": -87.63738160000003,
    "address1": "820 North Orleans Street",
    "address2": "## 110",
    "address3": "",
    "city": "Chicago",
    "state": "IL",
    "zip_code": "60610"
  },
  {
    "venue_id": "EB_27932844",
    "venue_name": "Reunion",
    "latitude": 41.9099681,
    "longitude": -87.69187750000003,
    "address1": "2557 West North Avenue",
    "address2": "",
    "address3": "",
    "city": "Chicago",
    "state": "IL",
    "zip_code": "60647"
  },
  {
    "venue_id": "EB_28084379",
    "venue_name": "Curated by TK",
    "latitude": 41.9358831,
    "longitude": -87.64723979999997,
    "address1": "2937 North Clark Street",
    "address2": "",
    "address3": "",
    "city": "Chicago",
    "state": "IL",
    "zip_code": "60657"
  },
  {
    "venue_id": "EB_25831183",
    "venue_name": "WeWork State Street",
    "latitude": 41.8806184,
    "longitude": -87.62831560000001,
    "address1": "100 South State Street",
    "address2": "",
    "address3": "",
    "city": "Chicago",
    "state": "IL",
    "zip_code": "60603"
  },
  {
    "venue_id": "EB_25589074",
    "venue_name": "Whiskey Business",
    "latitude": 41.90675189999999,
    "longitude": -87.67155400000001,
    "address1": "1367 North Milwaukee Avenue",
    "address2": "",
    "address3": "",
    "city": "Chicago",
    "state": "IL",
    "zip_code": "60622"
  },
  {
    "venue_id": "EB_25314603",
    "venue_name": "Taylor Street Tap",
    "latitude": 41.8695034,
    "longitude": -87.66139629999998,
    "address1": "1358 West Taylor Street",
    "address2": "",
    "address3": "",
    "city": "Chicago",
    "state": "IL",
    "zip_code": "60607"
  },
  {
    "venue_id": "EB_27869163",
    "venue_name": "Rebuilding Exchange",
    "latitude": 41.921661,
    "longitude": -87.67147799999998,
    "address1": "1740 West Webster Avenue",
    "address2": "",
    "address3": "",
    "city": "Chicago",
    "state": "IL",
    "zip_code": "60614"
  },
  {
    "venue_id": "EB_11019501",
    "venue_name": "ReBuilding Exchange",
    "latitude": 41.921661,
    "longitude": -87.67147799999998,
    "address1": "1740 West Webster Avenue",
    "address2": "",
    "address3": "",
    "city": "Chicago",
    "state": "IL",
    "zip_code": "60614"
  },
  {
    "venue_id": "EB_11521880",
    "venue_name": "Instituto Cervantes",
    "latitude": 41.892092,
    "longitude": -87.62927000000002,
    "address1": "31 West Ohio Street",
    "address2": "",
    "address3": "",
    "city": "Chicago",
    "state": "IL",
    "zip_code": "60654"
  },
  {
    "venue_id": "EB_27619785",
    "venue_name": "Ideal Wellness Centers",
    "latitude": 41.8468552,
    "longitude": -87.90529409999999,
    "address1": "1 Westbrook Corporate Center",
    "address2": "#535",
    "address3": "",
    "city": "Westchester",
    "state": "IL",
    "zip_code": "60154"
  },
  {
    "venue_id": "EB_24602377",
    "venue_name": "online",
    "latitude": 41.879211,
    "longitude": -87.62484999999998,
    "address1": "200 S Michigan Ave",
    "address2": "",
    "address3": "",
    "city": "chicago",
    "state": "IL",
    "zip_code": "60604"
  },
  {
    "venue_id": "EB_27537368",
    "venue_name": "City Lit Theater",
    "latitude": 41.9838916,
    "longitude": -87.65631259999998,
    "address1": "1020 W. Bryn Mawr Ave.",
    "address2": "",
    "address3": "",
    "city": "Chicago",
    "state": "IL",
    "zip_code": "60660"
  },
  {
    "venue_id": "EB_27543324",
    "venue_name": "",
    "latitude": 41.8781136,
    "longitude": -87.62979819999998,
    "address1": "",
    "address2": "",
    "address3": "",
    "city": "Chicago",
    "state": "IL",
    "zip_code": ""
  },
  {
    "venue_id": "EB_26601128",
    "venue_name": "Your Computer",
    "latitude": 41.8925085,
    "longitude": -87.61616959999998,
    "address1": "",
    "address2": "",
    "address3": "",
    "city": "Chiacgo",
    "state": "IL",
    "zip_code": "60611"
  }
]