[
  {
    "venue_id": "EB_27543324",
    "venue_name": "",
    "latitude": 41.8781136,
    "longitude": -87.62979819999998,
    "address1": "",
    "address2": "",
    "address3": "",
    "city": "Chicago",
    "state": "IL",
    "zip_code": ""
  },
  {
    "venue_id": "EB_27791481",
    "venue_name": "Washington High School",
    "latitude": 41.68769399999999,
    "longitude": -87.53796549999998,
    "address1": "3535 East 114th Street",
    "address2": "",
    "address3": "",
    "city": "Chicago",
    "state": "IL",
    "zip_code": "60617"
  },
  {
    "venue_id": "EB_22319405",
    "venue_name": "Central Synagogue 122 S. Michigan Avenue Suite 1449",
    "latitude": 41.8809155,
    "longitude": -87.62542510000003,
    "address1": "",
    "address2": "",
    "address3": "",
    "city": "Chicago",
    "state": "IL",
    "zip_code": "60603"
  },
  {
    "venue_id": "EB_27745016",
    "venue_name": "United Center",
    "latitude": 41.8806908,
    "longitude": -87.67417590000002,
    "address1": "1901 West Madison Street",
    "address2": "",
    "address3": "",
    "city": "Chicago",
    "state": "IL",
    "zip_code": "60612"
  },
  {
    "venue_id": "EB_7288397",
    "venue_name": "Prenatal Fit",
    "latitude": 41.932045,
    "longitude": -87.67649699999998,
    "address1": "1937 W. Diversy",
    "address2": "",
    "address3": "",
    "city": "Chicago",
    "state": "IL",
    "zip_code": "60625-2941"
  },
  {
    "venue_id": "EB_27848995",
    "venue_name": "2112 Chicago",
    "latitude": 41.9583542,
    "longitude": -87.74412710000001,
    "address1": "4245 N Knox Ave",
    "address2": "",
    "address3": "",
    "city": "Chicago",
    "state": "Il",
    "zip_code": "60641"
  },
  {
    "venue_id": "EB_21555960",
    "venue_name": "Your Happy Place Liquors",
    "latitude": 41.9267758,
    "longitude": -87.70363129999998,
    "address1": "2501A North Milwaukee Avenue",
    "address2": "",
    "address3": "",
    "city": "Chicago",
    "state": "IL",
    "zip_code": "60647"
  },
  {
    "venue_id": "EB_27729173",
    "venue_name": "Hidden Shamrock",
    "latitude": 41.9322788,
    "longitude": -87.6488673,
    "address1": "2723 North Halsted Street",
    "address2": "",
    "address3": "",
    "city": "Chicago",
    "state": "IL",
    "zip_code": "60614"
  },
  {
    "venue_id": "EB_26880143",
    "venue_name": "adidas Originals Flagship Store",
    "latitude": 41.9091988,
    "longitude": -87.67599059999998,
    "address1": "1532 North Milwaukee Avenue",
    "address2": "",
    "address3": "",
    "city": "Chicago",
    "state": "IL",
    "zip_code": "60622"
  },
  {
    "venue_id": "EB_27906371",
    "venue_name": "Lawndale Christian Health Center: The Fireside Loft",
    "latitude": 41.8525757,
    "longitude": -87.72141899999997,
    "address1": "3824 W. Ogden Ave.",
    "address2": "",
    "address3": "",
    "city": "Chicago",
    "state": "IL",
    "zip_code": "60623"
  },
  {
    "venue_id": "EB_20881999",
    "venue_name": "The Promontory",
    "latitude": 41.7991,
    "longitude": -87.5876,
    "address1": "5311 South Lake Park Avenue West",
    "address2": "",
    "address3": "",
    "city": "Chicago",
    "state": "IL",
    "zip_code": "60615"
  },
  {
    "venue_id": "EB_27289214",
    "venue_name": "1871",
    "latitude": 41.88838500000001,
    "longitude": -87.6362656,
    "address1": "222 West Merchandise Mart Plaza",
    "address2": "#1212",
    "address3": "",
    "city": "Chicago",
    "state": "IL",
    "zip_code": "60654"
  },
  {
    "venue_id": "EB_26394000",
    "venue_name": "The Dalcy",
    "latitude": 41.8868435,
    "longitude": -87.64873180000001,
    "address1": "302 N. Green St.",
    "address2": "",
    "address3": "",
    "city": "Chicago",
    "state": "IL",
    "zip_code": "60607"
  },
  {
    "venue_id": "EB_27050097",
    "venue_name": "Conference Call Only 470-200-0080 Code:630450",
    "latitude": 41.8781136,
    "longitude": -87.62979819999998,
    "address1": "",
    "address2": "",
    "address3": "",
    "city": "Chicago",
    "state": "IL",
    "zip_code": ""
  },
  {
    "venue_id": "EB_21769915",
    "venue_name": "Lincoln Park Zoo's Cafe Brauer",
    "latitude": 41.9186894,
    "longitude": -87.63446799999997,
    "address1": "2021 N Stockton Dr",
    "address2": "",
    "address3": "",
    "city": "Chicago",
    "state": "Illinois",
    "zip_code": "60614"
  },
  {
    "venue_id": "EB_27825055",
    "venue_name": "Oak Lawn Hilton hotel",
    "latitude": 41.7225033,
    "longitude": -87.7391533,
    "address1": "9333 S. Cicero ave",
    "address2": "",
    "address3": "",
    "city": "Oak Lawn",
    "state": "IL",
    "zip_code": "60453"
  },
  {
    "venue_id": "EB_27582910",
    "venue_name": "Cooperativa Ceramica Imola North America",
    "latitude": 41.8806338,
    "longitude": -87.62492379999998,
    "address1": "104 S Michigan Ave.,",
    "address2": "Suite #700",
    "address3": "",
    "city": "Chicago",
    "state": "Illinois",
    "zip_code": "60603"
  },
  {
    "venue_id": "EB_27250947",
    "venue_name": "Northeastern Illinois University",
    "latitude": 41.9805024,
    "longitude": -87.71820020000001,
    "address1": "5500 Saint Louis Avenue",
    "address2": "BBH #102",
    "address3": "",
    "city": "Chicago",
    "state": "IL",
    "zip_code": "60625"
  },
  {
    "venue_id": "EB_27782024",
    "venue_name": "",
    "latitude": 41.8703314,
    "longitude": -87.62357420000001,
    "address1": "",
    "address2": "",
    "address3": "",
    "city": "Chicago",
    "state": "IL",
    "zip_code": "60605"
  },
  {
    "venue_id": "EB_22459177",
    "venue_name": "Chicago",
    "latitude": 41.8803304,
    "longitude": -87.62567919999998,
    "address1": "Regus \u2013 Illinois, Chicago \u2013 55 E. Monroe  Address: 55 E Monroe St Suite 3800, Chicago, IL 60603, USA",
    "address2": "",
    "address3": "",
    "city": "Chicago",
    "state": "IL",
    "zip_code": "60603"
  },
  {
    "venue_id": "EB_27870625",
    "venue_name": "Tuco And Blondie",
    "latitude": 41.943307,
    "longitude": -87.66407099999998,
    "address1": "3358 North Southport Avenue",
    "address2": "",
    "address3": "",
    "city": "Chicago",
    "state": "IL",
    "zip_code": "60657"
  },
  {
    "venue_id": "EB_25787045",
    "venue_name": "Zoom",
    "latitude": 41.8939,
    "longitude": -87.6329,
    "address1": "Online",
    "address2": "",
    "address3": "",
    "city": "Pacific Standard Time",
    "state": "",
    "zip_code": ""
  },
  {
    "venue_id": "EB_27633636",
    "venue_name": "Woven + Bound (Marriott Lobby)",
    "latitude": 41.8536533,
    "longitude": -87.61971779999999,
    "address1": "2121 S Prairie Ave",
    "address2": "",
    "address3": "",
    "city": "Chicago",
    "state": "IL",
    "zip_code": "60616"
  },
  {
    "venue_id": "EB_26555253",
    "venue_name": "Ovie Bar & Grill",
    "latitude": 41.88402799999999,
    "longitude": -87.639974,
    "address1": "120 North Canal Street",
    "address2": "",
    "address3": "",
    "city": "Chicago",
    "state": "IL",
    "zip_code": "60661"
  },
  {
    "venue_id": "EB_27438672",
    "venue_name": "Home of Kate Gjaja",
    "latitude": 42.0760791,
    "longitude": -87.6905079,
    "address1": "325 Central Avenue",
    "address2": "",
    "address3": "",
    "city": "Wilmette",
    "state": "IL",
    "zip_code": "60091"
  },
  {
    "venue_id": "EB_27520113",
    "venue_name": "Brewpoint Coffee - Workshop & Roastery",
    "latitude": 41.91708209999999,
    "longitude": -87.93922020000002,
    "address1": "617 North York Street",
    "address2": "",
    "address3": "",
    "city": "Elmhurst",
    "state": "IL",
    "zip_code": "60126"
  },
  {
    "venue_id": "EB_27767802",
    "venue_name": "Bronzeville Community Clubhouse",
    "latitude": 41.8242103,
    "longitude": -87.61900430000003,
    "address1": "3847 S Giles Ave",
    "address2": "",
    "address3": "",
    "city": "Chicago",
    "state": "IL",
    "zip_code": "60653"
  },
  {
    "venue_id": "EB_27683163",
    "venue_name": "Celar Chiropractic",
    "latitude": 41.86245590000001,
    "longitude": -87.89248169999996,
    "address1": "4413 West Roosevelt Road",
    "address2": "Suite 100",
    "address3": "",
    "city": "Hillside",
    "state": "Illinois",
    "zip_code": "60162"
  },
  {
    "venue_id": "EB_27733967",
    "venue_name": "Huntington Bank",
    "latitude": 41.80835859999999,
    "longitude": -87.6680255,
    "address1": "1715 West 47th Street",
    "address2": "",
    "address3": "",
    "city": "Chicago",
    "state": "IL",
    "zip_code": "60609"
  },
  {
    "venue_id": "EB_27503801",
    "venue_name": "Reunion Chicago",
    "latitude": 41.909968,
    "longitude": -87.69187799999997,
    "address1": "2557 West North Avenue",
    "address2": "",
    "address3": "",
    "city": "Chicago",
    "state": "IL",
    "zip_code": "60647"
  },
  {
    "venue_id": "EB_25656461",
    "venue_name": "On Tour Brewing Company",
    "latitude": 41.88962,
    "longitude": -87.67052960000001,
    "address1": "1725 West Hubbard Street",
    "address2": "",
    "address3": "",
    "city": "Chicago",
    "state": "IL",
    "zip_code": "60622"
  },
  {
    "venue_id": "EB_27458298",
    "venue_name": "Nico Osteria",
    "latitude": 41.9013622,
    "longitude": -87.62769409999999,
    "address1": "1015 North Rush Street",
    "address2": "",
    "address3": "",
    "city": "Chicago",
    "state": "IL",
    "zip_code": "60611"
  },
  {
    "venue_id": "EB_24472311",
    "venue_name": "Laugh Factory",
    "latitude": 41.93973400000001,
    "longitude": -87.64403319999997,
    "address1": "3175 North Broadway",
    "address2": "",
    "address3": "",
    "city": "Chicago",
    "state": "IL",
    "zip_code": "60657"
  },
  {
    "venue_id": "EB_27551877",
    "venue_name": "Kresge Centennial Hall",
    "latitude": 42.051573,
    "longitude": -87.67491110000003,
    "address1": "1880 Campus Drive Room 1515",
    "address2": "",
    "address3": "",
    "city": "Evanston",
    "state": "IL",
    "zip_code": "60208"
  },
  {
    "venue_id": "EB_27893130",
    "venue_name": "Sprigs & Sprouts Test Kitchen, Lincoln Park",
    "latitude": 41.9217622,
    "longitude": -87.6648586,
    "address1": "2200 North Clybourn Avenue",
    "address2": "Suite 2",
    "address3": "",
    "city": "Chicago",
    "state": "IL",
    "zip_code": "60614"
  },
  {
    "venue_id": "EB_21015749",
    "venue_name": "Space",
    "latitude": 42.04087659999999,
    "longitude": -87.68009649999999,
    "address1": "1245 Chicago Avenue",
    "address2": "",
    "address3": "",
    "city": "Evanston",
    "state": "IL",
    "zip_code": "60202"
  },
  {
    "venue_id": "EB_27682452",
    "venue_name": "Segal Visitors Center",
    "latitude": 42.05045789999999,
    "longitude": -87.67326939999998,
    "address1": "1841 Sheridan Road",
    "address2": "",
    "address3": "",
    "city": "Evanston",
    "state": "IL",
    "zip_code": "60208"
  },
  {
    "venue_id": "EB_27340069",
    "venue_name": "Morgan Park High School",
    "latitude": 41.6922179,
    "longitude": -87.66532769999998,
    "address1": "1744 West Pryor Avenue",
    "address2": "",
    "address3": "",
    "city": "Chicago",
    "state": "IL",
    "zip_code": "60643"
  },
  {
    "venue_id": "EB_26330843",
    "venue_name": "The Chakra Shoppe",
    "latitude": 41.9726386,
    "longitude": -87.6913677,
    "address1": "5034 N. Lincoln Ave.",
    "address2": "",
    "address3": "",
    "city": "Chicago",
    "state": "IL",
    "zip_code": "60625"
  },
  {
    "venue_id": "EB_27808682",
    "venue_name": "ArePA George",
    "latitude": 41.9098615,
    "longitude": -87.70746859999997,
    "address1": "1552 N Kedzie",
    "address2": "",
    "address3": "",
    "city": "Chicago",
    "state": "IL",
    "zip_code": "60651"
  },
  {
    "venue_id": "EB_25842698",
    "venue_name": "",
    "latitude": 41.8829298,
    "longitude": -87.63003079999999,
    "address1": "Exact location will be provided after registration",
    "address2": "",
    "address3": "",
    "city": "Chicago",
    "state": "IL",
    "zip_code": "60616"
  },
  {
    "venue_id": "EB_26836275",
    "venue_name": "Fairmont Chicago Millennium Park",
    "latitude": 41.8861745,
    "longitude": -87.62102900000002,
    "address1": "200 W Columbus Drive",
    "address2": "",
    "address3": "",
    "city": "Chicago",
    "state": "IL",
    "zip_code": "60601"
  },
  {
    "venue_id": "EB_25980819",
    "venue_name": "Tribe",
    "latitude": 41.93934900000001,
    "longitude": -87.67447600000003,
    "address1": "1819-21 West Belmont Avenue",
    "address2": "",
    "address3": "",
    "city": "Chicago",
    "state": "IL",
    "zip_code": "60657"
  },
  {
    "venue_id": "EB_27773157",
    "venue_name": "Murphy's Lounge",
    "latitude": 41.7559324,
    "longitude": -87.6056016,
    "address1": "7628 South Cottage Grove Avenue",
    "address2": "",
    "address3": "",
    "city": "Chicago",
    "state": "IL",
    "zip_code": "60619"
  },
  {
    "venue_id": "EB_27385468",
    "venue_name": "Cantat Adult Life Services",
    "latitude": 41.8372221,
    "longitude": -87.83727770000002,
    "address1": "2940 McCormick Avenue",
    "address2": "Wye Valle Building 30",
    "address3": "",
    "city": "Brookfield",
    "state": "IL",
    "zip_code": "60513"
  },
  {
    "venue_id": "EB_27458135",
    "venue_name": "Ida Noyes Hall",
    "latitude": 41.7880686,
    "longitude": -87.59562119999998,
    "address1": "1212 East 59th Street",
    "address2": "",
    "address3": "",
    "city": "Chicago",
    "state": "IL",
    "zip_code": "60637"
  },
  {
    "venue_id": "EB_27892469",
    "venue_name": "Janell Zip&Fit",
    "latitude": 41.897845,
    "longitude": -87.66764899999998,
    "address1": "862 North Ashland Avenue",
    "address2": "",
    "address3": "",
    "city": "Chicago",
    "state": "IL",
    "zip_code": "60622"
  },
  {
    "venue_id": "EB_27324309",
    "venue_name": "6511 N Sheridan Rd",
    "latitude": 42.0005669,
    "longitude": -87.65989159999998,
    "address1": "",
    "address2": "Damen Student Center",
    "address3": "",
    "city": "Chicago",
    "state": "IL",
    "zip_code": "60626"
  },
  {
    "venue_id": "EB_27543324",
    "venue_name": "",
    "latitude": 41.8781136,
    "longitude": -87.62979819999998,
    "address1": "",
    "address2": "",
    "address3": "",
    "city": "Chicago",
    "state": "IL",
    "zip_code": ""
  },
  {
    "venue_id": "EB_27791481",
    "venue_name": "Washington High School",
    "latitude": 41.68769399999999,
    "longitude": -87.53796549999998,
    "address1": "3535 East 114th Street",
    "address2": "",
    "address3": "",
    "city": "Chicago",
    "state": "IL",
    "zip_code": "60617"
  },
  {
    "venue_id": "EB_22319405",
    "venue_name": "Central Synagogue 122 S. Michigan Avenue Suite 1449",
    "latitude": 41.8809155,
    "longitude": -87.62542510000003,
    "address1": "",
    "address2": "",
    "address3": "",
    "city": "Chicago",
    "state": "IL",
    "zip_code": "60603"
  },
  {
    "venue_id": "EB_27745016",
    "venue_name": "United Center",
    "latitude": 41.8806908,
    "longitude": -87.67417590000002,
    "address1": "1901 West Madison Street",
    "address2": "",
    "address3": "",
    "city": "Chicago",
    "state": "IL",
    "zip_code": "60612"
  },
  {
    "venue_id": "EB_7288397",
    "venue_name": "Prenatal Fit",
    "latitude": 41.932045,
    "longitude": -87.67649699999998,
    "address1": "1937 W. Diversy",
    "address2": "",
    "address3": "",
    "city": "Chicago",
    "state": "IL",
    "zip_code": "60625-2941"
  },
  {
    "venue_id": "EB_27848995",
    "venue_name": "2112 Chicago",
    "latitude": 41.9583542,
    "longitude": -87.74412710000001,
    "address1": "4245 N Knox Ave",
    "address2": "",
    "address3": "",
    "city": "Chicago",
    "state": "Il",
    "zip_code": "60641"
  },
  {
    "venue_id": "EB_21555960",
    "venue_name": "Your Happy Place Liquors",
    "latitude": 41.9267758,
    "longitude": -87.70363129999998,
    "address1": "2501A North Milwaukee Avenue",
    "address2": "",
    "address3": "",
    "city": "Chicago",
    "state": "IL",
    "zip_code": "60647"
  },
  {
    "venue_id": "EB_27729173",
    "venue_name": "Hidden Shamrock",
    "latitude": 41.9322788,
    "longitude": -87.6488673,
    "address1": "2723 North Halsted Street",
    "address2": "",
    "address3": "",
    "city": "Chicago",
    "state": "IL",
    "zip_code": "60614"
  },
  {
    "venue_id": "EB_26880143",
    "venue_name": "adidas Originals Flagship Store",
    "latitude": 41.9091988,
    "longitude": -87.67599059999998,
    "address1": "1532 North Milwaukee Avenue",
    "address2": "",
    "address3": "",
    "city": "Chicago",
    "state": "IL",
    "zip_code": "60622"
  },
  {
    "venue_id": "EB_27906371",
    "venue_name": "Lawndale Christian Health Center: The Fireside Loft",
    "latitude": 41.8525757,
    "longitude": -87.72141899999997,
    "address1": "3824 W. Ogden Ave.",
    "address2": "",
    "address3": "",
    "city": "Chicago",
    "state": "IL",
    "zip_code": "60623"
  },
  {
    "venue_id": "EB_20881999",
    "venue_name": "The Promontory",
    "latitude": 41.7991,
    "longitude": -87.5876,
    "address1": "5311 South Lake Park Avenue West",
    "address2": "",
    "address3": "",
    "city": "Chicago",
    "state": "IL",
    "zip_code": "60615"
  },
  {
    "venue_id": "EB_27289214",
    "venue_name": "1871",
    "latitude": 41.88838500000001,
    "longitude": -87.6362656,
    "address1": "222 West Merchandise Mart Plaza",
    "address2": "#1212",
    "address3": "",
    "city": "Chicago",
    "state": "IL",
    "zip_code": "60654"
  },
  {
    "venue_id": "EB_26394000",
    "venue_name": "The Dalcy",
    "latitude": 41.8868435,
    "longitude": -87.64873180000001,
    "address1": "302 N. Green St.",
    "address2": "",
    "address3": "",
    "city": "Chicago",
    "state": "IL",
    "zip_code": "60607"
  },
  {
    "venue_id": "EB_27050097",
    "venue_name": "Conference Call Only 470-200-0080 Code:630450",
    "latitude": 41.8781136,
    "longitude": -87.62979819999998,
    "address1": "",
    "address2": "",
    "address3": "",
    "city": "Chicago",
    "state": "IL",
    "zip_code": ""
  },
  {
    "venue_id": "EB_21769915",
    "venue_name": "Lincoln Park Zoo's Cafe Brauer",
    "latitude": 41.9186894,
    "longitude": -87.63446799999997,
    "address1": "2021 N Stockton Dr",
    "address2": "",
    "address3": "",
    "city": "Chicago",
    "state": "Illinois",
    "zip_code": "60614"
  },
  {
    "venue_id": "EB_27825055",
    "venue_name": "Oak Lawn Hilton hotel",
    "latitude": 41.7225033,
    "longitude": -87.7391533,
    "address1": "9333 S. Cicero ave",
    "address2": "",
    "address3": "",
    "city": "Oak Lawn",
    "state": "IL",
    "zip_code": "60453"
  },
  {
    "venue_id": "EB_27582910",
    "venue_name": "Cooperativa Ceramica Imola North America",
    "latitude": 41.8806338,
    "longitude": -87.62492379999998,
    "address1": "104 S Michigan Ave.,",
    "address2": "Suite #700",
    "address3": "",
    "city": "Chicago",
    "state": "Illinois",
    "zip_code": "60603"
  },
  {
    "venue_id": "EB_27250947",
    "venue_name": "Northeastern Illinois University",
    "latitude": 41.9805024,
    "longitude": -87.71820020000001,
    "address1": "5500 Saint Louis Avenue",
    "address2": "BBH #102",
    "address3": "",
    "city": "Chicago",
    "state": "IL",
    "zip_code": "60625"
  },
  {
    "venue_id": "EB_27782024",
    "venue_name": "",
    "latitude": 41.8703314,
    "longitude": -87.62357420000001,
    "address1": "",
    "address2": "",
    "address3": "",
    "city": "Chicago",
    "state": "IL",
    "zip_code": "60605"
  },
  {
    "venue_id": "EB_22459177",
    "venue_name": "Chicago",
    "latitude": 41.8803304,
    "longitude": -87.62567919999998,
    "address1": "Regus \u2013 Illinois, Chicago \u2013 55 E. Monroe  Address: 55 E Monroe St Suite 3800, Chicago, IL 60603, USA",
    "address2": "",
    "address3": "",
    "city": "Chicago",
    "state": "IL",
    "zip_code": "60603"
  },
  {
    "venue_id": "EB_27870625",
    "venue_name": "Tuco And Blondie",
    "latitude": 41.943307,
    "longitude": -87.66407099999998,
    "address1": "3358 North Southport Avenue",
    "address2": "",
    "address3": "",
    "city": "Chicago",
    "state": "IL",
    "zip_code": "60657"
  },
  {
    "venue_id": "EB_25787045",
    "venue_name": "Zoom",
    "latitude": 41.8939,
    "longitude": -87.6329,
    "address1": "Online",
    "address2": "",
    "address3": "",
    "city": "Pacific Standard Time",
    "state": "",
    "zip_code": ""
  },
  {
    "venue_id": "EB_27633636",
    "venue_name": "Woven + Bound (Marriott Lobby)",
    "latitude": 41.8536533,
    "longitude": -87.61971779999999,
    "address1": "2121 S Prairie Ave",
    "address2": "",
    "address3": "",
    "city": "Chicago",
    "state": "IL",
    "zip_code": "60616"
  },
  {
    "venue_id": "EB_26555253",
    "venue_name": "Ovie Bar & Grill",
    "latitude": 41.88402799999999,
    "longitude": -87.639974,
    "address1": "120 North Canal Street",
    "address2": "",
    "address3": "",
    "city": "Chicago",
    "state": "IL",
    "zip_code": "60661"
  },
  {
    "venue_id": "EB_27438672",
    "venue_name": "Home of Kate Gjaja",
    "latitude": 42.0760791,
    "longitude": -87.6905079,
    "address1": "325 Central Avenue",
    "address2": "",
    "address3": "",
    "city": "Wilmette",
    "state": "IL",
    "zip_code": "60091"
  },
  {
    "venue_id": "EB_27520113",
    "venue_name": "Brewpoint Coffee - Workshop & Roastery",
    "latitude": 41.91708209999999,
    "longitude": -87.93922020000002,
    "address1": "617 North York Street",
    "address2": "",
    "address3": "",
    "city": "Elmhurst",
    "state": "IL",
    "zip_code": "60126"
  },
  {
    "venue_id": "EB_27767802",
    "venue_name": "Bronzeville Community Clubhouse",
    "latitude": 41.8242103,
    "longitude": -87.61900430000003,
    "address1": "3847 S Giles Ave",
    "address2": "",
    "address3": "",
    "city": "Chicago",
    "state": "IL",
    "zip_code": "60653"
  },
  {
    "venue_id": "EB_27683163",
    "venue_name": "Celar Chiropractic",
    "latitude": 41.86245590000001,
    "longitude": -87.89248169999996,
    "address1": "4413 West Roosevelt Road",
    "address2": "Suite 100",
    "address3": "",
    "city": "Hillside",
    "state": "Illinois",
    "zip_code": "60162"
  },
  {
    "venue_id": "EB_27733967",
    "venue_name": "Huntington Bank",
    "latitude": 41.80835859999999,
    "longitude": -87.6680255,
    "address1": "1715 West 47th Street",
    "address2": "",
    "address3": "",
    "city": "Chicago",
    "state": "IL",
    "zip_code": "60609"
  },
  {
    "venue_id": "EB_27503801",
    "venue_name": "Reunion Chicago",
    "latitude": 41.909968,
    "longitude": -87.69187799999997,
    "address1": "2557 West North Avenue",
    "address2": "",
    "address3": "",
    "city": "Chicago",
    "state": "IL",
    "zip_code": "60647"
  },
  {
    "venue_id": "EB_25656461",
    "venue_name": "On Tour Brewing Company",
    "latitude": 41.88962,
    "longitude": -87.67052960000001,
    "address1": "1725 West Hubbard Street",
    "address2": "",
    "address3": "",
    "city": "Chicago",
    "state": "IL",
    "zip_code": "60622"
  },
  {
    "venue_id": "EB_27458298",
    "venue_name": "Nico Osteria",
    "latitude": 41.9013622,
    "longitude": -87.62769409999999,
    "address1": "1015 North Rush Street",
    "address2": "",
    "address3": "",
    "city": "Chicago",
    "state": "IL",
    "zip_code": "60611"
  },
  {
    "venue_id": "EB_24472311",
    "venue_name": "Laugh Factory",
    "latitude": 41.93973400000001,
    "longitude": -87.64403319999997,
    "address1": "3175 North Broadway",
    "address2": "",
    "address3": "",
    "city": "Chicago",
    "state": "IL",
    "zip_code": "60657"
  },
  {
    "venue_id": "EB_27551877",
    "venue_name": "Kresge Centennial Hall",
    "latitude": 42.051573,
    "longitude": -87.67491110000003,
    "address1": "1880 Campus Drive Room 1515",
    "address2": "",
    "address3": "",
    "city": "Evanston",
    "state": "IL",
    "zip_code": "60208"
  },
  {
    "venue_id": "EB_27893130",
    "venue_name": "Sprigs & Sprouts Test Kitchen, Lincoln Park",
    "latitude": 41.9217622,
    "longitude": -87.6648586,
    "address1": "2200 North Clybourn Avenue",
    "address2": "Suite 2",
    "address3": "",
    "city": "Chicago",
    "state": "IL",
    "zip_code": "60614"
  },
  {
    "venue_id": "EB_21015749",
    "venue_name": "Space",
    "latitude": 42.04087659999999,
    "longitude": -87.68009649999999,
    "address1": "1245 Chicago Avenue",
    "address2": "",
    "address3": "",
    "city": "Evanston",
    "state": "IL",
    "zip_code": "60202"
  },
  {
    "venue_id": "EB_27682452",
    "venue_name": "Segal Visitors Center",
    "latitude": 42.05045789999999,
    "longitude": -87.67326939999998,
    "address1": "1841 Sheridan Road",
    "address2": "",
    "address3": "",
    "city": "Evanston",
    "state": "IL",
    "zip_code": "60208"
  },
  {
    "venue_id": "EB_27340069",
    "venue_name": "Morgan Park High School",
    "latitude": 41.6922179,
    "longitude": -87.66532769999998,
    "address1": "1744 West Pryor Avenue",
    "address2": "",
    "address3": "",
    "city": "Chicago",
    "state": "IL",
    "zip_code": "60643"
  },
  {
    "venue_id": "EB_26330843",
    "venue_name": "The Chakra Shoppe",
    "latitude": 41.9726386,
    "longitude": -87.6913677,
    "address1": "5034 N. Lincoln Ave.",
    "address2": "",
    "address3": "",
    "city": "Chicago",
    "state": "IL",
    "zip_code": "60625"
  },
  {
    "venue_id": "EB_27808682",
    "venue_name": "ArePA George",
    "latitude": 41.9098615,
    "longitude": -87.70746859999997,
    "address1": "1552 N Kedzie",
    "address2": "",
    "address3": "",
    "city": "Chicago",
    "state": "IL",
    "zip_code": "60651"
  },
  {
    "venue_id": "EB_25842698",
    "venue_name": "",
    "latitude": 41.8829298,
    "longitude": -87.63003079999999,
    "address1": "Exact location will be provided after registration",
    "address2": "",
    "address3": "",
    "city": "Chicago",
    "state": "IL",
    "zip_code": "60616"
  },
  {
    "venue_id": "EB_26836275",
    "venue_name": "Fairmont Chicago Millennium Park",
    "latitude": 41.8861745,
    "longitude": -87.62102900000002,
    "address1": "200 W Columbus Drive",
    "address2": "",
    "address3": "",
    "city": "Chicago",
    "state": "IL",
    "zip_code": "60601"
  },
  {
    "venue_id": "EB_25980819",
    "venue_name": "Tribe",
    "latitude": 41.93934900000001,
    "longitude": -87.67447600000003,
    "address1": "1819-21 West Belmont Avenue",
    "address2": "",
    "address3": "",
    "city": "Chicago",
    "state": "IL",
    "zip_code": "60657"
  },
  {
    "venue_id": "EB_27773157",
    "venue_name": "Murphy's Lounge",
    "latitude": 41.7559324,
    "longitude": -87.6056016,
    "address1": "7628 South Cottage Grove Avenue",
    "address2": "",
    "address3": "",
    "city": "Chicago",
    "state": "IL",
    "zip_code": "60619"
  },
  {
    "venue_id": "EB_27385468",
    "venue_name": "Cantat Adult Life Services",
    "latitude": 41.8372221,
    "longitude": -87.83727770000002,
    "address1": "2940 McCormick Avenue",
    "address2": "Wye Valle Building 30",
    "address3": "",
    "city": "Brookfield",
    "state": "IL",
    "zip_code": "60513"
  },
  {
    "venue_id": "EB_27458135",
    "venue_name": "Ida Noyes Hall",
    "latitude": 41.7880686,
    "longitude": -87.59562119999998,
    "address1": "1212 East 59th Street",
    "address2": "",
    "address3": "",
    "city": "Chicago",
    "state": "IL",
    "zip_code": "60637"
  },
  {
    "venue_id": "EB_27892469",
    "venue_name": "Janell Zip&Fit",
    "latitude": 41.897845,
    "longitude": -87.66764899999998,
    "address1": "862 North Ashland Avenue",
    "address2": "",
    "address3": "",
    "city": "Chicago",
    "state": "IL",
    "zip_code": "60622"
  },
  {
    "venue_id": "EB_27324309",
    "venue_name": "6511 N Sheridan Rd",
    "latitude": 42.0005669,
    "longitude": -87.65989159999998,
    "address1": "",
    "address2": "Damen Student Center",
    "address3": "",
    "city": "Chicago",
    "state": "IL",
    "zip_code": "60626"
  },
  {
    "venue_id": "EB_27893130",
    "venue_name": "Sprigs & Sprouts Test Kitchen, Lincoln Park",
    "latitude": 41.9217622,
    "longitude": -87.6648586,
    "address1": "2200 North Clybourn Avenue",
    "address2": "Suite 2",
    "address3": "",
    "city": "Chicago",
    "state": "IL",
    "zip_code": "60614"
  },
  {
    "venue_id": "EB_27904266",
    "venue_name": "Rowe-Clark Math & Science Academy",
    "latitude": 41.89518569999999,
    "longitude": -87.71813209999999,
    "address1": "3645 West Chicago Avenue",
    "address2": "",
    "address3": "",
    "city": "Chicago",
    "state": "IL",
    "zip_code": "60651"
  }
]