[
	{
		"venue_id": "yelpF2NBch93KPaQdM_x0Fs2VQ",
		"venue_name": "Nini's Deli",
		"latitude": 41.89235,
		"longitude": -87.66198,
		"address1": "543 N Noble St",
		"address2": "",
		"address3": "",
		"city": "Chicago",
		"state": "IL",
		"zip_code": "60642"
	},
	{
		"venue_id": "yelpeUU_sMXqgwAsZntpQaVctQ",
		"venue_name": "Lito's Empanadas",
		"latitude": 41.9293656,
		"longitude": -87.6428862,
		"address1": "2566 N Clark St",
		"address2": "",
		"address3": "",
		"city": "Chicago",
		"state": "IL",
		"zip_code": "60614"
	},
	{
		"venue_id": "yelpfLfZI4FtJhOT0U7NzfVr-Q",
		"venue_name": "Bistro 6050",
		"latitude": 41.953133,
		"longitude": -87.778753,
		"address1": "6050 W Irving Park Rd",
		"address2": "",
		"address3": null,
		"city": "Chicago",
		"state": "IL",
		"zip_code": "60634"
	},
	{
		"venue_id": "yelpgAtDumb5pOEhC7RBw83TlQ",
		"venue_name": "5411 Empanadas",
		"latitude": 41.8852240041,
		"longitude": -87.6351839821,
		"address1": "175 N Franklin St",
		"address2": "",
		"address3": "",
		"city": "Chicago",
		"state": "IL",
		"zip_code": "60606"
	},
	{
		"venue_id": "yelphtTJoyekMl0v7qcDvYoIVA",
		"venue_name": "5411 Empanadas",
		"latitude": 41.934101,
		"longitude": -87.646378,
		"address1": "2850 N Clark St",
		"address2": "",
		"address3": "",
		"city": "Chicago",
		"state": "IL",
		"zip_code": "60657"
	},
	{
		"venue_id": "yelpSfeSLJue0hhDAzDqVx3F4w",
		"venue_name": "5411 Empanadas",
		"latitude": 41.91028,
		"longitude": -87.67931,
		"address1": "2045 W North Ave",
		"address2": "",
		"address3": "",
		"city": "Chicago",
		"state": "IL",
		"zip_code": "60647"
	},
	{
		"venue_id": "yelpkpRTW8jSFnLr3xC4AZCd_A",
		"venue_name": "Cafe Tola",
		"latitude": 41.942657,
		"longitude": -87.698182,
		"address1": "3324 N California Ave",
		"address2": "",
		"address3": null,
		"city": "Chicago",
		"state": "IL",
		"zip_code": "60618"
	},
	{
		"venue_id": "yelpNlrQZMJlMoC6gY9jb5zOQw",
		"venue_name": "Merla's Kitchen",
		"latitude": 41.9758575617891,
		"longitude": -87.7134847486592,
		"address1": "5207 N Kimball Ave",
		"address2": "",
		"address3": "",
		"city": "Chicago",
		"state": "IL",
		"zip_code": "60625"
	},
	{
		"venue_id": "yelp3nOO3B9xoASM9XLzJfbHDg",
		"venue_name": "ArePA George",
		"latitude": 41.9098848,
		"longitude": -87.7071149,
		"address1": "1552 N Kedzie Ave",
		"address2": null,
		"address3": "",
		"city": "Chicago",
		"state": "IL",
		"zip_code": "60651"
	},
	{
		"venue_id": "yelpOt8hs3QhQSGeQFPDb2z2Gg",
		"venue_name": "5411 Empanadas",
		"latitude": 41.9495181,
		"longitude": -87.66388,
		"address1": "3715 N Southport Ave",
		"address2": "",
		"address3": null,
		"city": "Chicago",
		"state": "IL",
		"zip_code": "60613"
	},
	{
		"venue_id": "yelp8IwmGEwKYUbNnrTeT_h4fg",
		"venue_name": "Antojitos Colombianos",
		"latitude": 41.95723,
		"longitude": -87.75194,
		"address1": "4208 N Milwaukee Ave",
		"address2": null,
		"address3": "",
		"city": "Chicago",
		"state": "IL",
		"zip_code": "60641"
	},
	{
		"venue_id": "yelpBZmK7pugs9TP7q1JIyvvDw",
		"venue_name": "5411 Empanadas",
		"latitude": 41.9031531733816,
		"longitude": -87.6697906851768,
		"address1": "1659 W Division St",
		"address2": "",
		"address3": "",
		"city": "Chicago",
		"state": "IL",
		"zip_code": "60622"
	},
	{
		"venue_id": "yelpfhaRGmrgFep8_uQt1p4ALA",
		"venue_name": "El Llano Restaurant",
		"latitude": 41.954179,
		"longitude": -87.719454,
		"address1": "4011 N Elston Ave",
		"address2": "",
		"address3": "",
		"city": "Chicago",
		"state": "IL",
		"zip_code": "60618"
	},
	{
		"venue_id": "yelpsvwOhT8DfvWfv8TXnR1FXw",
		"venue_name": "Pastes Y Empanadas Golden Tuzo",
		"latitude": 41.931477,
		"longitude": -87.768246,
		"address1": "5648 W Diversey Ave",
		"address2": null,
		"address3": "",
		"city": "Chicago",
		"state": "IL",
		"zip_code": "60639"
	},
	{
		"venue_id": "yelph6QDXHeErfSPCWIwPK93MQ",
		"venue_name": "Lito's Empanadas",
		"latitude": 41.8841370769886,
		"longitude": -87.6409730315208,
		"address1": "131 N Clinton St",
		"address2": "",
		"address3": null,
		"city": "Chicago",
		"state": "IL",
		"zip_code": "60661"
	},
	{
		"venue_id": "yelp9D2bD21B9WGfYY-TJ2UgjQ",
		"venue_name": "Caf\u00e9 Tola",
		"latitude": 41.92681,
		"longitude": -87.70317,
		"address1": "2489 N Milwaukee Ave",
		"address2": "",
		"address3": null,
		"city": "Chicago",
		"state": "IL",
		"zip_code": "60647"
	},
	{
		"venue_id": "yelpSaQ1hgoJipjDAgzsXOrYGA",
		"venue_name": "Peru Bite",
		"latitude": 41.9252166748047,
		"longitude": -87.6429214477539,
		"address1": "",
		"address2": null,
		"address3": "",
		"city": "Chicago",
		"state": "IL",
		"zip_code": "60614"
	}
]