[
	{
		"venue_id": "yelp7EEvhY1S6QmYOgpAsOeAzw",
		"venue_name": "Room Escape Adventures",
		"latitude": 41.8763369,
		"longitude": -87.624758,
		"address1": "410 S Michigan Ave",
		"address2": "",
		"address3": "Fine Arts Building",
		"city": "Chicago",
		"state": "IL",
		"zip_code": "60605"
	},
	{
		"venue_id": "yelpEfoh_6jkYUWgwt4-afE29g",
		"venue_name": "Fox in a Box",
		"latitude": 41.87173,
		"longitude": -87.62909,
		"address1": "47 W Polk St",
		"address2": "Ste L5",
		"address3": "",
		"city": "Chicago",
		"state": "IL",
		"zip_code": "60605"
	},
	{
		"venue_id": "yelpN5i6MOm1pwxp0NU70iegjQ",
		"venue_name": "Escape Artistry",
		"latitude": 41.9102496,
		"longitude": -87.6769334,
		"address1": "1579 N Milwaukee Ave",
		"address2": "Ste 350",
		"address3": "",
		"city": "Chicago",
		"state": "IL",
		"zip_code": "60622"
	},
	{
		"venue_id": "yelpbYMtBN0lD7_2tV50DrB-JQ",
		"venue_name": "The Escape Game Chicago",
		"latitude": 41.8934355,
		"longitude": -87.6264785,
		"address1": "42 E Ontario St",
		"address2": null,
		"address3": "",
		"city": "Chicago",
		"state": "IL",
		"zip_code": "60611"
	},
	{
		"venue_id": "yelpsSyItun9kWXRSiZ2gTAipg",
		"venue_name": "Team vs Time",
		"latitude": 41.91794,
		"longitude": -87.67778,
		"address1": "2000 W Armitage Ave",
		"address2": null,
		"address3": "",
		"city": "Chicago",
		"state": "IL",
		"zip_code": "60647"
	},
	{
		"venue_id": "yelpBp8iAicucKsPjCXSVf59PA",
		"venue_name": "PanIQ Escape Room -  Chicago",
		"latitude": 41.88575,
		"longitude": -87.657,
		"address1": "1200 W Lake St",
		"address2": null,
		"address3": "",
		"city": "Chicago",
		"state": "IL",
		"zip_code": "60607"
	},
	{
		"venue_id": "yelpqq9zaZz-akZm3kP2XS6j1w",
		"venue_name": "EscapeHouse - Chicago",
		"latitude": 41.893494590419,
		"longitude": -87.6260076463223,
		"address1": "54 E Ontario St",
		"address2": null,
		"address3": null,
		"city": "Chicago",
		"state": "IL",
		"zip_code": "60611"
	},
	{
		"venue_id": "yelpc8lq43eRas5M9o4P1VaCRA",
		"venue_name": "Room X Escape",
		"latitude": 41.88407,
		"longitude": -87.63417,
		"address1": "205 W Randolph St",
		"address2": "Ste 750",
		"address3": "",
		"city": "Chicago",
		"state": "IL",
		"zip_code": "60606"
	},
	{
		"venue_id": "yelpEpaZM-neE_lvs6977fgktA",
		"venue_name": "Escape Reality",
		"latitude": 41.89424,
		"longitude": -87.6335299,
		"address1": "158 W Erie St",
		"address2": null,
		"address3": "",
		"city": "Chicago",
		"state": "IL",
		"zip_code": "60654"
	},
	{
		"venue_id": "yelpmFOyHb_KAaZaVk6hiwlxYQ",
		"venue_name": "Escape Artistry - Time Gallery",
		"latitude": 41.90605,
		"longitude": -87.67111,
		"address1": "1342 N Milwaukee Ave",
		"address2": "Fl 2",
		"address3": "",
		"city": "Chicago",
		"state": "IL",
		"zip_code": "60622"
	},
	{
		"venue_id": "yelpBkPKMPstd1-w1Bf0GI_cfw",
		"venue_name": "The Great Escape Room",
		"latitude": 41.8930428,
		"longitude": -87.6236617,
		"address1": "160 E Grand Ave",
		"address2": "Ste 500",
		"address3": "",
		"city": "Chicago",
		"state": "IL",
		"zip_code": "60611"
	},
	{
		"venue_id": "yelpWCKQAiksvcvDjTPRXmXRTg",
		"venue_name": "Mobile Room Escape",
		"latitude": 41.9472459,
		"longitude": -87.748677,
		"address1": "4838 W Patterson Ave",
		"address2": "",
		"address3": "",
		"city": "Chicago",
		"state": "IL",
		"zip_code": "60641"
	},
	{
		"venue_id": "yelpgiRRZlNATmB4Y7JTv-tOzw",
		"venue_name": "Escapades",
		"latitude": 41.89216,
		"longitude": -87.63336,
		"address1": "153 W Ohio St",
		"address2": "",
		"address3": "",
		"city": "Chicago",
		"state": "IL",
		"zip_code": "60654"
	},
	{
		"venue_id": "yelpjCQzRefsdR6Gawul5YmePg",
		"venue_name": "The Quandary Escape Rooms",
		"latitude": 41.9401685,
		"longitude": -87.6506317,
		"address1": "3205 N Clark St",
		"address2": "",
		"address3": "",
		"city": "Chicago",
		"state": "IL",
		"zip_code": "60657"
	},
	{
		"venue_id": "yelpC1LSJ6Y78MQGH4eGPAC7FQ",
		"venue_name": "Escape Factor",
		"latitude": 41.8792203,
		"longitude": -87.8061376,
		"address1": "7228 Madison St",
		"address2": "",
		"address3": "",
		"city": "Forest Park",
		"state": "IL",
		"zip_code": "60130"
	},
	{
		"venue_id": "yelpTLU_H1jafybDjC1UttKD-Q",
		"venue_name": "Brain Drain",
		"latitude": 41.89065,
		"longitude": -87.62745,
		"address1": "11 E Illinois St",
		"address2": "Fl 4",
		"address3": "",
		"city": "Chicago",
		"state": "IL",
		"zip_code": "60611"
	},
	{
		"venue_id": "yelppiGi9z8XoxMcNJ6dotm1hg",
		"venue_name": "Escape Room Enigma",
		"latitude": 41.95368,
		"longitude": -87.75018,
		"address1": "4906 W Irving Park Rd",
		"address2": null,
		"address3": "",
		"city": "Chicago",
		"state": "IL",
		"zip_code": "60641"
	},
	{
		"venue_id": "yelphkn2QzOMRWgH2vW6zkdxDg",
		"venue_name": "Vault Escape",
		"latitude": 41.8330662,
		"longitude": -87.8031967,
		"address1": "3234 Harlem Ave",
		"address2": null,
		"address3": "",
		"city": "Riverside",
		"state": "IL",
		"zip_code": "60546"
	},
	{
		"venue_id": "yelpmUdi4s19wX_wPLdPVT2pmg",
		"venue_name": "Art of Escape Room",
		"latitude": 41.89176,
		"longitude": -87.63364,
		"address1": "162 W Grand Ave",
		"address2": "LL",
		"address3": null,
		"city": "Chicago",
		"state": "IL",
		"zip_code": "60654"
	}
]