[
	{
		"venue_id": "yelpO6uWHgJzylSjWjPSJKGhnQ",
		"venue_name": "Sultan's Market",
		"latitude": 41.910362,
		"longitude": -87.67973,
		"address1": "2057 W North Ave",
		"address2": "",
		"address3": "",
		"city": "Chicago",
		"state": "IL",
		"zip_code": "60647"
	},
	{
		"venue_id": "yelp0BvxoQf0-fAfhUudd-bXFw",
		"venue_name": "Naf Naf Grill",
		"latitude": 41.887581,
		"longitude": -87.624981,
		"address1": "326 N Michigan Ave",
		"address2": "",
		"address3": "",
		"city": "Chicago",
		"state": "IL",
		"zip_code": "60601"
	},
	{
		"venue_id": "yelpt5ITATMeEW0bgFniS053Vg",
		"venue_name": "Falafel & Grill",
		"latitude": 41.90589,
		"longitude": -87.67017,
		"address1": "1317 N Milwaukee Ave",
		"address2": "",
		"address3": "",
		"city": "Chicago",
		"state": "IL",
		"zip_code": "60622"
	},
	{
		"venue_id": "yelpCLuaGuxDvRO2IYdWNRw7hw",
		"venue_name": "Benjyehuda",
		"latitude": 41.87695,
		"longitude": -87.634243,
		"address1": "212 W Van Buren",
		"address2": "",
		"address3": "",
		"city": "Chicago",
		"state": "IL",
		"zip_code": "60607"
	},
	{
		"venue_id": "yelp-sQAdsG5rFgpBDkaO6qYwA",
		"venue_name": "Zam Zam",
		"latitude": 41.94515,
		"longitude": -87.65463,
		"address1": "3461 N Clark St",
		"address2": null,
		"address3": "",
		"city": "Chicago",
		"state": "IL",
		"zip_code": "60657"
	},
	{
		"venue_id": "yelp8BXbNpuPz_WR92_LE8V8kQ",
		"venue_name": "Naf Naf Grill",
		"latitude": 41.8831067876924,
		"longitude": -87.6356236439325,
		"address1": "309 W Washington St",
		"address2": "",
		"address3": "",
		"city": "Chicago",
		"state": "IL",
		"zip_code": "60606"
	},
	{
		"venue_id": "yelpYF_UAlKxbKigLeUhsHujKg",
		"venue_name": "BenjYehuda",
		"latitude": 41.8815704,
		"longitude": -87.6326146,
		"address1": "10 S LaSalle St",
		"address2": "",
		"address3": "",
		"city": "Chicago",
		"state": "IL",
		"zip_code": "60603"
	},
	{
		"venue_id": "yelpEigu1CDQVAhT5dgwHiqmhw",
		"venue_name": "Falafel Island",
		"latitude": 41.87971,
		"longitude": -87.62674,
		"address1": "24 E Adams St",
		"address2": "",
		"address3": "",
		"city": "Chicago",
		"state": "IL",
		"zip_code": "60603"
	},
	{
		"venue_id": "yelpXf_kaXDPhLe8MzQb0-EHOg",
		"venue_name": "Naf Naf Grill",
		"latitude": 41.881262,
		"longitude": -87.626397,
		"address1": "28 S Wabash Ave",
		"address2": "",
		"address3": "",
		"city": "Chicago",
		"state": "IL",
		"zip_code": "60603"
	},
	{
		"venue_id": "yelpbPiaa7fgHkC9l7B2HyS0aw",
		"venue_name": "Cedar Palace",
		"latitude": 41.918054,
		"longitude": -87.645757,
		"address1": "655 W Armitage Ave",
		"address2": null,
		"address3": null,
		"city": "Chicago",
		"state": "IL",
		"zip_code": "60614"
	},
	{
		"venue_id": "yelpS7p_Q0gcyTp3IPKJX8H9fw",
		"venue_name": "Jaffa Bagels",
		"latitude": 41.8864511,
		"longitude": -87.6239114,
		"address1": "225 N Michigan Ave",
		"address2": "",
		"address3": "",
		"city": "Chicago",
		"state": "IL",
		"zip_code": "60601"
	},
	{
		"venue_id": "yelpa2nu5vdYxkg2mb4QAthZUw",
		"venue_name": "Falafel  Dream",
		"latitude": 41.95221,
		"longitude": -87.80747,
		"address1": "3950 N Harlem Ave",
		"address2": "",
		"address3": "",
		"city": "Chicago",
		"state": "IL",
		"zip_code": "60634"
	},
	{
		"venue_id": "yelp-6zP5QS-wP9qpTKM1Aok6g",
		"venue_name": "Couscous Restaurant",
		"latitude": 41.8691366,
		"longitude": -87.6633982,
		"address1": "1445 W Taylor St",
		"address2": "",
		"address3": "",
		"city": "Chicago",
		"state": "IL",
		"zip_code": "60607"
	},
	{
		"venue_id": "yelpw6-s9rcX1aocHS0t68odjw",
		"venue_name": "Naf Naf Grill",
		"latitude": 41.8813347882692,
		"longitude": -87.6413682624917,
		"address1": "14 S Clinton St",
		"address2": "",
		"address3": null,
		"city": "Chicago",
		"state": "IL",
		"zip_code": "60661"
	},
	{
		"venue_id": "yelpz5nkKjat1z4qinPVUFZ3fA",
		"venue_name": "BenjYehuda",
		"latitude": 41.8825776971372,
		"longitude": -87.6402557109161,
		"address1": "500 W Madison",
		"address2": "",
		"address3": "",
		"city": "Chicago",
		"state": "IL",
		"zip_code": "60661"
	},
	{
		"venue_id": "yelpXXm9MSUGojHeY5DhmMVPvw",
		"venue_name": "Petra Falafel",
		"latitude": 41.87931,
		"longitude": -87.8078,
		"address1": "7314 Madison St",
		"address2": "",
		"address3": null,
		"city": "Forest Park",
		"state": "IL",
		"zip_code": "60130"
	},
	{
		"venue_id": "yelpDTWQBKHRmcSWIaH3F_bfbQ",
		"venue_name": "Lafa",
		"latitude": 41.98669,
		"longitude": -87.70173,
		"address1": "5800 N Lincoln Ave",
		"address2": "",
		"address3": null,
		"city": "Chicago",
		"state": "IL",
		"zip_code": "60659"
	}
]