[
	{
		"venue_id": "yelp3kuEoNwNnbp5R9gocJwvXg",
		"venue_name": "Sonny Acres Pumpkin Farm",
		"latitude": 41.913709,
		"longitude": -88.192756,
		"address1": "29 W 310 N Ave",
		"address2": null,
		"address3": "",
		"city": "West Chicago",
		"state": "IL",
		"zip_code": "60185"
	},
	{
		"venue_id": "yelpvVtsSY0bdZlqwu6B3nHhaA",
		"venue_name": "Konow's Corn Maze",
		"latitude": 41.58127,
		"longitude": -87.97698,
		"address1": "16849 S Cedar Rd",
		"address2": "",
		"address3": "",
		"city": "Homer Glen",
		"state": "IL",
		"zip_code": "60441"
	},
	{
		"venue_id": "yelpFCHeSs5EgXWbaFXeitIUSw",
		"venue_name": "GlennArt Farm",
		"latitude": 41.88868,
		"longitude": -87.76965,
		"address1": "5749 W Midway Park",
		"address2": "",
		"address3": null,
		"city": "Chicago",
		"state": "IL",
		"zip_code": "60644"
	},
	{
		"venue_id": "yelpKXmL8u0YklcEViajRKK_TQ",
		"venue_name": "Sweetwater Foundation Farm",
		"latitude": 41.7897928729187,
		"longitude": -87.6269826292992,
		"address1": "51 W 57th Pl",
		"address2": "",
		"address3": null,
		"city": "Chicago",
		"state": "IL",
		"zip_code": "60621"
	},
	{
		"venue_id": "yelpjJe8Xd08EcuzAzLHoPAd4Q",
		"venue_name": "Abbey Farms",
		"latitude": 41.8155661168504,
		"longitude": -88.3010891285888,
		"address1": "2855 Hart Rd",
		"address2": "",
		"address3": "",
		"city": "Aurora",
		"state": "IL",
		"zip_code": "60502"
	},
	{
		"venue_id": "yelpUELqfi7rmseF9GO4mriTNg",
		"venue_name": "Kline Creek Farm",
		"latitude": 41.8979441432451,
		"longitude": -88.1509683905774,
		"address1": "1N600 County Farm Rd",
		"address2": "",
		"address3": "",
		"city": "West Chicago",
		"state": "IL",
		"zip_code": "60185"
	},
	{
		"venue_id": "yelpScARxILRkNpOS-hWJxPzXw",
		"venue_name": "Heritage Prairie Farm",
		"latitude": 41.902229,
		"longitude": -88.386108,
		"address1": "2N308 Brundige Rd",
		"address2": "",
		"address3": "",
		"city": "Elburn",
		"state": "IL",
		"zip_code": "60119"
	},
	{
		"venue_id": "yelppnzz2SD2aUX8OradI1Nx0Q",
		"venue_name": "All Seasons Orchard",
		"latitude": 42.2570899,
		"longitude": -88.4805206,
		"address1": "14510 Il Rte 176",
		"address2": "",
		"address3": "",
		"city": "Woodstock",
		"state": "IL",
		"zip_code": "60098"
	},
	{
		"venue_id": "yelpf1-FyB63hu4-9Wjp2zXyDg",
		"venue_name": "Dollinger Family Farm",
		"latitude": 41.403209,
		"longitude": -88.281173,
		"address1": "7420 E Hansel Rd",
		"address2": "",
		"address3": "",
		"city": "Channahon",
		"state": "IL",
		"zip_code": "60410"
	},
	{
		"venue_id": "yelp8VQh_Z-fDQ8K59zWOuJaYQ",
		"venue_name": "Spring Bluff Nursery",
		"latitude": 41.8202951852154,
		"longitude": -88.4157693386078,
		"address1": "41W130 Norris Rd",
		"address2": "",
		"address3": "",
		"city": "Sugar Grove",
		"state": "IL",
		"zip_code": "60554"
	},
	{
		"venue_id": "yelptcLOg0FUmCdhTGMgpR89AA",
		"venue_name": "Pioneer Farm",
		"latitude": 42.115139,
		"longitude": -88.467735,
		"address1": "17N400 Big Timber Rd",
		"address2": "",
		"address3": "",
		"city": "Hampshire",
		"state": "IL",
		"zip_code": "60140"
	},
	{
		"venue_id": "yelp9X6oM79VqMpPjmJTOc1W2Q",
		"venue_name": "Siegel's Cottonwood Farm",
		"latitude": 41.5698968782618,
		"longitude": -88.1225469470825,
		"address1": "17250 S Weber Rd",
		"address2": "",
		"address3": "",
		"city": "Lockport",
		"state": "IL",
		"zip_code": "60441"
	},
	{
		"venue_id": "yelp6D-zqaSeJtviApXQc5y5FA",
		"venue_name": "Apples On Oak",
		"latitude": 41.562934010925,
		"longitude": -88.0112670734525,
		"address1": "16146 W Oak Ave",
		"address2": "",
		"address3": null,
		"city": "Lockport",
		"state": "IL",
		"zip_code": "60441"
	},
	{
		"venue_id": "yelpybXrisnid8fCkwfxL_uJzQ",
		"venue_name": "Patch 22",
		"latitude": 42.44486,
		"longitude": -87.9415,
		"address1": "15900 W Kelly Rd",
		"address2": "",
		"address3": "",
		"city": "Wadsworth",
		"state": "IL",
		"zip_code": "60083"
	},
	{
		"venue_id": "yelp7jHFReKYCr3cpzIcF1w7Tw",
		"venue_name": "The Park",
		"latitude": 41.727949287029,
		"longitude": -87.6918616320651,
		"address1": "91ST St",
		"address2": "",
		"address3": null,
		"city": "Evergreen Park",
		"state": "IL",
		"zip_code": "60805"
	},
	{
		"venue_id": "yelpYRe-24AbKtqtB0mT2MQ0OQ",
		"venue_name": "Crosswind Farms",
		"latitude": 41.4249472118709,
		"longitude": -87.9630948249456,
		"address1": "14435 W Manhattan-Monee Rd",
		"address2": "",
		"address3": null,
		"city": "Manhattan",
		"state": "IL",
		"zip_code": "60442"
	},
	{
		"venue_id": "yelpMvCAnEzbj3HXwhk7fijfjw",
		"venue_name": "Merrillville Farms",
		"latitude": 41.4973529,
		"longitude": -87.299564,
		"address1": "6716 Colorado St",
		"address2": "",
		"address3": "",
		"city": "Hobart",
		"state": "IN",
		"zip_code": "46342"
	},
	{
		"venue_id": "yelpR07pKo-W1w7y-B5Wr7-ixA",
		"venue_name": "Kellers Farmstand",
		"latitude": 41.61739,
		"longitude": -88.30567,
		"address1": "2500 Johnson Rd",
		"address2": "",
		"address3": "",
		"city": "Oswego",
		"state": "IL",
		"zip_code": "60543"
	},
	{
		"venue_id": "yelp0fjMbdbyj1ToAht6BZ5HDg",
		"venue_name": "Sugar Grove Pumpkin Farm",
		"latitude": 41.807661,
		"longitude": -88.458544,
		"address1": "4S041 Merrill Rd",
		"address2": null,
		"address3": "",
		"city": "Sugar Grove",
		"state": "IL",
		"zip_code": "60554"
	},
	{
		"venue_id": "yelpQofrGyOXnJS5VZDL9E30UA",
		"venue_name": "All Grass Farms",
		"latitude": 42.1352199,
		"longitude": -88.29734,
		"address1": "18N681 Il Route 31",
		"address2": "",
		"address3": null,
		"city": "Township of Dundee",
		"state": "IL",
		"zip_code": "60118"
	},
	{
		"venue_id": "yelpFSBD1WUa49YwhCa7FlNABw",
		"venue_name": "Acorn Acres Farm",
		"latitude": 41.59829,
		"longitude": -87.04644,
		"address1": "1505 S Calumet Rd",
		"address2": null,
		"address3": "",
		"city": "Chesterton",
		"state": "IN",
		"zip_code": "46304"
	},
	{
		"venue_id": "yelpKEBVRC3wbbT0EyRcosHCdQ",
		"venue_name": "Ben's Giant Pumpkins",
		"latitude": 41.7331212772499,
		"longitude": -88.4647569,
		"address1": "43W200 Jericho Rd",
		"address2": "",
		"address3": null,
		"city": "Sugar Grove",
		"state": "IL",
		"zip_code": "60554"
	},
	{
		"venue_id": "yelp_iIeSZNqEwIpgvaqOn2gTA",
		"venue_name": "Silver Stallion Ranch",
		"latitude": 41.61826,
		"longitude": -87.69182,
		"address1": "15125 Sacramento St",
		"address2": null,
		"address3": null,
		"city": "Markham",
		"state": "IL",
		"zip_code": "60428"
	},
	{
		"venue_id": "yelp-07TxVlPwmmXB9HeMARQXg",
		"venue_name": "Radke Orchards",
		"latitude": 41.63696,
		"longitude": -86.87342,
		"address1": "8999 W 200th N",
		"address2": "",
		"address3": null,
		"city": "Michigan City",
		"state": "IN",
		"zip_code": "46360"
	},
	{
		"venue_id": "yelpzi3SyZqtKUSId9Lwae42tA",
		"venue_name": "Saddlebrook Farms",
		"latitude": 42.3026636,
		"longitude": -88.0745442,
		"address1": "23000 W Peterson Rd",
		"address2": "",
		"address3": "",
		"city": "Grayslake",
		"state": "IL",
		"zip_code": "60030"
	},
	{
		"venue_id": "yelpmtXb7Fv4i1_ewUepvHQFZw",
		"venue_name": "Harvest Tyme Pumpkin Patch",
		"latitude": 41.2932375984953,
		"longitude": -87.3538750782609,
		"address1": "17904 Grant St",
		"address2": "",
		"address3": null,
		"city": "Lowell",
		"state": "IN",
		"zip_code": "46356"
	},
	{
		"venue_id": "yelpwkDxxAkzG5_CkGf_wgjYog",
		"venue_name": "Sunset Hill Farms",
		"latitude": 41.9889342,
		"longitude": -88.2116711,
		"address1": "8N190 Naperville Rd",
		"address2": "",
		"address3": "",
		"city": "Bartlett",
		"state": "IL",
		"zip_code": "60103"
	},
	{
		"venue_id": "yelplryeCDtq0aNbIeedc6Zkmw",
		"venue_name": "Heider's Berry Farm",
		"latitude": 42.3349855,
		"longitude": -88.4137351,
		"address1": "1106 N Queen Anne Rd",
		"address2": "",
		"address3": null,
		"city": "Woodstock",
		"state": "IL",
		"zip_code": "60098"
	},
	{
		"venue_id": "yelpdmar8zNrUEz5IutHCwLS9Q",
		"venue_name": "Continental Farms",
		"latitude": 41.30618,
		"longitude": -87.87893,
		"address1": "32045 S Rte 45",
		"address2": "",
		"address3": "",
		"city": "Peotone",
		"state": "IL",
		"zip_code": "60468"
	}
]