[
	{
		"venue_id": "yelpq9ozbKbWtURmz2zZqyi7XQ",
		"venue_name": "Green City Market",
		"latitude": 41.915230896759,
		"longitude": -87.6334264426025,
		"address1": "1817 N Clark St",
		"address2": "",
		"address3": "",
		"city": "Chicago",
		"state": "IL",
		"zip_code": "60614"
	},
	{
		"venue_id": "yelp-ntHa1JC0l15C6eiQjtbcQ",
		"venue_name": "Logan Square Farmers Market",
		"latitude": 41.92797,
		"longitude": -87.70524,
		"address1": "3107 W Logan Blvd",
		"address2": "",
		"address3": "",
		"city": "Chicago",
		"state": "IL",
		"zip_code": "60647"
	},
	{
		"venue_id": "yelpyWHmOFtFvIs55OL66mx-DQ",
		"venue_name": "Daley Plaza Farmers Market",
		"latitude": 41.883808,
		"longitude": -87.630203,
		"address1": "50 W Washington St",
		"address2": "",
		"address3": "",
		"city": "Chicago",
		"state": "IL",
		"zip_code": "60602"
	},
	{
		"venue_id": "yelpPFkqvMhtKJk72_qN6jnvIg",
		"venue_name": "Lincoln Park Farmers Market",
		"latitude": 41.91822,
		"longitude": -87.64613,
		"address1": "Armitage Ave & Orchard St",
		"address2": "",
		"address3": "",
		"city": "Chicago",
		"state": "IL",
		"zip_code": "60614"
	},
	{
		"venue_id": "yelp7tC-lC5mAQCfbM-89d8L6A",
		"venue_name": "Andersonville Farmers Market",
		"latitude": 41.9780100882053,
		"longitude": -87.6683496683836,
		"address1": "Clark St And Berwyn Ave",
		"address2": "",
		"address3": "",
		"city": "Chicago",
		"state": "IL",
		"zip_code": "60640"
	},
	{
		"venue_id": "yelpdt3MFPXbeWFcYykWlfhg0Q",
		"venue_name": "Lincoln Square Farmers Market",
		"latitude": 41.9669001,
		"longitude": -87.6876052,
		"address1": "4700 N Lincoln Ave",
		"address2": null,
		"address3": "",
		"city": "Chicago",
		"state": "IL",
		"zip_code": "60625"
	},
	{
		"venue_id": "yelp5dLnu21mf6pvj_H6fnoxUA",
		"venue_name": "Farmers Market at the Museum of Contemporary Art",
		"latitude": 41.89721,
		"longitude": -87.62123,
		"address1": "220 E Chicago Ave",
		"address2": "",
		"address3": "",
		"city": "Chicago",
		"state": "IL",
		"zip_code": "60611"
	},
	{
		"venue_id": "yelpD7HAipCKIrMMaQsxxJkP-w",
		"venue_name": "Alliance Poultry Farms",
		"latitude": 41.89631,
		"longitude": -87.66873,
		"address1": "1636 W Chicago Ave",
		"address2": "",
		"address3": "",
		"city": "Chicago",
		"state": "IL",
		"zip_code": "60622"
	},
	{
		"venue_id": "yelponDHBg58J8SpVVv44wHt9Q",
		"venue_name": "Federal Plaza Farmers Market",
		"latitude": 41.879112567269,
		"longitude": -87.629652855568,
		"address1": "50 W Adams",
		"address2": null,
		"address3": "",
		"city": "Chicago",
		"state": "IL",
		"zip_code": "60606"
	},
	{
		"venue_id": "yelpAjgwjuJYYTf_nz6HrECIpw",
		"venue_name": "Stamper Cheese",
		"latitude": 41.8898452,
		"longitude": -87.682523,
		"address1": "2216 W Hubbard",
		"address2": "",
		"address3": "",
		"city": "Chicago",
		"state": "IL",
		"zip_code": "60612"
	},
	{
		"venue_id": "yelpLJkmtHO7rISiO6Pj5hpG4w",
		"venue_name": "Wicker Park Farmers Market",
		"latitude": 41.90894,
		"longitude": -87.67742,
		"address1": "Wicker Park Ave & Damen Ave",
		"address2": "",
		"address3": "",
		"city": "Chicago",
		"state": "IL",
		"zip_code": "60622"
	},
	{
		"venue_id": "yelp2kAm5CctUxLxg1gYBlz7Kg",
		"venue_name": "Farmer Pride Producers",
		"latitude": 41.91941,
		"longitude": -87.69216,
		"address1": "2110 N Milwaukee Ave",
		"address2": null,
		"address3": "",
		"city": "Chicago",
		"state": "IL",
		"zip_code": "60647"
	},
	{
		"venue_id": "yelpB-SROSRMeLTx4_xROgGIEA",
		"venue_name": "Verzenay Patisserie",
		"latitude": 41.9153172792968,
		"longitude": -87.6334755573334,
		"address1": "Green City Market",
		"address2": "",
		"address3": "Clark and North Ave",
		"city": "Chicago",
		"state": "IL",
		"zip_code": "60614"
	},
	{
		"venue_id": "yelptQHl4VgkiDzKyoEjAqEraQ",
		"venue_name": "Chicago Nettelhorst French Market",
		"latitude": 41.94131,
		"longitude": -87.64458,
		"address1": "3252 N Broadway St",
		"address2": "",
		"address3": "",
		"city": "Chicago",
		"state": "IL",
		"zip_code": "60657"
	},
	{
		"venue_id": "yelpnwg5zClRXMs_mzqSIs8wBQ",
		"venue_name": "Pilsen Farmers Market",
		"latitude": 41.858199,
		"longitude": -87.661195,
		"address1": "18TH St And Halsted St",
		"address2": "",
		"address3": "",
		"city": "Chicago",
		"state": "IL",
		"zip_code": "60686"
	},
	{
		"venue_id": "yelpI_g1QEvA-7ZzsqN8k0zFkw",
		"venue_name": "Cermak Fresh Market",
		"latitude": 42.0023873,
		"longitude": -87.6800933,
		"address1": "6623 N Damen Ave",
		"address2": "",
		"address3": "",
		"city": "Chicago",
		"state": "IL",
		"zip_code": "60645"
	},
	{
		"venue_id": "yelpcP1rxBy_JfyzPvR6Gt2eMw",
		"venue_name": "Farmer Tom's CSA",
		"latitude": 41.9707489013672,
		"longitude": -87.6575012207031,
		"address1": "",
		"address2": "",
		"address3": "",
		"city": "Chicago",
		"state": "IL",
		"zip_code": "60640"
	},
	{
		"venue_id": "yelpw5f0vk-jM1t-bQob4dY3cw",
		"venue_name": "Cookies And Carnitas",
		"latitude": 41.9175124237134,
		"longitude": -87.6348321303981,
		"address1": "The Green City Market",
		"address2": "",
		"address3": "Lincoln Park",
		"city": "Chicago",
		"state": "IL",
		"zip_code": ""
	},
	{
		"venue_id": "yelpXjpXVd10Cc6SZ2Lz40WC3g",
		"venue_name": "Argyle Night Market",
		"latitude": 41.9732203703699,
		"longitude": -87.6556517771991,
		"address1": "Sheridan Kenmore",
		"address2": "",
		"address3": "",
		"city": "Chicago",
		"state": "IL",
		"zip_code": ""
	},
	{
		"venue_id": "yelp9PuT2_nUJ9Iqr0DEUI67UQ",
		"venue_name": "Oak Park Farmers Market",
		"latitude": 41.8884370476007,
		"longitude": -87.7868603914976,
		"address1": "460 Lake St",
		"address2": null,
		"address3": "",
		"city": "Oak Park",
		"state": "IL",
		"zip_code": "60302"
	},
	{
		"venue_id": "yelpL7Vv6ZLSFdYzIk7fnF-WDQ",
		"venue_name": "Edible Alchemy",
		"latitude": 41.85423,
		"longitude": -87.67762,
		"address1": "2042 W 21st St",
		"address2": "",
		"address3": "",
		"city": "Chicago",
		"state": "IL",
		"zip_code": "60608"
	},
	{
		"venue_id": "yelpWcX84UEnHfi14NrTOoXdug",
		"venue_name": "Edgewater Farmer's Market",
		"latitude": 41.9899042816407,
		"longitude": -87.660160548985,
		"address1": "5917 N Broadway",
		"address2": "",
		"address3": "Broadway Armory Parking lot",
		"city": "Chicago",
		"state": "IL",
		"zip_code": "60660"
	},
	{
		"venue_id": "yelp1iuxG25O958f7YS7hNV71A",
		"venue_name": "Independence Park Farmers Market",
		"latitude": 41.9525619596243,
		"longitude": -87.7249979227781,
		"address1": "3945 N Springfield Ave",
		"address2": "",
		"address3": "",
		"city": "Chicago",
		"state": "IL",
		"zip_code": "60686"
	},
	{
		"venue_id": "yelpUoFf30YcErrRgOU4A2sefQ",
		"venue_name": "Green City Market",
		"latitude": 41.8796748,
		"longitude": -87.6503231,
		"address1": "115 S Sangamon St",
		"address2": "",
		"address3": "",
		"city": "Chicago",
		"state": "IL",
		"zip_code": "60607"
	},
	{
		"venue_id": "yelpMnCZPHNJrdILLzDPiGjGlQ",
		"venue_name": "The Plant",
		"latitude": 41.810768,
		"longitude": -87.660576,
		"address1": "1400 W 46th St",
		"address2": "",
		"address3": "",
		"city": "Chicago",
		"state": "IL",
		"zip_code": "60609"
	},
	{
		"venue_id": "yelpDbyFQoLVI37g5zl87d2L_g",
		"venue_name": "Portage Park Farmers Market",
		"latitude": 41.955113,
		"longitude": -87.7622849,
		"address1": "4100 N Long Ave",
		"address2": null,
		"address3": "",
		"city": "Chicago",
		"state": "IL",
		"zip_code": "60601"
	},
	{
		"venue_id": "yelp9ONbcN5_q9ZDm6NbWhPaTg",
		"venue_name": "North Center Farmer's Market",
		"latitude": 41.9559651153225,
		"longitude": -87.6791898441336,
		"address1": "4100 N Lincoln Ave",
		"address2": "",
		"address3": "North Center Town Square",
		"city": "Chicago",
		"state": "IL",
		"zip_code": "60602"
	},
	{
		"venue_id": "yelpMNENq1O_LIFkVYXbgYI4-w",
		"venue_name": "South Loop Farmers Market",
		"latitude": 41.8559,
		"longitude": -87.62437,
		"address1": "1936 S Michigan Ave",
		"address2": null,
		"address3": "",
		"city": "Chicago",
		"state": "IL",
		"zip_code": "60616"
	},
	{
		"venue_id": "yelpf4fHScNQpt8UMe4HCB9Btg",
		"venue_name": "Chicago Lights Urban Farm",
		"latitude": 41.8965946529907,
		"longitude": -87.6384144124183,
		"address1": "444 W Chicago Ave",
		"address2": "",
		"address3": "",
		"city": "Chicago",
		"state": "IL",
		"zip_code": "60610"
	},
	{
		"venue_id": "yelpPaM7SPlUcKg3wBmA4Y9Y2g",
		"venue_name": "Loyola University Farmer's Market",
		"latitude": 42.0025446,
		"longitude": -87.6607931,
		"address1": "SW Corner Of Albion And Sheridan Rd",
		"address2": "",
		"address3": "",
		"city": "Chicago",
		"state": "IL",
		"zip_code": "60626"
	},
	{
		"venue_id": "yelp1OwSazr2dLf2RhvZ7VyiVg",
		"venue_name": "Bridgeport Farmers Market",
		"latitude": 41.83083,
		"longitude": -87.64122,
		"address1": "35TH And Wallace",
		"address2": "",
		"address3": "",
		"city": "Chicago",
		"state": "IL",
		"zip_code": "60616"
	},
	{
		"venue_id": "yelpQQZzBXvgoo0ZyUYYicAloQ",
		"venue_name": "SOAR",
		"latitude": 41.8977855,
		"longitude": -87.6196771,
		"address1": "244 E Pearson St",
		"address2": "Suite 102",
		"address3": null,
		"city": "Chicago",
		"state": "IL",
		"zip_code": "60611"
	},
	{
		"venue_id": "yelpg0ocZeAQLXe67LTXZtd7Sg",
		"venue_name": "CHIC Farmer's Market",
		"latitude": 41.8980151,
		"longitude": -87.6374803,
		"address1": "Cooking And Hospitality Institute Of Chicago",
		"address2": "",
		"address3": "361 W Chestnut",
		"city": "Chicago",
		"state": "IL",
		"zip_code": "60610"
	},
	{
		"venue_id": "yelpslRy-bPSjH9iskKO8aYJMQ",
		"venue_name": "Low-Line Market At Southport",
		"latitude": 41.943820702367,
		"longitude": -87.6640665950444,
		"address1": "3410 N Southport Ave",
		"address2": "",
		"address3": null,
		"city": "Chicago",
		"state": "IL",
		"zip_code": "60657"
	},
	{
		"venue_id": "yelp10qbSOoefmZO67pxamllQQ",
		"venue_name": "Pushcart Produce Man",
		"latitude": 41.85793,
		"longitude": -87.65762,
		"address1": "18TH St And Allport",
		"address2": "",
		"address3": "",
		"city": "Chicago",
		"state": "IL",
		"zip_code": "60608"
	},
	{
		"venue_id": "yelpeYtDaKOd-6k8UYVGQ3NoVg",
		"venue_name": "Ravenswood Farmers Market",
		"latitude": 41.97137,
		"longitude": -87.67962,
		"address1": "4900 N Damen Ave",
		"address2": "",
		"address3": null,
		"city": "Chicago",
		"state": "IL",
		"zip_code": "60625"
	},
	{
		"venue_id": "yelppwAML5sLZN_WpaU3hPlG4A",
		"venue_name": "Horner Park Farmers Market",
		"latitude": 41.9612200880077,
		"longitude": -87.6983910799026,
		"address1": "2741 W Montrose Ave",
		"address2": "",
		"address3": "",
		"city": "Chicago",
		"state": "IL",
		"zip_code": "60618"
	},
	{
		"venue_id": "yelpcQX8CSW6Z2bCzlG3sw79dA",
		"venue_name": "Farmer Friday's at Uncommon Ground Devon",
		"latitude": 41.998074,
		"longitude": -87.665675,
		"address1": "1401 W Devon Ave",
		"address2": "",
		"address3": "",
		"city": "Chicago",
		"state": "IL",
		"zip_code": "60686"
	},
	{
		"venue_id": "yelpbneyenjTCPlaOvXd6cUVsQ",
		"venue_name": "South Loop Farmer's Market",
		"latitude": 41.8673849,
		"longitude": -87.6388181,
		"address1": "430 W Roosevelt Rd",
		"address2": "",
		"address3": "",
		"city": "Chicago",
		"state": "IL",
		"zip_code": "60607"
	},
	{
		"venue_id": "yelpmA4mi4occBVWodu2VtXXEw",
		"venue_name": "Chicago Indoor Garden",
		"latitude": 41.90219,
		"longitude": -87.73822,
		"address1": "4459 W Division St",
		"address2": "",
		"address3": "",
		"city": "Chicago",
		"state": "IL",
		"zip_code": "60651"
	},
	{
		"venue_id": "yelprVBwPqY-rufUuJqIF_iMiQ",
		"venue_name": "Willis Tower Plaza Farmer's Market",
		"latitude": 41.8787,
		"longitude": -87.63598,
		"address1": "233 S Wacker Dr",
		"address2": "",
		"address3": "",
		"city": "Chicago",
		"state": "IL",
		"zip_code": "60606"
	},
	{
		"venue_id": "yelp-Wx2eSAD6PkgqGO98b_dJg",
		"venue_name": "1871 Dairy",
		"latitude": 41.88492,
		"longitude": -87.65298,
		"address1": "159 N Carpenter St",
		"address2": "",
		"address3": null,
		"city": "Chicago",
		"state": "IL",
		"zip_code": "60607"
	},
	{
		"venue_id": "yelpgvtcS6p0WjSuMrwAMwad3A",
		"venue_name": "McKinley Park Fair Trade Farmers' Market",
		"latitude": 41.8257644704873,
		"longitude": -87.6850663327024,
		"address1": "3705 South Archer Ave",
		"address2": "",
		"address3": "",
		"city": "Chicago",
		"state": "IL",
		"zip_code": "60609"
	},
	{
		"venue_id": "yelpS0elkOor2EJVccHzKY_Kbw",
		"venue_name": "Berwyn Township Farmer's Market",
		"latitude": 41.843059,
		"longitude": -87.788848,
		"address1": "6600 W 26th St",
		"address2": null,
		"address3": "",
		"city": "Berwyn",
		"state": "IL",
		"zip_code": "60402"
	},
	{
		"venue_id": "yelpu-Symg2IRxERbyq88NbG5A",
		"venue_name": "Prairie Wind Family Farm",
		"latitude": 42.3332739375118,
		"longitude": -88.0158301416019,
		"address1": "560 N Harris Rd",
		"address2": null,
		"address3": "",
		"city": "Grayslake",
		"state": "IL",
		"zip_code": "60030"
	},
	{
		"venue_id": "yelpEAYBqHnh3ipdyNIf-KLGGg",
		"venue_name": "Wellhausen Farms",
		"latitude": 41.860801,
		"longitude": -88.112784,
		"address1": "",
		"address2": "",
		"address3": "",
		"city": "Wheaton",
		"state": "IL",
		"zip_code": "60187"
	},
	{
		"venue_id": "yelpzfyThDS4vdmwE_g83topbg",
		"venue_name": "Nichols Farm & Orchard",
		"latitude": 42.2917595,
		"longitude": -88.625412,
		"address1": "2602 Hawthorn Rd",
		"address2": "",
		"address3": "",
		"city": "Marengo",
		"state": "IL",
		"zip_code": "60152"
	}
]