[
	{
		"venue_id": "yelpZjHA6dwdgGXm-NjUcFezOA",
		"venue_name": "BIG & little's Restaurant",
		"latitude": 41.898386,
		"longitude": -87.63726,
		"address1": "860 N Orleans St",
		"address2": "",
		"address3": "",
		"city": "Chicago",
		"state": "IL",
		"zip_code": "60610"
	},
	{
		"venue_id": "yelpLmOCyxWKENwQRlixDlObqw",
		"venue_name": "BIG & little's Restaurant",
		"latitude": 41.9400472330334,
		"longitude": -87.6555045423279,
		"address1": "1034 W Belmont Ave",
		"address2": null,
		"address3": "",
		"city": "Chicago",
		"state": "IL",
		"zip_code": "60657"
	},
	{
		"venue_id": "yelpEnsfSFa422IkWwFvR1hJMQ",
		"venue_name": "Duke Of Perth",
		"latitude": 41.93525,
		"longitude": -87.64648,
		"address1": "2913 N Clark St",
		"address2": "",
		"address3": "",
		"city": "Chicago",
		"state": "IL",
		"zip_code": "60657"
	},
	{
		"venue_id": "yelpO073WVgzIh5OXRVL9TrRFQ",
		"venue_name": "BIG & little's Restaurant",
		"latitude": 41.90535,
		"longitude": -87.6700199,
		"address1": "1310 N Milwaukee Ave",
		"address2": "",
		"address3": "",
		"city": "Chicago",
		"state": "IL",
		"zip_code": "60622"
	},
	{
		"venue_id": "yelpOVULIB0J2lRgw-ytNFcNGQ",
		"venue_name": "Troha's Chicken & Shrimp House",
		"latitude": 41.843903,
		"longitude": -87.728962,
		"address1": "4151 W 26th St",
		"address2": "",
		"address3": "",
		"city": "Chicago",
		"state": "IL",
		"zip_code": "60623"
	},
	{
		"venue_id": "yelpD6MWQfG-roA9XOJzZpeSzQ",
		"venue_name": "Coco's Famous Deep Fried Lobster",
		"latitude": 41.8761275,
		"longitude": -87.630891,
		"address1": "426 S Clark St",
		"address2": "",
		"address3": "",
		"city": "Chicago",
		"state": "IL",
		"zip_code": "60605"
	},
	{
		"venue_id": "yelpbYQbmSMGnf_mzAyG57AFpg",
		"venue_name": "Roger's Wing",
		"latitude": 42.00514,
		"longitude": -87.66132,
		"address1": "6752 N Sheridan Rd",
		"address2": "",
		"address3": null,
		"city": "Chicago",
		"state": "IL",
		"zip_code": "60626"
	},
	{
		"venue_id": "yelp5EO9i4FNlHIrvxsMckzqMw",
		"venue_name": "Nino's",
		"latitude": 41.88012,
		"longitude": -87.64083,
		"address1": "115 S Clinton St",
		"address2": "",
		"address3": null,
		"city": "Chicago",
		"state": "IL",
		"zip_code": "60661"
	},
	{
		"venue_id": "yelpkaYkpwbovR6hUnMFY4iBOw",
		"venue_name": "Matilda Group",
		"latitude": 41.834186,
		"longitude": -87.684219,
		"address1": "3247 S Western Ave",
		"address2": "",
		"address3": "",
		"city": "Chicago",
		"state": "IL",
		"zip_code": "60608"
	},
	{
		"venue_id": "yelp-LkLMhNfhLNbzJONobq6FQ",
		"venue_name": "Out of Bounds Chicken & Fish",
		"latitude": 41.8730804206784,
		"longitude": -87.7454591831871,
		"address1": "4813 W Harrison St",
		"address2": "",
		"address3": null,
		"city": "Chicago",
		"state": "IL",
		"zip_code": "60644"
	},
	{
		"venue_id": "yelpqWguqq3K6dIOz5L1cnHqtA",
		"venue_name": "J & J Fish",
		"latitude": 41.908825,
		"longitude": -87.784286,
		"address1": "6321 W North Ave",
		"address2": "",
		"address3": "",
		"city": "Oak Park",
		"state": "IL",
		"zip_code": "60302"
	},
	{
		"venue_id": "yelpkb_ooTyh2tLjJdWKNrOqzg",
		"venue_name": "Red Snapper",
		"latitude": 41.90189,
		"longitude": -87.76614,
		"address1": "5611 W Division St",
		"address2": null,
		"address3": null,
		"city": "Chicago",
		"state": "IL",
		"zip_code": "60651"
	},
	{
		"venue_id": "yelp8LhUaSBf2-L-UvWb7GpHLA",
		"venue_name": "J&J fish & chicken",
		"latitude": 41.8517532,
		"longitude": -87.7239227,
		"address1": "3948 W Cermak Rd",
		"address2": null,
		"address3": "",
		"city": "Chicago",
		"state": "IL",
		"zip_code": "60623"
	}
]