[
	{
		"venue_id": "yelp_tYh90Ywv0j8KnD3B4tYCw",
		"venue_name": "Rotofugi",
		"latitude": 41.9321031962245,
		"longitude": -87.6580238342285,
		"address1": "2780 N Lincoln Ave",
		"address2": null,
		"address3": "",
		"city": "Chicago",
		"state": "IL",
		"zip_code": "60614"
	},
	{
		"venue_id": "yelpJk3Df503X6Y53sFlB_y0Kw",
		"venue_name": "Museum of Contemporary Art",
		"latitude": 41.897133205545,
		"longitude": -87.6214514115064,
		"address1": "220 E Chicago Ave",
		"address2": "",
		"address3": "",
		"city": "Chicago",
		"state": "IL",
		"zip_code": "60611"
	},
	{
		"venue_id": "yelpzanWUPtDh4IkKm9HJTCTww",
		"venue_name": "Rev Billy's Chop Shop",
		"latitude": 41.9599304199219,
		"longitude": -87.6831588745117,
		"address1": "4314 N Lincoln Ave",
		"address2": "",
		"address3": "",
		"city": "Chicago",
		"state": "IL",
		"zip_code": "60618"
	},
	{
		"venue_id": "yelpBH97RhYMRVGQhxE0kK97_w",
		"venue_name": "Cup & Spoon",
		"latitude": 41.9101546945704,
		"longitude": -87.6877036943947,
		"address1": "2415 W North Ave",
		"address2": "",
		"address3": "",
		"city": "Chicago",
		"state": "IL",
		"zip_code": "60647"
	},
	{
		"venue_id": "yelpYi0qdlqVlyK-cgM-JOQK5Q",
		"venue_name": "Lillstreet Art Center",
		"latitude": 41.961763,
		"longitude": -87.67353,
		"address1": "4401 N Ravenswood Ave",
		"address2": "",
		"address3": "",
		"city": "Chicago",
		"state": "IL",
		"zip_code": "60640"
	},
	{
		"venue_id": "yelpRJ15GOIUTEAfmmZufGGscw",
		"venue_name": "Standing Passengers",
		"latitude": 41.89638,
		"longitude": -87.66468,
		"address1": "1458 W Chicago Ave",
		"address2": "",
		"address3": null,
		"city": "Chicago",
		"state": "IL",
		"zip_code": "60642"
	},
	{
		"venue_id": "yelpXax3E99B_ALQ1C5TIBkUBw",
		"venue_name": "Prints Unlimited Galleries",
		"latitude": 41.92491,
		"longitude": -87.66563,
		"address1": "1461 W Fullerton Ave",
		"address2": "",
		"address3": "",
		"city": "Chicago",
		"state": "IL",
		"zip_code": "60614"
	},
	{
		"venue_id": "yelpYHEioXkhpJ4TWvh87Y-Y-A",
		"venue_name": "Paperish Mess",
		"latitude": 41.895697,
		"longitude": -87.6764319,
		"address1": "1945 W Chicago Ave",
		"address2": "",
		"address3": "",
		"city": "Chicago",
		"state": "IL",
		"zip_code": "60622"
	},
	{
		"venue_id": "yelpTbEubTRr4n6cORGnBEQEzg",
		"venue_name": "Ian Sherwin Gallery",
		"latitude": 41.953133,
		"longitude": -87.6693099,
		"address1": "3920 N Ashland Ave",
		"address2": "Ste A",
		"address3": "",
		"city": "Chicago",
		"state": "IL",
		"zip_code": "60613"
	},
	{
		"venue_id": "yelphrZJzWLGvgUE6HMLlXIxrQ",
		"venue_name": "Mars Gallery",
		"latitude": 41.886816,
		"longitude": -87.656137,
		"address1": "1139 W Fulton Market St",
		"address2": null,
		"address3": "",
		"city": "Chicago",
		"state": "IL",
		"zip_code": "60607"
	},
	{
		"venue_id": "yelp02MJRecKRYZSodrn3C9LUw",
		"venue_name": "Sacred Art",
		"latitude": 41.9654777,
		"longitude": -87.6863474,
		"address1": "4619 N Lincoln Ave",
		"address2": "",
		"address3": "",
		"city": "Chicago",
		"state": "IL",
		"zip_code": "60625"
	},
	{
		"venue_id": "yelpVbAyh4X15UZF5WedTd3H0g",
		"venue_name": "Ignite Glass Studios",
		"latitude": 41.8888593,
		"longitude": -87.6654231,
		"address1": "401 N Armour St",
		"address2": "",
		"address3": "",
		"city": "Chicago",
		"state": "IL",
		"zip_code": "60642"
	},
	{
		"venue_id": "yelp7tANz7kGoQ3B3yVHAfRHXA",
		"venue_name": "Chicago Water Tower",
		"latitude": 41.8969703,
		"longitude": -87.6246508,
		"address1": "806 N Michigan Ave",
		"address2": null,
		"address3": "",
		"city": "Chicago",
		"state": "IL",
		"zip_code": "60611"
	},
	{
		"venue_id": "yelpwqUi2xDDw3VLX8iCNn5RBQ",
		"venue_name": "Transistor",
		"latitude": 41.9769707,
		"longitude": -87.6686798,
		"address1": "5224 N Clark St",
		"address2": "",
		"address3": "",
		"city": "Chicago",
		"state": "IL",
		"zip_code": "60640"
	},
	{
		"venue_id": "yelpHYuwWYs-97ImrumLgbUWFw",
		"venue_name": "Bridgeport Art Center",
		"latitude": 41.8312,
		"longitude": -87.65658,
		"address1": "1200 W 35th St",
		"address2": "",
		"address3": "",
		"city": "Chicago",
		"state": "IL",
		"zip_code": "60609"
	},
	{
		"venue_id": "yelpe27mj2lx-gZzx7l1UNV8vQ",
		"venue_name": "Logan Square Tattoo",
		"latitude": 41.9238663,
		"longitude": -87.6991959,
		"address1": "2352 N Milwaukee Ave",
		"address2": "",
		"address3": "",
		"city": "Chicago",
		"state": "IL",
		"zip_code": "60647"
	},
	{
		"venue_id": "yelpXJvq2bnLS-OBcubc1iaPhw",
		"venue_name": "Jackson Junge Gallery",
		"latitude": 41.90722,
		"longitude": -87.67206,
		"address1": "1389 N Milwaukee Ave",
		"address2": "",
		"address3": "",
		"city": "Chicago",
		"state": "IL",
		"zip_code": "60622"
	},
	{
		"venue_id": "yelpUE-YLOx7qY2LGPslhVE3mQ",
		"venue_name": "Galerie F",
		"latitude": 41.92531,
		"longitude": -87.70073,
		"address1": "2415 N Milwaukee Ave",
		"address2": null,
		"address3": "",
		"city": "Chicago",
		"state": "IL",
		"zip_code": "60647"
	},
	{
		"venue_id": "yelpSMmV-h1PlpxkF9yFSdVXdg",
		"venue_name": "Your Happy Place Liquors",
		"latitude": 41.9268575855009,
		"longitude": -87.7036126703024,
		"address1": "2501 N Milwaukee Ave",
		"address2": "",
		"address3": null,
		"city": "Chicago",
		"state": "IL",
		"zip_code": "60647"
	},
	{
		"venue_id": "yelpb7pnWnCX-wimyd_SzW1bEQ",
		"venue_name": "Space 1858",
		"latitude": 41.8909689,
		"longitude": -87.6742954,
		"address1": "1858 W Grand Ave",
		"address2": null,
		"address3": "",
		"city": "Chicago",
		"state": "IL",
		"zip_code": "60622"
	},
	{
		"venue_id": "yelpyUHy8aroQG-GPgDwMh8Emw",
		"venue_name": "Art De Triumph & Artful Framer Studios",
		"latitude": 41.9358908,
		"longitude": -87.6476972,
		"address1": "2938 N Clark St",
		"address2": "",
		"address3": "",
		"city": "Chicago",
		"state": "IL",
		"zip_code": "60657"
	},
	{
		"venue_id": "yelpD_teoOyP1Xd5J9zRv4aR5w",
		"venue_name": "The Leigh Gallery",
		"latitude": 41.9421,
		"longitude": -87.64968,
		"address1": "3306 N Halsted St",
		"address2": "",
		"address3": "",
		"city": "Chicago",
		"state": "IL",
		"zip_code": "60657"
	},
	{
		"venue_id": "yelpzFnt3oqab4joaK6JxEaS1A",
		"venue_name": "Ork Posters",
		"latitude": 41.9612874,
		"longitude": -87.6792206,
		"address1": "2003 W Montrose Ave",
		"address2": "",
		"address3": "",
		"city": "Chicago",
		"state": "IL",
		"zip_code": "60640"
	},
	{
		"venue_id": "yelpp3cYLcuCvsBChHM6uWNGSw",
		"venue_name": "Ed Paschke Art Center",
		"latitude": 41.9686436666849,
		"longitude": -87.7622223730577,
		"address1": "5415 W Higgins Ave",
		"address2": "",
		"address3": "",
		"city": "Chicago",
		"state": "IL",
		"zip_code": "60630"
	},
	{
		"venue_id": "yelpSb7Jk4c4jv7HLblNGRxqKQ",
		"venue_name": "The Sideshow Gallery",
		"latitude": 41.922305053523,
		"longitude": -87.6872109621763,
		"address1": "2219 N Western Ave",
		"address2": "",
		"address3": "",
		"city": "Chicago",
		"state": "IL",
		"zip_code": "60647"
	},
	{
		"venue_id": "yelpPbG0Yw3jzLd6WdhQEd0lsA",
		"venue_name": "HoyPoloi Gallery",
		"latitude": 41.8517989,
		"longitude": -87.631794,
		"address1": "2235 S Wentworth Ave",
		"address2": "",
		"address3": "",
		"city": "Chicago",
		"state": "IL",
		"zip_code": "60616"
	},
	{
		"venue_id": "yelp_eMYlyjuidwMZ9p_R8YK1Q",
		"venue_name": "Hyde Park Art Center",
		"latitude": 41.803486320562,
		"longitude": -87.5867629051208,
		"address1": "5020 S Cornell Ave",
		"address2": null,
		"address3": "",
		"city": "Chicago",
		"state": "IL",
		"zip_code": "60615"
	},
	{
		"venue_id": "yelprJu5Oi3Iy_NK9tzOiJOMJg",
		"venue_name": "Josh Moulton Fine Art Gallery",
		"latitude": 41.922651,
		"longitude": -87.6388724,
		"address1": "2218 N Clark St",
		"address2": "",
		"address3": "",
		"city": "Chicago",
		"state": "IL",
		"zip_code": "60614"
	},
	{
		"venue_id": "yelpShRSSgT2IGvXdY6RcSNDYg",
		"venue_name": "Zhou B Art Center",
		"latitude": 41.8306233733892,
		"longitude": -87.6523268222809,
		"address1": "1029 W 35th St",
		"address2": "",
		"address3": "",
		"city": "Chicago",
		"state": "IL",
		"zip_code": "60609"
	},
	{
		"venue_id": "yelpi-utdKSgZc7NVIDpmqJRhQ",
		"venue_name": "The Frame Shop - Bridgeport",
		"latitude": 41.82946,
		"longitude": -87.65137,
		"address1": "3520 S Morgan St",
		"address2": "Unit LD",
		"address3": "",
		"city": "Chicago",
		"state": "IL",
		"zip_code": "60609"
	},
	{
		"venue_id": "yelpnbQ1UkYw0ChCyUTogIoMZQ",
		"venue_name": "Pilsen Vintage & Thrift",
		"latitude": 41.8581123352051,
		"longitude": -87.6625900268555,
		"address1": "1430 W 18th St",
		"address2": "",
		"address3": "",
		"city": "Chicago",
		"state": "IL",
		"zip_code": "60608"
	},
	{
		"venue_id": "yelpQvRxH2fhLNAL79TWU7a1cQ",
		"venue_name": "Arts & Artisans",
		"latitude": 41.887467,
		"longitude": -87.6244251,
		"address1": "321 N Michigan Ave",
		"address2": "",
		"address3": "",
		"city": "Chicago",
		"state": "IL",
		"zip_code": "60601"
	},
	{
		"venue_id": "yelp9a66_V79Nil9AtRD5etL5w",
		"venue_name": "Space Oddities Chicago",
		"latitude": 41.8995704650879,
		"longitude": -87.696418762207,
		"address1": "1007 N California Ave",
		"address2": "",
		"address3": "",
		"city": "Chicago",
		"state": "IL",
		"zip_code": "60622"
	},
	{
		"venue_id": "yelpvuEJ3_rhY1BCYP_vjP_CKQ",
		"venue_name": "The Native Soul Tattoo",
		"latitude": 41.85824,
		"longitude": -87.66654,
		"address1": "1712 S Ashland Ave",
		"address2": "",
		"address3": "",
		"city": "Chicago",
		"state": "IL",
		"zip_code": "60608"
	},
	{
		"venue_id": "yelpQ_-j0cbPVVdri-q3IgRHKQ",
		"venue_name": "The Leather Archives & Museum",
		"latitude": 41.9986553,
		"longitude": -87.6681638,
		"address1": "6418 N Greenview Ave",
		"address2": "",
		"address3": "",
		"city": "Chicago",
		"state": "IL",
		"zip_code": "60626"
	},
	{
		"venue_id": "yelpPKp0S24BXd9wzPtwUjeBXg",
		"venue_name": "Loyola University Museum of Art",
		"latitude": 41.8973983,
		"longitude": -87.6249849,
		"address1": "820 N Michigan Ave",
		"address2": "",
		"address3": "",
		"city": "Chicago",
		"state": "IL",
		"zip_code": "60611"
	},
	{
		"venue_id": "yelpVlbLXySPvWS5Ju9kCmPUbg",
		"venue_name": "Chicago Hot Glass",
		"latitude": 41.90431,
		"longitude": -87.71696,
		"address1": "1250 N Central Park Ave",
		"address2": "",
		"address3": "",
		"city": "Chicago",
		"state": "IL",
		"zip_code": "60651"
	},
	{
		"venue_id": "yelpVkdGp2kzevnRRnOrUsEeDg",
		"venue_name": "Ukrainian Institute of Modern Art",
		"latitude": 41.89603,
		"longitude": -87.68545,
		"address1": "2320 W Chicago Ave",
		"address2": "",
		"address3": "",
		"city": "Chicago",
		"state": "IL",
		"zip_code": "60622"
	},
	{
		"venue_id": "yelpC4m6HYoCVOnvZbCx_wMN_Q",
		"venue_name": "Bob Gally Photo",
		"latitude": 41.9367789,
		"longitude": -87.6441551,
		"address1": "3009 N Broadway",
		"address2": null,
		"address3": "",
		"city": "Chicago",
		"state": "IL",
		"zip_code": "60657"
	},
	{
		"venue_id": "yelpkhP6HbHOiGVvvo-WF7DqYw",
		"venue_name": "Chicago Glass Collective",
		"latitude": 41.95814913279,
		"longitude": -87.6733255913683,
		"address1": "1770 W Berteau",
		"address2": "Unit 203B",
		"address3": "",
		"city": "Chicago",
		"state": "IL",
		"zip_code": "60613"
	},
	{
		"venue_id": "yelpB0na3bDCn_BBQ2rET3fxOA",
		"venue_name": "The Art of Dr Seuss",
		"latitude": 41.897855,
		"longitude": -87.622864,
		"address1": "835 N Michigan Ave",
		"address2": "",
		"address3": null,
		"city": "Chicago",
		"state": "IL",
		"zip_code": "60611"
	},
	{
		"venue_id": "yelpfsG24y3p2H7wPCac5M5csw",
		"venue_name": "Anne Leuck Studio",
		"latitude": 41.972963994649,
		"longitude": -87.6726485729217,
		"address1": "5014 N Hermitage",
		"address2": "Unit WS",
		"address3": "",
		"city": "Chicago",
		"state": "IL",
		"zip_code": "60640"
	},
	{
		"venue_id": "yelpicWQau-2oiUztj09ihF_Wg",
		"venue_name": "Flat Iron Arts Building",
		"latitude": 41.9102380052405,
		"longitude": -87.6768200021234,
		"address1": "1579 N Milwaukee Ave",
		"address2": "",
		"address3": "",
		"city": "Chicago",
		"state": "IL",
		"zip_code": "60622"
	},
	{
		"venue_id": "yelpMfV6vptyTE13TTQwqkpSwA",
		"venue_name": "Gus Giordano Dance School",
		"latitude": 41.9770997,
		"longitude": -87.6685168,
		"address1": "5230 N Clark St",
		"address2": "",
		"address3": "",
		"city": "Chicago",
		"state": "IL",
		"zip_code": "60640"
	},
	{
		"venue_id": "yelplREsXKm6Y2jJu-_ipLzO2g",
		"venue_name": "Baltic Art Studio",
		"latitude": 41.9599144,
		"longitude": -87.7540684,
		"address1": "4346 N Milwaukee Ave",
		"address2": null,
		"address3": "",
		"city": "Chicago",
		"state": "IL",
		"zip_code": "60641"
	},
	{
		"venue_id": "yelp_gt_72o59OoEa7mR-2YcYQ",
		"venue_name": "Chicago Truborn",
		"latitude": 41.8957252502441,
		"longitude": -87.6713485717773,
		"address1": "1741 W Chicago Ave",
		"address2": "",
		"address3": "",
		"city": "Chicago",
		"state": "IL",
		"zip_code": "60622"
	},
	{
		"venue_id": "yelpVazTLsVD8_JzPtouRkO0GQ",
		"venue_name": "NYCH Art Gallery",
		"latitude": 41.857379,
		"longitude": -87.643534,
		"address1": "643 W 18th St",
		"address2": null,
		"address3": "",
		"city": "Chicago",
		"state": "IL",
		"zip_code": "60616"
	},
	{
		"venue_id": "yelpYFLsnjFOdpZUPr2-CDZ-CQ",
		"venue_name": "Fortunate Discoveries",
		"latitude": 41.918358,
		"longitude": -87.654282,
		"address1": "1022 W Armitage Ave",
		"address2": "",
		"address3": "",
		"city": "Chicago",
		"state": "IL",
		"zip_code": "60614"
	},
	{
		"venue_id": "yelpT6ntUpfmnZzCoQ0xyJJR0A",
		"venue_name": "Design Museum of Chicago",
		"latitude": 41.8838972,
		"longitude": -87.628465,
		"address1": "108 N State St",
		"address2": "Fl 3",
		"address3": null,
		"city": "Chicago",
		"state": "IL",
		"zip_code": "60602"
	},
	{
		"venue_id": "yelpXsICMPnQyOA-8GFR3lasCg",
		"venue_name": "Marwen",
		"latitude": 41.8977432250977,
		"longitude": -87.6369094848633,
		"address1": "833 N Orleans St",
		"address2": "",
		"address3": "",
		"city": "Chicago",
		"state": "IL",
		"zip_code": "60610"
	},
	{
		"venue_id": "yelplKQeevCtwOt4oWfoxUISDA",
		"venue_name": "MADE Gallery Chicago",
		"latitude": 41.8962649,
		"longitude": -87.66374,
		"address1": "1430 W Chicago Ave",
		"address2": "",
		"address3": "",
		"city": "Chicago",
		"state": "IL",
		"zip_code": "60642"
	},
	{
		"venue_id": "yelpFsPNlQYeo39RI7F0GeUuCg",
		"venue_name": "The Neon Shop Fishtail",
		"latitude": 41.92306,
		"longitude": -87.68725,
		"address1": "2247 N Western Ave",
		"address2": "",
		"address3": "",
		"city": "Chicago",
		"state": "IL",
		"zip_code": "60647"
	},
	{
		"venue_id": "yelpnNm0Jwp92gnCwLGlzPp_GA",
		"venue_name": "Awaken Tattoo & Gallery",
		"latitude": 41.8958244,
		"longitude": -87.6970139,
		"address1": "2802 W Chicago Ave",
		"address2": null,
		"address3": "",
		"city": "Chicago",
		"state": "IL",
		"zip_code": "60622"
	},
	{
		"venue_id": "yelpEcsEEUUUrf-Q05_LPlC5Yw",
		"venue_name": "David Leonardis Gallery",
		"latitude": 41.90631,
		"longitude": -87.67013,
		"address1": "1346 N Paulina St",
		"address2": "",
		"address3": "",
		"city": "Chicago",
		"state": "IL",
		"zip_code": "60622"
	},
	{
		"venue_id": "yelpsGP9iOL4rJIE6M76ozY-2g",
		"venue_name": "The National Museum of Puerto Rican Arts and Culture",
		"latitude": 41.9027151,
		"longitude": -87.7024833,
		"address1": "3015 W Division St",
		"address2": "",
		"address3": "",
		"city": "Chicago",
		"state": "IL",
		"zip_code": "60622"
	},
	{
		"venue_id": "yelpgwGIzIyThs34NNgMLBlRyg",
		"venue_name": "Art Side Out Studio",
		"latitude": 41.9833939,
		"longitude": -87.6896543,
		"address1": "5606 N Western Ave",
		"address2": "",
		"address3": "",
		"city": "Chicago",
		"state": "IL",
		"zip_code": "60659"
	},
	{
		"venue_id": "yelpVknKoxy5ukINckZzsz8o3Q",
		"venue_name": "Witt-Century Modern",
		"latitude": 41.90219,
		"longitude": -87.66517,
		"address1": "1136 N Milwaukee Ave",
		"address2": null,
		"address3": "",
		"city": "Chicago",
		"state": "IL",
		"zip_code": "60642"
	},
	{
		"venue_id": "yelp83yaRIXmmmFielwQjAaLoA",
		"venue_name": "Co-Prosperity Sphere",
		"latitude": 41.83573,
		"longitude": -87.65076,
		"address1": "3219-21 S Morgan St",
		"address2": "",
		"address3": "",
		"city": "Chicago",
		"state": "IL",
		"zip_code": "60608"
	},
	{
		"venue_id": "yelp0FDmYGa4PgKYp9wIEgSejA",
		"venue_name": "Project Onward",
		"latitude": 41.8309,
		"longitude": -87.656308,
		"address1": "1200 W 35th St",
		"address2": "",
		"address3": "Bridgeport Art Ctr",
		"city": "Chicago",
		"state": "IL",
		"zip_code": "60609"
	},
	{
		"venue_id": "yelpcmvHkKLe9Tye4dO2s3EG7Q",
		"venue_name": "Palette And Chisel Academy of Fine Arts",
		"latitude": 41.9010194,
		"longitude": -87.6302617,
		"address1": "1012 N Dearborn",
		"address2": "",
		"address3": "",
		"city": "Chicago",
		"state": "IL",
		"zip_code": "60610"
	},
	{
		"venue_id": "yelpgl1R4vM36EMjoQT1VTH9dA",
		"venue_name": "Morgan's on Fulton",
		"latitude": 41.8868918,
		"longitude": -87.651423,
		"address1": "950 W Fulton Market",
		"address2": "",
		"address3": "",
		"city": "Chicago",
		"state": "IL",
		"zip_code": "60607"
	},
	{
		"venue_id": "yelpwxnqS8NfvqNy6QE3yu4TZg",
		"venue_name": "Matthew Rachman Gallery",
		"latitude": 41.89576,
		"longitude": -87.66951,
		"address1": "1659 W Chicago Ave",
		"address2": null,
		"address3": "",
		"city": "Chicago",
		"state": "IL",
		"zip_code": "60622"
	},
	{
		"venue_id": "yelpnxKLx-ZZcpzTIDXVDcxhLA",
		"venue_name": "SOFA Chicago",
		"latitude": 41.89169,
		"longitude": -87.60834,
		"address1": "600 E Grand Ave",
		"address2": "",
		"address3": "",
		"city": "Chicago",
		"state": "IL",
		"zip_code": "60611"
	},
	{
		"venue_id": "yelpP0MQM5h6YFJciqGLx9vM3g",
		"venue_name": "Morgan Art Gallery",
		"latitude": 41.97782,
		"longitude": -87.7701699,
		"address1": "5350 N Milwaukee Ave",
		"address2": "",
		"address3": "",
		"city": "Chicago",
		"state": "IL",
		"zip_code": "60630"
	},
	{
		"venue_id": "yelpAWPPr-padzWiNEglHUTvzA",
		"venue_name": "Morpho Gallery",
		"latitude": 41.9763185,
		"longitude": -87.6795622,
		"address1": "5216 N Damen Ave",
		"address2": "",
		"address3": "",
		"city": "Chicago",
		"state": "IL",
		"zip_code": "60625"
	},
	{
		"venue_id": "yelpvOy7U0DwQNVY_5zlLENNbw",
		"venue_name": "Terra Incognito",
		"latitude": 41.894771,
		"longitude": -87.782251,
		"address1": "246 Chicago Ave",
		"address2": "",
		"address3": "",
		"city": "Oak Park",
		"state": "IL",
		"zip_code": "60302"
	},
	{
		"venue_id": "yelpE035X2aJGUOd32jtMprmgw",
		"venue_name": "Alphawood Gallery",
		"latitude": 41.92577,
		"longitude": -87.64848,
		"address1": "2401 N Halsted St",
		"address2": null,
		"address3": "",
		"city": "Chicago",
		"state": "IL",
		"zip_code": "60614"
	},
	{
		"venue_id": "yelpWiaPfMTvIiGSjvHLHtsgRQ",
		"venue_name": "Next Art Fair",
		"latitude": 41.88862,
		"longitude": -87.63539,
		"address1": "222 Merchandise Mart Plz",
		"address2": "Fl 7",
		"address3": "",
		"city": "Chicago",
		"state": "IL",
		"zip_code": "60654"
	},
	{
		"venue_id": "yelpurvBji1Q-dgwGmSn0fEptg",
		"venue_name": "Andrew Bae Gallery",
		"latitude": 41.8956721,
		"longitude": -87.636075,
		"address1": "300 W Superior St",
		"address2": "",
		"address3": "",
		"city": "Chicago",
		"state": "IL",
		"zip_code": "60654"
	},
	{
		"venue_id": "yelpgyKJAaAuTKM5_c1MVfg0nw",
		"venue_name": "Gallery Guichard",
		"latitude": 41.8096699,
		"longitude": -87.6147,
		"address1": "436 E 47th St",
		"address2": "",
		"address3": "",
		"city": "Chicago",
		"state": "IL",
		"zip_code": "60653"
	},
	{
		"venue_id": "yelpFGU87-A1-2De32kJs0fKYQ",
		"venue_name": "Corbett vs. Dempsey",
		"latitude": 41.9021682739258,
		"longitude": -87.667854309082,
		"address1": "1120 N Ashland Ave",
		"address2": "Fl 3",
		"address3": "",
		"city": "Chicago",
		"state": "IL",
		"zip_code": "60622"
	},
	{
		"venue_id": "yelpDnUuzcXnev9TXuGD9WbI8Q",
		"venue_name": "Graham Foundation For Advanced Studies In the Fine Arts",
		"latitude": 41.9096345,
		"longitude": -87.6291654,
		"address1": "4 W Burton Pl",
		"address2": "",
		"address3": "",
		"city": "Chicago",
		"state": "IL",
		"zip_code": "60610"
	},
	{
		"venue_id": "yelp0llYUZmOeWM9cPAOd_SvXQ",
		"venue_name": "360See",
		"latitude": 41.9210968017578,
		"longitude": -87.7022552490234,
		"address1": "",
		"address2": "",
		"address3": "",
		"city": "Chicago",
		"state": "IL",
		"zip_code": "60647"
	},
	{
		"venue_id": "yelpZSfgdZLhEHEgUSZ2bN8Tvg",
		"venue_name": "Comfort Station Logan Square",
		"latitude": 41.9278701,
		"longitude": -87.7051835,
		"address1": "2579 N Milwaukee Ave",
		"address2": "",
		"address3": "",
		"city": "Chicago",
		"state": "IL",
		"zip_code": "60647"
	},
	{
		"venue_id": "yelpYb_tFu7X7XCV_Y2UiN2wLg",
		"venue_name": "Pilsen Outpost",
		"latitude": 41.8576007,
		"longitude": -87.667649,
		"address1": "1637 W 18th St",
		"address2": null,
		"address3": "",
		"city": "Chicago",
		"state": "IL",
		"zip_code": "60608"
	},
	{
		"venue_id": "yelpGoM4zV-hOZFGgCz5kvAoQg",
		"venue_name": "Three Walls",
		"latitude": 41.910548,
		"longitude": -87.696088,
		"address1": "2738 W North Ave",
		"address2": "",
		"address3": "",
		"city": "Chicago",
		"state": "IL",
		"zip_code": "60647"
	},
	{
		"venue_id": "yelp4zkLQcWGDcs_Ouq-aUao_g",
		"venue_name": "Aron Packer Projects",
		"latitude": 41.8971645,
		"longitude": -87.6352185,
		"address1": "213 W Insitute Pl",
		"address2": "Ste 309",
		"address3": "",
		"city": "Chicago",
		"state": "IL",
		"zip_code": "60610"
	},
	{
		"venue_id": "yelpZE_5ACKuYzSRg0nKkYz_wQ",
		"venue_name": "Gallery Aesthete",
		"latitude": 41.9030366,
		"longitude": -87.6719061,
		"address1": "1751 W Division St",
		"address2": "",
		"address3": "",
		"city": "Chicago",
		"state": "IL",
		"zip_code": "60622"
	},
	{
		"venue_id": "yelpW8PtEwO1VgeGV7PPBHvzig",
		"venue_name": "Weinberg/Newton Gallery",
		"latitude": 41.8958473205566,
		"longitude": -87.6359939575195,
		"address1": "300 W Superior St",
		"address2": "Ste 203",
		"address3": "",
		"city": "Chicago",
		"state": "IL",
		"zip_code": "60654"
	},
	{
		"venue_id": "yelpZ51Wtxy_nctnbwyWK306HA",
		"venue_name": "Art Chicago",
		"latitude": 41.88862,
		"longitude": -87.63539,
		"address1": "222 Merchandise Mart Plz",
		"address2": "Fl 12",
		"address3": "",
		"city": "Chicago",
		"state": "IL",
		"zip_code": "60654"
	},
	{
		"venue_id": "yelppRtCb-Co9-d7tQeIBoTEOA",
		"venue_name": "Hilton-Asmus Contemporary Gallery",
		"latitude": 41.895359,
		"longitude": -87.634544,
		"address1": "716 N Wells St",
		"address2": "",
		"address3": "",
		"city": "Chicago",
		"state": "IL",
		"zip_code": "60654"
	},
	{
		"venue_id": "yelpqG95i5dW2wyzfZAHvBnVvw",
		"venue_name": "Hoofprint Workshop",
		"latitude": 41.847473,
		"longitude": -87.68275,
		"address1": "2433 S Oakley Ave",
		"address2": "",
		"address3": "",
		"city": "Chicago",
		"state": "IL",
		"zip_code": "60608"
	},
	{
		"venue_id": "yelpAskt5UrQUMupGyLs0ZKLJw",
		"venue_name": "Cornelia Arts Building",
		"latitude": 41.9453468322754,
		"longitude": -87.67431640625,
		"address1": "1800 W Cornelia Ave",
		"address2": "",
		"address3": "",
		"city": "Chicago",
		"state": "IL",
		"zip_code": "60657"
	},
	{
		"venue_id": "yelpp-gC1rpN9pipdpMuir6YGA",
		"venue_name": "Zg Gallery Inc",
		"latitude": 41.895961,
		"longitude": -87.6359896,
		"address1": "300 W Superior St",
		"address2": "",
		"address3": "",
		"city": "Chicago",
		"state": "IL",
		"zip_code": "60654"
	},
	{
		"venue_id": "yelppEj2f4SsFckl-E63gd-P9w",
		"venue_name": "Italian Cultural Institute",
		"latitude": 41.891166,
		"longitude": -87.624702,
		"address1": "500 N Michigan Ave",
		"address2": "Ste 1450",
		"address3": "",
		"city": "Chicago",
		"state": "IL",
		"zip_code": "60611"
	},
	{
		"venue_id": "yelpjGBR4iWaGcwDsSrHz8zcog",
		"venue_name": "Vertical Gallery",
		"latitude": 41.8998909,
		"longitude": -87.6873169,
		"address1": "1016 N Western Ave",
		"address2": null,
		"address3": "",
		"city": "Chicago",
		"state": "IL",
		"zip_code": "60622"
	},
	{
		"venue_id": "yelp6jTzrKHZwk9WbGOd3EepJQ",
		"venue_name": "Bert Green Fine Art",
		"latitude": 41.8818399,
		"longitude": -87.6248899,
		"address1": "8 S Michigan Ave",
		"address2": "Ste 620",
		"address3": "",
		"city": "Chicago",
		"state": "IL",
		"zip_code": "60603"
	},
	{
		"venue_id": "yelp51QoOYRBvdcnPvxLUKlqYg",
		"venue_name": "Thomas Master Gallery",
		"latitude": 41.9114723271,
		"longitude": -87.6352400179,
		"address1": "245 W North Ave",
		"address2": "",
		"address3": "",
		"city": "Chicago",
		"state": "IL",
		"zip_code": "60610"
	},
	{
		"venue_id": "yelp_8E-1IygBy0uCYTaVxvX4A",
		"venue_name": "Woman Made Gallery",
		"latitude": 41.8532818,
		"longitude": -87.6503563,
		"address1": "2150 S Canalport Ave",
		"address2": "4A-3",
		"address3": "",
		"city": "Chicago",
		"state": "IL",
		"zip_code": "60608"
	},
	{
		"venue_id": "yelpr_MWP0pDd9yLWjJIXeL7_g",
		"venue_name": "Prospectus Art Gallery",
		"latitude": 41.8580749,
		"longitude": -87.6568374,
		"address1": "1210 W 18th St",
		"address2": "",
		"address3": "",
		"city": "Chicago",
		"state": "IL",
		"zip_code": "60608"
	},
	{
		"venue_id": "yelpK0zuWQDvwmmBXaPh8MDhqw",
		"venue_name": "Lotus Keep Gallery",
		"latitude": 41.90003,
		"longitude": -87.68662,
		"address1": "1017 N Western Ave",
		"address2": "",
		"address3": "",
		"city": "Chicago",
		"state": "IL",
		"zip_code": "60622"
	},
	{
		"venue_id": "yelpfTlCLg6hfAE_HLkAwZZg8g",
		"venue_name": "Jean Albano Gallery",
		"latitude": 41.895362,
		"longitude": -87.634888,
		"address1": "215 W Superior St",
		"address2": "",
		"address3": "",
		"city": "Chicago",
		"state": "IL",
		"zip_code": "60654"
	},
	{
		"venue_id": "yelpO0D70709fOxdNC7uzFOPOw",
		"venue_name": "YellowKorner",
		"latitude": 41.9128476,
		"longitude": -87.6773357,
		"address1": "1721 N Damen Ave",
		"address2": "",
		"address3": "",
		"city": "Chicago",
		"state": "IL",
		"zip_code": "60647"
	},
	{
		"venue_id": "yelpUN3txgul_By4W4BVro1XUQ",
		"venue_name": "Fulton Market District",
		"latitude": 41.8868487488836,
		"longitude": -87.6480701096567,
		"address1": "800 W Fulton Market",
		"address2": "",
		"address3": "",
		"city": "Chicago",
		"state": "IL",
		"zip_code": "60607"
	},
	{
		"venue_id": "yelpgH79U-jPNNmDW2D4n6SWUg",
		"venue_name": "Elephant Room Gallery",
		"latitude": 41.8728592,
		"longitude": -87.626216,
		"address1": "704 S Wabash Ave",
		"address2": "",
		"address3": "",
		"city": "Chicago",
		"state": "IL",
		"zip_code": "60605"
	},
	{
		"venue_id": "yelpxI05ojpLOgodRrmzo33lQQ",
		"venue_name": "Western Exhibitions",
		"latitude": 41.8957559,
		"longitude": -87.6702229,
		"address1": "1709 W Chicago Ave",
		"address2": "Ste 2C",
		"address3": "",
		"city": "Chicago",
		"state": "IL",
		"zip_code": "60622"
	},
	{
		"venue_id": "yelprGbGFwHCYJRum6t4X8rejg",
		"venue_name": "Expo Chicago",
		"latitude": 41.891707,
		"longitude": -87.608481,
		"address1": "600 E Grand Ave",
		"address2": "",
		"address3": "",
		"city": "Chicago",
		"state": "IL",
		"zip_code": "60611"
	},
	{
		"venue_id": "yelprrPYfJThTQn32l_2LfS0Cg",
		"venue_name": "Vale Craft Gallery",
		"latitude": 41.8958439,
		"longitude": -87.6355061,
		"address1": "230 W Superior St",
		"address2": "",
		"address3": "",
		"city": "Chicago",
		"state": "IL",
		"zip_code": "60654"
	},
	{
		"venue_id": "yelpjEQDEOFGzP8oBhLkAD65sA",
		"venue_name": "Hairpin Arts Center",
		"latitude": 41.9322357,
		"longitude": -87.7128677,
		"address1": "2810 N Milwaukee Ave",
		"address2": "Fl 2",
		"address3": "",
		"city": "Chicago",
		"state": "IL",
		"zip_code": "60618"
	},
	{
		"venue_id": "yelpEOzk86ly4fXN9DpA0FJswQ",
		"venue_name": "DvA Gallery",
		"latitude": 41.9285345,
		"longitude": -87.6533359,
		"address1": "2568 N Lincoln Ave",
		"address2": null,
		"address3": "",
		"city": "Chicago",
		"state": "IL",
		"zip_code": "60614"
	},
	{
		"venue_id": "yelp2pu95r360jyxsYtIhI1c6w",
		"venue_name": "Everlasting Fire Studio",
		"latitude": 41.9727316,
		"longitude": -87.6913218,
		"address1": "5036 N Lincoln Ave",
		"address2": "",
		"address3": "",
		"city": "Chicago",
		"state": "IL",
		"zip_code": "60625"
	},
	{
		"venue_id": "yelpOFRRUwLrImim_RkHEKWydQ",
		"venue_name": "Chicago Art Exchange",
		"latitude": 41.861053,
		"longitude": -87.628181,
		"address1": "1530 S State St",
		"address2": "",
		"address3": "",
		"city": "Chicago",
		"state": "IL",
		"zip_code": "60605"
	},
	{
		"venue_id": "yelpXGg12BcUp4JIsAaOMLaghw",
		"venue_name": "Catherine Edelman Gallery",
		"latitude": 41.8958473205566,
		"longitude": -87.6359939575195,
		"address1": "300 W Superior St",
		"address2": "",
		"address3": "",
		"city": "Chicago",
		"state": "IL",
		"zip_code": "60654"
	},
	{
		"venue_id": "yelpQvF42HW62XKl4qvkbhf7Ag",
		"venue_name": "Arts of Life",
		"latitude": 41.8877929,
		"longitude": -87.6776095,
		"address1": "2010 W Carroll Ave",
		"address2": "",
		"address3": "",
		"city": "Chicago",
		"state": "IL",
		"zip_code": "60612"
	},
	{
		"venue_id": "yelpmFb-34BlfYLqeEgWeF5vpw",
		"venue_name": "The Fulton Street Collective",
		"latitude": 41.8890686,
		"longitude": -87.6728227,
		"address1": "1821 W Hubbard St",
		"address2": "Ste 307",
		"address3": "",
		"city": "Chicago",
		"state": "IL",
		"zip_code": "60622"
	},
	{
		"venue_id": "yelpy-xwlaxu1ErYf0NKZns_RA",
		"venue_name": "The Black Couch",
		"latitude": 41.9325104,
		"longitude": -87.7325211,
		"address1": "4200 W Diversey Ave",
		"address2": null,
		"address3": "",
		"city": "Chicago",
		"state": "IL",
		"zip_code": "60639"
	},
	{
		"venue_id": "yelpnwwtKcaSHXJfaVrF2k2icA",
		"venue_name": "Firecat Projects",
		"latitude": 41.9202805,
		"longitude": -87.6780167,
		"address1": "2124 N Damen Ave",
		"address2": "",
		"address3": "",
		"city": "Chicago",
		"state": "IL",
		"zip_code": "60647"
	},
	{
		"venue_id": "yelpk5NQqUfwlGUAzueW3kjFbw",
		"venue_name": "UrbanArtChicago",
		"latitude": 41.90051,
		"longitude": -87.71805,
		"address1": "1048 N Monticello Ave",
		"address2": null,
		"address3": "",
		"city": "Chicago",
		"state": "IL",
		"zip_code": "60651"
	},
	{
		"venue_id": "yelpMZ8WRl9W_BMwrN412iaxrw",
		"venue_name": "MASHALLAH",
		"latitude": 41.8577499389648,
		"longitude": -87.6463394165039,
		"address1": "1747 S Halsted St",
		"address2": "",
		"address3": null,
		"city": "Chicago",
		"state": "IL",
		"zip_code": "60608"
	},
	{
		"venue_id": "yelpGmTLUCZ6q5Q6YjFjAG-A4Q",
		"venue_name": "Aje Gallery",
		"latitude": 41.9098968505859,
		"longitude": -87.6734313964844,
		"address1": "1553 N Honore",
		"address2": "",
		"address3": "",
		"city": "Chicago",
		"state": "IL",
		"zip_code": "60622"
	},
	{
		"venue_id": "yelpl-H6qNMNelpEdeXe3X5CwQ",
		"venue_name": "Curly Tale Fine Art",
		"latitude": 41.8943023681641,
		"longitude": -87.6288528442383,
		"address1": "16 W Erie St",
		"address2": null,
		"address3": null,
		"city": "Chicago",
		"state": "IL",
		"zip_code": "60654"
	},
	{
		"venue_id": "yelpSEqJz0Or4ClsI3flS6_0gg",
		"venue_name": "Artpentry",
		"latitude": 41.85586,
		"longitude": -87.64691,
		"address1": "1932 S Halsted St",
		"address2": "Ste 102",
		"address3": "",
		"city": "Chicago",
		"state": "IL",
		"zip_code": "60608"
	},
	{
		"venue_id": "yelpmDWuzH8KhUnCtEA0a1jWDQ",
		"venue_name": "Van Gogh's Bedrooms",
		"latitude": 41.8804004788399,
		"longitude": -87.62420989573,
		"address1": "111 S Michigan Ave",
		"address2": "",
		"address3": "The Art Institute of Chicago",
		"city": "Chicago",
		"state": "IL",
		"zip_code": "60603"
	},
	{
		"venue_id": "yelpUEE9heCu4e23BGbtR0p1GQ",
		"venue_name": "Quennect4",
		"latitude": 41.91677,
		"longitude": -87.65721,
		"address1": "1953 N Clybourn Ave",
		"address2": "Ste 311",
		"address3": "",
		"city": "Chicago",
		"state": "IL",
		"zip_code": "60614"
	},
	{
		"venue_id": "yelpghJCtHINp20iClbhWx6Ofg",
		"venue_name": "Walsh Gallery",
		"latitude": 41.8838099,
		"longitude": -87.65012,
		"address1": "118 N Peoria St",
		"address2": "Ste 2",
		"address3": "",
		"city": "Chicago",
		"state": "IL",
		"zip_code": "60607"
	},
	{
		"venue_id": "yelpuCFWksUzaaiG2uyFUieUkA",
		"venue_name": "Expression Galleries Of Fine Art",
		"latitude": 41.8951225,
		"longitude": -87.6345439,
		"address1": "708 N Wells St",
		"address2": null,
		"address3": "",
		"city": "Chicago",
		"state": "IL",
		"zip_code": "60654"
	},
	{
		"venue_id": "yelpQP1TQgqE6OE6y-MYTRhmOg",
		"venue_name": "ShopColumbia",
		"latitude": 41.8739439,
		"longitude": -87.6254751,
		"address1": "619 S Wabash Ave",
		"address2": "",
		"address3": "",
		"city": "Chicago",
		"state": "IL",
		"zip_code": "60605"
	},
	{
		"venue_id": "yelpKMptuAWuQ0CoDL1qdeeJaw",
		"venue_name": "Russian Collection",
		"latitude": 41.872509,
		"longitude": -87.624771,
		"address1": "720 S Michigan Ave",
		"address2": "",
		"address3": "",
		"city": "Chicago",
		"state": "IL",
		"zip_code": "60605"
	},
	{
		"venue_id": "yelpj7NuU2cuBzbCcRcWrfCCPA",
		"venue_name": "Vegan Gallery",
		"latitude": 41.90281,
		"longitude": -87.68179,
		"address1": "2153 W Division St",
		"address2": "",
		"address3": "",
		"city": "Chicago",
		"state": "IL",
		"zip_code": "60622"
	},
	{
		"venue_id": "yelpdW5btgTLj7s4V-QPdaFR2Q",
		"venue_name": "Lawrence & Clark Gallery",
		"latitude": 41.9686868,
		"longitude": -87.6672646,
		"address1": "4755 N Clark St",
		"address2": "",
		"address3": null,
		"city": "Chicago",
		"state": "IL",
		"zip_code": "60640"
	},
	{
		"venue_id": "yelpK3nj-ZHePWtIa_cg0QeQxA",
		"venue_name": "SD Studios",
		"latitude": 41.891273,
		"longitude": -87.785943,
		"address1": "224 N Elmwood Ave",
		"address2": "Fl 2",
		"address3": "",
		"city": "Oak Park",
		"state": "IL",
		"zip_code": "60302"
	},
	{
		"venue_id": "yelpaAunk7YhRYLZwdoT4z8Img",
		"venue_name": "Francine Turk Gallery",
		"latitude": 41.85574,
		"longitude": -87.62632,
		"address1": "18 E Cullerton St",
		"address2": "",
		"address3": "",
		"city": "Chicago",
		"state": "IL",
		"zip_code": "60616"
	},
	{
		"venue_id": "yelpcFtJgk2jotgkDU3OPg9TpA",
		"venue_name": "Heaven Gallery",
		"latitude": 41.909404,
		"longitude": -87.67649,
		"address1": "1550 N Milwaukee Ave",
		"address2": "Fl 2",
		"address3": "",
		"city": "Chicago",
		"state": "IL",
		"zip_code": "60622"
	},
	{
		"venue_id": "yelpQWC3SzWiPiwMGjr1dFXjNQ",
		"venue_name": "South Side Community Art Center",
		"latitude": 41.824584,
		"longitude": -87.622642,
		"address1": "3831 S Michigan Ave",
		"address2": "",
		"address3": "",
		"city": "Chicago",
		"state": "IL",
		"zip_code": "60653"
	},
	{
		"venue_id": "yelpu5tSa0OJ66otxDqPzq3xEQ",
		"venue_name": "Las Manos Gallery",
		"latitude": 41.9760589361047,
		"longitude": -87.6691348847004,
		"address1": "1515 W Foster",
		"address2": "",
		"address3": "",
		"city": "Chicago",
		"state": "IL",
		"zip_code": "60640"
	},
	{
		"venue_id": "yelp5DjLmvH4T6PegIkAESCikQ",
		"venue_name": "345 Art Gallery",
		"latitude": 41.8877906799316,
		"longitude": -87.7059860229492,
		"address1": "345 N Kedzie Ave",
		"address2": "",
		"address3": null,
		"city": "Chicago",
		"state": "IL",
		"zip_code": "60612"
	},
	{
		"venue_id": "yelpoxoggN9h5DwJ0bd39-YOJQ",
		"venue_name": "Harmony Art Glass",
		"latitude": 41.9971318,
		"longitude": -87.6700772,
		"address1": "6323 N Clark St",
		"address2": "",
		"address3": "",
		"city": "Chicago",
		"state": "IL",
		"zip_code": "60660"
	},
	{
		"venue_id": "yelpxeEERETUj2wj4W9Ubh7z7w",
		"venue_name": "Mimi Designs Chicago",
		"latitude": 41.9282140756868,
		"longitude": -87.6895194129712,
		"address1": "2439 W Logan Blvd",
		"address2": "",
		"address3": "",
		"city": "Chicago",
		"state": "IL",
		"zip_code": "60647"
	},
	{
		"venue_id": "yelpHbiBjuGmkwFHS5Tx7gLGIQ",
		"venue_name": "Gruen Galleries",
		"latitude": 41.89586,
		"longitude": -87.63534,
		"address1": "226 W Superior St",
		"address2": "",
		"address3": "",
		"city": "Chicago",
		"state": "IL",
		"zip_code": "60610"
	},
	{
		"venue_id": "yelpy8-k1Vt5oxC3FHAlqgJfLg",
		"venue_name": "Addington Gallery",
		"latitude": 41.8950271606445,
		"longitude": -87.6345062255859,
		"address1": "704 N Wells St",
		"address2": "",
		"address3": "",
		"city": "Chicago",
		"state": "IL",
		"zip_code": "60654"
	},
	{
		"venue_id": "yelpFsd7pqnZt9DbKVo003DXCg",
		"venue_name": "Tonantzin",
		"latitude": 41.8578151,
		"longitude": -87.6560493,
		"address1": "1173 West 18th St",
		"address2": "",
		"address3": null,
		"city": "Chicago",
		"state": "IL",
		"zip_code": "60608"
	},
	{
		"venue_id": "yelpfdub9cnbVs6YOa1pn-6ZSA",
		"venue_name": "Rhona Hoffman Gallery",
		"latitude": 41.8838099,
		"longitude": -87.65012,
		"address1": "118 N Peoria St",
		"address2": "Ste 3",
		"address3": "",
		"city": "Chicago",
		"state": "IL",
		"zip_code": "60607"
	},
	{
		"venue_id": "yelpIQrOfEdAMpH8wS4C5MiQYA",
		"venue_name": "Stephen Daiter Gallery",
		"latitude": 41.895875,
		"longitude": -87.635506,
		"address1": "230 W Superior St",
		"address2": "Fl 4",
		"address3": "",
		"city": "Chicago",
		"state": "IL",
		"zip_code": "60610"
	},
	{
		"venue_id": "yelp4IWI2QOvFkH9THCAegfNRQ",
		"venue_name": "Arts & Artisans",
		"latitude": 41.8846522,
		"longitude": -87.6289128,
		"address1": "500 W Madison St",
		"address2": "",
		"address3": "Ogilvie Transportation Ctr",
		"city": "Chicago",
		"state": "IL",
		"zip_code": "60661"
	},
	{
		"venue_id": "yelpmB-tnuZhkAXHPTFwdfFIvg",
		"venue_name": "Ken Saunders Gallery",
		"latitude": 41.8957138,
		"longitude": -87.6354065,
		"address1": "230 W Superior St",
		"address2": "",
		"address3": "",
		"city": "Chicago",
		"state": "IL",
		"zip_code": "60654"
	},
	{
		"venue_id": "yelpRrTkU43IuceqtoFjaJ2CQQ",
		"venue_name": "Ugly Step Sister Art Gallery",
		"latitude": 41.8577439,
		"longitude": -87.645084,
		"address1": "1750 S Union Ave",
		"address2": "",
		"address3": "",
		"city": "Chicago",
		"state": "IL",
		"zip_code": "60616"
	},
	{
		"venue_id": "yelpeFQMOheB7DtquoMKm_oqcw",
		"venue_name": "ECHT Gallery",
		"latitude": 41.8959203104374,
		"longitude": -87.6351822288361,
		"address1": "210 W Superior St",
		"address2": "",
		"address3": "",
		"city": "Chicago",
		"state": "IL",
		"zip_code": "60654"
	},
	{
		"venue_id": "yelpZQ_sfKTmI5WmdKdTdBVTiQ",
		"venue_name": "Joel Oppenheimer",
		"latitude": 41.8926488,
		"longitude": -87.6275454,
		"address1": "10 E Ohio St",
		"address2": "",
		"address3": "",
		"city": "Chicago",
		"state": "IL",
		"zip_code": "60611"
	},
	{
		"venue_id": "yelpBqy9arNNW4Ka3wn2E23CDw",
		"venue_name": "Russell Bowman Art Advisory",
		"latitude": 41.89534,
		"longitude": -87.63628,
		"address1": "311 W Superior St",
		"address2": "",
		"address3": "",
		"city": "Chicago",
		"state": "IL",
		"zip_code": "60654"
	},
	{
		"venue_id": "yelp805Eet98d1iYxSUIpqnYbA",
		"venue_name": "Henri Cartier-Bresson Exhibit, at the Art Institute of Chicago",
		"latitude": 41.87955,
		"longitude": -87.623726,
		"address1": "111 S Michigan Ave",
		"address2": "",
		"address3": "",
		"city": "Chicago",
		"state": "IL",
		"zip_code": "60603"
	},
	{
		"venue_id": "yelpf7Ft1TAAg1cOQjOGD0lE8w",
		"venue_name": "New Discoveries",
		"latitude": 41.9434204101562,
		"longitude": -87.6848220825195,
		"address1": "2236 W Roscoe St",
		"address2": "",
		"address3": "",
		"city": "Chicago",
		"state": "IL",
		"zip_code": "60618"
	},
	{
		"venue_id": "yelpu1HVKZqlqtL2ixuViUhCDA",
		"venue_name": "Lost Artists Colony",
		"latitude": 41.9386802502319,
		"longitude": -87.6941740932129,
		"address1": "2630 W Fletcher St",
		"address2": "",
		"address3": "",
		"city": "Chicago",
		"state": "IL",
		"zip_code": "60618"
	},
	{
		"venue_id": "yelpKR-jF0w1f4iOPt_QsH5vGQ",
		"venue_name": "Frame Warehouse",
		"latitude": 41.8727549,
		"longitude": -87.7838479,
		"address1": "346 Harrison St",
		"address2": "",
		"address3": "",
		"city": "Oak Park",
		"state": "IL",
		"zip_code": "60304"
	},
	{
		"venue_id": "yelpTrOTHLzmnRKzbAGjxlltmg",
		"venue_name": "Peter Miller Gallery",
		"latitude": 41.8838099,
		"longitude": -87.65012,
		"address1": "118 N Peoria St",
		"address2": "",
		"address3": "",
		"city": "Chicago",
		"state": "IL",
		"zip_code": "60607"
	},
	{
		"venue_id": "yelpmFGIcsppSTBKc4SzNKKKgw",
		"venue_name": "Tom Robinson Gallery",
		"latitude": 41.9103513658047,
		"longitude": -87.6880344003439,
		"address1": "2416 W North Ave",
		"address2": "",
		"address3": "",
		"city": "Chicago",
		"state": "IL",
		"zip_code": "60647"
	},
	{
		"venue_id": "yelpIUyPxA-sLOtB29cmgBljCw",
		"venue_name": "Monique Meloche Gallery",
		"latitude": 41.8902665303034,
		"longitude": -87.6694093211162,
		"address1": "451 N Paulina St",
		"address2": "",
		"address3": "",
		"city": "Chicago",
		"state": "IL",
		"zip_code": "60622"
	},
	{
		"venue_id": "yelpTKJi2SEmmXj2thg5ZTs0Cw",
		"venue_name": "Dalin Enterprises",
		"latitude": 41.85353,
		"longitude": -87.63509,
		"address1": "2169 S China Pl",
		"address2": "",
		"address3": "",
		"city": "Chicago",
		"state": "IL",
		"zip_code": "60616"
	},
	{
		"venue_id": "yelpPBUVvk8xPox8SVBZY8_J7Q",
		"venue_name": "Linda Warren Projects",
		"latitude": 41.88753,
		"longitude": -87.65422,
		"address1": "327 N Aberdeen",
		"address2": "Ste 151",
		"address3": "",
		"city": "Chicago",
		"state": "IL",
		"zip_code": "60607"
	},
	{
		"venue_id": "yelpP165irDsVUEQA6sOehCKYw",
		"venue_name": "Illumination Art & Design",
		"latitude": 41.910575,
		"longitude": -87.692276,
		"address1": "2600 W North Ave",
		"address2": null,
		"address3": "",
		"city": "Chicago",
		"state": "IL",
		"zip_code": "60647"
	},
	{
		"venue_id": "yelpmm2xGt8cqupl1b4A1057Pg",
		"venue_name": "Atomic Sketch",
		"latitude": 41.9165267944336,
		"longitude": -87.6876602172852,
		"address1": "2403 W Homer St",
		"address2": "",
		"address3": "",
		"city": "Chicago",
		"state": "IL",
		"zip_code": "60647"
	},
	{
		"venue_id": "yelpjl-qQq0jH1nd6OxOO4bSSQ",
		"venue_name": "Asian House of Chicago",
		"latitude": 41.8920758,
		"longitude": -87.6340687,
		"address1": "549 N Wells St",
		"address2": "",
		"address3": "",
		"city": "Chicago",
		"state": "IL",
		"zip_code": "60654"
	},
	{
		"venue_id": "yelpAmephJNb0JVUdCB29pxGww",
		"venue_name": "Roger Brown Study Collection",
		"latitude": 41.9168243408203,
		"longitude": -87.648811340332,
		"address1": "1926 N Halsted St",
		"address2": "",
		"address3": "",
		"city": "Chicago",
		"state": "IL",
		"zip_code": "60614"
	},
	{
		"venue_id": "yelphtB2LLMSkoad4TxAWFOZFQ",
		"venue_name": "Gage Gallery at Roosevelt University",
		"latitude": 41.8762752398647,
		"longitude": -87.6258859347491,
		"address1": "425 S Wabash Ave",
		"address2": "",
		"address3": "",
		"city": "Chicago",
		"state": "IL",
		"zip_code": "60603"
	},
	{
		"venue_id": "yelpzZIgHhetU6x9Fdc6iSUdfA",
		"venue_name": "Blnk Haus Gallery",
		"latitude": 41.91767,
		"longitude": -87.70738,
		"address1": "3206 W Armitage",
		"address2": null,
		"address3": "",
		"city": "Chicago",
		"state": "IL",
		"zip_code": "60647"
	},
	{
		"venue_id": "yelpT-Erts-OnyzAiBfoi8aDLA",
		"venue_name": "Chicago Conservation Center",
		"latitude": 41.88893,
		"longitude": -87.6751,
		"address1": "1900 W Kinzie St",
		"address2": null,
		"address3": null,
		"city": "Chicago",
		"state": "IL",
		"zip_code": "60622"
	},
	{
		"venue_id": "yelpjpblE9NzZF0Yn6w8RYTIfg",
		"venue_name": "Gregg Lane Art",
		"latitude": 41.9182608,
		"longitude": -87.6507315,
		"address1": "858 West Armitage Ave",
		"address2": "Ste 340",
		"address3": "",
		"city": "Chicago",
		"state": "IL",
		"zip_code": "60614"
	},
	{
		"venue_id": "yelptd-CGAsYDoHETKARee1wLA",
		"venue_name": "Kavi Gupta Gallery",
		"latitude": 41.88286,
		"longitude": -87.64895,
		"address1": "835 W Washington Blvd",
		"address2": "",
		"address3": "",
		"city": "Chicago",
		"state": "IL",
		"zip_code": "60607"
	},
	{
		"venue_id": "yelpLjO9EcjcGpHuhw94_bNDcA",
		"venue_name": "Chicago Art Source",
		"latitude": 41.91528,
		"longitude": -87.6551099,
		"address1": "1871 N Clybourn Ave",
		"address2": "",
		"address3": "",
		"city": "Chicago",
		"state": "IL",
		"zip_code": "60614"
	},
	{
		"venue_id": "yelpbHVF1s8l-IQC0zkA35Chmg",
		"venue_name": "Lvl3",
		"latitude": 41.9095237,
		"longitude": -87.6763541,
		"address1": "1542 N Milwaukee",
		"address2": "FL 3",
		"address3": "",
		"city": "Chicago",
		"state": "IL",
		"zip_code": "60622"
	},
	{
		"venue_id": "yelpSG6MHGD8VTHJwuf496wU2w",
		"venue_name": "Studio Gang Architects",
		"latitude": 41.903708,
		"longitude": -87.6676449,
		"address1": "1212 N Ashland Ave",
		"address2": "Ste 212",
		"address3": "",
		"city": "Chicago",
		"state": "IL",
		"zip_code": "60622"
	},
	{
		"venue_id": "yelpJh1BZ33LONThbI1Pp_38kw",
		"venue_name": "Agitator",
		"latitude": 41.90196,
		"longitude": -87.6678,
		"address1": "1112 N Ashland Ave",
		"address2": "",
		"address3": null,
		"city": "Chicago",
		"state": "IL",
		"zip_code": "60622"
	},
	{
		"venue_id": "yelpspC4YSFm4Bx39oTV6s_JoQ",
		"venue_name": "The Architrouve",
		"latitude": 41.8958511352539,
		"longitude": -87.6637725830078,
		"address1": "1433 W Chicago Ave",
		"address2": "",
		"address3": "",
		"city": "Chicago",
		"state": "IL",
		"zip_code": "60642"
	},
	{
		"venue_id": "yelp-gtRSIbSokqlpAr0Yr9CzA",
		"venue_name": "Arc Gallery and Educational Foundation",
		"latitude": 41.92121,
		"longitude": -87.67804,
		"address1": "2156 N Damen",
		"address2": "",
		"address3": "",
		"city": "Chicago",
		"state": "IL",
		"zip_code": "60647"
	},
	{
		"venue_id": "yelpqppEi0maWJXAJzU4CgNpIw",
		"venue_name": "Colletti Antique Poster Gallery",
		"latitude": 41.900513,
		"longitude": -87.626389,
		"address1": "49 E Oak St",
		"address2": "",
		"address3": "",
		"city": "Chicago",
		"state": "IL",
		"zip_code": "60611"
	},
	{
		"venue_id": "yelpsLbqnByNYsV9KW99DQeYzg",
		"venue_name": "Andrew Rafacz Gallery",
		"latitude": 41.88286,
		"longitude": -87.64895,
		"address1": "835 W Washington",
		"address2": "",
		"address3": "",
		"city": "Chicago",
		"state": "IL",
		"zip_code": "60607"
	},
	{
		"venue_id": "yelpXdcBB0LK0kEquW61e53R9A",
		"venue_name": "Thomas McCormick Gallery",
		"latitude": 41.88286,
		"longitude": -87.64895,
		"address1": "835 W Washington Blvd",
		"address2": "",
		"address3": "",
		"city": "Chicago",
		"state": "IL",
		"zip_code": "60607"
	},
	{
		"venue_id": "yelpOOgLqcXxtzs5htOBrDSWfg",
		"venue_name": "Gallery Victor Armendariz",
		"latitude": 41.89586,
		"longitude": -87.63601,
		"address1": "300 W Superior St",
		"address2": null,
		"address3": "",
		"city": "Chicago",
		"state": "IL",
		"zip_code": "60654"
	},
	{
		"venue_id": "yelpViRxyCY2V-xPXE0fsXnR9A",
		"venue_name": "Richard Gray Gallery",
		"latitude": 41.8988084,
		"longitude": -87.6230792,
		"address1": "875 N Michigan Ave",
		"address2": "Fl 38",
		"address3": "",
		"city": "Chicago",
		"state": "IL",
		"zip_code": "60611"
	},
	{
		"venue_id": "yelpYBNjkThr1eDldX1EunFerw",
		"venue_name": "Moka Gallery",
		"latitude": 41.93979,
		"longitude": -87.68141,
		"address1": "2112 W Belmont",
		"address2": "",
		"address3": "",
		"city": "Chicago",
		"state": "IL",
		"zip_code": "60618"
	},
	{
		"venue_id": "yelpEzAAonzEkWTxaDuDZfUgPA",
		"venue_name": "Vault Gallerie",
		"latitude": 41.8564026757242,
		"longitude": -87.6464068517089,
		"address1": "1909 S Halsted St",
		"address2": "",
		"address3": null,
		"city": "Chicago",
		"state": "IL",
		"zip_code": "60608"
	},
	{
		"venue_id": "yelpvJBha_5BNHtq4zfYIj3JvQ",
		"venue_name": "Alan Koppel Gallery",
		"latitude": 41.8969802856445,
		"longitude": -87.6300964355469,
		"address1": "806 N Dearborn St",
		"address2": "",
		"address3": "",
		"city": "Chicago",
		"state": "IL",
		"zip_code": "60610"
	},
	{
		"venue_id": "yelp5sSJ3eAhRKOLKXrjVCaHMA",
		"venue_name": "Shane Campbell Gallery",
		"latitude": 41.8547630310059,
		"longitude": -87.6250457763672,
		"address1": "2021 S Wabash Ave",
		"address2": null,
		"address3": null,
		"city": "Chicago",
		"state": "IL",
		"zip_code": "60616"
	},
	{
		"venue_id": "yelpl-WjWJZgEsQfesCUT_rR7w",
		"venue_name": "Martin Bernstein Art Studio",
		"latitude": 41.8303423,
		"longitude": -87.652357,
		"address1": "1029 W 35th St",
		"address2": "Ste 310",
		"address3": "Zhou B Art Center",
		"city": "Chicago",
		"state": "IL",
		"zip_code": "60609"
	},
	{
		"venue_id": "yelpL9-Qj9c63PG6jc9ehzv4Qw",
		"venue_name": "Gentner Showroom",
		"latitude": 41.88939,
		"longitude": -87.63532,
		"address1": "228 W Kinzie 2nd Fl",
		"address2": "",
		"address3": "",
		"city": "Chicago",
		"state": "IL",
		"zip_code": "60654"
	},
	{
		"venue_id": "yelpovEBBYC6HVlr7bnheFpSRg",
		"venue_name": "Hector Duarte Murals",
		"latitude": 41.85521,
		"longitude": -87.67363,
		"address1": "1900 W Cullerton St",
		"address2": "",
		"address3": null,
		"city": "Chicago",
		"state": "IL",
		"zip_code": "60608"
	},
	{
		"venue_id": "yelp5Z4PqBXZbVarknzXmYxPPQ",
		"venue_name": "Digital 2 Canvas",
		"latitude": 41.899612,
		"longitude": -87.624881,
		"address1": "900 N Michigan Shops",
		"address2": "Fl 5",
		"address3": "",
		"city": "Chicago",
		"state": "IL",
		"zip_code": "60601"
	},
	{
		"venue_id": "yelpGUAyDPG0leu1ZeePBVVxyQ",
		"venue_name": "House of the Apocalypse",
		"latitude": 41.85643,
		"longitude": -87.64692,
		"address1": "1908 S Halsted St",
		"address2": "1F",
		"address3": null,
		"city": "Chicago",
		"state": "IL",
		"zip_code": "60608"
	},
	{
		"venue_id": "yelpX8lEy9AEZATLs2MpYGJsXw",
		"venue_name": "Hildt Galleries",
		"latitude": 41.9001449,
		"longitude": -87.6238739,
		"address1": "140 E Walton St",
		"address2": "",
		"address3": "Drake Hotel Arcade",
		"city": "Chicago",
		"state": "IL",
		"zip_code": "60611"
	},
	{
		"venue_id": "yelpMnGQRDZTSmp82hPb_lN5Sg",
		"venue_name": "Mold Making & Casting Chicago",
		"latitude": 41.8272352017744,
		"longitude": -87.6528843864799,
		"address1": "1048 W 37th",
		"address2": "",
		"address3": "",
		"city": "Chicago",
		"state": "IL",
		"zip_code": "60609"
	},
	{
		"venue_id": "yelplUBCu6IF1uE4VN3xS6s2mA",
		"venue_name": "Rough Space Gallery",
		"latitude": 41.9679638743401,
		"longitude": -87.6889342814684,
		"address1": "4740 N Western Ave",
		"address2": "Fl 4",
		"address3": "",
		"city": "Chicago",
		"state": "IL",
		"zip_code": "60625"
	},
	{
		"venue_id": "yelpzhu7oBtPXYyLOspfZCMKcA",
		"venue_name": "15th and West",
		"latitude": 41.8611006438732,
		"longitude": -87.6876823604107,
		"address1": "2439 W 15th St",
		"address2": "",
		"address3": "",
		"city": "Chicago",
		"state": "IL",
		"zip_code": "60608"
	},
	{
		"venue_id": "yelpsSP-3RE_PUthOhgYmY0IlQ",
		"venue_name": "Art on Track",
		"latitude": 41.8842506408691,
		"longitude": -87.6324462890625,
		"address1": "",
		"address2": "",
		"address3": "",
		"city": "Chicago",
		"state": "IL",
		"zip_code": ""
	},
	{
		"venue_id": "yelpRuTNVdO5HEP1Vru2GTWtaw",
		"venue_name": "Chicago Printmakers Collaborative",
		"latitude": 41.97085,
		"longitude": -87.68928,
		"address1": "4912 N Western Ave",
		"address2": "",
		"address3": "",
		"city": "Chicago",
		"state": "IL",
		"zip_code": "60625"
	},
	{
		"venue_id": "yelpAWX3Z4MRD5ub8-vMeNouOw",
		"venue_name": "Barlow Fine Arts Studio",
		"latitude": 41.87625,
		"longitude": -87.62484,
		"address1": "410 S Michigan Ave",
		"address2": "Ste 616",
		"address3": "",
		"city": "Chicago",
		"state": "IL",
		"zip_code": "60605"
	},
	{
		"venue_id": "yelp8UiD2ci6QiPItxJTt9SYxg",
		"venue_name": "Ed Hinkley Studio",
		"latitude": 41.955631,
		"longitude": -87.688866,
		"address1": "4052 N Western Ave",
		"address2": "",
		"address3": "Watercolor and Fine Art Classes",
		"city": "Chicago",
		"state": "IL",
		"zip_code": "60618"
	},
	{
		"venue_id": "yelp6So5cyzDrzAS297DZe9l6g",
		"venue_name": "Chicago Art Department",
		"latitude": 41.85586,
		"longitude": -87.64691,
		"address1": "1932 S Halsted",
		"address2": "Ste 100",
		"address3": "",
		"city": "Chicago",
		"state": "IL",
		"zip_code": "60608"
	},
	{
		"venue_id": "yelpZ6IEIaATGOXx8W3iDwbenA",
		"venue_name": "Annual Pilsen East Artist's Open House",
		"latitude": 41.8552111834288,
		"longitude": -87.6465050876141,
		"address1": "2003 S Halsted St",
		"address2": "",
		"address3": "",
		"city": "Chicago",
		"state": "IL",
		"zip_code": "60686"
	},
	{
		"venue_id": "yelpZGgeQpYytymV08a__WvhKQ",
		"venue_name": "Mako James",
		"latitude": 41.82972,
		"longitude": -87.65229,
		"address1": "1029 W 35th St",
		"address2": "Ste 407",
		"address3": "Zhou B Art Center",
		"city": "Chicago",
		"state": "IL",
		"zip_code": "60609"
	},
	{
		"venue_id": "yelpmWD6JuznvQhA1drwD6qGEg",
		"venue_name": "The Eighth Day Gallery",
		"latitude": 41.9824688,
		"longitude": -87.6549317,
		"address1": "5535 N Sheridan Rd",
		"address2": "",
		"address3": "",
		"city": "Chicago",
		"state": "IL",
		"zip_code": "60640"
	},
	{
		"venue_id": "yelpA8mL-4Wwh4c_IlfUU7zoSA",
		"venue_name": "Roman Susan",
		"latitude": 42.0012722164392,
		"longitude": -87.6614496856928,
		"address1": "1224 W Loyola Ave",
		"address2": null,
		"address3": "",
		"city": "Chicago",
		"state": "IL",
		"zip_code": "60626"
	},
	{
		"venue_id": "yelpnc9YYD6uE0dxwC-rwVZ6YA",
		"venue_name": "Artspace 8",
		"latitude": 41.899641,
		"longitude": -87.625122,
		"address1": "900 N Michigan Ave",
		"address2": "Fl 3 and 4",
		"address3": "",
		"city": "Chicago",
		"state": "IL",
		"zip_code": "60611"
	},
	{
		"venue_id": "yelpefHyftWZj6CJfnn1Y1Qnkw",
		"venue_name": "Schneider Gallery",
		"latitude": 41.8963589,
		"longitude": -87.6330354,
		"address1": "770 North LaSalle Dr",
		"address2": "Ste 401",
		"address3": "",
		"city": "Chicago",
		"state": "IL",
		"zip_code": "60654"
	},
	{
		"venue_id": "yelpWrXMesv__jrXqSmvqGmxrQ",
		"venue_name": "Gallery 400",
		"latitude": 41.8764038085938,
		"longitude": -87.6498870849609,
		"address1": "400 S Peoria St",
		"address2": "",
		"address3": "UIC College of Architecture and the Arts",
		"city": "Chicago",
		"state": "IL",
		"zip_code": "60607"
	},
	{
		"venue_id": "yelpQWcGNJoofYDnQmk_H3PhLg",
		"venue_name": "LH Selman",
		"latitude": 41.87625,
		"longitude": -87.62484,
		"address1": "410 S Michigan Ave",
		"address2": "Ste 207",
		"address3": "",
		"city": "Chicago",
		"state": "IL",
		"zip_code": "60605"
	},
	{
		"venue_id": "yelp7Mun786wDnfV4teuvY8AUg",
		"venue_name": "Roots & Culture Contemporary Art Center",
		"latitude": 41.9005,
		"longitude": -87.66234,
		"address1": "1034 N Milwaukee",
		"address2": "",
		"address3": "",
		"city": "Chicago",
		"state": "IL",
		"zip_code": "60622"
	},
	{
		"venue_id": "yelpnX8AusIUtNfWBmWae1Idpw",
		"venue_name": "Atelier Mimi Gallery",
		"latitude": 41.9351185,
		"longitude": -87.6444149,
		"address1": "2908 N Broadway St",
		"address2": "",
		"address3": "",
		"city": "Chicago",
		"state": "IL",
		"zip_code": "60657"
	},
	{
		"venue_id": "yelpd67jeTFwKFr7Ni6rVg3G1A",
		"venue_name": "Chicago Artists' Coalition",
		"latitude": 41.88698,
		"longitude": -87.68069,
		"address1": "2130 W Fulton St",
		"address2": "",
		"address3": null,
		"city": "Chicago",
		"state": "IL",
		"zip_code": "60612"
	},
	{
		"venue_id": "yelpFbkdLXAfRd-c_G0XF5ZHIA",
		"venue_name": "Betty Rymer Gallery",
		"latitude": 41.878649,
		"longitude": -87.6209049,
		"address1": "280 South Columbus Dr",
		"address2": null,
		"address3": "",
		"city": "Chicago",
		"state": "IL",
		"zip_code": "60603"
	},
	{
		"venue_id": "yelpZnWfsB1DjLtEL260k6cwUw",
		"venue_name": "Legendary Art Gallery",
		"latitude": 41.88092,
		"longitude": -87.68722,
		"address1": "2419 W Madison St",
		"address2": "",
		"address3": null,
		"city": "Chicago",
		"state": "IL",
		"zip_code": "60612"
	},
	{
		"venue_id": "yelpTDGqVEH_ynADpdctHMahYA",
		"venue_name": "Old Town Triangle Center",
		"latitude": 41.91468,
		"longitude": -87.63655,
		"address1": "1763 N North Park Ave",
		"address2": "",
		"address3": "Old Town Triangle Association",
		"city": "Chicago",
		"state": "IL",
		"zip_code": "60614"
	},
	{
		"venue_id": "yelphKHp0UH6dXpC2-bL0b4N8A",
		"venue_name": "Devening Projects + Editions",
		"latitude": 41.8872464682076,
		"longitude": -87.7026484944022,
		"address1": "3039 West Carroll",
		"address2": "Fl 3",
		"address3": "",
		"city": "Chicago",
		"state": "IL",
		"zip_code": "60612"
	},
	{
		"venue_id": "yelpNJQx9fr9GDNJ3sklGI4fzQ",
		"venue_name": "Phaiz",
		"latitude": 41.89404296875,
		"longitude": -87.6514129638672,
		"address1": "673 N Milwaukee Ave",
		"address2": "",
		"address3": "",
		"city": "Chicago",
		"state": "IL",
		"zip_code": "60622"
	},
	{
		"venue_id": "yelpLsmOwTxVo14C0bGqs6Ogug",
		"venue_name": "Wrightwood659",
		"latitude": 41.92883,
		"longitude": -87.64504,
		"address1": "659 W Wrightwood Ave",
		"address2": "",
		"address3": null,
		"city": "Chicago",
		"state": "IL",
		"zip_code": "60614"
	},
	{
		"venue_id": "yelpqYtm3uqEmfsAHayVCIuk2Q",
		"venue_name": "Music & Art Meet Culture Fest",
		"latitude": 41.920158,
		"longitude": -87.692192,
		"address1": "2135 N Milwaukee Ave",
		"address2": "",
		"address3": "",
		"city": "Chicago",
		"state": "IL",
		"zip_code": "60647"
	},
	{
		"venue_id": "yelpq_Ssjls8gHknukyBlJKcnQ",
		"venue_name": "Pavo Real Boutique",
		"latitude": 41.899577,
		"longitude": -87.624844,
		"address1": "900 N Michigan Ave",
		"address2": "",
		"address3": "",
		"city": "Chicago",
		"state": "IL",
		"zip_code": "60611"
	},
	{
		"venue_id": "yelpr5A5iQMrQZW20C11kJwwhA",
		"venue_name": "La Llorona",
		"latitude": 41.92187,
		"longitude": -87.66606,
		"address1": "1474 W Webster Ave",
		"address2": "",
		"address3": "",
		"city": "Chicago",
		"state": "IL",
		"zip_code": "60614"
	},
	{
		"venue_id": "yelpBuxWl-h2vv2b6FpaNERU0A",
		"venue_name": "Cassiopeia Fine Arts",
		"latitude": 41.8902397155762,
		"longitude": -87.6336822509766,
		"address1": "433 N Wells St",
		"address2": "",
		"address3": "",
		"city": "Chicago",
		"state": "IL",
		"zip_code": "60654"
	},
	{
		"venue_id": "yelpkej_H3CL6QQi-I-goPVTNQ",
		"venue_name": "Maison Rouge Galerie",
		"latitude": 41.93359,
		"longitude": -87.64594,
		"address1": "2828 N Clark St",
		"address2": "Ste 1",
		"address3": "",
		"city": "Chicago",
		"state": "IL",
		"zip_code": "60657"
	},
	{
		"venue_id": "yelpuLGOzeYTPQnHpWL9UyDMHQ",
		"venue_name": "Black Walnut / Robert Wayner Gallery",
		"latitude": 41.8862571716309,
		"longitude": -87.6547775268555,
		"address1": "220 N Aberdeen St",
		"address2": "",
		"address3": "",
		"city": "Chicago",
		"state": "IL",
		"zip_code": "60607"
	},
	{
		"venue_id": "yelp1Bx171sBGxjozaNqJf5heQ",
		"venue_name": "Carrie Secrist Gallery",
		"latitude": 41.88286,
		"longitude": -87.64895,
		"address1": "835 W Washington Blvd",
		"address2": "",
		"address3": "",
		"city": "Chicago",
		"state": "IL",
		"zip_code": "60607"
	},
	{
		"venue_id": "yelpago6x2uYdg6mmXNyuo5NIg",
		"venue_name": "Kelmscott Gallery",
		"latitude": 41.9653358459473,
		"longitude": -87.6860122680664,
		"address1": "4611 N Lincoln Ave",
		"address2": "",
		"address3": "",
		"city": "Chicago",
		"state": "IL",
		"zip_code": "60625"
	},
	{
		"venue_id": "yelpMH51fe7yfXpsPGB5hizHlw",
		"venue_name": "The Palmer Gallery",
		"latitude": 41.8946251,
		"longitude": -87.6350565,
		"address1": "233 West Huron",
		"address2": "",
		"address3": "",
		"city": "Chicago",
		"state": "IL",
		"zip_code": "60654"
	},
	{
		"venue_id": "yelpiQ7gEDbZa8x4gT0Zv-n4Qw",
		"venue_name": "Chicago Fine Arts",
		"latitude": 41.9400863647461,
		"longitude": -87.6596908569336,
		"address1": "1216 W Belmont Ave",
		"address2": "",
		"address3": "",
		"city": "Chicago",
		"state": "IL",
		"zip_code": "60657"
	},
	{
		"venue_id": "yelpT5KOXImGGOQqxfYwdz8uIw",
		"venue_name": "Rosenthal Fine Art",
		"latitude": 41.8947504410501,
		"longitude": -87.6278811693192,
		"address1": "640 N Lasalle St",
		"address2": "Ste 485",
		"address3": "",
		"city": "Chicago",
		"state": "IL",
		"zip_code": "60611"
	},
	{
		"venue_id": "yelpRqFvqiC-PFXyFPnbQ2053Q",
		"venue_name": "Chicago Tourism Center Gallery",
		"latitude": 41.8848419189453,
		"longitude": -87.6253509521484,
		"address1": "72 E Randolph St",
		"address2": "",
		"address3": "",
		"city": "Chicago",
		"state": "IL",
		"zip_code": "60601"
	},
	{
		"venue_id": "yelptkHdsd0bqfq318EXU1OEkw",
		"venue_name": "Popup Art",
		"latitude": 41.8809155,
		"longitude": -87.6254251,
		"address1": "The Lp",
		"address2": "",
		"address3": "",
		"city": "Chicago",
		"state": "IL",
		"zip_code": "60603"
	},
	{
		"venue_id": "yelpcLK3mcn9cLX1Q7kSZZoz-g",
		"venue_name": "Boeing Gallery",
		"latitude": 41.8812732964448,
		"longitude": -87.6234635104859,
		"address1": "128-154 E Monroe St",
		"address2": "Millennium Park",
		"address3": "Millennium Park",
		"city": "Chicago",
		"state": "IL",
		"zip_code": "60601"
	},
	{
		"venue_id": "yelptJsnRAiE69DhCJbv5vwR4w",
		"venue_name": "C33 Gallery",
		"latitude": 41.8755645751953,
		"longitude": -87.6265106201172,
		"address1": "33 E Congress Ave",
		"address2": "",
		"address3": "",
		"city": "Chicago",
		"state": "IL",
		"zip_code": "60605"
	},
	{
		"venue_id": "yelpg-Eqo5RPTj7dbKoRbdkm4g",
		"venue_name": "Citlalin Art Gallery",
		"latitude": 41.85493,
		"longitude": -87.66325,
		"address1": "2005 S Blue Island",
		"address2": null,
		"address3": "",
		"city": "Chicago",
		"state": "IL",
		"zip_code": "60608"
	},
	{
		"venue_id": "yelpINMqpl05fK2dp7PgRI7s3w",
		"venue_name": "Logsdon 1909",
		"latitude": 41.8564186096191,
		"longitude": -87.6463012695312,
		"address1": "1909 S Halsted St",
		"address2": null,
		"address3": null,
		"city": "Chicago",
		"state": "IL",
		"zip_code": "60608"
	},
	{
		"venue_id": "yelpiPHrhYHpdR_iL62vEVtHAQ",
		"venue_name": "Moberg Gallery",
		"latitude": 41.9682922363281,
		"longitude": -87.6965103149414,
		"address1": "2707 W Lawrence",
		"address2": "",
		"address3": "",
		"city": "Chicago",
		"state": "IL",
		"zip_code": "60625"
	},
	{
		"venue_id": "yelpyTVUB0cj84PrX4-Jq7o94g",
		"venue_name": "Lotton Gallery",
		"latitude": 41.899493,
		"longitude": -87.62596,
		"address1": "900 N Michigan Ave",
		"address2": "",
		"address3": "Level 6",
		"city": "Chicago",
		"state": "IL",
		"zip_code": "60611"
	},
	{
		"venue_id": "yelp4E5KiqO4rQ0xGDx3XG-BWA",
		"venue_name": "Primitive Warehouse",
		"latitude": 41.830895,
		"longitude": -87.65634,
		"address1": "1200 W 35th St",
		"address2": "",
		"address3": "",
		"city": "Chicago",
		"state": "IL",
		"zip_code": "60609"
	},
	{
		"venue_id": "yelpVuZGJzkj3diWrQNz3oo2DQ",
		"venue_name": "Southside Community Art Center",
		"latitude": 41.8244147630443,
		"longitude": -87.6230857148767,
		"address1": "3831 S Michigan",
		"address2": "",
		"address3": "",
		"city": "Chicago",
		"state": "IL",
		"zip_code": "60653"
	},
	{
		"venue_id": "yelp4CwlsfqtMgBiBfBK6NAQUA",
		"venue_name": "Chicago Photography Collective",
		"latitude": 41.88379,
		"longitude": -87.62826,
		"address1": "108 N State St",
		"address2": "",
		"address3": "",
		"city": "Chicago",
		"state": "IL",
		"zip_code": "60602"
	},
	{
		"venue_id": "yelpUWhAe-CdVsu_YGgXfeqmTw",
		"venue_name": "Thomas Robertello Gallery",
		"latitude": 41.8840652,
		"longitude": -87.6514681,
		"address1": "939 W Randolph St",
		"address2": "",
		"address3": "",
		"city": "Chicago",
		"state": "IL",
		"zip_code": "60607"
	},
	{
		"venue_id": "yelpftjsqHO9D5vHoWbAUyB1BQ",
		"venue_name": "IPaintMyMind",
		"latitude": 41.9321361,
		"longitude": -87.7135739,
		"address1": "3432 W Diversey Ave",
		"address2": "Ste 294",
		"address3": "",
		"city": "Chicago",
		"state": "IL",
		"zip_code": "60647"
	},
	{
		"venue_id": "yelpRqE4kAns9JMB1iT9mlJSzw",
		"venue_name": "Master of the Arts",
		"latitude": 41.8654531437416,
		"longitude": -87.7775702252984,
		"address1": "6118 Roosevelt Rd",
		"address2": "Ste A",
		"address3": "",
		"city": "Oak Park",
		"state": "IL",
		"zip_code": "60304"
	},
	{
		"venue_id": "yelpELtibUKftaHPdGIAaLJBsA",
		"venue_name": "Sullivan Galleries",
		"latitude": 41.8815994262695,
		"longitude": -87.6278076171875,
		"address1": "33 S State St",
		"address2": "Fl 7",
		"address3": "",
		"city": "Chicago",
		"state": "IL",
		"zip_code": "60602"
	},
	{
		"venue_id": "yelpFGZjwa1pxU-HRr7JMXTNuQ",
		"venue_name": "Tony Tasset's Snow Sculpture for Chicago",
		"latitude": 41.89574,
		"longitude": -87.66792,
		"address1": "1613 W Chicago Ave",
		"address2": "",
		"address3": "",
		"city": "Chicago",
		"state": "IL",
		"zip_code": "60622"
	},
	{
		"venue_id": "yelpc7RDqDA_0UQ0fp9ZWOd79A",
		"venue_name": "The Studio 312",
		"latitude": 41.924932,
		"longitude": -87.715558,
		"address1": "3520 W Fullerton Ave",
		"address2": "",
		"address3": "",
		"city": "Chicago",
		"state": "IL",
		"zip_code": "60647"
	},
	{
		"venue_id": "yelp_xkzWjwL89eMfpYi-a8ClQ",
		"venue_name": "Video Game Art Gallery",
		"latitude": 41.91428,
		"longitude": -87.68819,
		"address1": "2418 W Bloomingdale Ave",
		"address2": "Apt 102",
		"address3": null,
		"city": "Chicago",
		"state": "IL",
		"zip_code": "60647"
	},
	{
		"venue_id": "yelproXM7zSKV6h60R8nNSNffw",
		"venue_name": "GPTetrev Pottery Store and Workshop",
		"latitude": 41.88582,
		"longitude": -87.79472,
		"address1": "159 S Oak Park Ave",
		"address2": "",
		"address3": null,
		"city": "Oak Park",
		"state": "IL",
		"zip_code": "60302"
	},
	{
		"venue_id": "yelplnNuQgJIffMs-A25erHkbw",
		"venue_name": "Oak Park Arts District",
		"latitude": 41.8727111816406,
		"longitude": -87.7780227661133,
		"address1": "Harrison St",
		"address2": "",
		"address3": "between Austin and Ridgeland",
		"city": "Oak Park",
		"state": "IL",
		"zip_code": "60304"
	},
	{
		"venue_id": "yelpddd9R98WSJMjpVeGVA-O-g",
		"venue_name": "Gescheidle",
		"latitude": 41.8853073120117,
		"longitude": -87.6538391113281,
		"address1": "1039 W Lake St",
		"address2": "Fl 2",
		"address3": "",
		"city": "Chicago",
		"state": "IL",
		"zip_code": "60607"
	},
	{
		"venue_id": "yelpDYLJkEqytTNiMCUiAK_WTQ",
		"venue_name": "Tony Wight Gallery",
		"latitude": 41.8829851,
		"longitude": -87.6491649,
		"address1": "845 W Washington Blvd",
		"address2": "",
		"address3": "",
		"city": "Chicago",
		"state": "IL",
		"zip_code": "60607"
	},
	{
		"venue_id": "yelpKfs85H1_yjLv55XM6v6FTA",
		"venue_name": "La Casa de Frida",
		"latitude": 41.8796549,
		"longitude": -87.8117849,
		"address1": "7451 Madison St",
		"address2": "",
		"address3": null,
		"city": "Forest Park",
		"state": "IL",
		"zip_code": "60130"
	},
	{
		"venue_id": "yelpFifUuza2zt6AMCxaACLRQA",
		"venue_name": "International Exposition Of Contemporary and Modern Art",
		"latitude": 41.8916893,
		"longitude": -87.6084137,
		"address1": "Navy Pier Festival Hall A 600 E Grand",
		"address2": "",
		"address3": "",
		"city": "Chicago",
		"state": "IL",
		"zip_code": "60611"
	},
	{
		"venue_id": "yelpaSTffk-cLz5F8F-pnMMIyw",
		"venue_name": "Trunk Show",
		"latitude": 41.8981971740723,
		"longitude": -87.6875915527344,
		"address1": "2415 W Walton St",
		"address2": "",
		"address3": null,
		"city": "Chicago",
		"state": "IL",
		"zip_code": "60622"
	},
	{
		"venue_id": "yelpA7Uedb1SCmzfB4d0ZW4iVA",
		"venue_name": "Eat Paint Studio",
		"latitude": 41.9724742,
		"longitude": -87.6915091,
		"address1": "5036 N Lincoln Ave",
		"address2": null,
		"address3": "",
		"city": "Chicago",
		"state": "IL",
		"zip_code": "60625"
	},
	{
		"venue_id": "yelp2y9hIyo2_CLsjjsBIS4DDA",
		"venue_name": "Urban Art Retreat",
		"latitude": 41.85376,
		"longitude": -87.7074,
		"address1": "1957 S Spaulding Ave",
		"address2": "",
		"address3": "",
		"city": "Chicago",
		"state": "IL",
		"zip_code": "60623"
	},
	{
		"venue_id": "yelpiMcoR4TRcCIXbiSpH5D0fw",
		"venue_name": "Johalla Projects",
		"latitude": 41.8890762329102,
		"longitude": -87.6728363037109,
		"address1": "1821 W Hubbard St",
		"address2": "Ste 209",
		"address3": "",
		"city": "Chicago",
		"state": "IL",
		"zip_code": "60622"
	},
	{
		"venue_id": "yelptccTR6LmNvvdBrdZRsfHAQ",
		"venue_name": "Historic Three Arts Building of Chicago",
		"latitude": 41.9055675702496,
		"longitude": -87.6299191938368,
		"address1": "1300 North Dearborn St",
		"address2": "",
		"address3": "",
		"city": "Chicago",
		"state": "IL",
		"zip_code": "60610"
	},
	{
		"venue_id": "yelpiL_ZPmk_gX4xbsGolHM4KA",
		"venue_name": "Studio 1040",
		"latitude": 41.8945236,
		"longitude": -87.653923,
		"address1": "1040 W Huron St",
		"address2": null,
		"address3": "",
		"city": "Chicago",
		"state": "IL",
		"zip_code": "60642"
	},
	{
		"venue_id": "yelpKEre2qeGmaoJan_sGPXozg",
		"venue_name": "AdventureLand Gallery",
		"latitude": 41.9090347290039,
		"longitude": -87.6868057250977,
		"address1": "1513 N Western Ave",
		"address2": "",
		"address3": "",
		"city": "Chicago",
		"state": "IL",
		"zip_code": "60622"
	},
	{
		"venue_id": "yelpEYbzOnlomuLV1tGmz8c_4w",
		"venue_name": "Function-Art",
		"latitude": 41.87915,
		"longitude": -87.66713,
		"address1": "100 S Ashland Ave",
		"address2": "",
		"address3": "",
		"city": "Chicago",
		"state": "IL",
		"zip_code": "60607"
	},
	{
		"venue_id": "yelptCJQXnL_vPpcXx5abmCTEg",
		"venue_name": "D-Ferg Ink Productions",
		"latitude": 41.9373286,
		"longitude": -87.6686591,
		"address1": "3056 N Ashland Ave",
		"address2": "",
		"address3": "",
		"city": "Chicago",
		"state": "IL",
		"zip_code": "60657"
	},
	{
		"venue_id": "yelpcUPY_Rb9Q8B8BuZFyzdJpg",
		"venue_name": "Grid Gallery",
		"latitude": 41.85737,
		"longitude": -87.64353,
		"address1": "643 W 18th St",
		"address2": "",
		"address3": "",
		"city": "Chicago",
		"state": "IL",
		"zip_code": "60616"
	},
	{
		"venue_id": "yelpuPJOTrWrrF2L7PKgtrPUqg",
		"venue_name": "Penumbra Studios",
		"latitude": 41.91606,
		"longitude": -87.71393,
		"address1": "1916 N St Louis Ave",
		"address2": "",
		"address3": "",
		"city": "Chicago",
		"state": "IL",
		"zip_code": "60647"
	},
	{
		"venue_id": "yelpL41XZtcgvAE0mWclmBRorg",
		"venue_name": "Dubhe Carreno Gallery",
		"latitude": 41.8838099,
		"longitude": -87.65012,
		"address1": "118 N Peoria St",
		"address2": "Fl 2",
		"address3": "",
		"city": "Chicago",
		"state": "IL",
		"zip_code": "60607"
	},
	{
		"venue_id": "yelp3qaUaScX1UvaMyLYNoqYdg",
		"venue_name": "Ars Memoria",
		"latitude": 41.9603975007485,
		"longitude": -87.6700979821814,
		"address1": "1770 West Berteau Ave",
		"address2": "Ste 506",
		"address3": null,
		"city": "Chicago",
		"state": "IL",
		"zip_code": "60613"
	},
	{
		"venue_id": "yelpJHDwSDeomaB9bvxdufEFgA",
		"venue_name": "R. S. Johnson Fine Art",
		"latitude": 41.89393,
		"longitude": -87.62363,
		"address1": "645 N Michigan Ave",
		"address2": "Ste 990",
		"address3": "",
		"city": "Chicago",
		"state": "IL",
		"zip_code": "60611"
	},
	{
		"venue_id": "yelpR6VHKHLeCN0RrqEqH9wCEQ",
		"venue_name": "artScape Chicago",
		"latitude": 41.8848419189453,
		"longitude": -87.6255035400391,
		"address1": "66 E Randolph Dr",
		"address2": "",
		"address3": "",
		"city": "Chicago",
		"state": "IL",
		"zip_code": "60601"
	},
	{
		"venue_id": "yelpcYw24Plj58tviuenNgGteA",
		"venue_name": "Songhay Studios Group",
		"latitude": 41.85242,
		"longitude": -87.64329,
		"address1": "629 W Cermak",
		"address2": "Ste 205",
		"address3": "",
		"city": "Chicago",
		"state": "IL",
		"zip_code": "60616"
	},
	{
		"venue_id": "yelpBvB5oi79zDHbEIN3U9qhwg",
		"venue_name": "Oak Park Art League",
		"latitude": 41.89473,
		"longitude": -87.79385,
		"address1": "720 Chicago Ave",
		"address2": "",
		"address3": "",
		"city": "Oak Park",
		"state": "IL",
		"zip_code": "60302"
	},
	{
		"venue_id": "yelpvg3sdXI7qJaKFmUZGKwvYg",
		"venue_name": "Black Moon Gallery and Studio",
		"latitude": 41.87249,
		"longitude": -87.77538,
		"address1": "17 Harrison St",
		"address2": "",
		"address3": null,
		"city": "Oak Park",
		"state": "IL",
		"zip_code": "60304"
	},
	{
		"venue_id": "yelpbrVTwnN_U79qYzW2E0AVFg",
		"venue_name": "Modern Scapes Sketches",
		"latitude": 41.96411,
		"longitude": -87.80871,
		"address1": "",
		"address2": null,
		"address3": "",
		"city": "Chicago",
		"state": "IL",
		"zip_code": "60706"
	},
	{
		"venue_id": "yelpuY6o7DHPrMJNRfwm-l4j1A",
		"venue_name": "Gallery Pink",
		"latitude": 41.8725,
		"longitude": -87.7790799,
		"address1": "149 Harrison",
		"address2": null,
		"address3": "",
		"city": "Oak Park",
		"state": "IL",
		"zip_code": "60304"
	},
	{
		"venue_id": "yelpZiiClkS5axp1i8puySYHEQ",
		"venue_name": "MULTIPLES.",
		"latitude": 41.917274,
		"longitude": -87.692657,
		"address1": "2605 W Armitage Ave",
		"address2": "",
		"address3": "",
		"city": "Chicago",
		"state": "IL",
		"zip_code": "60647"
	},
	{
		"venue_id": "yelp1_6GJoA9vDD1zNdy2v4Ohw",
		"venue_name": "PRISM Contemporary Glass",
		"latitude": 41.8869552612305,
		"longitude": -87.6540679931641,
		"address1": "1048 W Fulton Market",
		"address2": "",
		"address3": "",
		"city": "Chicago",
		"state": "IL",
		"zip_code": "60607"
	},
	{
		"venue_id": "yelplFKxggQ4ZfqgLXC-aychrQ",
		"venue_name": "Iarca Gallery",
		"latitude": 41.8768805383886,
		"longitude": -87.624353693618,
		"address1": "332 S Michigan Ave",
		"address2": "",
		"address3": "",
		"city": "Chicago",
		"state": "IL",
		"zip_code": "60604"
	},
	{
		"venue_id": "yelp7Ri-jAMQiZdsOcIwB5zOgg",
		"venue_name": "Fine Art America",
		"latitude": 41.9280344,
		"longitude": -87.6421273,
		"address1": "2506 N Clark St",
		"address2": "Ste 177",
		"address3": "",
		"city": "Chicago",
		"state": "IL",
		"zip_code": "60614"
	},
	{
		"venue_id": "yelp4dxhyMxFkNcNDaXj1gr5DA",
		"venue_name": "Walker Studios",
		"latitude": 41.900391,
		"longitude": -87.662254,
		"address1": "1030 N Milwaukee Ave",
		"address2": "",
		"address3": "",
		"city": "Chicago",
		"state": "IL",
		"zip_code": "60622"
	},
	{
		"venue_id": "yelpUM3e8WBgd2eVFgY3A9BPGA",
		"venue_name": "Elee.mosynary Gallery",
		"latitude": 41.8574772126995,
		"longitude": -87.6436834037304,
		"address1": "645 W 18th St",
		"address2": "",
		"address3": "",
		"city": "Chicago",
		"state": "IL",
		"zip_code": "60616"
	},
	{
		"venue_id": "yelp9R1B7N0JNSQ_5xgwy8-nOw",
		"venue_name": "At The Gallery",
		"latitude": 41.8881523,
		"longitude": -87.7946249,
		"address1": "135 N Oak Park Ave",
		"address2": "",
		"address3": "",
		"city": "Oak Park",
		"state": "IL",
		"zip_code": "60302"
	},
	{
		"venue_id": "yelpAtfBGQL19jQA3Ztk-FZKEw",
		"venue_name": "Frame Factory",
		"latitude": 41.9979558800182,
		"longitude": -87.7270037705002,
		"address1": "3924 W Devon Ave",
		"address2": "",
		"address3": "",
		"city": "Lincolnwood",
		"state": "IL",
		"zip_code": "60712"
	},
	{
		"venue_id": "yelpfnbWUq0DFr7nvEjM3K0l1Q",
		"venue_name": "What It Is / Wot It Is",
		"latitude": 41.86695,
		"longitude": -87.77698,
		"address1": "1155 Lyman Ave",
		"address2": "",
		"address3": "",
		"city": "Oak Park",
		"state": "IL",
		"zip_code": "60304"
	},
	{
		"venue_id": "yelp7tdjr3IDlZ0TbZZJCSZBOQ",
		"venue_name": "Studio One Ink",
		"latitude": 41.8956399037846,
		"longitude": -87.70159766078,
		"address1": "2950 W Chicago Ave",
		"address2": "Ste 102",
		"address3": "",
		"city": "Chicago",
		"state": "IL",
		"zip_code": "60622"
	},
	{
		"venue_id": "yelpDgHHK1AiQkzoq6BEW995CQ",
		"venue_name": "Cicada Pi",
		"latitude": 41.8855424519467,
		"longitude": -87.7945579871306,
		"address1": "177 S Oak Park Ave",
		"address2": "",
		"address3": "",
		"city": "Oak Park",
		"state": "IL",
		"zip_code": "60302"
	},
	{
		"venue_id": "yelp3sjaidCXl-FNRBE1Db4PXw",
		"venue_name": "GA Tremain",
		"latitude": 42.033487,
		"longitude": -87.6804954,
		"address1": "838 Custer Ave",
		"address2": "",
		"address3": "",
		"city": "Evanston",
		"state": "IL",
		"zip_code": "60202"
	},
	{
		"venue_id": "yelpS0IcaYUly123u9cyaJ903w",
		"venue_name": "Art & Glass Studio",
		"latitude": 41.8657035827637,
		"longitude": -88.1070175170898,
		"address1": "124 N Main St",
		"address2": "Ste A",
		"address3": null,
		"city": "Wheaton",
		"state": "IL",
		"zip_code": "60187"
	},
	{
		"venue_id": "yelp3cy2fsnoI4nwZrO98yBfsw",
		"venue_name": "Graphic Pointe",
		"latitude": 41.9565,
		"longitude": -87.80745,
		"address1": "4104 N Harlem Ave",
		"address2": "",
		"address3": "",
		"city": "Norridge",
		"state": "IL",
		"zip_code": "60706"
	}
]