[
	{
		"venue_id": "yelpvvhfPV-Llkd4fE2SHuLVvA",
		"venue_name": "The Gage",
		"latitude": 41.8810478466356,
		"longitude": -87.6245328837886,
		"address1": "24 S Michigan Ave",
		"address2": null,
		"address3": "",
		"city": "Chicago",
		"state": "IL",
		"zip_code": "60603"
	},
	{
		"venue_id": "yelpm5_GCJP2W4zEJnyVgxa3eA",
		"venue_name": "Longman & Eagle",
		"latitude": 41.930156679293,
		"longitude": -87.707222394898,
		"address1": "2657 N Kedzie Ave",
		"address2": "",
		"address3": "",
		"city": "Chicago",
		"state": "IL",
		"zip_code": "60647"
	},
	{
		"venue_id": "yelpsR4EOfPuI-at41uIxIZPhw",
		"venue_name": "Hopleaf",
		"latitude": 41.97581,
		"longitude": -87.66874,
		"address1": "5148 N Clark St",
		"address2": "",
		"address3": "",
		"city": "Chicago",
		"state": "IL",
		"zip_code": "60640"
	},
	{
		"venue_id": "yelpZ7Z0QCpKxJ_1JQcr6mz3VA",
		"venue_name": "Owen & Engine",
		"latitude": 41.93047,
		"longitude": -87.68823,
		"address1": "2700 N Western Ave",
		"address2": "",
		"address3": "",
		"city": "Chicago",
		"state": "IL",
		"zip_code": "60647"
	},
	{
		"venue_id": "yelpcI-QGo3SDDbOxJJXavfjVQ",
		"venue_name": "Copper Fox Gastropub",
		"latitude": 41.8932151,
		"longitude": -87.6233697,
		"address1": "155 East Ontario St",
		"address2": "",
		"address3": "",
		"city": "Chicago",
		"state": "IL",
		"zip_code": "60611"
	},
	{
		"venue_id": "yelp5FK-H2Zxcje-OH1FcsdJ5A",
		"venue_name": "Umami Burger - Wicker Park",
		"latitude": 41.9085899,
		"longitude": -87.6752,
		"address1": "1480 N Milwaukee Ave",
		"address2": null,
		"address3": "",
		"city": "Chicago",
		"state": "IL",
		"zip_code": "60622"
	},
	{
		"venue_id": "yelpTC8tG6To87DUzC365njvXw",
		"venue_name": "River Roast",
		"latitude": 41.887957929885,
		"longitude": -87.6321899243637,
		"address1": "315 N La Salle Dr",
		"address2": "",
		"address3": "",
		"city": "Chicago",
		"state": "IL",
		"zip_code": "60654"
	},
	{
		"venue_id": "yelpmWTucUb_YNZNGyt6QSKZmg",
		"venue_name": "SideDoor",
		"latitude": 41.893543,
		"longitude": -87.625046,
		"address1": "100 E Ontario St",
		"address2": null,
		"address3": "",
		"city": "Chicago",
		"state": "IL",
		"zip_code": "60611"
	},
	{
		"venue_id": "yelpgGnXdeIA6mox_qN0NK51AA",
		"venue_name": "Pl-zen",
		"latitude": 41.8575592041016,
		"longitude": -87.6645660400391,
		"address1": "1519 W 18th St",
		"address2": "",
		"address3": "",
		"city": "Chicago",
		"state": "IL",
		"zip_code": "60608"
	},
	{
		"venue_id": "yelpMPWQAGiEqvnI8uxzJFND8w",
		"venue_name": "The Monkey's Paw",
		"latitude": 41.927818,
		"longitude": -87.663743,
		"address1": "2524 N Southport Ave",
		"address2": "",
		"address3": "",
		"city": "Chicago",
		"state": "IL",
		"zip_code": "60614"
	},
	{
		"venue_id": "yelp5I9mVLHZupksTqU0BsP9Mw",
		"venue_name": "The Madison Bar and Kitchen",
		"latitude": 41.88138,
		"longitude": -87.65321,
		"address1": "1027 W Madison St",
		"address2": null,
		"address3": "",
		"city": "Chicago",
		"state": "IL",
		"zip_code": "60607"
	},
	{
		"venue_id": "yelpI30lluFlFXFbbh0s5XNaQw",
		"venue_name": "Legno Chicago",
		"latitude": 41.958257,
		"longitude": -87.767503,
		"address1": "4250 N Central Ave",
		"address2": "",
		"address3": "",
		"city": "Chicago",
		"state": "IL",
		"zip_code": "60634"
	},
	{
		"venue_id": "yelpzv6Np3a15fxtn8isqCFGPg",
		"venue_name": "Park Tavern",
		"latitude": 41.8773,
		"longitude": -87.66869,
		"address1": "1645 W Jackson Blvd",
		"address2": "",
		"address3": "",
		"city": "Chicago",
		"state": "IL",
		"zip_code": "60612"
	},
	{
		"venue_id": "yelpJnaatj70xLwtHrrYQXCr7A",
		"venue_name": "Wise Owl Drinkery & Cookhouse",
		"latitude": 41.8767083604545,
		"longitude": -87.6571454693116,
		"address1": "324 S Racine Ave",
		"address2": "",
		"address3": "",
		"city": "Chicago",
		"state": "IL",
		"zip_code": "60607"
	},
	{
		"venue_id": "yelpGYLD2PapaQ69-3P3rOLL5A",
		"venue_name": "Matisse Tavern & Grill",
		"latitude": 41.93302,
		"longitude": -87.64649,
		"address1": "674 West Diversey Pkwy",
		"address2": "",
		"address3": null,
		"city": "Chicago",
		"state": "IL",
		"zip_code": "60614"
	},
	{
		"venue_id": "yelp8hioSQ9DWbtChDWRS_RglQ",
		"venue_name": "Gideon Welles",
		"latitude": 41.9633249818403,
		"longitude": -87.6853008940816,
		"address1": "4500 N Lincoln Ave",
		"address2": "",
		"address3": "",
		"city": "Chicago",
		"state": "IL",
		"zip_code": "60625"
	},
	{
		"venue_id": "yelppXgqD02xAF1HWIn9KeOFiA",
		"venue_name": "Punch Bowl Social Chicago",
		"latitude": 41.88722,
		"longitude": -87.6490199,
		"address1": "310 N Green St",
		"address2": null,
		"address3": null,
		"city": "Chicago",
		"state": "IL",
		"zip_code": "60607"
	},
	{
		"venue_id": "yelpefRsbbfjcuDXABJNXdgl7w",
		"venue_name": "Wollensky's Grill",
		"latitude": 41.8883276,
		"longitude": -87.6281349,
		"address1": "318 N State St",
		"address2": "",
		"address3": "",
		"city": "Chicago",
		"state": "IL",
		"zip_code": "60654"
	},
	{
		"venue_id": "yelp8gqj__-CngfB8sWAF6JC9g",
		"venue_name": "Good Measure",
		"latitude": 41.8968599,
		"longitude": -87.63533,
		"address1": "226 W Chicago Ave",
		"address2": "",
		"address3": null,
		"city": "Chicago",
		"state": "IL",
		"zip_code": "60654"
	},
	{
		"venue_id": "yelpSWQxXlF7EnWDxz8I8pB6NQ",
		"venue_name": "The Hidden Shamrock",
		"latitude": 41.932285,
		"longitude": -87.648622,
		"address1": "2723 N Halsted St",
		"address2": "",
		"address3": "",
		"city": "Chicago",
		"state": "IL",
		"zip_code": "60614"
	},
	{
		"venue_id": "yelpk5f-N-Oh64tivQiti_pkDQ",
		"venue_name": "FTW Chicago",
		"latitude": 41.8914199,
		"longitude": -87.61894,
		"address1": "322 E Illinois St",
		"address2": "",
		"address3": "",
		"city": "Chicago",
		"state": "IL",
		"zip_code": "60611"
	},
	{
		"venue_id": "yelpmO_L_yc21euEM1Uq9fgK8Q",
		"venue_name": "Kitty O'Shea's",
		"latitude": 41.87252,
		"longitude": -87.62478,
		"address1": "720 S Michigan Ave",
		"address2": null,
		"address3": "",
		"city": "Chicago",
		"state": "IL",
		"zip_code": "60605"
	},
	{
		"venue_id": "yelpV8_NjnBj-uzkRHy9a2025w",
		"venue_name": "Reclaimed Bar and Restaurant",
		"latitude": 41.94834,
		"longitude": -87.6879,
		"address1": "3655 North Western Ave",
		"address2": "",
		"address3": null,
		"city": "Chicago",
		"state": "IL",
		"zip_code": "60618"
	},
	{
		"venue_id": "yelpKlcKi7yOfwzQQWqoFI6Ypw",
		"venue_name": "1959 Kitchen & Bar",
		"latitude": 41.9112749,
		"longitude": -87.6359433,
		"address1": "230 W North Ave",
		"address2": "",
		"address3": "The Second City",
		"city": "Chicago",
		"state": "IL",
		"zip_code": "60610"
	},
	{
		"venue_id": "yelpotNL_e7mtLqaihbHeB4AYA",
		"venue_name": "Nola pub",
		"latitude": 41.9456953,
		"longitude": -87.6550152,
		"address1": "3481 N Clark St",
		"address2": null,
		"address3": "",
		"city": "Chicago",
		"state": "IL",
		"zip_code": "60657"
	},
	{
		"venue_id": "yelpqeZHhs1J2ObtaSLbtPBKow",
		"venue_name": "Umami Burger - West Loop",
		"latitude": 41.88405,
		"longitude": -87.65179,
		"address1": "945 W Randolph St",
		"address2": "",
		"address3": null,
		"city": "West Loop",
		"state": "IL",
		"zip_code": "60607"
	},
	{
		"venue_id": "yelptL7k2hAH53Jnp1WdMBfvxQ",
		"venue_name": "Merchant",
		"latitude": 41.927701,
		"longitude": -87.706764,
		"address1": "3137 W Logan Blvd",
		"address2": "",
		"address3": null,
		"city": "Chicago",
		"state": "IL",
		"zip_code": "60647"
	},
	{
		"venue_id": "yelpkPmHNNOy-dsUxWLsdEE59w",
		"venue_name": "Big Hill Bar & Grill",
		"latitude": 41.98278,
		"longitude": -87.71165,
		"address1": "3307 W Bryn Mawr Ave",
		"address2": "",
		"address3": null,
		"city": "Chicago",
		"state": "IL",
		"zip_code": "60659"
	},
	{
		"venue_id": "yelptF07ms-Dxi0Kb-2THaCJUg",
		"venue_name": "Broken Barrel Bar",
		"latitude": 41.9284262,
		"longitude": -87.6636071,
		"address1": "2548 N Southport Ave",
		"address2": null,
		"address3": "",
		"city": "Chicago",
		"state": "IL",
		"zip_code": "60614"
	},
	{
		"venue_id": "yelp8-9AwlQ7miS8f4dYpSr7QQ",
		"venue_name": "About Last Knife",
		"latitude": 41.8851299,
		"longitude": -87.62497,
		"address1": "168 N Michigan Ave",
		"address2": null,
		"address3": "",
		"city": "Chicago",
		"state": "IL",
		"zip_code": "60601"
	},
	{
		"venue_id": "yelpYnpFjtWh_RCznkhDWKRHAQ",
		"venue_name": "Early Society",
		"latitude": 41.8865,
		"longitude": -87.63075,
		"address1": "77 W Wacker Dr",
		"address2": "",
		"address3": "",
		"city": "Chicago",
		"state": "IL",
		"zip_code": "60601"
	},
	{
		"venue_id": "yelpuQmakHT7TWCM0NJ2qciVZw",
		"venue_name": "Obsessed Kitchen and Bar",
		"latitude": 41.87416,
		"longitude": -87.79389,
		"address1": "800 S Oak Park Ave",
		"address2": null,
		"address3": "",
		"city": "Oak Park",
		"state": "IL",
		"zip_code": "60304"
	},
	{
		"venue_id": "yelp9xnFdBdnFG0m8CKFTBkmbQ",
		"venue_name": "Scratch On Lake",
		"latitude": 41.8884496129597,
		"longitude": -87.7942284883606,
		"address1": "733 Lake St",
		"address2": "",
		"address3": null,
		"city": "Oak Park",
		"state": "IL",
		"zip_code": "60301"
	},
	{
		"venue_id": "yelp_mKMZaqUj7xgZ1sczXGqeA",
		"venue_name": "Arciel",
		"latitude": 41.8757762610178,
		"longitude": -87.6310477341205,
		"address1": "440 South Lasalle St",
		"address2": "Ste 3",
		"address3": "",
		"city": "Chicago",
		"state": "IL",
		"zip_code": "60605"
	}
]