[
	{
		"venue_id": "yelpa39_mogiy-ezzeD6kTm0Gw",
		"venue_name": "Sidetrack",
		"latitude": 41.943234759267,
		"longitude": -87.64918837306,
		"address1": "3349 N Halsted St",
		"address2": "",
		"address3": "",
		"city": "Chicago",
		"state": "IL",
		"zip_code": "60657"
	},
	{
		"venue_id": "yelpXxasZG_UPYtpoJfMtValiA",
		"venue_name": "Big Chicks",
		"latitude": 41.9740383,
		"longitude": -87.6551469,
		"address1": "5024 N Sheridan Rd",
		"address2": "",
		"address3": "",
		"city": "Chicago",
		"state": "IL",
		"zip_code": "60640"
	},
	{
		"venue_id": "yelpF2hbcXmvIOJJcgTF1moZhw",
		"venue_name": "Marty's Martini Bar",
		"latitude": 41.9797051,
		"longitude": -87.6685599,
		"address1": "1511 W Balmoral Ave",
		"address2": null,
		"address3": "",
		"city": "Chicago",
		"state": "IL",
		"zip_code": "60640"
	},
	{
		"venue_id": "yelppCmGbfvMC4qPHRUD_oe8ew",
		"venue_name": "Berlin",
		"latitude": 41.940052,
		"longitude": -87.6537225,
		"address1": "954 W Belmont Ave",
		"address2": "",
		"address3": "",
		"city": "Chicago",
		"state": "IL",
		"zip_code": "60657"
	},
	{
		"venue_id": "yelpNFX6nnbqrBqKBp624hY2UA",
		"venue_name": "Roscoe's",
		"latitude": 41.9434889245913,
		"longitude": -87.6495725426765,
		"address1": "3356 N Halsted St",
		"address2": "",
		"address3": "",
		"city": "Chicago",
		"state": "IL",
		"zip_code": "60657"
	},
	{
		"venue_id": "yelpSaYIT8itz10fJADFRIFP-Q",
		"venue_name": "Replay Beer and Bourbon",
		"latitude": 41.944789,
		"longitude": -87.649063,
		"address1": "3439 N Halsted St",
		"address2": null,
		"address3": "",
		"city": "Chicago",
		"state": "IL",
		"zip_code": "60657"
	},
	{
		"venue_id": "yelpsMZInXSE5TirNpHizNVY0A",
		"venue_name": "Second Story Bar",
		"latitude": 41.892408,
		"longitude": -87.6232293,
		"address1": "157 E Ohio St",
		"address2": "Fl 2",
		"address3": null,
		"city": "Chicago",
		"state": "IL",
		"zip_code": "60611"
	},
	{
		"venue_id": "yelp2bvko1kwbGMPjMt1CvLKtg",
		"venue_name": "Mary's Attic",
		"latitude": 41.97998046875,
		"longitude": -87.6685485839844,
		"address1": "5400 N Clark St",
		"address2": "",
		"address3": "",
		"city": "Chicago",
		"state": "IL",
		"zip_code": "60640"
	},
	{
		"venue_id": "yelpyCaZqH7OgisBoywmADC2Ow",
		"venue_name": "Scarlet",
		"latitude": 41.9424438476562,
		"longitude": -87.6496887207031,
		"address1": "3320 N Halsted St",
		"address2": "",
		"address3": "",
		"city": "Chicago",
		"state": "IL",
		"zip_code": "60657"
	},
	{
		"venue_id": "yelpz2cMwcoyDyPuPnZCv1xfLA",
		"venue_name": "The SoFo Tap",
		"latitude": 41.9724273681641,
		"longitude": -87.6675415039062,
		"address1": "4923 N Clark St",
		"address2": null,
		"address3": "",
		"city": "Chicago",
		"state": "IL",
		"zip_code": "60640"
	},
	{
		"venue_id": "yelpRB9qVTFwRgHUkWw7Cet-nw",
		"venue_name": "Bobby Love's",
		"latitude": 41.9502271,
		"longitude": -87.6493788,
		"address1": "3729 N Halsted St",
		"address2": null,
		"address3": "",
		"city": "Chicago",
		"state": "IL",
		"zip_code": "60613"
	},
	{
		"venue_id": "yelpyBjNdU1R6zN_JAdRu-irAA",
		"venue_name": "The North End",
		"latitude": 41.9502666592598,
		"longitude": -87.6494065672159,
		"address1": "3733 N Halsted St",
		"address2": "",
		"address3": "",
		"city": "Chicago",
		"state": "IL",
		"zip_code": "60613"
	},
	{
		"venue_id": "yelpnmWu71adu5nwwD6be0gbHQ",
		"venue_name": "Progress Bar",
		"latitude": 41.943520812096,
		"longitude": -87.6492312623984,
		"address1": "3359 N Halsted",
		"address2": "",
		"address3": "",
		"city": "Chicago",
		"state": "IL",
		"zip_code": "60657"
	},
	{
		"venue_id": "yelpE5PgIgCxWDSaNbyW8-H-0g",
		"venue_name": "Hydrate",
		"latitude": 41.945351310694,
		"longitude": -87.649598645819,
		"address1": "3458 N Halsted St",
		"address2": "",
		"address3": "",
		"city": "Chicago",
		"state": "IL",
		"zip_code": "60657"
	},
	{
		"venue_id": "yelpH9ubpVvCd2miQiza3QXhTA",
		"venue_name": "Charlie's Chicago",
		"latitude": 41.9499492174731,
		"longitude": -87.6490401601498,
		"address1": "3726 N Broadway St",
		"address2": "",
		"address3": "",
		"city": "Chicago",
		"state": "IL",
		"zip_code": "60613"
	},
	{
		"venue_id": "yelpDLkYHjncIcHsACm0t6Gigg",
		"venue_name": "Jackhammer",
		"latitude": 41.9984086181955,
		"longitude": -87.6709611556974,
		"address1": "6406 N Clark St",
		"address2": "",
		"address3": "",
		"city": "Chicago",
		"state": "IL",
		"zip_code": "60626"
	},
	{
		"venue_id": "yelpR7s4BwxKABHdlPCn4u7_JQ",
		"venue_name": "The Call",
		"latitude": 41.983351,
		"longitude": -87.669183,
		"address1": "1547 W Bryn Mawr Ave",
		"address2": "",
		"address3": "",
		"city": "Chicago",
		"state": "IL",
		"zip_code": "60660"
	},
	{
		"venue_id": "yelpiYeKONrMy1uKv6pmcp1stQ",
		"venue_name": "Granville Anvil",
		"latitude": 41.9944012,
		"longitude": -87.6596016,
		"address1": "1137 W Granville Ave",
		"address2": "",
		"address3": "",
		"city": "Chicago",
		"state": "IL",
		"zip_code": "60660"
	},
	{
		"venue_id": "yelpwyyZULPgDn8B4rTYC0m4Yg",
		"venue_name": "The Closet",
		"latitude": 41.9425018,
		"longitude": -87.6442997,
		"address1": "3325 N Broadway St",
		"address2": "",
		"address3": "",
		"city": "Chicago",
		"state": "IL",
		"zip_code": "60657"
	},
	{
		"venue_id": "yelpvhdEvizn7e8r3RneOg2PdA",
		"venue_name": "@mosphere",
		"latitude": 41.9796867370605,
		"longitude": -87.6679306030273,
		"address1": "5355 N Clark St",
		"address2": "",
		"address3": "",
		"city": "Chicago",
		"state": "IL",
		"zip_code": "60640"
	},
	{
		"venue_id": "yelpy5mTVY2yu0tEU_B5kpHkog",
		"venue_name": "Little Jim's Tavern",
		"latitude": 41.945592781431,
		"longitude": -87.649274700782,
		"address1": "3501 N Halsted St",
		"address2": "",
		"address3": "",
		"city": "Chicago",
		"state": "IL",
		"zip_code": "60657"
	},
	{
		"venue_id": "yelpWRvOT1LqOLzb-F8By6atqQ",
		"venue_name": "Cell Block",
		"latitude": 41.949351311827,
		"longitude": -87.6497301544765,
		"address1": "3702 N Halsted St",
		"address2": "",
		"address3": "",
		"city": "Chicago",
		"state": "IL",
		"zip_code": "60613"
	},
	{
		"venue_id": "yelpHhBnn9v9yrcOmcfAqT6DUg",
		"venue_name": "Touche",
		"latitude": 41.9983913811119,
		"longitude": -87.6708590214264,
		"address1": "6412 N Clark St",
		"address2": "",
		"address3": "",
		"city": "Chicago",
		"state": "IL",
		"zip_code": "60626"
	},
	{
		"venue_id": "yelpj9vLZfOZegJrfcb2LjQclg",
		"venue_name": "Manhandler Saloon",
		"latitude": 41.9174385070801,
		"longitude": -87.6488342285156,
		"address1": "1948 N Halsted St",
		"address2": "",
		"address3": "",
		"city": "Chicago",
		"state": "IL",
		"zip_code": "60614"
	},
	{
		"venue_id": "yelpmGDqIrTzKPQ_CkT_JnVJ3Q",
		"venue_name": "Splash Chicago",
		"latitude": 41.9429018592994,
		"longitude": -87.649184308286,
		"address1": "3339 N Halsted St",
		"address2": "",
		"address3": null,
		"city": "Chicago",
		"state": "IL",
		"zip_code": "60657"
	},
	{
		"venue_id": "yelpJ0KtcQZC_QymUiScLvO5tw",
		"venue_name": "Chances Dances",
		"latitude": 41.9103,
		"longitude": -87.67798,
		"address1": "2011 W North Ave 2nd Fl",
		"address2": "",
		"address3": "The Subterranean",
		"city": "Chicago",
		"state": "IL",
		"zip_code": "60647"
	},
	{
		"venue_id": "yelpTSvSADdRHlfl0A2_YLyYHQ",
		"venue_name": "La Cueva",
		"latitude": 41.8439064025879,
		"longitude": -87.7291107177734,
		"address1": "4153 W 26th St",
		"address2": "",
		"address3": "",
		"city": "Chicago",
		"state": "IL",
		"zip_code": "60623"
	}
]