[
	{
		"venue_id": "yelpz-G2QyFrbf7Bw1Ikx1TLNA",
		"venue_name": "BomboBar",
		"latitude": 41.8847444365834,
		"longitude": -87.6487682261245,
		"address1": "832 W Randolph St",
		"address2": "",
		"address3": "",
		"city": "Chicago",
		"state": "IL",
		"zip_code": "60607"
	},
	{
		"venue_id": "yelp_4hwlnlFzm7YDP1D81ecKw",
		"venue_name": "Caffe Gelato",
		"latitude": 41.9032793,
		"longitude": -87.6786292,
		"address1": "2034 W Division St",
		"address2": "",
		"address3": "",
		"city": "Chicago",
		"state": "IL",
		"zip_code": "60622"
	},
	{
		"venue_id": "yelpPokmIF1VLiQ7y-9XGeN13w",
		"venue_name": "Stan's Donuts & Coffee",
		"latitude": 41.8675761788046,
		"longitude": -87.6263164356351,
		"address1": "26 E Roosevelt Rd",
		"address2": "",
		"address3": "",
		"city": "Chicago",
		"state": "IL",
		"zip_code": "60605"
	},
	{
		"venue_id": "yelph_qtfp-9pighPtymdVNlwQ",
		"venue_name": "Amorino Gelato",
		"latitude": 41.8979,
		"longitude": -87.62842,
		"address1": "838 N State St",
		"address2": "",
		"address3": "",
		"city": "Chicago",
		"state": "IL",
		"zip_code": "60610"
	},
	{
		"venue_id": "yelpuGERjfrgUMl2O6LtFga3WA",
		"venue_name": "Kafenio Lavazza",
		"latitude": 41.88286,
		"longitude": -87.628739,
		"address1": "27 W Washington St",
		"address2": null,
		"address3": "",
		"city": "Chicago",
		"state": "IL",
		"zip_code": "60602"
	},
	{
		"venue_id": "yelpfMzeGTei6R4zn4qqZBkKxA",
		"venue_name": "VinnyD's",
		"latitude": 41.90299,
		"longitude": -87.67034,
		"address1": "1709 W Division St",
		"address2": null,
		"address3": "",
		"city": "Chicago",
		"state": "IL",
		"zip_code": "60622"
	},
	{
		"venue_id": "yelp6Q9qLsGwIPoK3rIDxp1x2w",
		"venue_name": "FR\u00cdO Gelato",
		"latitude": 41.9496448,
		"longitude": -87.6639119,
		"address1": "3721 N Southport Ave",
		"address2": "",
		"address3": null,
		"city": "Chicago",
		"state": "IL",
		"zip_code": "60613"
	},
	{
		"venue_id": "yelp4pe2zEgfE1NfWzQxLxxRVw",
		"venue_name": "Freddy's Pizza",
		"latitude": 41.857962,
		"longitude": -87.776681,
		"address1": "1600 S 61st Ave",
		"address2": null,
		"address3": "",
		"city": "Cicero",
		"state": "IL",
		"zip_code": "60804"
	},
	{
		"venue_id": "yelpXzLKOoZUJT8W5HpzFztFCg",
		"venue_name": "Kafenio Lavazza",
		"latitude": 41.8926901619445,
		"longitude": -87.623067623944,
		"address1": "162 E Ohio St",
		"address2": "",
		"address3": "Inn of Chicago",
		"city": "Chicago",
		"state": "IL",
		"zip_code": "60611"
	},
	{
		"venue_id": "yelpjQ07EXdqUJ3o8Gg020dstA",
		"venue_name": "Caff\u00e8 R\u014dM",
		"latitude": 41.8808728191302,
		"longitude": -87.6363945007324,
		"address1": "71 S Franklin St",
		"address2": "",
		"address3": "Hyatt Center",
		"city": "Chicago",
		"state": "IL",
		"zip_code": "60606"
	},
	{
		"venue_id": "yelpGPN0FxOs2WU1_0JGj4KvIA",
		"venue_name": "Knead",
		"latitude": 41.9103822093282,
		"longitude": -87.6801430013848,
		"address1": "2101 W North Ave",
		"address2": "",
		"address3": null,
		"city": "Chicago",
		"state": "IL",
		"zip_code": "60647"
	},
	{
		"venue_id": "yelpssJqvHidg-bfLsQmYmFCTw",
		"venue_name": "Heavenly Gelato & Ice Cream",
		"latitude": 41.9301218394643,
		"longitude": -87.7096466543732,
		"address1": "2662 N Sawyer Ave",
		"address2": "",
		"address3": "",
		"city": "Chicago",
		"state": "IL",
		"zip_code": "60647"
	},
	{
		"venue_id": "yelpwmj_Xz6jR3-G02Fb950x2Q",
		"venue_name": "Eli's Ark",
		"latitude": 41.91026,
		"longitude": -87.67437,
		"address1": "1843 W North Ave",
		"address2": "",
		"address3": null,
		"city": "Chicago",
		"state": "IL",
		"zip_code": "60622"
	},
	{
		"venue_id": "yelpn6y2sdfYdpOtTfqoROrieA",
		"venue_name": "Milk and Wood",
		"latitude": 41.92744,
		"longitude": -87.70424,
		"address1": "2529 N Milwaukee Ave",
		"address2": null,
		"address3": "",
		"city": "Chicago",
		"state": "IL",
		"zip_code": "60647"
	},
	{
		"venue_id": "yelp5ujBRZMoOinzbPtxbuucJw",
		"venue_name": "Black Dog Gelato",
		"latitude": 41.897614,
		"longitude": -87.676732,
		"address1": "859 N Damen Ave",
		"address2": "",
		"address3": "",
		"city": "Chicago",
		"state": "IL",
		"zip_code": "60622"
	},
	{
		"venue_id": "yelpxVMd_mVmhJ_-lnLgLYkLuw",
		"venue_name": "Caff\u00e8 R\u014dM",
		"latitude": 41.8853378,
		"longitude": -87.6224249,
		"address1": "180 N Stetson Ave",
		"address2": "",
		"address3": "",
		"city": "Chicago",
		"state": "IL",
		"zip_code": "60601"
	},
	{
		"venue_id": "yelpSHL8-QZexzu_L8zsB8CzOw",
		"venue_name": "Bridgeport Yogurt & Cafe",
		"latitude": 41.83784,
		"longitude": -87.6415249,
		"address1": "3108 S Wallace St",
		"address2": null,
		"address3": "",
		"city": "Chicago",
		"state": "IL",
		"zip_code": "60616"
	},
	{
		"venue_id": "yelpXxNyhy1_SU7643B1lMFehA",
		"venue_name": "Di Maggio Cafe",
		"latitude": 41.9673274,
		"longitude": -87.8105555,
		"address1": "7326 W Lawrence Ave",
		"address2": null,
		"address3": "",
		"city": "Harwood Heights",
		"state": "IL",
		"zip_code": "60706"
	},
	{
		"venue_id": "yelpvZhYvVAfOyn7Fz_gtJO3WA",
		"venue_name": "Relish Chicago Hot Dogs",
		"latitude": 41.8920769,
		"longitude": -87.6125956,
		"address1": "550 E Grand",
		"address2": null,
		"address3": "",
		"city": "Chicago",
		"state": "IL",
		"zip_code": "60611"
	},
	{
		"venue_id": "yelp2yGkg-1m2TQjmodxUWUrlg",
		"venue_name": "lavazza espession",
		"latitude": 41.8831051,
		"longitude": -87.6287699,
		"address1": "27 West Washington St",
		"address2": "",
		"address3": null,
		"city": "Chicago",
		"state": "IL",
		"zip_code": "60602"
	},
	{
		"venue_id": "yelpXNNYiOkCCt6682-Wify2Aw",
		"venue_name": "Gioia Candy & More",
		"latitude": 41.877856,
		"longitude": -87.627158,
		"address1": "333 S State St",
		"address2": "",
		"address3": "",
		"city": "Chicago",
		"state": "IL",
		"zip_code": "60604"
	},
	{
		"venue_id": "yelpD9nmNqALQBP2u6WED09v2Q",
		"venue_name": "Black Dog Gelato",
		"latitude": 41.87979,
		"longitude": -87.63051,
		"address1": "125 S Clark St",
		"address2": null,
		"address3": "Revival Food Hall",
		"city": "Chicago",
		"state": "IL",
		"zip_code": "60605"
	}
]