[
	{
		"venue_id": "yelpV3_UIvTZGIOMFM93LZF9TA",
		"venue_name": "Laschet's Inn",
		"latitude": 41.95381,
		"longitude": -87.68198,
		"address1": "2119 W Irving Park Rd",
		"address2": "",
		"address3": "",
		"city": "Chicago",
		"state": "IL",
		"zip_code": "60618"
	},
	{
		"venue_id": "yelpArT0vbIky7FvWFpPoIerEw",
		"venue_name": "The Berghoff Restaurant",
		"latitude": 41.8793326,
		"longitude": -87.6286679,
		"address1": "17 W Adams St",
		"address2": "",
		"address3": "",
		"city": "Chicago",
		"state": "IL",
		"zip_code": "60603"
	},
	{
		"venue_id": "yelpxQnuBMN92ZTq17oLTYMuPw",
		"venue_name": "The Radler",
		"latitude": 41.9243702937911,
		"longitude": -87.6996474284774,
		"address1": "2375 N Milwaukee Ave",
		"address2": "",
		"address3": "",
		"city": "Chicago",
		"state": "IL",
		"zip_code": "60647"
	},
	{
		"venue_id": "yelpqjD9L53B_pcgqVFw5z_GzA",
		"venue_name": "Prost",
		"latitude": 41.9284362792969,
		"longitude": -87.6533889770508,
		"address1": "2566 N Lincoln Ave",
		"address2": "",
		"address3": "",
		"city": "Chicago",
		"state": "IL",
		"zip_code": "60614"
	},
	{
		"venue_id": "yelp14KCjVvrAc5MtaID7LPPQQ",
		"venue_name": "Resi's Bierstube Restaurant",
		"latitude": 41.954304,
		"longitude": -87.680193,
		"address1": "2034 W Irving Park Rd",
		"address2": "",
		"address3": "",
		"city": "Chicago",
		"state": "IL",
		"zip_code": "60618"
	},
	{
		"venue_id": "yelpxrMepV3KUqltASF8VzKE-A",
		"venue_name": "The Glunz Tavern",
		"latitude": 41.90408,
		"longitude": -87.63477,
		"address1": "1202 N Wells",
		"address2": "",
		"address3": "",
		"city": "Chicago",
		"state": "IL",
		"zip_code": "60610"
	},
	{
		"venue_id": "yelpTBCNrNW2WY4kuvg9LybEFA",
		"venue_name": "Funkenhausen",
		"latitude": 41.89571,
		"longitude": -87.67022,
		"address1": "1709 W Chicago Ave",
		"address2": "",
		"address3": null,
		"city": "Chicago",
		"state": "IL",
		"zip_code": "60622"
	},
	{
		"venue_id": "yelp6SSfHqcaMlaxKvVIqRP79A",
		"venue_name": "DMen Tap",
		"latitude": 41.93911,
		"longitude": -87.69973,
		"address1": "2849 W Belmont Ave",
		"address2": "",
		"address3": null,
		"city": "Chicago",
		"state": "IL",
		"zip_code": "60618"
	},
	{
		"venue_id": "yelpatfwvk8zK8geGVciK4-KRA",
		"venue_name": "Himmel's",
		"latitude": 41.96838,
		"longitude": -87.686096,
		"address1": "2251 W Lawrence Ave",
		"address2": "",
		"address3": "",
		"city": "Chicago",
		"state": "IL",
		"zip_code": "60625"
	},
	{
		"venue_id": "yelpNacF8xe7jmW1fDLtw8vt5g",
		"venue_name": "D\u00f6nerMen",
		"latitude": 41.9391676,
		"longitude": -87.699739,
		"address1": "2849 W Belmont",
		"address2": "",
		"address3": "",
		"city": "Chicago",
		"state": "IL",
		"zip_code": "60618"
	},
	{
		"venue_id": "yelptqpseFdRqCMHdMQMfwNYKg",
		"venue_name": "German American Fest",
		"latitude": 41.9666194233605,
		"longitude": -87.6872279377386,
		"address1": "N Lincoln Ave And W Leland Ave",
		"address2": "",
		"address3": "",
		"city": "Chicago",
		"state": "IL",
		"zip_code": "60625"
	}
]