[
	{
		"venue_id": "yelpkcJHdwOgZn4wxWnjUgngXA",
		"venue_name": "My Chicago Golf",
		"latitude": 41.8962023,
		"longitude": -87.6510628,
		"address1": "707 N Milwaukee Ave",
		"address2": "",
		"address3": "",
		"city": "Chicago",
		"state": "IL",
		"zip_code": "60642"
	},
	{
		"venue_id": "yelpOjA2QJVwVQ89VV68LFq2SA",
		"venue_name": "Diversey Driving Range",
		"latitude": 41.93293,
		"longitude": -87.63779,
		"address1": "141 W Diversey Pkwy",
		"address2": "",
		"address3": "",
		"city": "Chicago",
		"state": "IL",
		"zip_code": "60657"
	},
	{
		"venue_id": "yelpOx13xBrEscFu-u0y-_s6dQ",
		"venue_name": "Play 18",
		"latitude": 41.88268,
		"longitude": -87.62573,
		"address1": "17 N Wabash Ave",
		"address2": "Fl 3",
		"address3": "",
		"city": "Chicago",
		"state": "IL",
		"zip_code": "60602"
	},
	{
		"venue_id": "yelpppAhgraL1BcWXOwkPcwFig",
		"venue_name": "GolfTEC Halsted Row",
		"latitude": 41.9341288,
		"longitude": -87.6486826,
		"address1": "2847 N Halsted St",
		"address2": null,
		"address3": null,
		"city": "Chicago",
		"state": "IL",
		"zip_code": "60657"
	},
	{
		"venue_id": "yelpCjNwD_zz4Go5h0kKXl58rA",
		"venue_name": "Sydney R. Marovitz Golf Course",
		"latitude": 41.9493619,
		"longitude": -87.6428642,
		"address1": "3600 N Recreation Dr",
		"address2": "",
		"address3": "",
		"city": "Chicago",
		"state": "IL",
		"zip_code": "60613"
	},
	{
		"venue_id": "yelp4N_80YsxK-LYAkH5UvTZBg",
		"venue_name": "Golf in Motion",
		"latitude": 41.8269221171065,
		"longitude": -87.6550387320951,
		"address1": "1130 W 37th St",
		"address2": "",
		"address3": "Performance Center",
		"city": "Chicago",
		"state": "IL",
		"zip_code": "60609"
	},
	{
		"venue_id": "yelpnkEYjkB4LbbKCiU1J7Aq0w",
		"venue_name": "Play Golf and Tennis",
		"latitude": 41.9337288,
		"longitude": -87.6342987,
		"address1": "141 W Diversey Pkwy",
		"address2": "",
		"address3": "Diversey Driving Range",
		"city": "Chicago",
		"state": "IL",
		"zip_code": "60618"
	},
	{
		"venue_id": "yelpOUMhvfROfh5aAiqSZEqoDw",
		"venue_name": "Waveland Park",
		"latitude": 41.9493308,
		"longitude": -87.642858,
		"address1": "3580 N Recreation Dr",
		"address2": "",
		"address3": "",
		"city": "Chicago",
		"state": "IL",
		"zip_code": "60657"
	},
	{
		"venue_id": "yelpB9S9wNChMFRz6IAL_0n6pA",
		"venue_name": "Robert A. Black Golf Course",
		"latitude": 42.005111,
		"longitude": -87.681707,
		"address1": "2045 W Pratt Blvd",
		"address2": "",
		"address3": "",
		"city": "Chicago",
		"state": "IL",
		"zip_code": "60645"
	},
	{
		"venue_id": "yelpZjdmiuMRMYaKAOWJ5v6yDA",
		"venue_name": "TourBound Golf Academy",
		"latitude": 41.8825389832215,
		"longitude": -87.6261182092315,
		"address1": "17 N Wabash Ave",
		"address2": "",
		"address3": "Level 3",
		"city": "Chicago",
		"state": "IL",
		"zip_code": "60602"
	},
	{
		"venue_id": "yelpcBvWUOk7Ki_C6m1n5t5RIg",
		"venue_name": "Scott Szybowicz, PGA Golf Pro",
		"latitude": 41.9329299926758,
		"longitude": -87.6381530761719,
		"address1": "141 W Diversey Pkwy",
		"address2": "",
		"address3": "Diversey Driving Range",
		"city": "Chicago",
		"state": "IL",
		"zip_code": "60686"
	},
	{
		"venue_id": "yelpeLVoXv7gSyMTe3q0Zz-Y0w",
		"venue_name": "Billy Caldwell Golf Course",
		"latitude": 41.9929486,
		"longitude": -87.757687,
		"address1": "6150 Caldwell Ave",
		"address2": "",
		"address3": "",
		"city": "Chicago",
		"state": "IL",
		"zip_code": "60646"
	},
	{
		"venue_id": "yelpHsoANJwhGAc8lvRlmqGUMA",
		"venue_name": "Edgebrook Golf Course",
		"latitude": 41.991964,
		"longitude": -87.768701,
		"address1": "6100 N Central Ave",
		"address2": "",
		"address3": "",
		"city": "Chicago",
		"state": "IL",
		"zip_code": "60646"
	},
	{
		"venue_id": "yelp-XB8dqq_5YVCSKaYPSKXQA",
		"venue_name": "SMART Golf & Fitness Instruction",
		"latitude": 41.9124005418937,
		"longitude": -87.6610750883895,
		"address1": "1315 W Concord Pl",
		"address2": null,
		"address3": "",
		"city": "Chicago",
		"state": "IL",
		"zip_code": "60642"
	},
	{
		"venue_id": "yelpotbTNUQp1auSI-JDuEgKtA",
		"venue_name": "Columbus Park Golf Course",
		"latitude": 41.8768651,
		"longitude": -87.7693906,
		"address1": "5701 West Jackson Blvd",
		"address2": "",
		"address3": null,
		"city": "Chicago",
		"state": "IL",
		"zip_code": "60644"
	},
	{
		"venue_id": "yelpw3MadK4_hmvVU1vyakbTyw",
		"venue_name": "Chicago Park District",
		"latitude": 41.93293,
		"longitude": -87.63779,
		"address1": "141 W Diversey Pkwy",
		"address2": "",
		"address3": "",
		"city": "Chicago",
		"state": "IL",
		"zip_code": "60657"
	},
	{
		"venue_id": "yelpAlzaJLagENrvWMMt9DhLRw",
		"venue_name": "Lloyd Higley Golf Instruction Chicago",
		"latitude": 41.85,
		"longitude": -87.65,
		"address1": "Diversey Driving Range",
		"address2": "",
		"address3": "",
		"city": "Chicago",
		"state": "IL",
		"zip_code": ""
	}
]