[
	{
		"venue_id": "yelp_UJ3KqtHIHjExbAg-iIGUA",
		"venue_name": "Greek Islands Restaurant",
		"latitude": 41.87896,
		"longitude": -87.64763,
		"address1": "200 S Halsted St",
		"address2": "",
		"address3": "",
		"city": "Chicago",
		"state": "IL",
		"zip_code": "60661"
	},
	{
		"venue_id": "yelpJOiHzz9wPgLhkxjkrvSMgQ",
		"venue_name": "SP Kebab",
		"latitude": 42.005643,
		"longitude": -87.660959,
		"address1": "6808 N Sheridan Rd",
		"address2": "",
		"address3": "",
		"city": "Chicago",
		"state": "IL",
		"zip_code": "60626"
	},
	{
		"venue_id": "yelpYJMFBlFB_dBpEQ370MO92g",
		"venue_name": "Athenian Room",
		"latitude": 41.9217435,
		"longitude": -87.6490466,
		"address1": "807 W Webster Ave",
		"address2": "",
		"address3": "",
		"city": "Chicago",
		"state": "IL",
		"zip_code": "60614"
	},
	{
		"venue_id": "yelpXUuowLQFgy8Bo7xpeb5bkw",
		"venue_name": "Taxim",
		"latitude": 41.9098026,
		"longitude": -87.6767066,
		"address1": "1558 N Milwaukee Ave",
		"address2": null,
		"address3": "",
		"city": "Chicago",
		"state": "IL",
		"zip_code": "60622"
	},
	{
		"venue_id": "yelpnHpdKk4hYQVbYyT-CeD7_Q",
		"venue_name": "Athena Greek Restaurant",
		"latitude": 41.87864,
		"longitude": -87.64762,
		"address1": "212 S Halsted St",
		"address2": "",
		"address3": "",
		"city": "Chicago",
		"state": "IL",
		"zip_code": "60661"
	},
	{
		"venue_id": "yelpUX0PGKcH7Iy3qyxA3vZ-1g",
		"venue_name": "George's Hot Dogs",
		"latitude": 41.91604,
		"longitude": -87.67789,
		"address1": "1876 N Damen Ave",
		"address2": "",
		"address3": "",
		"city": "Chicago",
		"state": "IL",
		"zip_code": "60647"
	},
	{
		"venue_id": "yelpnXf_dI4UysHdiHSGfOAxgw",
		"venue_name": "Olive Mediterranean Grill",
		"latitude": 41.9106011593253,
		"longitude": -87.6532985692348,
		"address1": "1001 W North Ave",
		"address2": null,
		"address3": "",
		"city": "Chicago",
		"state": "IL",
		"zip_code": "60642"
	},
	{
		"venue_id": "yelpcUVrsnrYzy89kLmbOV9YhQ",
		"venue_name": "Central Gyros",
		"latitude": 41.9376,
		"longitude": -87.76611,
		"address1": "3127 N Central Ave",
		"address2": "",
		"address3": "",
		"city": "Chicago",
		"state": "IL",
		"zip_code": "60634"
	},
	{
		"venue_id": "yelpsjKS3BR3LJub0GRob_Gvog",
		"venue_name": "Pita Heaven Restaurant",
		"latitude": 41.8660469055176,
		"longitude": -87.6242828369141,
		"address1": "1250 S Michigan Ave",
		"address2": "",
		"address3": "",
		"city": "Chicago",
		"state": "IL",
		"zip_code": "60605"
	},
	{
		"venue_id": "yelpe2Lrtjx60UZKDYa6OJjYzQ",
		"venue_name": "Outdoor Grill",
		"latitude": 41.9405364990234,
		"longitude": -87.7256546020508,
		"address1": "3265 N Milwaukee Ave",
		"address2": "",
		"address3": "",
		"city": "Chicago",
		"state": "IL",
		"zip_code": "60618"
	},
	{
		"venue_id": "yelpEVn-9lxhCqapDeij-jFyKw",
		"venue_name": "Gyro-Mena",
		"latitude": 41.93966,
		"longitude": -87.65183,
		"address1": "905 W Belmont Ave",
		"address2": "",
		"address3": "",
		"city": "Chicago",
		"state": "IL",
		"zip_code": "60657"
	},
	{
		"venue_id": "yelp7ZA31LeJRW4iUb8eEFQluA",
		"venue_name": "Andies Restaurant",
		"latitude": 41.9775873,
		"longitude": -87.6681818,
		"address1": "5253 N Clark St",
		"address2": "",
		"address3": "",
		"city": "Chicago",
		"state": "IL",
		"zip_code": "60640"
	},
	{
		"venue_id": "yelpV4mcn826Kf4HEsBHqZagQw",
		"venue_name": "Zeus Restaurant",
		"latitude": 41.87815,
		"longitude": -87.64773,
		"address1": "806 W Jackson Blvd",
		"address2": "",
		"address3": "",
		"city": "Chicago",
		"state": "IL",
		"zip_code": "60607"
	},
	{
		"venue_id": "yelpB4BaXk9lRHeThRZ60yjArQ",
		"venue_name": "Nick's On North",
		"latitude": 41.909719,
		"longitude": -87.710463,
		"address1": "3323 W N Ave",
		"address2": "",
		"address3": "",
		"city": "Chicago",
		"state": "IL",
		"zip_code": "60647"
	},
	{
		"venue_id": "yelpywsJZpVHphgcbfbDERiceQ",
		"venue_name": "Chicago's Pita Grill",
		"latitude": 41.93653,
		"longitude": -87.7660779,
		"address1": "3051 N Central Ave",
		"address2": "",
		"address3": "",
		"city": "Chicago",
		"state": "IL",
		"zip_code": "60634"
	},
	{
		"venue_id": "yelp4vgVXg3_2YdkyYpZJ0s7wA",
		"venue_name": "Santorini",
		"latitude": 41.879308,
		"longitude": -87.647579,
		"address1": "800 W Adams St",
		"address2": "",
		"address3": "",
		"city": "Chicago",
		"state": "IL",
		"zip_code": "60607"
	},
	{
		"venue_id": "yelpfbYUfhIcHQ10hFFb-lgIUw",
		"venue_name": "Mr Greek Gyros",
		"latitude": 41.8781661987305,
		"longitude": -87.6474990844727,
		"address1": "234 S Halsted St",
		"address2": "",
		"address3": "",
		"city": "Chicago",
		"state": "IL",
		"zip_code": "60661"
	},
	{
		"venue_id": "yelpJ34IIv_BwBR2QN6unAQoHw",
		"venue_name": "Barba Yianni Grecian Taverna",
		"latitude": 41.9684353,
		"longitude": -87.688226,
		"address1": "4761 N Lincoln Ave",
		"address2": "",
		"address3": "",
		"city": "Chicago",
		"state": "IL",
		"zip_code": "60625"
	},
	{
		"venue_id": "yelpCuR6GZEeh0TaD9KVd5837g",
		"venue_name": "Windy City Gyros",
		"latitude": 41.9535085,
		"longitude": -87.6500045,
		"address1": "3932 N Broadway St",
		"address2": "",
		"address3": "",
		"city": "Chicago",
		"state": "IL",
		"zip_code": "60613"
	},
	{
		"venue_id": "yelpfI7t7MrpcaF5eahpd7qFEQ",
		"venue_name": "Greek Corner",
		"latitude": 41.8994436015486,
		"longitude": -87.6773046628389,
		"address1": "958 N Damen Ave",
		"address2": null,
		"address3": "",
		"city": "Chicago",
		"state": "IL",
		"zip_code": "60622"
	},
	{
		"venue_id": "yelpdGoXBsCIPOcsOCrTOZ3FVw",
		"venue_name": "It's Greek 2 U Grill",
		"latitude": 41.98129,
		"longitude": -87.66804,
		"address1": "5449 N Clark St",
		"address2": null,
		"address3": null,
		"city": "Chicago",
		"state": "IL",
		"zip_code": "60640"
	},
	{
		"venue_id": "yelpEL7PGkZSjm_K1I96PAMoNA",
		"venue_name": "9 Muses",
		"latitude": 41.8777101,
		"longitude": -87.6470951,
		"address1": "315 S Halsted St",
		"address2": "",
		"address3": "",
		"city": "Chicago",
		"state": "IL",
		"zip_code": "60661"
	},
	{
		"venue_id": "yelpXSwKa_RHbVs8OVDef1J0pg",
		"venue_name": "Big Boy Gyros",
		"latitude": 41.94612,
		"longitude": -87.68783,
		"address1": "3541 N Western Ave",
		"address2": "",
		"address3": "",
		"city": "Chicago",
		"state": "IL",
		"zip_code": "60618"
	},
	{
		"venue_id": "yelpcourijd3Rp6kX-lTxVpb5g",
		"venue_name": "Hub's Restaurant",
		"latitude": 41.98204,
		"longitude": -87.69387,
		"address1": "5540 N Lincoln Ave",
		"address2": "",
		"address3": "",
		"city": "Chicago",
		"state": "IL",
		"zip_code": "60625"
	},
	{
		"venue_id": "yelpGkPTDjjVRMj1G8-BJkS1Ng",
		"venue_name": "Greek Kitchen",
		"latitude": 41.883041,
		"longitude": -87.634366,
		"address1": "219 W Washington St",
		"address2": "",
		"address3": "",
		"city": "Chicago",
		"state": "IL",
		"zip_code": "60606"
	},
	{
		"venue_id": "yelpHVWCb4pQSPIqu1aOYHNp4g",
		"venue_name": "Mr. Gee's",
		"latitude": 41.9246826171875,
		"longitude": -87.7380599975586,
		"address1": "4436 W Fullerton",
		"address2": "",
		"address3": "",
		"city": "Chicago",
		"state": "IL",
		"zip_code": "60639"
	},
	{
		"venue_id": "yelpgm_2j5UhsfVAmF_HhZ7qJg",
		"venue_name": "Backyard Grill",
		"latitude": 41.997026238705,
		"longitude": -87.7285904809931,
		"address1": "6355 N Pulaski Ave",
		"address2": "",
		"address3": "",
		"city": "Chicago",
		"state": "IL",
		"zip_code": "60646"
	},
	{
		"venue_id": "yelp0lpQxkQuKOBuV8pylAaQfQ",
		"venue_name": "Spectrum Bar and Grill",
		"latitude": 41.8782577514648,
		"longitude": -87.6470336914062,
		"address1": "233 S Halsted St",
		"address2": "",
		"address3": "",
		"city": "Chicago",
		"state": "IL",
		"zip_code": "60661"
	},
	{
		"venue_id": "yelpqcSj-9uQdU5CCrKTzVieRg",
		"venue_name": "King's Gyros 2",
		"latitude": 41.9755325317383,
		"longitude": -87.767204284668,
		"address1": "5233 N Milwaukee Ave",
		"address2": "",
		"address3": "",
		"city": "Chicago",
		"state": "IL",
		"zip_code": "60630"
	},
	{
		"venue_id": "yelpG-MiXZmEveHiZlgsSxkiZg",
		"venue_name": "Milo's Pita",
		"latitude": 41.993518,
		"longitude": -87.659774,
		"address1": "6141 N Broadway",
		"address2": null,
		"address3": "",
		"city": "Chicago",
		"state": "IL",
		"zip_code": "60660"
	},
	{
		"venue_id": "yelp3Qv9toc85lu7pPuacVFSSA",
		"venue_name": "Piggie Smalls",
		"latitude": 41.88658,
		"longitude": -87.63433,
		"address1": "205 W Wacker Dr",
		"address2": "",
		"address3": null,
		"city": "Chicago",
		"state": "IL",
		"zip_code": "60606"
	},
	{
		"venue_id": "yelpGwlPvLbvcF2Es3xYaEg0Zw",
		"venue_name": "Franksville",
		"latitude": 41.9449952,
		"longitude": -87.8071802,
		"address1": "3550 N Harlem Ave",
		"address2": "",
		"address3": "",
		"city": "Chicago",
		"state": "IL",
		"zip_code": "60634"
	},
	{
		"venue_id": "yelp_BXxeDjEXgfLe2k-fPozEA",
		"venue_name": "East of Eden Carry-Outs",
		"latitude": 41.996785,
		"longitude": -87.7484649,
		"address1": "6350 N Cicero Ave",
		"address2": "",
		"address3": "",
		"city": "Chicago",
		"state": "IL",
		"zip_code": "60646"
	},
	{
		"venue_id": "yelp5nK1TxKpOJlAw-L2cebVww",
		"venue_name": "Bread Basket",
		"latitude": 41.9387950341512,
		"longitude": -87.7453918761358,
		"address1": "4725 W Belmont Ave",
		"address2": "",
		"address3": "",
		"city": "Chicago",
		"state": "IL",
		"zip_code": "60641"
	},
	{
		"venue_id": "yelpwFso5ANC0WMmuVfVgyAkLg",
		"venue_name": "Mellos Carry Out",
		"latitude": 41.9202581048012,
		"longitude": -87.6373386383057,
		"address1": "2100 N Clark St",
		"address2": "",
		"address3": "",
		"city": "Chicago",
		"state": "IL",
		"zip_code": "60614"
	},
	{
		"venue_id": "yelpLcFC1DIuz-EndFZGTaUxIQ",
		"venue_name": "Mr Zee's",
		"latitude": 41.9524187,
		"longitude": -87.7866982,
		"address1": "3960 N Narragansett Ave",
		"address2": "",
		"address3": "",
		"city": "Chicago",
		"state": "IL",
		"zip_code": "60634"
	},
	{
		"venue_id": "yelpRDjNLpgbyhQcM5vnzjD6pw",
		"venue_name": "Brandy's Gyros",
		"latitude": 41.9951402015491,
		"longitude": -87.8071518136879,
		"address1": "6262 N Harlem Ave",
		"address2": "",
		"address3": "",
		"city": "Chicago",
		"state": "IL",
		"zip_code": "60631"
	},
	{
		"venue_id": "yelp57LisPPfF2PH1USEuqFjaQ",
		"venue_name": "Veranda Inn",
		"latitude": 41.953456,
		"longitude": -87.769683,
		"address1": "5700 W Irving Park Rd",
		"address2": "",
		"address3": "",
		"city": "Chicago",
		"state": "IL",
		"zip_code": "60634"
	},
	{
		"venue_id": "yelpKF5u34bIz0oaAJW5TDFbWg",
		"venue_name": "Papaspiros",
		"latitude": 41.888847,
		"longitude": -87.794087,
		"address1": "728 Lake St",
		"address2": null,
		"address3": "",
		"city": "Oak Park",
		"state": "IL",
		"zip_code": "60301"
	},
	{
		"venue_id": "yelpkiPqRx1tKWxqoLrWCoko6w",
		"venue_name": "Greek Kitchen",
		"latitude": 41.894459,
		"longitude": -87.62222,
		"address1": "251 E Huron St",
		"address2": "Fl 2",
		"address3": "",
		"city": "Chicago",
		"state": "IL",
		"zip_code": "60611"
	},
	{
		"venue_id": "yelppXJSoZChusmb2u2k67gbjA",
		"venue_name": "Steve's Place",
		"latitude": 41.8967842923312,
		"longitude": -87.6354599994636,
		"address1": "230 W Chicago Ave",
		"address2": "",
		"address3": "",
		"city": "Chicago",
		"state": "IL",
		"zip_code": "60610"
	},
	{
		"venue_id": "yelpygtoZss_DEwal-cLnAoI2g",
		"venue_name": "Oakwood 83",
		"latitude": 41.96127,
		"longitude": -87.67854,
		"address1": "1959 W Montrose Ave",
		"address2": "",
		"address3": "",
		"city": "Chicago",
		"state": "IL",
		"zip_code": "60613"
	},
	{
		"venue_id": "yelprDrtJLW_-x21gXQql8kuxQ",
		"venue_name": "The Hut",
		"latitude": 41.8281211853027,
		"longitude": -87.6944122314453,
		"address1": "3601 S California Ave",
		"address2": "",
		"address3": "",
		"city": "Chicago",
		"state": "IL",
		"zip_code": "60632"
	},
	{
		"venue_id": "yelpAbzlDQV1CqTXkUoE4NI3Sg",
		"venue_name": "Brandy's Gyros",
		"latitude": 41.9867817,
		"longitude": -87.7776788,
		"address1": "5777 N Milwaukee Ave",
		"address2": "",
		"address3": "",
		"city": "Chicago",
		"state": "IL",
		"zip_code": "60646"
	},
	{
		"venue_id": "yelphmX4VH9WgDrEL9HJKcCL5A",
		"venue_name": "Tom & Jerry's",
		"latitude": 41.9598324597632,
		"longitude": -87.7865601174852,
		"address1": "6359 W Montrose Ave",
		"address2": "",
		"address3": "",
		"city": "Chicago",
		"state": "IL",
		"zip_code": "60634"
	},
	{
		"venue_id": "yelpQzVV-UI0kD8s26W50EqqAA",
		"venue_name": "Nick's Gyros",
		"latitude": 41.97677,
		"longitude": -87.78813,
		"address1": "5238 N Nagle Ave",
		"address2": "",
		"address3": "",
		"city": "Chicago",
		"state": "IL",
		"zip_code": "60630"
	},
	{
		"venue_id": "yelp6GR5kUjrz7hlRhiY84aTWQ",
		"venue_name": "Olive Mediterranean Grill",
		"latitude": 41.8907745927572,
		"longitude": -87.6316054165363,
		"address1": "111 W Illinois St",
		"address2": null,
		"address3": "",
		"city": "Chicago",
		"state": "IL",
		"zip_code": "60654"
	},
	{
		"venue_id": "yelp0kY9ZJ_d83-l8j2dcHJJbw",
		"venue_name": "Greek Kitchen",
		"latitude": 41.8766378397654,
		"longitude": -87.6340045590032,
		"address1": "400 S Wells St",
		"address2": "",
		"address3": "",
		"city": "Chicago",
		"state": "IL",
		"zip_code": "60607"
	},
	{
		"venue_id": "yelpUXIxRvdo45UBkwQ4BK1K-Q",
		"venue_name": "Greek Kitchen",
		"latitude": 41.8803359,
		"longitude": -87.6313101,
		"address1": "111 W Monroe St",
		"address2": "",
		"address3": "",
		"city": "Chicago",
		"state": "IL",
		"zip_code": "60603"
	},
	{
		"venue_id": "yelpWrXXFDGwlbMGKptC2UN4Rw",
		"venue_name": "Twins Gyros",
		"latitude": 41.9686784,
		"longitude": -87.8073149,
		"address1": "4870 N Harlem Ave",
		"address2": null,
		"address3": null,
		"city": "Harwood Heights",
		"state": "IL",
		"zip_code": "60706"
	},
	{
		"venue_id": "yelpvUvsJmWQDM6XQJIpg5Br_Q",
		"venue_name": "Avli Taverna",
		"latitude": 41.9286,
		"longitude": -87.66236,
		"address1": "1335 W Wrightwood Ave",
		"address2": "",
		"address3": null,
		"city": "Chicago",
		"state": "IL",
		"zip_code": "60614"
	},
	{
		"venue_id": "yelpv9d1-W91yQXPRKSk-c44-A",
		"venue_name": "The BISTRO At 151",
		"latitude": 41.8775205,
		"longitude": -87.6136357592774,
		"address1": "151 E Wacker Dr",
		"address2": "",
		"address3": "Hyatt Regency Chicago",
		"city": "Chicago",
		"state": "IL",
		"zip_code": "60601"
	},
	{
		"venue_id": "yelpp7BzyEF6ssspIm0aD2Z0BQ",
		"venue_name": "Tom's Carry Out",
		"latitude": 41.8219987035931,
		"longitude": -87.8031167312828,
		"address1": "3840 Harlem Ave",
		"address2": "",
		"address3": "",
		"city": "Lyons",
		"state": "IL",
		"zip_code": "60534"
	},
	{
		"venue_id": "yelpYULX9j3fdcLtUNYHax19JA",
		"venue_name": "Maggie Gyros & Chicken",
		"latitude": 41.8092351,
		"longitude": -87.6178277,
		"address1": "349 E 47th St",
		"address2": null,
		"address3": null,
		"city": "Chicago",
		"state": "IL",
		"zip_code": "60653"
	},
	{
		"venue_id": "yelppbMwmb1QFE4-3d0eFIOujQ",
		"venue_name": "Little Greek Corner",
		"latitude": 41.8839119,
		"longitude": -87.6410248,
		"address1": "131 N Clinton St",
		"address2": "",
		"address3": "The French Market",
		"city": "Chicago",
		"state": "IL",
		"zip_code": "60661"
	},
	{
		"venue_id": "yelpleEGnWTJCRd9YhaULu92gQ",
		"venue_name": "Skyview Resaturant & Banquets",
		"latitude": 41.830544,
		"longitude": -87.782051,
		"address1": "6334 W Ogden Ave",
		"address2": "",
		"address3": "",
		"city": "Berwyn",
		"state": "IL",
		"zip_code": "60402"
	},
	{
		"venue_id": "yelp4gXxWy5_peMScOXRdAX8KA",
		"venue_name": "Gyro Stop",
		"latitude": 41.96578,
		"longitude": -87.70876,
		"address1": "4634 N Kedzie Ave",
		"address2": "",
		"address3": "",
		"city": "Chicago",
		"state": "IL",
		"zip_code": "60625"
	}
]