[
	{
		"venue_id": "yelpvx8FYc1aKtf8TyhH8-qipA",
		"venue_name": "Tandoor Char House",
		"latitude": 41.9306399,
		"longitude": -87.64928,
		"address1": "2652 N Halsted St",
		"address2": "",
		"address3": "",
		"city": "Chicago",
		"state": "IL",
		"zip_code": "60614"
	},
	{
		"venue_id": "yelphp3xMQCqoa2yPxD1wYrwhg",
		"venue_name": "Cairo Kebab",
		"latitude": 41.92543,
		"longitude": -87.66681,
		"address1": "1524 W Fullerton Ave",
		"address2": null,
		"address3": "",
		"city": "Chicago",
		"state": "IL",
		"zip_code": "60614"
	},
	{
		"venue_id": "yelpo-qsh446uTZ0sbxsiNfQkw",
		"venue_name": "Rumi Middle Eastern Grill",
		"latitude": 41.9092,
		"longitude": -87.67616,
		"address1": "1534 N Milwaukee",
		"address2": null,
		"address3": "",
		"city": "Chicago",
		"state": "IL",
		"zip_code": "60622"
	},
	{
		"venue_id": "yelpIHb-KcVYS_wZBo4ZTIN_tw",
		"venue_name": "Salam Restaurant",
		"latitude": 41.9657874,
		"longitude": -87.708574,
		"address1": "4636 N Kedzie Ave",
		"address2": "",
		"address3": "",
		"city": "Chicago",
		"state": "IL",
		"zip_code": "60625"
	},
	{
		"venue_id": "yelp-64Weew7ELLO8lEKExD38A",
		"venue_name": "Philly Bros",
		"latitude": 41.9255809136919,
		"longitude": -87.6477861776948,
		"address1": "734 W Fullerton Ave",
		"address2": null,
		"address3": "",
		"city": "Chicago",
		"state": "IL",
		"zip_code": "60614"
	},
	{
		"venue_id": "yelpL-qeoX2SWpQcv8wNTj8XoA",
		"venue_name": "I-Cafe Sukur's Place",
		"latitude": 41.9543468,
		"longitude": -87.674757,
		"address1": "1814 W Irving Park Rd",
		"address2": "",
		"address3": "",
		"city": "Chicago",
		"state": "IL",
		"zip_code": "60613"
	},
	{
		"venue_id": "yelp9jZug9qvOZtJ90X2uf8zcQ",
		"venue_name": "Shibam Restaurant",
		"latitude": 41.968302,
		"longitude": -87.740308,
		"address1": "4807 N Elston Ave",
		"address2": "",
		"address3": "",
		"city": "Chicago",
		"state": "IL",
		"zip_code": "60630"
	},
	{
		"venue_id": "yelpcx4CJLlDqcjDJb1ec9pFPQ",
		"venue_name": "Tabaq Restaurant",
		"latitude": 41.90482,
		"longitude": -87.64053,
		"address1": "1245 N Clybourn St",
		"address2": "",
		"address3": "",
		"city": "Chicago",
		"state": "IL",
		"zip_code": "60610"
	},
	{
		"venue_id": "yelpqNqqqQcTS2vFrtg8NufqtA",
		"venue_name": "The Halal Guys",
		"latitude": 41.9037925,
		"longitude": -87.6304625,
		"address1": "49 W Division St",
		"address2": null,
		"address3": "",
		"city": "Chicago",
		"state": "IL",
		"zip_code": "60610"
	},
	{
		"venue_id": "yelplu843HPnwHmxNWg_98HmtQ",
		"venue_name": "IDOF - I Dream Of Falafel",
		"latitude": 41.93966,
		"longitude": -87.65133,
		"address1": "851 W Belmont Ave",
		"address2": "",
		"address3": "",
		"city": "Chicago",
		"state": "IL",
		"zip_code": "60657"
	},
	{
		"venue_id": "yelp1UySapAIpFe7xjrHbgXerQ",
		"venue_name": "Indian Clay Pot",
		"latitude": 41.9543349,
		"longitude": -87.6744228,
		"address1": "1804 W Irving Park Rd",
		"address2": "",
		"address3": "",
		"city": "Chicago",
		"state": "IL",
		"zip_code": "60613"
	},
	{
		"venue_id": "yelppi_ckl5GTJXsCAMB__Cogg",
		"venue_name": "Asada Mexican Grill",
		"latitude": 41.8852898915081,
		"longitude": -87.6340918936048,
		"address1": "180 N Wells St",
		"address2": "",
		"address3": "",
		"city": "Chicago",
		"state": "IL",
		"zip_code": "60606"
	},
	{
		"venue_id": "yelp7gaJhHKf1o3JLf-43rBNIw",
		"venue_name": "Chicago Halal",
		"latitude": 41.9227796,
		"longitude": -87.6447857,
		"address1": "2233 N Lincoln Ave",
		"address2": null,
		"address3": "",
		"city": "Chicago",
		"state": "IL",
		"zip_code": "60614"
	},
	{
		"venue_id": "yelpwuo4nRC_JFDQ2XTfLRqJyQ",
		"venue_name": "Tiba Restaurant Chicago",
		"latitude": 41.96828,
		"longitude": -87.6971,
		"address1": "2721 W Lawrence Ave",
		"address2": null,
		"address3": "",
		"city": "Chicago",
		"state": "IL",
		"zip_code": "60625"
	},
	{
		"venue_id": "yelpBtl1xIreEWHJLMsdxt-aNw",
		"venue_name": "Alhambra Palace",
		"latitude": 41.88461,
		"longitude": -87.65837,
		"address1": "1240 W Randolph St",
		"address2": "",
		"address3": "",
		"city": "Chicago",
		"state": "IL",
		"zip_code": "60607"
	},
	{
		"venue_id": "yelpheyzupRbqxesZeyPxQANyQ",
		"venue_name": "IDOF - I Dream of Falafel",
		"latitude": 41.8783749,
		"longitude": -87.6256791,
		"address1": "60 E Jackson Blvd",
		"address2": "",
		"address3": "",
		"city": "Chicago",
		"state": "IL",
		"zip_code": "60604"
	},
	{
		"venue_id": "yelp1Kaucxk4Bn1_orwulXSPUg",
		"venue_name": "Chayhana",
		"latitude": 41.95376,
		"longitude": -87.68545,
		"address1": "2245 W Irving Park Rd",
		"address2": "",
		"address3": "",
		"city": "Chicago",
		"state": "IL",
		"zip_code": "60618"
	},
	{
		"venue_id": "yelpn8O4nO_YAUqS8WJOJ-V_ng",
		"venue_name": "Kaathis",
		"latitude": 41.88779,
		"longitude": -87.68207,
		"address1": "324 N Leavitt St",
		"address2": "Ste 100",
		"address3": "",
		"city": "Chicago",
		"state": "IL",
		"zip_code": "60612"
	},
	{
		"venue_id": "yelpR-IUS8o7S964FNHmmMOMmQ",
		"venue_name": "The Halal Guys",
		"latitude": 41.88524,
		"longitude": -87.6264207,
		"address1": "172 North Wabash Ave",
		"address2": "",
		"address3": null,
		"city": "Chicago",
		"state": "IL",
		"zip_code": "60601"
	},
	{
		"venue_id": "yelp3U36iE6Ir_dg3NodDxGzew",
		"venue_name": "IDOF Fresh Mediterranean",
		"latitude": 41.86918,
		"longitude": -87.65541,
		"address1": "1129 W Taylor St",
		"address2": "",
		"address3": null,
		"city": "Chicago",
		"state": "IL",
		"zip_code": "60607"
	},
	{
		"venue_id": "yelpzVoXJZmRbDbbN6bdZAtzeg",
		"venue_name": "IDOF Fresh Mediterranean",
		"latitude": 42.0019621,
		"longitude": -87.6609512,
		"address1": "6558 N Sheridan Rd",
		"address2": "",
		"address3": null,
		"city": "Chicago",
		"state": "IL",
		"zip_code": "60626"
	},
	{
		"venue_id": "yelpAFO2svdyMkT_SL_AU_mcqg",
		"venue_name": "The Halal Burger",
		"latitude": 41.9949541,
		"longitude": -87.6997296,
		"address1": "6234 N California",
		"address2": null,
		"address3": "",
		"city": "Chicago",
		"state": "IL",
		"zip_code": "60659"
	},
	{
		"venue_id": "yelpXvFQiYTT7WcZyUZi3508mw",
		"venue_name": "Jerusalem Cafe",
		"latitude": 41.8887649,
		"longitude": -87.8017651,
		"address1": "1030 Lake St",
		"address2": null,
		"address3": "",
		"city": "Oak Park",
		"state": "IL",
		"zip_code": "60301"
	},
	{
		"venue_id": "yelptYMAG548Zz_SSbpUdb1lnQ",
		"venue_name": "Sheba",
		"latitude": 41.9980896170376,
		"longitude": -87.688897,
		"address1": "6410 N Claremont Ave",
		"address2": "",
		"address3": null,
		"city": "Chicago",
		"state": "IL",
		"zip_code": "60645"
	},
	{
		"venue_id": "yelpqYqKC2_YrJhc2xGE9DW4rQ",
		"venue_name": "Yemen Restaurant",
		"latitude": 41.9673013547868,
		"longitude": -87.7400847442262,
		"address1": "4748 N Kenneth Ave",
		"address2": "",
		"address3": "",
		"city": "Chicago",
		"state": "IL",
		"zip_code": "60630"
	},
	{
		"venue_id": "yelpTXBfwf3hxFdb3W_hnPKBjw",
		"venue_name": "Mr Broast UIC",
		"latitude": 41.86924,
		"longitude": -87.65347,
		"address1": "1059 W Taylor St",
		"address2": null,
		"address3": "",
		"city": "Chicago",
		"state": "IL",
		"zip_code": "60607"
	},
	{
		"venue_id": "yelpXY0nQjRx-P7XEnFcrRhv3A",
		"venue_name": "Marwa Grill",
		"latitude": 41.995561,
		"longitude": -87.712721,
		"address1": "6257 B N McCormick Rd",
		"address2": "",
		"address3": "",
		"city": "Chicago",
		"state": "IL",
		"zip_code": "60659"
	},
	{
		"venue_id": "yelpqlcyGpMJVBYyxx5Y9wfOLA",
		"venue_name": "Bamyan Kabob",
		"latitude": 41.98509,
		"longitude": -87.699,
		"address1": "5701 N California Ave",
		"address2": "",
		"address3": null,
		"city": "Chicago",
		"state": "IL",
		"zip_code": "60659"
	},
	{
		"venue_id": "yelpArTMwbiUrq7oFHLsiIAOvA",
		"venue_name": "The Halal Guys",
		"latitude": 41.9077107752518,
		"longitude": -87.6729330321663,
		"address1": "1415 N Milwaukee Ave",
		"address2": "",
		"address3": null,
		"city": "Chicago",
		"state": "IL",
		"zip_code": "60622"
	},
	{
		"venue_id": "yelpCK5Vdu4uwSGPNWd7g2TbGw",
		"venue_name": "Steak Out",
		"latitude": 41.99511,
		"longitude": -87.6896551,
		"address1": "6237 N Western Ave",
		"address2": null,
		"address3": "",
		"city": "Chicago",
		"state": "IL",
		"zip_code": "60659"
	},
	{
		"venue_id": "yelploXj9lt31wO6lJEHrgy1vg",
		"venue_name": "Mediterranean Express",
		"latitude": 41.879655,
		"longitude": -87.637467,
		"address1": "150 S Wacker Dr",
		"address2": "",
		"address3": "",
		"city": "Chicago",
		"state": "IL",
		"zip_code": "60610"
	},
	{
		"venue_id": "yelpW2GGegCedVxCMcPoh0oysg",
		"venue_name": "Falafel And Shawarma Corner",
		"latitude": 41.9003299,
		"longitude": -87.63761,
		"address1": "944 N Orleans St",
		"address2": "",
		"address3": null,
		"city": "Chicago",
		"state": "IL",
		"zip_code": "60610"
	},
	{
		"venue_id": "yelpcFbUQZbjXX1vUUr5DPE58A",
		"venue_name": "Chicago Halal Food Festival",
		"latitude": 41.8733699105605,
		"longitude": -87.6507141441107,
		"address1": "725 W Roosevelt Rd",
		"address2": "",
		"address3": "",
		"city": "Chicago",
		"state": "IL",
		"zip_code": "60607"
	},
	{
		"venue_id": "yelpWSkUEz-2KCuSOewo-1IV4g",
		"venue_name": "BarBQ Tonite",
		"latitude": 41.9967931149086,
		"longitude": -87.6911350578558,
		"address1": "6348 N Artesian Ave",
		"address2": null,
		"address3": "",
		"city": "Chicago",
		"state": "IL",
		"zip_code": "60659"
	}
]