[
	{
		"venue_id": "yelpWA8Fuuv9zRfZ8H8YkeYxsg",
		"venue_name": "Aloha Eats",
		"latitude": 41.9287526,
		"longitude": -87.6425448,
		"address1": "2534 N Clark St",
		"address2": null,
		"address3": "",
		"city": "Chicago",
		"state": "IL",
		"zip_code": "60614"
	},
	{
		"venue_id": "yelps8wBdh-OCgkeC5mGQ3_Eeg",
		"venue_name": "Aloha Poke",
		"latitude": 41.8840768,
		"longitude": -87.6408517,
		"address1": "131 N Clinton St",
		"address2": "",
		"address3": "Chicago French Market",
		"city": "Chicago",
		"state": "IL",
		"zip_code": "60661"
	},
	{
		"venue_id": "yelpdb7p4tMxC_pptYho8RUhzQ",
		"venue_name": "Aloha Wagon",
		"latitude": 41.865308,
		"longitude": -87.685784,
		"address1": "1247 S Western Ave",
		"address2": "",
		"address3": "",
		"city": "Chicago",
		"state": "IL",
		"zip_code": "60608"
	},
	{
		"venue_id": "yelpIcxvTVeRFmSb_ytS4UbJhg",
		"venue_name": "Pok\u00e9works",
		"latitude": 41.8819551,
		"longitude": -87.6250045,
		"address1": "79 E Madison St",
		"address2": null,
		"address3": "",
		"city": "Chicago",
		"state": "IL",
		"zip_code": "60602"
	},
	{
		"venue_id": "yelp26fp5NRrNERDEjEyyaJOCA",
		"venue_name": "Poke Burrito",
		"latitude": 41.959774,
		"longitude": -87.682362,
		"address1": "4301 N Lincoln Ave",
		"address2": null,
		"address3": "",
		"city": "Chicago",
		"state": "IL",
		"zip_code": "60618"
	},
	{
		"venue_id": "yelp2UnRn6H-WRDdfpbtHS2JvA",
		"venue_name": "Aloha Poke",
		"latitude": 41.9398699921574,
		"longitude": -87.6510490633663,
		"address1": "843 W Belmont Ave",
		"address2": "",
		"address3": null,
		"city": "Chicago",
		"state": "IL",
		"zip_code": "60657"
	},
	{
		"venue_id": "yelpGFF2zGooltfNedj2UGZgdQ",
		"venue_name": "Pok\u00e9works",
		"latitude": 41.88532,
		"longitude": -87.65289,
		"address1": "1017 W Lake St",
		"address2": null,
		"address3": "",
		"city": "Chicago",
		"state": "IL",
		"zip_code": "60607"
	},
	{
		"venue_id": "yelpVCWUdp3A9585VBT66HXn5w",
		"venue_name": "Poke Burrito",
		"latitude": 41.876299,
		"longitude": -87.6290489,
		"address1": "423 South Dearborn St",
		"address2": null,
		"address3": "",
		"city": "Chicago",
		"state": "IL",
		"zip_code": "60605"
	},
	{
		"venue_id": "yelp93MU_JuGHgfbljSHyFUK4A",
		"venue_name": "Island Party Hut",
		"latitude": 41.8880460476892,
		"longitude": -87.6185882930542,
		"address1": "355 E Riverwalk S",
		"address2": "",
		"address3": "",
		"city": "Chicago",
		"state": "IL",
		"zip_code": "60611"
	},
	{
		"venue_id": "yelptf1zf95ZIh_ksH6bSvsIHA",
		"venue_name": "Poke Bar",
		"latitude": 41.88146,
		"longitude": -87.63259,
		"address1": "10 S La Salle St",
		"address2": "Ste 105",
		"address3": null,
		"city": "Chicago",
		"state": "IL",
		"zip_code": "60603"
	},
	{
		"venue_id": "yelp_ONXWOUBOoX8zc2owwoHmw",
		"venue_name": "Aloha Poke",
		"latitude": 41.9110151,
		"longitude": -87.63405,
		"address1": "163 West N Ave",
		"address2": null,
		"address3": "",
		"city": "Chicago",
		"state": "IL",
		"zip_code": "60610"
	},
	{
		"venue_id": "yelpx8SZMlNEIGIij5v9iRsIQg",
		"venue_name": "Sublime Sushi",
		"latitude": 41.9226200905846,
		"longitude": -87.6450405334532,
		"address1": "2235 N Lincoln Ave",
		"address2": "",
		"address3": "",
		"city": "Chicago",
		"state": "IL",
		"zip_code": "60614"
	},
	{
		"venue_id": "yelpQ2KLdjCwgAsVhJMzB2YNlg",
		"venue_name": "Poke Burrito",
		"latitude": 41.8884951,
		"longitude": -87.8017654,
		"address1": "1025 Lake St",
		"address2": "",
		"address3": null,
		"city": "Oak Park",
		"state": "IL",
		"zip_code": "60301"
	}
]