[
	{
		"venue_id": "yelpzyXB9Lf1lTGj0uLPTyp8wQ",
		"venue_name": "Hubble Hookah",
		"latitude": 41.9401,
		"longitude": -87.80716,
		"address1": "3308 N Harlem Ave",
		"address2": "",
		"address3": "",
		"city": "Chicago",
		"state": "IL",
		"zip_code": "60634"
	},
	{
		"venue_id": "yelpeK_lndKAhqBlcIk68Aw5IQ",
		"venue_name": "My Hookah Cafe",
		"latitude": 41.9868151,
		"longitude": -87.7016489,
		"address1": "5806 N Lincoln Ave",
		"address2": null,
		"address3": "",
		"city": "Chicago",
		"state": "IL",
		"zip_code": "60659"
	},
	{
		"venue_id": "yelpLpO-fzHLV9Hu7K9wg1BCPw",
		"venue_name": "House of Hookah",
		"latitude": 41.939735,
		"longitude": -87.644938,
		"address1": "607 W Belmont Ave",
		"address2": null,
		"address3": "",
		"city": "Chicago",
		"state": "IL",
		"zip_code": "60657"
	},
	{
		"venue_id": "yelpJMj3ItDEfpsWR22m934L0w",
		"venue_name": "Ambrosia Caf\u00e9",
		"latitude": 41.91773,
		"longitude": -87.653,
		"address1": "1963 N Sheffield Ave",
		"address2": null,
		"address3": "",
		"city": "Chicago",
		"state": "IL",
		"zip_code": "60614"
	},
	{
		"venue_id": "yelpgn-VT-Nd8y5gsRiUugokSw",
		"venue_name": "Arabia Caf\u00e9 & Hookah Lounge",
		"latitude": 41.9008334484209,
		"longitude": -87.6627392673387,
		"address1": "1046 N Milwaukee Ave",
		"address2": "",
		"address3": "",
		"city": "Chicago",
		"state": "IL",
		"zip_code": "60622"
	},
	{
		"venue_id": "yelpHdN_Eekc1GnJxevvaafjgA",
		"venue_name": "Cairo Nights Hookah Lounge",
		"latitude": 41.9754104614258,
		"longitude": -87.7153244018555,
		"address1": "3446 W Foster Ave",
		"address2": "",
		"address3": null,
		"city": "Chicago",
		"state": "IL",
		"zip_code": "60625"
	},
	{
		"venue_id": "yelpt9alb7Pql9jESdo0sNCrUw",
		"venue_name": "Samah Hookah Lounge",
		"latitude": 41.9980409,
		"longitude": -87.6614585,
		"address1": "1219 W Devon Ave",
		"address2": null,
		"address3": "",
		"city": "Chicago",
		"state": "IL",
		"zip_code": "60660"
	},
	{
		"venue_id": "yelpvi11Aim7og9-Px-LMDsqTQ",
		"venue_name": "Ali Baba Cafe & Restaurant",
		"latitude": 41.9683565,
		"longitude": -87.729919,
		"address1": "4046 W Lawrence Ave",
		"address2": "",
		"address3": "",
		"city": "Chicago",
		"state": "IL",
		"zip_code": "60630"
	},
	{
		"venue_id": "yelp66E7fy540x1uEIBb4Zeutw",
		"venue_name": "Hookah Joint Lounge",
		"latitude": 41.9973,
		"longitude": -87.69924,
		"address1": "2755 W Devon Ave",
		"address2": "",
		"address3": "",
		"city": "Chicago",
		"state": "IL",
		"zip_code": "60659"
	},
	{
		"venue_id": "yelpa_WeNa1SzTJgvMtwl0zUew",
		"venue_name": "Mr Hookah",
		"latitude": 41.9676971435547,
		"longitude": -87.7529907226562,
		"address1": "5005 W Lawrence Ave",
		"address2": "",
		"address3": "",
		"city": "Chicago",
		"state": "IL",
		"zip_code": "60630"
	},
	{
		"venue_id": "yelp5fg2OPDoGzBVhy83RnlX_g",
		"venue_name": "Habano Cigars Lounge",
		"latitude": 41.99786,
		"longitude": -87.76638,
		"address1": "6416 N Lehigh Ave",
		"address2": "",
		"address3": "",
		"city": "Chicago",
		"state": "IL",
		"zip_code": "60646"
	},
	{
		"venue_id": "yelpGFPX0NiQUH2aLT5RMqlyZg",
		"venue_name": "Prince Hookah Lounge",
		"latitude": 41.9720191955566,
		"longitude": -87.8068466186523,
		"address1": "5001 N Harlem Ave",
		"address2": "",
		"address3": "",
		"city": "Chicago",
		"state": "IL",
		"zip_code": "60656"
	},
	{
		"venue_id": "yelpuBU9OeQhk5Tarmu4vHbr0A",
		"venue_name": "Luxe Hookah Lounge",
		"latitude": 41.96893,
		"longitude": -87.72768,
		"address1": "4821 N Pulaski Rd",
		"address2": "",
		"address3": null,
		"city": "Chicago",
		"state": "IL",
		"zip_code": "60630"
	},
	{
		"venue_id": "yelpTbIxVTD8UJGsdhoH52-L-w",
		"venue_name": "North Park Hookah Lounge",
		"latitude": 41.9757913685338,
		"longitude": -87.7118772268295,
		"address1": "3316 W Foster Ave",
		"address2": "",
		"address3": "",
		"city": "Chicago",
		"state": "IL",
		"zip_code": "60625"
	},
	{
		"venue_id": "yelpH0UFg9ab74sMr2OfzMOA0g",
		"venue_name": "Hookah Hana",
		"latitude": 41.832335,
		"longitude": -87.795664,
		"address1": "6912 W Windsor Ave",
		"address2": "",
		"address3": "",
		"city": "Berwyn",
		"state": "IL",
		"zip_code": "60402"
	},
	{
		"venue_id": "yelph3JhBG_bAxLRDLoEEeRQ0Q",
		"venue_name": "Lakeview Smoke Shop",
		"latitude": 41.9311583696151,
		"longitude": -87.6439864933491,
		"address1": "2657 N Clark St",
		"address2": "",
		"address3": null,
		"city": "Chicago",
		"state": "IL",
		"zip_code": "60614"
	},
	{
		"venue_id": "yelpGgi7XJtb09D5FxMIYl7Jlw",
		"venue_name": "Cool Stuff Food & Tobacco",
		"latitude": 41.9498575,
		"longitude": -87.6585293,
		"address1": "3733 N Clark",
		"address2": "",
		"address3": "",
		"city": "Chicago",
		"state": "IL",
		"zip_code": "60613"
	},
	{
		"venue_id": "yelp0-1Vds_QPGLm_Y-TkTe81g",
		"venue_name": "Smokes & Vapes",
		"latitude": 41.8208815902472,
		"longitude": -87.802647203207,
		"address1": "3914 Harlem Ave",
		"address2": "",
		"address3": "",
		"city": "Berwyn",
		"state": "IL",
		"zip_code": "60402"
	}
]