[
	{
		"venue_id": "yelplYV8uxLr-1l1YoUpc336cg",
		"venue_name": "Fado Irish Pub",
		"latitude": 41.8918,
		"longitude": -87.63145,
		"address1": "100 W Grand Ave",
		"address2": "",
		"address3": "",
		"city": "Chicago",
		"state": "IL",
		"zip_code": "60610"
	},
	{
		"venue_id": "yelpPTjBAjRMCxLKAob8Dt5SIA",
		"venue_name": "Chief O'Neill's Pub & Restaurant",
		"latitude": 41.94462,
		"longitude": -87.70553,
		"address1": "3471 N Elston Ave",
		"address2": "",
		"address3": "",
		"city": "Chicago",
		"state": "IL",
		"zip_code": "60618"
	},
	{
		"venue_id": "yelpDPjDl5yUOh2jj_-Y2YODGQ",
		"venue_name": "Lady Gregory's",
		"latitude": 41.9774908,
		"longitude": -87.6685493,
		"address1": "5260 N Clark St",
		"address2": "",
		"address3": "",
		"city": "Chicago",
		"state": "IL",
		"zip_code": "60640"
	},
	{
		"venue_id": "yelpF-Ucb69aUN5UI1Dv3nngQw",
		"venue_name": "D4 Irish Pub & Cafe",
		"latitude": 41.892019224495,
		"longitude": -87.618911921119,
		"address1": "345 E Ohio St",
		"address2": "",
		"address3": "",
		"city": "Chicago",
		"state": "IL",
		"zip_code": "60611"
	},
	{
		"venue_id": "yelpp5t9gN3qpZuLnvn07NvaRQ",
		"venue_name": "Galway Arms",
		"latitude": 41.9266166687012,
		"longitude": -87.6414642333984,
		"address1": "2442 N Clark St",
		"address2": "",
		"address3": "",
		"city": "Chicago",
		"state": "IL",
		"zip_code": "60614"
	},
	{
		"venue_id": "yelpm4tf0OEtJZCmeh2UadbnHQ",
		"venue_name": "Christina's Place",
		"latitude": 41.950182,
		"longitude": -87.707814,
		"address1": "3759 N Kedzie Ave",
		"address2": null,
		"address3": "",
		"city": "Chicago",
		"state": "IL",
		"zip_code": "60618"
	},
	{
		"venue_id": "yelpbbJOsnKN0nNkYmnDHOdAwQ",
		"venue_name": "Emerald Loop",
		"latitude": 41.8861105,
		"longitude": -87.626443,
		"address1": "216 N Wabash Ave",
		"address2": null,
		"address3": "",
		"city": "Chicago",
		"state": "IL",
		"zip_code": "60601"
	},
	{
		"venue_id": "yelp_V57W-xokqVcNp1j1LPN0w",
		"venue_name": "Butch McGuire's",
		"latitude": 41.9040749,
		"longitude": -87.6294822,
		"address1": "20 W Division St",
		"address2": "",
		"address3": "",
		"city": "Chicago",
		"state": "IL",
		"zip_code": "60610"
	},
	{
		"venue_id": "yelpFZpt6ked0QRgCnK_Z9HLxQ",
		"venue_name": "Emmit's Irish Pub",
		"latitude": 41.891069843445,
		"longitude": -87.6471096738743,
		"address1": "495 N Milwaukee Ave",
		"address2": "",
		"address3": "",
		"city": "Chicago",
		"state": "IL",
		"zip_code": "60654"
	},
	{
		"venue_id": "yelp1qyKAgAsUyskr4zdDjYThg",
		"venue_name": "Pippin's Tavern",
		"latitude": 41.89706,
		"longitude": -87.62593,
		"address1": "806 N Rush St",
		"address2": "",
		"address3": "",
		"city": "Chicago",
		"state": "IL",
		"zip_code": "60611"
	},
	{
		"venue_id": "yelpZEMq3D_5g75MCiEjTmX2RQ",
		"venue_name": "Corcoran's Grill & Pub",
		"latitude": 41.911595933221,
		"longitude": -87.634563953161,
		"address1": "1615 N Wells St",
		"address2": "",
		"address3": "",
		"city": "Chicago",
		"state": "IL",
		"zip_code": "60614"
	},
	{
		"venue_id": "yelpniSgEwYfDqy0-DCyCs8pqQ",
		"venue_name": "Pint Pub + Kitchen",
		"latitude": 41.90974,
		"longitude": -87.676,
		"address1": "1547 N Milwaukee Ave",
		"address2": "",
		"address3": "",
		"city": "Chicago",
		"state": "IL",
		"zip_code": "60622"
	},
	{
		"venue_id": "yelpK11VSvcdlJFLrZKRJJxMzA",
		"venue_name": "River Shannon",
		"latitude": 41.9182918,
		"longitude": -87.6398204,
		"address1": "425 W Armitage Ave",
		"address2": "",
		"address3": "",
		"city": "Chicago",
		"state": "IL",
		"zip_code": "60614"
	},
	{
		"venue_id": "yelphJgGBFxJMH1ws9hn_c9kDw",
		"venue_name": "Halligan Bar",
		"latitude": 41.923376,
		"longitude": -87.646113,
		"address1": "2274 N Lincoln Ave",
		"address2": null,
		"address3": "",
		"city": "Chicago",
		"state": "IL",
		"zip_code": "60614"
	},
	{
		"venue_id": "yelpkS2aUM03JGldo_zSVUG4AA",
		"venue_name": "Paddy O'Fegan's",
		"latitude": 41.8859,
		"longitude": -87.64769,
		"address1": "204 N Halsted St",
		"address2": "",
		"address3": "",
		"city": "Chicago",
		"state": "IL",
		"zip_code": "60661"
	},
	{
		"venue_id": "yelply6MLFE5UsK-DM4O79kPKQ",
		"venue_name": "Vaughan's Pub",
		"latitude": 41.935,
		"longitude": -87.6536,
		"address1": "2917 N Sheffield Ave",
		"address2": "",
		"address3": "",
		"city": "Chicago",
		"state": "IL",
		"zip_code": "60657"
	},
	{
		"venue_id": "yelpXOqAhX8s4Hgif8sMe-3fHg",
		"venue_name": "Lizzie McNeill's Irish Pub",
		"latitude": 41.8893740971253,
		"longitude": -87.617735277895,
		"address1": "400 N McClurg Ct",
		"address2": "",
		"address3": "",
		"city": "Chicago",
		"state": "IL",
		"zip_code": "60611"
	},
	{
		"venue_id": "yelp3dd5NPshFaWKFgAruhAlRw",
		"venue_name": "Declan's Irish Pub",
		"latitude": 41.9050149,
		"longitude": -87.634638,
		"address1": "1240 N Wells St",
		"address2": "",
		"address3": "",
		"city": "Chicago",
		"state": "IL",
		"zip_code": "60610"
	},
	{
		"venue_id": "yelpr17uN0awOi-X9j24TOO98Q",
		"venue_name": "LG's Bar",
		"latitude": 41.909814424764,
		"longitude": -87.6344818320695,
		"address1": "1525 N Wells St",
		"address2": "",
		"address3": null,
		"city": "Chicago",
		"state": "IL",
		"zip_code": "60610"
	},
	{
		"venue_id": "yelpFHHrWg5LHX5c5AL1tC5r0Q",
		"venue_name": "Casey Moran's",
		"latitude": 41.94862,
		"longitude": -87.65808,
		"address1": "3660 N Clark St",
		"address2": "",
		"address3": "",
		"city": "Chicago",
		"state": "IL",
		"zip_code": "60613"
	},
	{
		"venue_id": "yelpej9oa820R9vZtZ6i78ne8A",
		"venue_name": "Monty Gaels Tavern & Grill",
		"latitude": 41.961253,
		"longitude": -87.683997,
		"address1": "4356 N Leavitt St",
		"address2": "",
		"address3": "",
		"city": "Chicago",
		"state": "IL",
		"zip_code": "60618"
	},
	{
		"venue_id": "yelpe-4W3sBCgcF6JtbAO1gEEQ",
		"venue_name": "The Irish Nobleman",
		"latitude": 41.8932647705078,
		"longitude": -87.6620101928711,
		"address1": "1367 W Erie St",
		"address2": "",
		"address3": "",
		"city": "Chicago",
		"state": "IL",
		"zip_code": "60642"
	},
	{
		"venue_id": "yelpB-UdJUJny0LOwbUx_FVK6A",
		"venue_name": "Cork and Kerry",
		"latitude": 41.8346840566839,
		"longitude": -87.6341802308253,
		"address1": "3258 S Princeton Ave",
		"address2": "",
		"address3": "",
		"city": "Chicago",
		"state": "IL",
		"zip_code": "60616"
	},
	{
		"venue_id": "yelpvG6JydnM5RyfZqXrb6P_0Q",
		"venue_name": "Claddagh Ring",
		"latitude": 41.97618,
		"longitude": -87.6871199,
		"address1": "2306 W Foster Ave",
		"address2": null,
		"address3": "",
		"city": "Chicago",
		"state": "IL",
		"zip_code": "60625"
	},
	{
		"venue_id": "yelpBicAVAiZfOENMGzvN7sh8Q",
		"venue_name": "Corrib Irish Pub",
		"latitude": 41.981432,
		"longitude": -87.762394,
		"address1": "5522 N Elston Ave",
		"address2": "",
		"address3": "",
		"city": "Chicago",
		"state": "IL",
		"zip_code": "60630"
	},
	{
		"venue_id": "yelpTRp2lLAa7Qp-n7Z9Sz2abg",
		"venue_name": "Shanahan's",
		"latitude": 41.87981,
		"longitude": -87.80955,
		"address1": "7353 Madison St",
		"address2": "",
		"address3": "",
		"city": "Forest Park",
		"state": "IL",
		"zip_code": "60130"
	},
	{
		"venue_id": "yelp13wXzFAI1dctlNwf6hQ5pg",
		"venue_name": "Trinity Pub",
		"latitude": 41.989128,
		"longitude": -87.792841,
		"address1": "5943 N Nw Hwy",
		"address2": "",
		"address3": "",
		"city": "Chicago",
		"state": "IL",
		"zip_code": "60631"
	},
	{
		"venue_id": "yelp8EQ_Ms6npRVVwYkEmpiybQ",
		"venue_name": "Doc Ryan's",
		"latitude": 41.87921,
		"longitude": -87.81123,
		"address1": "7432 Madison St",
		"address2": "",
		"address3": "",
		"city": "Forest Park",
		"state": "IL",
		"zip_code": "60130"
	},
	{
		"venue_id": "yelp2VQ2H1N5Ugz3O9DACCsFaw",
		"venue_name": "Lazzara Bar",
		"latitude": 41.9971777990595,
		"longitude": -87.7544164128851,
		"address1": "5033 W Devon Ave",
		"address2": "",
		"address3": "",
		"city": "Chicago",
		"state": "IL",
		"zip_code": "60646"
	}
]