[
	{
		"venue_id": "yelpq7SQnw2xVHjWuyQXL3VHUg",
		"venue_name": "Kai Zan",
		"latitude": 41.8955051374998,
		"longitude": -87.6915407180786,
		"address1": "2557 W Chicago Ave",
		"address2": null,
		"address3": "",
		"city": "Chicago",
		"state": "IL",
		"zip_code": "60622"
	},
	{
		"venue_id": "yelp8d_DiHWB-pjBVW3a7D8EWg",
		"venue_name": "Sunda",
		"latitude": 41.8909469,
		"longitude": -87.6317244,
		"address1": "110 W Illinois St",
		"address2": "",
		"address3": "",
		"city": "Chicago",
		"state": "IL",
		"zip_code": "60654"
	},
	{
		"venue_id": "yelp_d5Br6nZWpBNwL-4isroJA",
		"venue_name": "Yuzu Sushi & Robata Grill",
		"latitude": 41.8956886,
		"longitude": -87.6717159,
		"address1": "1751 W Chicago Ave",
		"address2": null,
		"address3": "",
		"city": "Chicago",
		"state": "IL",
		"zip_code": "60622"
	},
	{
		"venue_id": "yelplgjRFg3M-1N416W41DHsTQ",
		"venue_name": "Ramen Wasabi",
		"latitude": 41.9195063,
		"longitude": -87.6915015,
		"address1": "2101 N Milwaukee Ave",
		"address2": "",
		"address3": "",
		"city": "Chicago",
		"state": "IL",
		"zip_code": "60647"
	},
	{
		"venue_id": "yelpnO8Yrt4l4JLSvCAkkwrk1Q",
		"venue_name": "Gyu-Kaku Japanese BBQ",
		"latitude": 41.89281,
		"longitude": -87.62223,
		"address1": "210 E Ohio St",
		"address2": "",
		"address3": "",
		"city": "Chicago",
		"state": "IL",
		"zip_code": "60611"
	},
	{
		"venue_id": "yelprgHFY55p10VVur7N3s-z5Q",
		"venue_name": "Roka Akor - Chicago",
		"latitude": 41.8905877769375,
		"longitude": -87.6312957381504,
		"address1": "456 N Clark St",
		"address2": "",
		"address3": "",
		"city": "Chicago",
		"state": "IL",
		"zip_code": "60654"
	},
	{
		"venue_id": "yelpFGNKtLYZphTlIjlMGPMuTA",
		"venue_name": "Momotaro",
		"latitude": 41.8858362394937,
		"longitude": -87.6485168502935,
		"address1": "820 W Lake St",
		"address2": "",
		"address3": "",
		"city": "Chicago",
		"state": "IL",
		"zip_code": "60607"
	},
	{
		"venue_id": "yelpU9D0vqEP4QrJfJYs8mr3DA",
		"venue_name": "Oiistar",
		"latitude": 41.9070880100627,
		"longitude": -87.6720839738846,
		"address1": "1385 N Milwaukee Ave",
		"address2": "",
		"address3": "",
		"city": "Chicago",
		"state": "IL",
		"zip_code": "60622"
	},
	{
		"venue_id": "yelpzIXZtgiir9CVF-iZeeAvaQ",
		"venue_name": "Ramen-san",
		"latitude": 41.889798,
		"longitude": -87.630293,
		"address1": "59 W Hubbard St",
		"address2": "",
		"address3": "",
		"city": "Chicago",
		"state": "IL",
		"zip_code": "60654"
	},
	{
		"venue_id": "yelp6KU3ylSh27qiiBa-a9vOGQ",
		"venue_name": "Union Sushi + Barbeque Bar",
		"latitude": 41.8940757,
		"longitude": -87.6354284,
		"address1": "230 W Erie St",
		"address2": "",
		"address3": "",
		"city": "Chicago",
		"state": "IL",
		"zip_code": "60654"
	},
	{
		"venue_id": "yelpuKKnvy50eMJVicTRc_lm4g",
		"venue_name": "Furious Spoon - Wicker Park",
		"latitude": 41.9100336,
		"longitude": -87.6766114,
		"address1": "1571 N Milwaukee Ave",
		"address2": "",
		"address3": "",
		"city": "Chicago",
		"state": "IL",
		"zip_code": "60622"
	},
	{
		"venue_id": "yelpKlKX64yX8IyE8q6DqFZ_6g",
		"venue_name": "Kai Sushi",
		"latitude": 41.865935633459,
		"longitude": -87.6271085681229,
		"address1": "1255 S State St",
		"address2": "",
		"address3": "",
		"city": "Chicago",
		"state": "IL",
		"zip_code": "60605"
	},
	{
		"venue_id": "yelpbZ7lvi5_BQ6UKK10OKPV7Q",
		"venue_name": "Sushi Taku",
		"latitude": 41.90351,
		"longitude": -87.67512,
		"address1": "1904 W Division St",
		"address2": null,
		"address3": "",
		"city": "Chicago",
		"state": "IL",
		"zip_code": "60622"
	},
	{
		"venue_id": "yelp20q-oWtQdB2tfFbAl_I9sQ",
		"venue_name": "Umai",
		"latitude": 41.8722769939333,
		"longitude": -87.6310924282417,
		"address1": "730 S Clark St",
		"address2": "",
		"address3": "",
		"city": "Chicago",
		"state": "IL",
		"zip_code": "60605"
	},
	{
		"venue_id": "yelp-kHNCSxf_lHi9822c43J7w",
		"venue_name": "Ora",
		"latitude": 41.975647,
		"longitude": -87.668127,
		"address1": "5143 N Clark St",
		"address2": "",
		"address3": "",
		"city": "Chicago",
		"state": "IL",
		"zip_code": "60640"
	},
	{
		"venue_id": "yelpFMoNA-t4uxss2JA37ZNEJg",
		"venue_name": "High Five Ramen",
		"latitude": 41.883651,
		"longitude": -87.648968,
		"address1": "112 N Green St",
		"address2": "",
		"address3": "",
		"city": "Chicago",
		"state": "IL",
		"zip_code": "60607"
	},
	{
		"venue_id": "yelpKU_Ze0TpR2HgKG2OpTh2NA",
		"venue_name": "Slurping Turtle",
		"latitude": 41.89009,
		"longitude": -87.631935,
		"address1": "116 W Hubbard St",
		"address2": "",
		"address3": "",
		"city": "Chicago",
		"state": "IL",
		"zip_code": "60654"
	},
	{
		"venue_id": "yelp11855kAfayv4GH6DgGwvkQ",
		"venue_name": "Sushi Joon",
		"latitude": 41.9815602,
		"longitude": -87.6925329,
		"address1": "5503 N Lincoln Ave",
		"address2": null,
		"address3": "",
		"city": "Chicago",
		"state": "IL",
		"zip_code": "60625"
	},
	{
		"venue_id": "yelphOyngb1XVmt85qpNHhRWFQ",
		"venue_name": "BITES",
		"latitude": 41.94221,
		"longitude": -87.65209,
		"address1": "3313 N Clark St",
		"address2": "",
		"address3": "",
		"city": "Chicago",
		"state": "IL",
		"zip_code": "60657"
	},
	{
		"venue_id": "yelplncS2kRoXSJ7unM-TaBZCw",
		"venue_name": "Rollapalooza",
		"latitude": 41.94314,
		"longitude": -87.64972,
		"address1": "3344 N Halsted St",
		"address2": "",
		"address3": "",
		"city": "Chicago",
		"state": "IL",
		"zip_code": "60657"
	},
	{
		"venue_id": "yelpqkfBgSCbekH3DHTanVL1_w",
		"venue_name": "Indie Cafe",
		"latitude": 41.9904999627679,
		"longitude": -87.6600041637543,
		"address1": "5951 N Broadway St",
		"address2": null,
		"address3": "",
		"city": "Chicago",
		"state": "IL",
		"zip_code": "60660"
	},
	{
		"venue_id": "yelpZuoKrKyW6zB6wlm06k8inw",
		"venue_name": "ARAMI",
		"latitude": 41.8960345011502,
		"longitude": -87.6733909357176,
		"address1": "1829 W Chicago Ave",
		"address2": "",
		"address3": "",
		"city": "Chicago",
		"state": "IL",
		"zip_code": "60622"
	},
	{
		"venue_id": "yelpo5y9To9kqcgzUGRt3AzrBg",
		"venue_name": "Ramen Takeya",
		"latitude": 41.8865399,
		"longitude": -87.64833,
		"address1": "819 W Fulton Market",
		"address2": "",
		"address3": "",
		"city": "Chicago",
		"state": "IL",
		"zip_code": "60607"
	},
	{
		"venue_id": "yelpoSyXCPjUhCgoTXA8VdbOTA",
		"venue_name": "Kameya",
		"latitude": 41.9219281,
		"longitude": -87.64897,
		"address1": "806 W Webster Ave",
		"address2": "",
		"address3": "",
		"city": "Chicago",
		"state": "IL",
		"zip_code": "60614"
	},
	{
		"venue_id": "yelpiFA2LDO3mtJQXtihVGnTLw",
		"venue_name": "Seadog Sushi Bar",
		"latitude": 41.9034363603087,
		"longitude": -87.6652242288361,
		"address1": "1500 W Division St",
		"address2": "",
		"address3": "",
		"city": "Chicago",
		"state": "IL",
		"zip_code": "60642"
	},
	{
		"venue_id": "yelpF95agIcsD5g1bykGVTVWZQ",
		"venue_name": "Kizuki Ramen & Izakaya",
		"latitude": 41.9086527897632,
		"longitude": -87.6750511915684,
		"address1": "1482 N Milwaukee Ave",
		"address2": null,
		"address3": "",
		"city": "Chicago",
		"state": "IL",
		"zip_code": "60622"
	},
	{
		"venue_id": "yelp2R7ipjEkeQo821P9AnpJGA",
		"venue_name": "Enso Sushi & Bar",
		"latitude": 41.9107586,
		"longitude": -87.6773651,
		"address1": "1613 N Damen Ave",
		"address2": "",
		"address3": "",
		"city": "Chicago",
		"state": "IL",
		"zip_code": "60647"
	},
	{
		"venue_id": "yelp5rLrAjUAnwc6dUrodaEhAw",
		"venue_name": "Runa Japanese",
		"latitude": 41.9103182940484,
		"longitude": -87.6847123075727,
		"address1": "2257 W North Ave",
		"address2": "",
		"address3": "",
		"city": "Chicago",
		"state": "IL",
		"zip_code": "60647"
	},
	{
		"venue_id": "yelp2rFXwQ8GhUSRaICjYJ1tog",
		"venue_name": "Agami",
		"latitude": 41.9674681,
		"longitude": -87.6588103,
		"address1": "4712 N Broadway St",
		"address2": null,
		"address3": "",
		"city": "Chicago",
		"state": "IL",
		"zip_code": "60640"
	},
	{
		"venue_id": "yelpO0FvTDK9c93qJ6Lfc53dLQ",
		"venue_name": "Strings Ramen Shop",
		"latitude": 41.853414,
		"longitude": -87.633175,
		"address1": "2141 S Archer Ave",
		"address2": "",
		"address3": "",
		"city": "Chicago",
		"state": "IL",
		"zip_code": "60616"
	},
	{
		"venue_id": "yelpo2sx9mzkd8Umc-6yagT3tg",
		"venue_name": "Green Tea Japanese Restaurant",
		"latitude": 41.9223934,
		"longitude": -87.6387248,
		"address1": "2206 N Clark St",
		"address2": "",
		"address3": "",
		"city": "Chicago",
		"state": "IL",
		"zip_code": "60614"
	},
	{
		"venue_id": "yelp42GuTKuEm7JbzWtRwv9JTQ",
		"venue_name": "Juno",
		"latitude": 41.9297369,
		"longitude": -87.6552049,
		"address1": "2638 N Lincoln Ave",
		"address2": "",
		"address3": "",
		"city": "Chicago",
		"state": "IL",
		"zip_code": "60614"
	},
	{
		"venue_id": "yelpO5mpcxYVF_r3GB3WR6UnxA",
		"venue_name": "South Coast Sushi",
		"latitude": 41.8589015950675,
		"longitude": -87.6242748306885,
		"address1": "1700 S Michigan Ave",
		"address2": "",
		"address3": "",
		"city": "Chicago",
		"state": "IL",
		"zip_code": "60616"
	},
	{
		"venue_id": "yelpAO83FW-KEkwzxC0YcvGO1w",
		"venue_name": "Osaka Sushi Express & Fresh Fruit Smoothies",
		"latitude": 41.876943,
		"longitude": -87.624532,
		"address1": "400 S Michigan Ave",
		"address2": null,
		"address3": "",
		"city": "Chicago",
		"state": "IL",
		"zip_code": "60605"
	},
	{
		"venue_id": "yelpNzTK1ZgqdzzOCbgxXWtvOg",
		"venue_name": "Gyu-Kaku Japanese BBQ",
		"latitude": 41.884454,
		"longitude": -87.661355,
		"address1": "1364 W Randolph St",
		"address2": null,
		"address3": "",
		"city": "Chicago",
		"state": "IL",
		"zip_code": "60607"
	},
	{
		"venue_id": "yelpewNcPWT3DSaIT0vwMA_10Q",
		"venue_name": "Sushi Mon",
		"latitude": 41.9267026,
		"longitude": -87.64097,
		"address1": "2441 N Clark St",
		"address2": null,
		"address3": "",
		"city": "Chicago",
		"state": "IL",
		"zip_code": "60614"
	},
	{
		"venue_id": "yelpr732n4Oq1YO02K58fcR-Yg",
		"venue_name": "Sushi Dokku",
		"latitude": 41.8841513653687,
		"longitude": -87.6484478840348,
		"address1": "823 W Randolph St",
		"address2": null,
		"address3": "",
		"city": "Chicago",
		"state": "IL",
		"zip_code": "60607"
	},
	{
		"venue_id": "yelp48BPQ2YVWr8PkNJSekh5pA",
		"venue_name": "Sushi + Rotary Sushi Bar",
		"latitude": 41.9403536,
		"longitude": -87.6442751,
		"address1": "3219 North Broadway",
		"address2": "",
		"address3": null,
		"city": "Chicago",
		"state": "IL",
		"zip_code": "60657"
	},
	{
		"venue_id": "yelpiuFSSw6VYxgcnUmVDqwQ0Q",
		"venue_name": "Macku Sushi",
		"latitude": 41.92255,
		"longitude": -87.66521,
		"address1": "2239 N Clybourn Ave",
		"address2": "",
		"address3": "",
		"city": "Chicago",
		"state": "IL",
		"zip_code": "60614"
	},
	{
		"venue_id": "yelpxTu2kHPjSHKvyQNos6E1qw",
		"venue_name": "Blowfish Contemporary Sushi",
		"latitude": 41.9836004823446,
		"longitude": -87.6593112945557,
		"address1": "1131 W Bryn Mawr Ave",
		"address2": null,
		"address3": "",
		"city": "Chicago",
		"state": "IL",
		"zip_code": "60660"
	},
	{
		"venue_id": "yelpR9MFihPd2WlN6Ze7OcOdqQ",
		"venue_name": "Mirai Sushi - Wicker Park",
		"latitude": 41.9034767150879,
		"longitude": -87.67822265625,
		"address1": "2020 W Division St",
		"address2": "",
		"address3": "",
		"city": "Chicago",
		"state": "IL",
		"zip_code": "60622"
	},
	{
		"venue_id": "yelpPFg_W14UFHXtwHOxquirIA",
		"venue_name": "Yoshi's Cafe",
		"latitude": 41.9417028,
		"longitude": -87.6492322,
		"address1": "3257 N Halsted St",
		"address2": "",
		"address3": "",
		"city": "Chicago",
		"state": "IL",
		"zip_code": "60657"
	},
	{
		"venue_id": "yelpYQ_ZW6rnU5IshuiGlnlTUg",
		"venue_name": "Niu Japanese Fusion Lounge",
		"latitude": 41.891185141978,
		"longitude": -87.618678666509,
		"address1": "332 E Illinois St",
		"address2": "",
		"address3": "",
		"city": "Chicago",
		"state": "IL",
		"zip_code": "60611"
	},
	{
		"venue_id": "yelpalA4ccSsga38IVqkZyRk6g",
		"venue_name": "Rolls N Bowls",
		"latitude": 41.965995,
		"longitude": -87.6866153,
		"address1": "4635 N Lincoln Ave",
		"address2": "",
		"address3": "",
		"city": "Chicago",
		"state": "IL",
		"zip_code": "60625"
	},
	{
		"venue_id": "yelp2DNznnPvmAKO4R__JGz5DQ",
		"venue_name": "Hachi's Kitchen",
		"latitude": 41.9273071289062,
		"longitude": -87.6971435546875,
		"address1": "2521 N California Ave",
		"address2": "",
		"address3": "",
		"city": "Chicago",
		"state": "IL",
		"zip_code": "60647"
	},
	{
		"venue_id": "yelpwW5kd9bxJ4VJHtUYBbo7cQ",
		"venue_name": "Urbanbelly",
		"latitude": 41.88448,
		"longitude": -87.6626,
		"address1": "1400 W. Randolph St.",
		"address2": "",
		"address3": "",
		"city": "Chicago",
		"state": "IL",
		"zip_code": "60607"
	},
	{
		"venue_id": "yelp_aDftia5RSSBpDLHatEfFg",
		"venue_name": "Nori Sushi Bar - Lakeview",
		"latitude": 41.932718,
		"longitude": -87.653535,
		"address1": "954 W Diversey Pkwy",
		"address2": "",
		"address3": "",
		"city": "Chicago",
		"state": "IL",
		"zip_code": "60614"
	},
	{
		"venue_id": "yelpmWDZVQxJ5p6aNp7ipa6DEQ",
		"venue_name": "Sumo Sushi and Hibachi",
		"latitude": 41.9359375,
		"longitude": -87.6444353,
		"address1": "2936 N Broadway",
		"address2": null,
		"address3": null,
		"city": "Chicago",
		"state": "IL",
		"zip_code": "60657"
	},
	{
		"venue_id": "yelpforjLZnWO4KyRWH4y1W8KA",
		"venue_name": "Ukai Japanese Restaurant",
		"latitude": 41.9397910723743,
		"longitude": -87.6561611420805,
		"address1": "1059 W Belmont Ave",
		"address2": "",
		"address3": "",
		"city": "Chicago",
		"state": "IL",
		"zip_code": "60657"
	},
	{
		"venue_id": "yelpc3DGLqz31UbLapOYoRJJiw",
		"venue_name": "Asian Outpost",
		"latitude": 41.865437,
		"longitude": -87.6255416320581,
		"address1": "1315 S Wabash Ave",
		"address2": "",
		"address3": "",
		"city": "Chicago",
		"state": "IL",
		"zip_code": "60605"
	},
	{
		"venue_id": "yelpLAhLCarbN4hX0X8BBgzmsg",
		"venue_name": "Furious Spoon - Logan Square",
		"latitude": 41.9249801635742,
		"longitude": -87.7010879516602,
		"address1": "2410 N Milwaukee Ave",
		"address2": null,
		"address3": "",
		"city": "Chicago",
		"state": "IL",
		"zip_code": "60647"
	},
	{
		"venue_id": "yelp8Bs6a9XKkUivuca_ktH4Pg",
		"venue_name": "Tanoshii",
		"latitude": 41.9831199645996,
		"longitude": -87.6683349609375,
		"address1": "5547 N Clark St",
		"address2": "",
		"address3": "",
		"city": "Chicago",
		"state": "IL",
		"zip_code": "60640"
	},
	{
		"venue_id": "yelp1mftJ4xRdP2Y0rTe_1l7Ig",
		"venue_name": "Oysy Sushi",
		"latitude": 41.8918176,
		"longitude": -87.6263132,
		"address1": "50 E Grand Ave",
		"address2": "",
		"address3": "",
		"city": "Chicago",
		"state": "IL",
		"zip_code": "60611"
	},
	{
		"venue_id": "yelpz7aD_vt4Y69OqqkUZpKGpw",
		"venue_name": "Sushi Tokoro",
		"latitude": 41.9683599,
		"longitude": -87.68925,
		"address1": "4750 N Western Ave",
		"address2": "",
		"address3": "",
		"city": "Chicago",
		"state": "IL",
		"zip_code": "60625"
	},
	{
		"venue_id": "yelpR-ATeluRXe_nrgLo9DOTtw",
		"venue_name": "Kamehachi",
		"latitude": 41.910041809082,
		"longitude": -87.6342239379883,
		"address1": "1531 N Wells St",
		"address2": "",
		"address3": "",
		"city": "Chicago",
		"state": "IL",
		"zip_code": "60610"
	},
	{
		"venue_id": "yelpncydjMXRYcOjSOvShil52w",
		"venue_name": "Jai-Yen",
		"latitude": 41.9501546409325,
		"longitude": -87.649023475927,
		"address1": "3736 N Broadway St",
		"address2": null,
		"address3": "",
		"city": "Chicago",
		"state": "IL",
		"zip_code": "60613"
	},
	{
		"venue_id": "yelpSPmRbOnzwOomAtb-L9JX1A",
		"venue_name": "Hands On",
		"latitude": 41.945235,
		"longitude": -87.803986,
		"address1": "7117 W Addison St",
		"address2": "",
		"address3": "",
		"city": "Chicago",
		"state": "IL",
		"zip_code": "60634"
	},
	{
		"venue_id": "yelpexHNmLRZnOJvbqkRz7RUvQ",
		"venue_name": "Tanoshii Sushi Mike's",
		"latitude": 41.8845234807834,
		"longitude": -87.6464329831137,
		"address1": "720 W Randolph St",
		"address2": "",
		"address3": "",
		"city": "Chicago",
		"state": "IL",
		"zip_code": "60661"
	},
	{
		"venue_id": "yelpS3OOYJ4JWeOJjAeROrE5cw",
		"venue_name": "Matsuya Restaurant",
		"latitude": 41.94089,
		"longitude": -87.65189,
		"address1": "3242 N Clark St",
		"address2": "",
		"address3": "",
		"city": "Chicago",
		"state": "IL",
		"zip_code": "60657"
	},
	{
		"venue_id": "yelp26fp5NRrNERDEjEyyaJOCA",
		"venue_name": "Poke Burrito",
		"latitude": 41.959774,
		"longitude": -87.682362,
		"address1": "4301 N Lincoln Ave",
		"address2": null,
		"address3": "",
		"city": "Chicago",
		"state": "IL",
		"zip_code": "60618"
	},
	{
		"venue_id": "yelpHyOmf-PMC8pDRWWYb7ioJA",
		"venue_name": "Raisu Japanese Fine Dining",
		"latitude": 41.95426,
		"longitude": -87.70278,
		"address1": "2958 W Irving Park",
		"address2": "",
		"address3": null,
		"city": "Chicago",
		"state": "IL",
		"zip_code": "60618"
	},
	{
		"venue_id": "yelpfA2H14Jj4j2YB4uXGsnVag",
		"venue_name": "Yellowtail Sushi Bar and Asian Kitchen",
		"latitude": 41.9388197,
		"longitude": -87.6444487,
		"address1": "3136 N Broadway St",
		"address2": "",
		"address3": "",
		"city": "Chicago",
		"state": "IL",
		"zip_code": "60657"
	},
	{
		"venue_id": "yelpuE6iEvHozitCrUsHRsGKgA",
		"venue_name": "Uni Sushi",
		"latitude": 41.910764,
		"longitude": -87.672259,
		"address1": "1752 W North Ave",
		"address2": null,
		"address3": "",
		"city": "Chicago",
		"state": "IL",
		"zip_code": "60622"
	},
	{
		"venue_id": "yelpDks6hZZIjXr2S0KV7_z-wg",
		"venue_name": "Pride Sushi and Thai",
		"latitude": 41.9907128,
		"longitude": -87.6973539,
		"address1": "2706 W Peterson Ave",
		"address2": "",
		"address3": "",
		"city": "Chicago",
		"state": "IL",
		"zip_code": "60659"
	},
	{
		"venue_id": "yelpRhBrHIjmCD6B0Yvw7MxhMA",
		"venue_name": "Strings Ramen - Lakeview",
		"latitude": 41.93977,
		"longitude": -87.65227,
		"address1": "919 W Belmont Ave",
		"address2": null,
		"address3": "",
		"city": "Chicago",
		"state": "IL",
		"zip_code": "60657"
	},
	{
		"venue_id": "yelpJg37rNs7b3G0R5ZGg9Z7rQ",
		"venue_name": "Izakaya Mita",
		"latitude": 41.91763,
		"longitude": -87.67792,
		"address1": "1960 N Damen Ave",
		"address2": null,
		"address3": "",
		"city": "Chicago",
		"state": "IL",
		"zip_code": "60647"
	},
	{
		"venue_id": "yelp9KhwG-nbDsBV3NNo5rFizQ",
		"venue_name": "Wasabi Cafe",
		"latitude": 41.9525207,
		"longitude": -87.6777953,
		"address1": "3908 N Lincoln Ave",
		"address2": "",
		"address3": "",
		"city": "Chicago",
		"state": "IL",
		"zip_code": "60613"
	},
	{
		"venue_id": "yelpfncJ-Je_BvHtwb0WF5923g",
		"venue_name": "Booze Box",
		"latitude": 41.8841513653687,
		"longitude": -87.6484478840348,
		"address1": "823 W Randolph St",
		"address2": "",
		"address3": "",
		"city": "Chicago",
		"state": "IL",
		"zip_code": "60607"
	},
	{
		"venue_id": "yelpL9bAwHt6Kom4jr1otNQeOw",
		"venue_name": "Poke Pok\u00e9",
		"latitude": 41.8804348,
		"longitude": -87.6263029,
		"address1": "118 S Wabash Ave",
		"address2": null,
		"address3": "",
		"city": "Chicago",
		"state": "IL",
		"zip_code": "60603"
	},
	{
		"venue_id": "yelpdGNzu9rCeMpM6SLrPzk7_Q",
		"venue_name": "Sushi O Sushi",
		"latitude": 41.9186,
		"longitude": -87.63821,
		"address1": "346 W Armitage Ave",
		"address2": "",
		"address3": "",
		"city": "Chicago",
		"state": "IL",
		"zip_code": "60614"
	},
	{
		"venue_id": "yelpVafY2u6YqUdnPwhty9RMCQ",
		"venue_name": "Chicago Kalbi",
		"latitude": 41.9685599,
		"longitude": -87.72277,
		"address1": "3752 W Lawrence Ave",
		"address2": null,
		"address3": "",
		"city": "Chicago",
		"state": "IL",
		"zip_code": "60625"
	},
	{
		"venue_id": "yelpKmNAA86uPEVpiM291g2o3w",
		"venue_name": "Rise Sushi & Sake Lounge",
		"latitude": 41.943632,
		"longitude": -87.663533,
		"address1": "3401 N Southport Ave",
		"address2": "",
		"address3": "",
		"city": "Chicago",
		"state": "IL",
		"zip_code": "60657"
	},
	{
		"venue_id": "yelp7sSewVeXMw3W5ccrmSi-mg",
		"venue_name": "Sakura",
		"latitude": 41.9247277893337,
		"longitude": -87.6903283596039,
		"address1": "2507 W Fullerton Ave",
		"address2": null,
		"address3": "",
		"city": "Chicago",
		"state": "IL",
		"zip_code": "60647"
	},
	{
		"venue_id": "yelpk81iqznYFEJtmmx6incxsg",
		"venue_name": "Tanuki",
		"latitude": 41.9365467454796,
		"longitude": -87.6541687490014,
		"address1": "3006 N Sheffield Ave",
		"address2": "",
		"address3": "",
		"city": "Chicago",
		"state": "IL",
		"zip_code": "60657"
	},
	{
		"venue_id": "yelpTabmV_pGsfKPtA6apSPZUg",
		"venue_name": "Glaze Teriyaki",
		"latitude": 41.938118,
		"longitude": -87.6445007,
		"address1": "3112 N Broadway",
		"address2": null,
		"address3": "",
		"city": "Chicago",
		"state": "IL",
		"zip_code": "60657"
	},
	{
		"venue_id": "yelpp8TvVv3lkTBzmOcKmRRbtw",
		"venue_name": "Sakura Teppanyaki & Sushi",
		"latitude": 41.9327257564786,
		"longitude": -87.6478314399719,
		"address1": "730 W Diversey Pkwy",
		"address2": "",
		"address3": "",
		"city": "Chicago",
		"state": "IL",
		"zip_code": "60614"
	},
	{
		"venue_id": "yelpdtcq-GcOvmY6SfZoO-cVhg",
		"venue_name": "Niu B",
		"latitude": 41.870627153595,
		"longitude": -87.6243124902248,
		"address1": "888 S Michigan Ave",
		"address2": "",
		"address3": "",
		"city": "Chicago",
		"state": "IL",
		"zip_code": "60605"
	},
	{
		"venue_id": "yelpj5coe_qrS-TYTenILbT4-g",
		"venue_name": "Blue Fin Sushi Bar",
		"latitude": 41.9105808,
		"longitude": -87.6772259,
		"address1": "1952 W North Ave",
		"address2": "",
		"address3": "",
		"city": "Chicago",
		"state": "IL",
		"zip_code": "60622"
	},
	{
		"venue_id": "yelp7vVln607E3H4sM39AkDmjw",
		"venue_name": "Cocoro Japanese",
		"latitude": 41.8945,
		"longitude": -87.63452,
		"address1": "668 N Wells St",
		"address2": "",
		"address3": "",
		"city": "Chicago",
		"state": "IL",
		"zip_code": "60654"
	},
	{
		"venue_id": "yelpQFefZPT6WDWJs-uz9jWT7g",
		"venue_name": "South Kawa",
		"latitude": 41.8314360235142,
		"longitude": -87.6460021734238,
		"address1": "3417 S Halsted St",
		"address2": "",
		"address3": "",
		"city": "Chicago",
		"state": "IL",
		"zip_code": "60608"
	},
	{
		"venue_id": "yelpwswImlwmYUCfjOCl4g13NQ",
		"venue_name": "Miku Sushi Restaurant",
		"latitude": 41.9634971618652,
		"longitude": -87.6855926513672,
		"address1": "4514 N Lincoln Ave",
		"address2": "",
		"address3": "",
		"city": "Chicago",
		"state": "IL",
		"zip_code": "60625"
	},
	{
		"venue_id": "yelpbisRsdEh-VlV0RFoe__XiQ",
		"venue_name": "Wabi Sabi",
		"latitude": 41.967286,
		"longitude": -87.708665,
		"address1": "4720 N Kedzie Ave",
		"address2": null,
		"address3": "",
		"city": "Chicago",
		"state": "IL",
		"zip_code": "60625"
	},
	{
		"venue_id": "yelpXR847KX_gNoWOiD85Updow",
		"venue_name": "Bon Bon Sandwiches",
		"latitude": 41.91007,
		"longitude": -87.68621,
		"address1": "2333 W North Ave",
		"address2": "",
		"address3": "",
		"city": "Chicago",
		"state": "IL",
		"zip_code": "60647"
	},
	{
		"venue_id": "yelpSmq3QclTbATrJLOwULiADw",
		"venue_name": "Four Belly",
		"latitude": 41.9406275584628,
		"longitude": -87.6510916202377,
		"address1": "3227 N Clark St",
		"address2": "",
		"address3": "",
		"city": "Chicago",
		"state": "IL",
		"zip_code": "60657"
	},
	{
		"venue_id": "yelpWr4TZ8cQcOaio1TvBuTwjg",
		"venue_name": "Nori Sushi Chicago",
		"latitude": 41.90735,
		"longitude": -87.67224,
		"address1": "1393 N Milwaukee Ave",
		"address2": "",
		"address3": "",
		"city": "Chicago",
		"state": "IL",
		"zip_code": "60622"
	},
	{
		"venue_id": "yelpffvh_whpqJKHDHiVzzDf8w",
		"venue_name": "Rock Wrap & Roll",
		"latitude": 41.921382,
		"longitude": -87.66362,
		"address1": "2187 N Clybourn Ave",
		"address2": "",
		"address3": "",
		"city": "Chicago",
		"state": "IL",
		"zip_code": "60614"
	},
	{
		"venue_id": "yelpIT7xdYuPmV9WIHek3nijSQ",
		"venue_name": "Asahi Roll",
		"latitude": 42.0057404,
		"longitude": -87.6607668,
		"address1": "6803 N Sheridan Rd",
		"address2": "",
		"address3": "",
		"city": "Chicago",
		"state": "IL",
		"zip_code": "60626"
	},
	{
		"venue_id": "yelp3nEaDBC8CEJIUIjxTQ327g",
		"venue_name": "Earth's Kitchen",
		"latitude": 41.9495682443371,
		"longitude": -87.6493797451258,
		"address1": "3715 N Halsted St",
		"address2": "",
		"address3": "",
		"city": "Chicago",
		"state": "IL",
		"zip_code": "60613"
	},
	{
		"venue_id": "yelpZ3PxdB1ZBm4tAX_7gnpnyQ",
		"venue_name": "Wabi Sabi Rotary",
		"latitude": 41.9642886,
		"longitude": -87.6546151,
		"address1": "4521 N Sheridan",
		"address2": null,
		"address3": "",
		"city": "Chicago",
		"state": "IL",
		"zip_code": "60640"
	},
	{
		"venue_id": "yelpvsaRYKVnameNtRrnHGmEhg",
		"venue_name": "Nami Sushi Bar",
		"latitude": 41.9616272,
		"longitude": -87.6756927,
		"address1": "1828 W Montrose Ave",
		"address2": "",
		"address3": "",
		"city": "Chicago",
		"state": "IL",
		"zip_code": "60613"
	},
	{
		"venue_id": "yelpfSx0rLvkBcZ1Hs5HhZdSRg",
		"venue_name": "Gosu",
		"latitude": 41.92717,
		"longitude": -87.69711,
		"address1": "2515 N California Ave",
		"address2": "",
		"address3": "",
		"city": "Chicago",
		"state": "IL",
		"zip_code": "60647"
	},
	{
		"venue_id": "yelp-22GoLdX0clVOi-LVUJF6w",
		"venue_name": "Midori Japanese Restaurant",
		"latitude": 41.9831782,
		"longitude": -87.7117334,
		"address1": "3310 W Bryn Mawr Ave",
		"address2": "",
		"address3": "",
		"city": "Chicago",
		"state": "IL",
		"zip_code": "60659"
	},
	{
		"venue_id": "yelpPtPmdTlN2uiXi8ih3axclA",
		"venue_name": "Friends Ramen",
		"latitude": 41.89692,
		"longitude": -87.6284713,
		"address1": "808 N State St",
		"address2": "Ste B",
		"address3": "",
		"city": "Chicago",
		"state": "IL",
		"zip_code": "60610"
	},
	{
		"venue_id": "yelp64gKu_4z43qsFL5nC8DxYQ",
		"venue_name": "Katana Sushi & Robata Bar",
		"latitude": 41.8890840112679,
		"longitude": -87.6295050458455,
		"address1": "399 N Dearborn St",
		"address2": "",
		"address3": null,
		"city": "Chicago",
		"state": "IL",
		"zip_code": "60654"
	},
	{
		"venue_id": "yelpivOrJ4DdIlbLHNMC3jSQEw",
		"venue_name": "Naoki",
		"latitude": 41.92409,
		"longitude": -87.63695,
		"address1": "2300 N Lincoln Park W",
		"address2": "",
		"address3": "",
		"city": "Chicago",
		"state": "IL",
		"zip_code": "60614"
	},
	{
		"venue_id": "yelpuU7OQj1Hnwh3CvJGLycxfA",
		"venue_name": "Ajida",
		"latitude": 41.8858606186613,
		"longitude": -87.6337524679298,
		"address1": "201 N Wells St",
		"address2": "",
		"address3": "",
		"city": "Chicago",
		"state": "IL",
		"zip_code": "60606"
	},
	{
		"venue_id": "yelp7TlmhbxPa_FIp9euMtisdQ",
		"venue_name": "Circle Sushi & Grill",
		"latitude": 41.9116301504361,
		"longitude": -87.6479199528694,
		"address1": "1623 N Halsted St",
		"address2": "",
		"address3": "",
		"city": "Chicago",
		"state": "IL",
		"zip_code": "60614"
	},
	{
		"venue_id": "yelpLwziDn5UPIJbzD2cVDA7Cw",
		"venue_name": "Joy Yee Plus",
		"latitude": 41.853795,
		"longitude": -87.634696,
		"address1": "2159 S China Pl",
		"address2": "",
		"address3": "",
		"city": "Chicago",
		"state": "IL",
		"zip_code": "60616"
	},
	{
		"venue_id": "yelps9CsFdNxcmF0jx8T94D3FQ",
		"venue_name": "Ramen Misoya",
		"latitude": 41.892516046345,
		"longitude": -87.6214601966708,
		"address1": "213 E Ohio St",
		"address2": "",
		"address3": "",
		"city": "Chicago",
		"state": "IL",
		"zip_code": "60611"
	},
	{
		"venue_id": "yelp9uuNsDTo8pWyczJ8_2CpjQ",
		"venue_name": "Shiawase Restaurant",
		"latitude": 41.9439148,
		"longitude": -87.6453705,
		"address1": "3422 N Broadway St",
		"address2": "",
		"address3": "",
		"city": "Chicago",
		"state": "IL",
		"zip_code": "60657"
	},
	{
		"venue_id": "yelprnDhDtI0MtYmWa9TSn0Ngw",
		"venue_name": "Tsukiji Fish Market",
		"latitude": 41.8912826201498,
		"longitude": -87.6568758730593,
		"address1": "1156 W Grand Ave",
		"address2": "",
		"address3": "",
		"city": "Chicago",
		"state": "IL",
		"zip_code": "60642"
	},
	{
		"venue_id": "yelpLQOMDnwbJLsqKNnGNCeNWA",
		"venue_name": "Jieyi Sushi",
		"latitude": 41.902974,
		"longitude": -87.666334,
		"address1": "1178 N Milwaukee Ave",
		"address2": "",
		"address3": null,
		"city": "Chicago",
		"state": "IL",
		"zip_code": "60642"
	},
	{
		"venue_id": "yelpLKD064eKY09CTDC3HOrg0w",
		"venue_name": "Royal Sushi",
		"latitude": 41.9746548,
		"longitude": -87.808646,
		"address1": "7258 W Foster Ave",
		"address2": "",
		"address3": "",
		"city": "Chicago",
		"state": "IL",
		"zip_code": "60656"
	},
	{
		"venue_id": "yelpqcljm6JITDawdxiIGQay_A",
		"venue_name": "Umai",
		"latitude": 41.9253431937871,
		"longitude": -87.6592857054034,
		"address1": "1217 W Fullerton Ave",
		"address2": "",
		"address3": "",
		"city": "Chicago",
		"state": "IL",
		"zip_code": "60614"
	},
	{
		"venue_id": "yelpYLndZDjGe0QcCuc1P-tlUw",
		"venue_name": "Nano Sushi",
		"latitude": 41.9593466764086,
		"longitude": -87.6888770969589,
		"address1": "4256 N Western Ave",
		"address2": "",
		"address3": "",
		"city": "Chicago",
		"state": "IL",
		"zip_code": "60618"
	},
	{
		"venue_id": "yelp0e3zwVX55zwVbOEC875klg",
		"venue_name": "Kohan Japanese Restaurant",
		"latitude": 41.86502,
		"longitude": -87.64632,
		"address1": "730 W Maxwell St",
		"address2": "",
		"address3": "",
		"city": "Chicago",
		"state": "IL",
		"zip_code": "60607"
	},
	{
		"venue_id": "yelpAVcyeXDCjzVASjZlT_93Ww",
		"venue_name": "Sushi Pink",
		"latitude": 41.882829,
		"longitude": -87.650353,
		"address1": "913 W Washington Blvd",
		"address2": "",
		"address3": "",
		"city": "Chicago",
		"state": "IL",
		"zip_code": "60607"
	},
	{
		"venue_id": "yelpVCWUdp3A9585VBT66HXn5w",
		"venue_name": "Poke Burrito",
		"latitude": 41.876299,
		"longitude": -87.6290489,
		"address1": "423 South Dearborn St",
		"address2": null,
		"address3": "",
		"city": "Chicago",
		"state": "IL",
		"zip_code": "60605"
	},
	{
		"venue_id": "yelp9bunxrNdT0WNJQ0WJkyL5A",
		"venue_name": "Cafe Sushi",
		"latitude": 41.9069275,
		"longitude": -87.6347469,
		"address1": "1342 N Wells St",
		"address2": "",
		"address3": "",
		"city": "Chicago",
		"state": "IL",
		"zip_code": "60610"
	},
	{
		"venue_id": "yelpHAP9EILUvSh1J7iEd3QGFw",
		"venue_name": "Futatsuki Ramen",
		"latitude": 41.966079,
		"longitude": -87.657562,
		"address1": "4621 N Broadway",
		"address2": null,
		"address3": "",
		"city": "Chicago",
		"state": "IL",
		"zip_code": "60640"
	},
	{
		"venue_id": "yelpB6hAfBFi77_CczayHHZgEQ",
		"venue_name": "Kitsune",
		"latitude": 41.9585699,
		"longitude": -87.6816494,
		"address1": "4229 N Lincoln Ave",
		"address2": "",
		"address3": null,
		"city": "Chicago",
		"state": "IL",
		"zip_code": "60618"
	},
	{
		"venue_id": "yelpPjJw8bq2t-prI9eHpQA6rA",
		"venue_name": "Kai Sushi Lakeview",
		"latitude": 41.95135,
		"longitude": -87.66374,
		"address1": "3819 N Southport Ave",
		"address2": "",
		"address3": null,
		"city": "Chicago",
		"state": "IL",
		"zip_code": "60613"
	},
	{
		"venue_id": "yelp1GzOgWB1ENBn2TZB87OqyA",
		"venue_name": "Kabuki Japanese Restaurant",
		"latitude": 41.9275587,
		"longitude": -87.6414668,
		"address1": "2473 N Clark St",
		"address2": "",
		"address3": "",
		"city": "Chicago",
		"state": "IL",
		"zip_code": "60614"
	},
	{
		"venue_id": "yelp1fPmO6kFXGr3PqacFnvu7g",
		"venue_name": "Furious Spoon Lakeview",
		"latitude": 41.9401779,
		"longitude": -87.6494958,
		"address1": "800 W Belmont",
		"address2": null,
		"address3": "",
		"city": "Chicago",
		"state": "IL",
		"zip_code": "60657"
	},
	{
		"venue_id": "yelpvK3ByOGPgXB0yYzR-vX7Og",
		"venue_name": "Yindee",
		"latitude": 41.9470549,
		"longitude": -87.675024,
		"address1": "1824 W Addison St",
		"address2": "",
		"address3": "",
		"city": "Chicago",
		"state": "IL",
		"zip_code": "60613"
	},
	{
		"venue_id": "yelp0wjsaNjinNu2rcKz1JpnKQ",
		"venue_name": "Furious Spoon - Revival Food Hall",
		"latitude": 41.8799369,
		"longitude": -87.6306651,
		"address1": "125 S Clark St",
		"address2": null,
		"address3": "",
		"city": "Chicago",
		"state": "IL",
		"zip_code": "60603"
	},
	{
		"venue_id": "yelpYnBwTgZOHz3J6JSy5aCxiA",
		"venue_name": "Zoku Sushi",
		"latitude": 41.9110922166024,
		"longitude": -87.7067756652832,
		"address1": "1616 N Kedzie Ave",
		"address2": null,
		"address3": "",
		"city": "Chicago",
		"state": "IL",
		"zip_code": "60647"
	},
	{
		"venue_id": "yelpUxhGNpDrPgymVfO9MjsnZA",
		"venue_name": "Nano Sushi",
		"latitude": 41.953778,
		"longitude": -87.6500115,
		"address1": "3955 N Broadway Ave",
		"address2": "",
		"address3": "",
		"city": "Chicago",
		"state": "IL",
		"zip_code": "60613"
	},
	{
		"venue_id": "yelp56geLNeG35U8o6JivThzYg",
		"venue_name": "Poke Pok\u00e9",
		"latitude": 41.9400893,
		"longitude": -87.6494668,
		"address1": "802 W Belmont Ave",
		"address2": null,
		"address3": "",
		"city": "Chicago",
		"state": "IL",
		"zip_code": "60657"
	},
	{
		"venue_id": "yelp_BakZe2diNvyEJBSBv0C-w",
		"venue_name": "ANABA Handroll Bar",
		"latitude": 41.90354,
		"longitude": -87.67166,
		"address1": "1742 W Division",
		"address2": "Storefront",
		"address3": "",
		"city": "Chicago",
		"state": "IL",
		"zip_code": "60622"
	},
	{
		"venue_id": "yelpjygTJimhTu5UlzMfGIgRZg",
		"venue_name": "Hello Sushi Bar and Thai",
		"latitude": 41.99785,
		"longitude": -87.6699299,
		"address1": "1553 W Devon Ave",
		"address2": "",
		"address3": "",
		"city": "Chicago",
		"state": "IL",
		"zip_code": "60660"
	},
	{
		"venue_id": "yelpLfufLK7Vi9LJIXOtkT6ghw",
		"venue_name": "Sora Temakeria",
		"latitude": 41.84457,
		"longitude": -87.71283,
		"address1": "3508 W 26th St",
		"address2": null,
		"address3": "",
		"city": "Chicago",
		"state": "IL",
		"zip_code": "60623"
	},
	{
		"venue_id": "yelpXA2dGsX6LDWPVw8ICjTVIg",
		"venue_name": "Nori Sushi - Edgewater",
		"latitude": 41.9980624,
		"longitude": -87.6621615,
		"address1": "1235 W Devon Ave",
		"address2": "",
		"address3": "",
		"city": "Chicago",
		"state": "IL",
		"zip_code": "60660"
	},
	{
		"venue_id": "yelpKAOwp1qatAZjpfsIJ5rUZA",
		"venue_name": "Radio Anago",
		"latitude": 41.88939,
		"longitude": -87.63524,
		"address1": "226 W Kinzie St",
		"address2": "",
		"address3": null,
		"city": "Chicago",
		"state": "IL",
		"zip_code": "60654"
	},
	{
		"venue_id": "yelpIAfdpU9EsKeld-Zwi4B7Kg",
		"venue_name": "My Thai",
		"latitude": 41.8806949,
		"longitude": -87.6413888,
		"address1": "552 W Monroe St",
		"address2": "",
		"address3": "",
		"city": "Chicago",
		"state": "IL",
		"zip_code": "60661"
	},
	{
		"venue_id": "yelpOcie05DGFWQnpqBaU4P3Lw",
		"venue_name": "Sen Sushi Bar",
		"latitude": 41.87361,
		"longitude": -87.7937,
		"address1": "814 S Oak Park Ave",
		"address2": "",
		"address3": "",
		"city": "Oak Park",
		"state": "IL",
		"zip_code": "60304"
	},
	{
		"venue_id": "yelpCLY3AAneJpVXwnobhlTwdw",
		"venue_name": "Tanaka Ramen",
		"latitude": 41.9328773819745,
		"longitude": -87.6430871977416,
		"address1": "553 W Diversey Pkwy",
		"address2": "",
		"address3": null,
		"city": "Chicago",
		"state": "IL",
		"zip_code": "60614"
	},
	{
		"venue_id": "yelpsrtEel2ZGyvlfSCoUd_E3A",
		"venue_name": "EJ Sushi",
		"latitude": 41.891321,
		"longitude": -87.662594,
		"address1": "1406 W Grand Ave",
		"address2": "",
		"address3": "",
		"city": "Chicago",
		"state": "IL",
		"zip_code": "60642"
	},
	{
		"venue_id": "yelptlcoRGGAe4-TTBCOmn9iUQ",
		"venue_name": "Cafe Furaibo Sushi",
		"latitude": 41.9346125,
		"longitude": -87.6613474,
		"address1": "2907 N Lincoln Ave",
		"address2": "",
		"address3": "",
		"city": "Chicago",
		"state": "IL",
		"zip_code": "60657"
	},
	{
		"venue_id": "yelpxtO4wPqXmmJ4w0YF792AcQ",
		"venue_name": "Furious Spoon Pilsen",
		"latitude": 41.85815,
		"longitude": -87.65964,
		"address1": "1316 W 18th St",
		"address2": null,
		"address3": "",
		"city": "Chicago",
		"state": "IL",
		"zip_code": "60608"
	},
	{
		"venue_id": "yelppyHajlDgnBOpYFNZ3a_gZA",
		"venue_name": "Sushi Sai",
		"latitude": 41.884105682373,
		"longitude": -87.636474609375,
		"address1": "123 N Wacker Dr",
		"address2": "Ste 125",
		"address3": "",
		"city": "Chicago",
		"state": "IL",
		"zip_code": "60606"
	},
	{
		"venue_id": "yelpNcyUf4CkNB3vW01tN9pu1g",
		"venue_name": "Gyu-Kaku Japanese BBQ",
		"latitude": 41.93334,
		"longitude": -87.64439,
		"address1": "2813 North Broadway",
		"address2": "",
		"address3": null,
		"city": "Chicago",
		"state": "IL",
		"zip_code": "60657"
	},
	{
		"venue_id": "yelpGUFk6Ns5Gm5-u4EExUspQg",
		"venue_name": "Manee Thai Restaurant",
		"latitude": 41.94624,
		"longitude": -87.7277,
		"address1": "3558 N Pulaski Rd",
		"address2": "",
		"address3": "",
		"city": "Chicago",
		"state": "IL",
		"zip_code": "60641"
	},
	{
		"venue_id": "yelpd3vB9xT89ZVfSS6_n-8BWA",
		"venue_name": "Tokyo Lunch Boxes & Catering",
		"latitude": 41.8827755749226,
		"longitude": -87.6337880641222,
		"address1": "37 N Wells St",
		"address2": null,
		"address3": "",
		"city": "Chicago",
		"state": "IL",
		"zip_code": "60606"
	},
	{
		"venue_id": "yelp0YMrccZG8WrJjX0ym82cOg",
		"venue_name": "Hob Sushi",
		"latitude": 41.9204401,
		"longitude": -87.662993,
		"address1": "2156 N Clybourn Ave",
		"address2": "",
		"address3": null,
		"city": "Chicago",
		"state": "IL",
		"zip_code": "60614"
	},
	{
		"venue_id": "yelpxgtHxwoa5zbQPq12tymNsw",
		"venue_name": "Ruk Sushi & Thai Edgebrook",
		"latitude": 41.9971473185556,
		"longitude": -87.7647010448492,
		"address1": "5419 W Devon Ave",
		"address2": null,
		"address3": "",
		"city": "Chicago",
		"state": "IL",
		"zip_code": "60646"
	},
	{
		"venue_id": "yelp6cDOPCIiPZGWx1YBdIBSmw",
		"venue_name": "Kimberli Sushi Bar & Thai Cuisine",
		"latitude": 41.968324,
		"longitude": -87.693184,
		"address1": "2547 W Lawrence Ave",
		"address2": "",
		"address3": "",
		"city": "Chicago",
		"state": "IL",
		"zip_code": "60625"
	},
	{
		"venue_id": "yelp7ZbSwqysOty98mElb37nGw",
		"venue_name": "Kameya Ramen",
		"latitude": 41.9401749,
		"longitude": -87.644734,
		"address1": "604 W Belmont Ave",
		"address2": "",
		"address3": null,
		"city": "Chicago",
		"state": "IL",
		"zip_code": "60657"
	},
	{
		"venue_id": "yelpnUJFVQobQmlAFhyp79A0SQ",
		"venue_name": "Ron of Japan",
		"latitude": 41.8936500549316,
		"longitude": -87.6213073730469,
		"address1": "230 E Ontario St",
		"address2": "",
		"address3": "",
		"city": "Chicago",
		"state": "IL",
		"zip_code": "60611"
	},
	{
		"venue_id": "yelpWTAqUE1_e2NMkdcGz9lVrQ",
		"venue_name": "The Izakaya at Momotaro",
		"latitude": 41.88588,
		"longitude": -87.64845,
		"address1": "820 W Lake St",
		"address2": "",
		"address3": null,
		"city": "Chicago",
		"state": "IL",
		"zip_code": "60607"
	},
	{
		"venue_id": "yelptaSO2Q1VeP7XGM4oVLmfoQ",
		"venue_name": "Sushi Burrito",
		"latitude": 41.90411,
		"longitude": -87.66812,
		"address1": "1238 N Milwaukee Ave",
		"address2": "",
		"address3": null,
		"city": "Chicago",
		"state": "IL",
		"zip_code": "60622"
	},
	{
		"venue_id": "yelpkd2jdFTVbWH2eovIuwKq8Q",
		"venue_name": "Ramen-san",
		"latitude": 41.88613,
		"longitude": -87.6485051,
		"address1": "219 N Green St",
		"address2": null,
		"address3": "",
		"city": "Chicago",
		"state": "IL",
		"zip_code": "60607"
	},
	{
		"venue_id": "yelp_CoQ7eTOpP3B-oGpip-Lpg",
		"venue_name": "Omakase Yume",
		"latitude": 41.8830608124328,
		"longitude": -87.6445323537732,
		"address1": "651 W Washington Blvd",
		"address2": "Ste 101",
		"address3": null,
		"city": "Chicago",
		"state": "IL",
		"zip_code": "60661"
	},
	{
		"venue_id": "yelpi5WCWAO2Uao2pivpnKbttA",
		"venue_name": "Furious Spoon Andersonville",
		"latitude": 41.9802888,
		"longitude": -87.6685125,
		"address1": "5406 North Clark St",
		"address2": null,
		"address3": "",
		"city": "Chicago",
		"state": "IL",
		"zip_code": "60640"
	},
	{
		"venue_id": "yelpa6RV0dOOQpWYQW_1kP2GgA",
		"venue_name": "Tabo Sushi & Noodles by Takashi",
		"latitude": 41.88421,
		"longitude": -87.62738,
		"address1": "111 N State St",
		"address2": "Fl 7",
		"address3": "",
		"city": "Chicago",
		"state": "IL",
		"zip_code": "60686"
	},
	{
		"venue_id": "yelp1W1nldqbK0YPsxNTqWVG-A",
		"venue_name": "Emperor Wok Cuisine",
		"latitude": 41.9345149,
		"longitude": -87.6686567,
		"address1": "2910 N Ashland Ave",
		"address2": "",
		"address3": "",
		"city": "Chicago",
		"state": "IL",
		"zip_code": "60657"
	},
	{
		"venue_id": "yelpHpYLieOY4j7KRlt-Mjx0JQ",
		"venue_name": "Sakura Karaoke Bar",
		"latitude": 41.853136,
		"longitude": -87.63316,
		"address1": "234 W Cermak Rd",
		"address2": null,
		"address3": "",
		"city": "Chicago",
		"state": "IL",
		"zip_code": "60616"
	},
	{
		"venue_id": "yelpuio8zJnQ32w6QIP6_q07hw",
		"venue_name": "Tokyo Lunch Boxes & Catering",
		"latitude": 41.87672,
		"longitude": -87.63341,
		"address1": "179 W Van Buren St",
		"address2": "",
		"address3": "",
		"city": "Chicago",
		"state": "IL",
		"zip_code": "60605"
	},
	{
		"venue_id": "yelpuuzHIvHMrH4ysQzj1Wp6wA",
		"venue_name": "Benihana",
		"latitude": 41.898959782447,
		"longitude": -87.6237752078778,
		"address1": "875 N Michigan Ave",
		"address2": "",
		"address3": null,
		"city": "Chicago",
		"state": "IL",
		"zip_code": "60611"
	},
	{
		"venue_id": "yelpAaVl-ga8xOWAUCDGSYjdgA",
		"venue_name": "Tokyo Lunch Boxes & Catering",
		"latitude": 41.8783749,
		"longitude": -87.6256791,
		"address1": "60 E Jackson Blvd",
		"address2": "",
		"address3": "",
		"city": "Chicago",
		"state": "IL",
		"zip_code": "60604"
	},
	{
		"venue_id": "yelpqyHkbIRhbm2TkbKmCpsaew",
		"venue_name": "I Love Sushi",
		"latitude": 41.886983,
		"longitude": -87.623129,
		"address1": "233 N Michigan Ave",
		"address2": "",
		"address3": "",
		"city": "Chicago",
		"state": "IL",
		"zip_code": "60601"
	},
	{
		"venue_id": "yelp5Gx4M2rRQ9wIhw66gNnxzw",
		"venue_name": "Kamehachi",
		"latitude": 41.8774299,
		"longitude": -87.63557,
		"address1": "311 S Wacker Dr",
		"address2": "",
		"address3": "",
		"city": "Chicago",
		"state": "IL",
		"zip_code": "60606"
	},
	{
		"venue_id": "yelpAaJYcw3EBYRenLMvhHrGqw",
		"venue_name": "Kimura Sushi",
		"latitude": 41.86959,
		"longitude": -87.66261,
		"address1": "1422 W Taylor St",
		"address2": "",
		"address3": null,
		"city": "Chicago",
		"state": "IL",
		"zip_code": "60607"
	},
	{
		"venue_id": "yelpCiFCHzLKI3eiUPbf_AkAiA",
		"venue_name": "Yummy Buffet Chicago",
		"latitude": 41.9681151,
		"longitude": -87.7265415,
		"address1": "3925 W Lawrence Ave",
		"address2": "",
		"address3": "",
		"city": "Chicago",
		"state": "IL",
		"zip_code": "60625"
	},
	{
		"venue_id": "yelp-pAY96Qm-tpRx0tHecm8Sw",
		"venue_name": "Nami Sushi",
		"latitude": 41.967562,
		"longitude": -87.811518,
		"address1": "7344 W Lawrence Ave",
		"address2": "",
		"address3": "",
		"city": "Harwood Heights",
		"state": "IL",
		"zip_code": "60706"
	},
	{
		"venue_id": "yelpHZP8Ieuq8lmFpz7V41NJgQ",
		"venue_name": "New Star Restaurant",
		"latitude": 41.908906,
		"longitude": -87.812765,
		"address1": "7444 W North Ave",
		"address2": "",
		"address3": "",
		"city": "Elmwood Park",
		"state": "IL",
		"zip_code": "60707"
	},
	{
		"venue_id": "yelpcKH4p-pGXtr7Cl091uxPXg",
		"venue_name": "Jin Asian Cafe",
		"latitude": 41.9396324157715,
		"longitude": -87.656135559082,
		"address1": "1053 W Belmont Ave",
		"address2": "",
		"address3": "",
		"city": "Chicago",
		"state": "IL",
		"zip_code": "60657"
	},
	{
		"venue_id": "yelp2-TnqK0shFQKsuxbqiPDUw",
		"venue_name": "Volcano Sushi Cafe",
		"latitude": 41.86972,
		"longitude": -87.65356,
		"address1": "1062 W Taylor St",
		"address2": "",
		"address3": "",
		"city": "Chicago",
		"state": "IL",
		"zip_code": "60607"
	},
	{
		"venue_id": "yelpjFaNkc2-mTN36n_OSqCCjQ",
		"venue_name": "Yummy",
		"latitude": 41.947545,
		"longitude": -87.806587,
		"address1": "3709 N Harlem Ave",
		"address2": "",
		"address3": "",
		"city": "Chicago",
		"state": "IL",
		"zip_code": "60634"
	},
	{
		"venue_id": "yelpJGurFjxIvOUN2Q_QzbSdVg",
		"venue_name": "Sakae Sushi",
		"latitude": 41.9353817841874,
		"longitude": -87.6470382190298,
		"address1": "2920 N Clark St",
		"address2": "",
		"address3": null,
		"city": "Chicago",
		"state": "IL",
		"zip_code": "60657"
	},
	{
		"venue_id": "yelpi1hvnxiwBa8hvG-tPH-FWQ",
		"venue_name": "Tokyo Lunchbox",
		"latitude": 41.8876991271973,
		"longitude": -87.6236343383789,
		"address1": "111 E Wacker Dr",
		"address2": "",
		"address3": "",
		"city": "Chicago",
		"state": "IL",
		"zip_code": "60601"
	},
	{
		"venue_id": "yelpJ2k5JinpSnwiwD0Q_q5taw",
		"venue_name": "Shinya Ramen House",
		"latitude": 41.8352,
		"longitude": -87.64657,
		"address1": "3240 S Halsted St",
		"address2": "",
		"address3": null,
		"city": "Chicago",
		"state": "IL",
		"zip_code": "60608"
	},
	{
		"venue_id": "yelpYBox8Tp3QQKoFntM9lMtsA",
		"venue_name": "Poke Pok\u00e9",
		"latitude": 41.8818399,
		"longitude": -87.63114,
		"address1": "105 W Madison St",
		"address2": null,
		"address3": "",
		"city": "Chicago",
		"state": "IL",
		"zip_code": "60602"
	},
	{
		"venue_id": "yelp9aL5bj6RZvq2rhu6VM4EZg",
		"venue_name": "Inari Sushi",
		"latitude": 41.909072,
		"longitude": -87.812393,
		"address1": "7428 W North Ave",
		"address2": "",
		"address3": "",
		"city": "Elmwood Park",
		"state": "IL",
		"zip_code": "60707"
	},
	{
		"venue_id": "yelpVH-e49xlbbzyL7wVS6n_Fg",
		"venue_name": "Asian Cuisine Express",
		"latitude": 41.83669,
		"longitude": -87.72042,
		"address1": "3823 W 31st St",
		"address2": null,
		"address3": "",
		"city": "Chicago",
		"state": "IL",
		"zip_code": "60623"
	},
	{
		"venue_id": "yelpGeog5HYOqqkDEjlxcHJC_g",
		"venue_name": "Sushi House Oak Park",
		"latitude": 41.888393,
		"longitude": -87.802848,
		"address1": "1107 Lake St",
		"address2": "",
		"address3": "",
		"city": "Oak Park",
		"state": "IL",
		"zip_code": "60301"
	},
	{
		"venue_id": "yelposUOKeQ2fZYql6HFPTShjQ",
		"venue_name": "Sushi Junki",
		"latitude": 41.86493,
		"longitude": -87.79034,
		"address1": "6639 W Roosevelt",
		"address2": "",
		"address3": "",
		"city": "Berwyn",
		"state": "IL",
		"zip_code": "60402"
	},
	{
		"venue_id": "yelpx8SZMlNEIGIij5v9iRsIQg",
		"venue_name": "Sublime Sushi",
		"latitude": 41.9226200905846,
		"longitude": -87.6450405334532,
		"address1": "2235 N Lincoln Ave",
		"address2": "",
		"address3": "",
		"city": "Chicago",
		"state": "IL",
		"zip_code": "60614"
	},
	{
		"venue_id": "yelp2ZURzjCMKBBClbafMY0eHw",
		"venue_name": "Tokyo Lunch Boxes",
		"latitude": 41.88772,
		"longitude": -87.62365,
		"address1": "111 E Wacker Dr",
		"address2": "",
		"address3": "",
		"city": "Chicago",
		"state": "IL",
		"zip_code": "60601"
	},
	{
		"venue_id": "yelpjDlt7kDkvLIf-v0El5MlYQ",
		"venue_name": "Late Night Thai & Sushi",
		"latitude": 41.93994,
		"longitude": -87.66974,
		"address1": "1624 W Belmont Ave",
		"address2": "",
		"address3": "",
		"city": "Chicago",
		"state": "IL",
		"zip_code": "60657"
	},
	{
		"venue_id": "yelpVAnqpdsLEN-FE_TrREhkwA",
		"venue_name": "Wasabi Sushi and Robata",
		"latitude": 41.9196833,
		"longitude": -87.6918186,
		"address1": "2115 N Milwaukee Ave",
		"address2": "",
		"address3": null,
		"city": "Chicago",
		"state": "IL",
		"zip_code": "60647"
	},
	{
		"venue_id": "yelpQ2KLdjCwgAsVhJMzB2YNlg",
		"venue_name": "Poke Burrito",
		"latitude": 41.8884951,
		"longitude": -87.8017654,
		"address1": "1025 Lake St",
		"address2": "",
		"address3": null,
		"city": "Oak Park",
		"state": "IL",
		"zip_code": "60301"
	},
	{
		"venue_id": "yelprwCAgQLPRSIDPRvanoW2yQ",
		"venue_name": "T\u014cMI",
		"latitude": 41.87979,
		"longitude": -87.63051,
		"address1": "125 S Clark St",
		"address2": null,
		"address3": "",
		"city": "Chicago",
		"state": "IL",
		"zip_code": "60603"
	},
	{
		"venue_id": "yelp5v8BZomyhkSPtGDk4lA18w",
		"venue_name": "Fuji Ya",
		"latitude": 41.9642040878534,
		"longitude": -87.8072538971901,
		"address1": "4626 N Harlem Ave",
		"address2": null,
		"address3": "",
		"city": "Harwood Heights",
		"state": "IL",
		"zip_code": "60706"
	},
	{
		"venue_id": "yelpkKr5sDnLWtagorr0XD7_hg",
		"venue_name": "Noyane",
		"latitude": 41.89384,
		"longitude": -87.62505,
		"address1": "101 E Erie St",
		"address2": "",
		"address3": null,
		"city": "Chicago",
		"state": "IL",
		"zip_code": "60611"
	},
	{
		"venue_id": "yelpgAkCzTt2630G2Vq9GCyQHg",
		"venue_name": "Kamehachi",
		"latitude": 41.888168,
		"longitude": -87.62986,
		"address1": "320 N Dearborn St",
		"address2": null,
		"address3": "",
		"city": "Chicago",
		"state": "IL",
		"zip_code": "60610"
	},
	{
		"venue_id": "yelpmAb4QFkb4c-WfXUwZg4PMA",
		"venue_name": "Yugen",
		"latitude": 41.88484,
		"longitude": -87.64487,
		"address1": "652 W Randolph St",
		"address2": "",
		"address3": null,
		"city": "Chicago",
		"state": "IL",
		"zip_code": "60661"
	},
	{
		"venue_id": "yelpUqoxOHG50O9R48lg2WOdBg",
		"venue_name": "Yokocho",
		"latitude": 41.90354,
		"longitude": -87.67166,
		"address1": "1742 W Division",
		"address2": "Back Alley",
		"address3": "",
		"city": "Chicago",
		"state": "IL",
		"zip_code": "60622"
	},
	{
		"venue_id": "yelpeNt4T1DLGjlhgnTOWFhvQw",
		"venue_name": "Kylin Teppanyaki",
		"latitude": 41.855072,
		"longitude": -87.63208,
		"address1": "2002 S Wentworth Ave",
		"address2": "",
		"address3": "",
		"city": "Chicago",
		"state": "IL",
		"zip_code": "60616"
	},
	{
		"venue_id": "yelp1jWXfQlzZ8Z1s9CXmRkIww",
		"venue_name": "Hiromi's Oriental Restaurant",
		"latitude": 41.9680824279785,
		"longitude": -87.7187194824219,
		"address1": "3609 W Lawrence Ave",
		"address2": "",
		"address3": "",
		"city": "Chicago",
		"state": "IL",
		"zip_code": "60625"
	},
	{
		"venue_id": "yelpvG4YP8EOmlzpC_8cYoe98A",
		"venue_name": "Ramen Works",
		"latitude": 41.9227913,
		"longitude": -87.6448017,
		"address1": "2235 N Lincoln Ave",
		"address2": null,
		"address3": null,
		"city": "Chicago",
		"state": "IL",
		"zip_code": "60614"
	},
	{
		"venue_id": "yelphvLmaKHOizr-mtJ4O_n54A",
		"venue_name": "Izakaya yume",
		"latitude": 41.87774,
		"longitude": -87.64471,
		"address1": "711 W Jackson Blvd",
		"address2": null,
		"address3": "",
		"city": "Chicago",
		"state": "IL",
		"zip_code": "60661"
	},
	{
		"venue_id": "yelpl-BMWMnj56OxQ55DioQO-Q",
		"venue_name": "Typhoon Cafe",
		"latitude": 41.88612,
		"longitude": -87.62195,
		"address1": "211 N Stetson Ave",
		"address2": "",
		"address3": "",
		"city": "Chicago",
		"state": "IL",
		"zip_code": "60601"
	},
	{
		"venue_id": "yelpQyTTbhDNarSL6EqWKG0igw",
		"venue_name": "Sixes & Eights",
		"latitude": 41.8522464,
		"longitude": -87.6188102,
		"address1": "2233 S Martin Luther King Jr Dr",
		"address2": "",
		"address3": "",
		"city": "Chicago",
		"state": "IL",
		"zip_code": "60616"
	},
	{
		"venue_id": "yelpmpCR2UiwhwvVg-mG0ufcaQ",
		"venue_name": "Akahoshi Ramen",
		"latitude": 41.92589,
		"longitude": -87.70168,
		"address1": "2451 N Milwaukee Ave",
		"address2": "",
		"address3": null,
		"city": "Chicago",
		"state": "IL",
		"zip_code": "60647"
	},
	{
		"venue_id": "yelpwcMTIjWoF-XlRHO4JcZD0w",
		"venue_name": "Teriyaki Tempura",
		"latitude": 41.88235,
		"longitude": -87.6404699,
		"address1": "500 W Madison St",
		"address2": "",
		"address3": "",
		"city": "Chicago",
		"state": "IL",
		"zip_code": "60661"
	},
	{
		"venue_id": "yelpKv6Doorxkp2jwpxQ7bhm8g",
		"venue_name": "Tokyo Lunchbox",
		"latitude": 41.8779106,
		"longitude": -87.6386948,
		"address1": "300 S Riverside",
		"address2": "",
		"address3": "",
		"city": "Chicago",
		"state": "IL",
		"zip_code": "60661"
	},
	{
		"venue_id": "yelpnyRl4XD4W3NmnG2GUDzHHA",
		"venue_name": "Shan Shaan Taste \u5c71\u9655\u540d\u5403",
		"latitude": 41.85505,
		"longitude": -87.63219,
		"address1": "2002 S Wentworth Ave B10",
		"address2": null,
		"address3": "",
		"city": "Chicago",
		"state": "IL",
		"zip_code": "60616"
	},
	{
		"venue_id": "yelpnxNYUpwzR3iszrzKCjMDqQ",
		"venue_name": "sushi burrito",
		"latitude": 41.9567201,
		"longitude": -87.8073949,
		"address1": "4150 Harlem Ave",
		"address2": null,
		"address3": "",
		"city": "Norridge",
		"state": "IL",
		"zip_code": "60706"
	},
	{
		"venue_id": "yelprt7WDTmg1AwAxBkGoxj1xA",
		"venue_name": "Dol",
		"latitude": 41.9351403347193,
		"longitude": -87.6469949080442,
		"address1": "2920 N Clark",
		"address2": "",
		"address3": "",
		"city": "Chicago",
		"state": "IL",
		"zip_code": "60657"
	},
	{
		"venue_id": "yelp_Ar7IXLVywgmgIJL1_vgNQ",
		"venue_name": "Makoto",
		"latitude": 41.98774,
		"longitude": -87.7035,
		"address1": "5856 N Lincoln Ave",
		"address2": null,
		"address3": null,
		"city": "Chicago",
		"state": "IL",
		"zip_code": "60659"
	},
	{
		"venue_id": "yelpa2B0h23kmJbch-Cj-nnCcg",
		"venue_name": "Sakura House II",
		"latitude": 41.881833,
		"longitude": -87.631228,
		"address1": "105 W Madison St",
		"address2": "",
		"address3": "",
		"city": "Chicago",
		"state": "IL",
		"zip_code": "60686"
	}
]