[
	{
		"venue_id": "yelpdKcO9OQ44RPRlkWe-vToFA",
		"venue_name": "Shaw's Crab House",
		"latitude": 41.8899414,
		"longitude": -87.6273507,
		"address1": "21 E Hubbard St",
		"address2": "",
		"address3": "",
		"city": "Chicago",
		"state": "IL",
		"zip_code": "60611"
	},
	{
		"venue_id": "yelpfJhF5Yy4nguguaaH3TabmQ",
		"venue_name": "Bandera Restaurant",
		"latitude": 41.8919021875965,
		"longitude": -87.6236184577346,
		"address1": "535 N Michigan Ave",
		"address2": "",
		"address3": "",
		"city": "Chicago",
		"state": "IL",
		"zip_code": "60611"
	},
	{
		"venue_id": "yelpHWDZkUSNHca_Uxuhk25hlQ",
		"venue_name": "B.L.U.E.S.",
		"latitude": 41.92788,
		"longitude": -87.64848,
		"address1": "2519 N Halsted St",
		"address2": "",
		"address3": "",
		"city": "Chicago",
		"state": "IL",
		"zip_code": "60614"
	},
	{
		"venue_id": "yelpqrN8yUCVY5oYOxna_o_iXg",
		"venue_name": "Kingston Mines",
		"latitude": 41.92869,
		"longitude": -87.64922,
		"address1": "2548 N Halsted St",
		"address2": "",
		"address3": "",
		"city": "Chicago",
		"state": "IL",
		"zip_code": "60614"
	},
	{
		"venue_id": "yelpt3pYu8eidmb2ZmexHRHT_Q",
		"venue_name": "Green Mill",
		"latitude": 41.9691749999841,
		"longitude": -87.6597404784749,
		"address1": "4802 N Broadway St",
		"address2": "",
		"address3": "",
		"city": "Chicago",
		"state": "IL",
		"zip_code": "60640"
	},
	{
		"venue_id": "yelp_xwu0u89oj6th1g_BFcDMw",
		"venue_name": "Rosa's Lounge",
		"latitude": 41.9176,
		"longitude": -87.71278,
		"address1": "3420 W Armitage Ave",
		"address2": "",
		"address3": "",
		"city": "Chicago",
		"state": "IL",
		"zip_code": "60647"
	},
	{
		"venue_id": "yelpwbOL77wMgSKV1yOkQuxw2Q",
		"venue_name": "Buddy Guy's Legends",
		"latitude": 41.8730157686049,
		"longitude": -87.6262064974468,
		"address1": "700 S Wabash Ave",
		"address2": "",
		"address3": "",
		"city": "Chicago",
		"state": "IL",
		"zip_code": "60605"
	},
	{
		"venue_id": "yelp3zFnA3zUZGhM7uO72svYFg",
		"venue_name": "Jazz Showcase",
		"latitude": 41.87173,
		"longitude": -87.62909,
		"address1": "806 S Plymouth Ct",
		"address2": "",
		"address3": "Dearborn Station",
		"city": "Chicago",
		"state": "IL",
		"zip_code": "60605"
	},
	{
		"venue_id": "yelpIHhtgvcQsKVg_cnWk5Dl5g",
		"venue_name": "Blue Chicago",
		"latitude": 41.891967,
		"longitude": -87.631431,
		"address1": "536 N Clark St",
		"address2": "",
		"address3": "",
		"city": "Chicago",
		"state": "IL",
		"zip_code": "60610"
	},
	{
		"venue_id": "yelpRtGRFPg50YZI5h2IsPc-jg",
		"venue_name": "Andy's Jazz Club",
		"latitude": 41.88986,
		"longitude": -87.62743,
		"address1": "11 E Hubbard St",
		"address2": "Ste 1",
		"address3": "",
		"city": "Chicago",
		"state": "IL",
		"zip_code": "60611"
	},
	{
		"venue_id": "yelp9mXXLyWZHB6GrXP02rjImw",
		"venue_name": "M Lounge",
		"latitude": 41.86133,
		"longitude": -87.62604,
		"address1": "1520 S Wabash Ave",
		"address2": null,
		"address3": "",
		"city": "Chicago",
		"state": "IL",
		"zip_code": "60605"
	},
	{
		"venue_id": "yelpifMcm_Io_Txith2UacUaxw",
		"venue_name": "Winter's Jazz Club",
		"latitude": 41.89049,
		"longitude": -87.6175451,
		"address1": "465 N McClurg Ct",
		"address2": null,
		"address3": null,
		"city": "Chicago",
		"state": "IL",
		"zip_code": "60611"
	},
	{
		"venue_id": "yelpJcE9gHI9shys6n7GclqiBw",
		"venue_name": "Bordel",
		"latitude": 41.90298,
		"longitude": -87.67079,
		"address1": "1721 W Division St",
		"address2": "",
		"address3": "",
		"city": "Chicago",
		"state": "IL",
		"zip_code": "60622"
	},
	{
		"venue_id": "yelpV8_NjnBj-uzkRHy9a2025w",
		"venue_name": "Reclaimed Bar and Restaurant",
		"latitude": 41.94834,
		"longitude": -87.6879,
		"address1": "3655 North Western Ave",
		"address2": "",
		"address3": null,
		"city": "Chicago",
		"state": "IL",
		"zip_code": "60618"
	},
	{
		"venue_id": "yelp0hjlH9KmXhyYMfrkBrLeew",
		"venue_name": "Chicago Blues Festival",
		"latitude": 41.8842085,
		"longitude": -87.6195518,
		"address1": "337 E Randolph St",
		"address2": "",
		"address3": "",
		"city": "Chicago",
		"state": "IL",
		"zip_code": "60603"
	},
	{
		"venue_id": "yelpdWv3Nish7BCx2NMf--W1Vw",
		"venue_name": "Jazzin' at the Shedd",
		"latitude": 41.867594,
		"longitude": -87.614041,
		"address1": "1200 S Lake Shore Dr",
		"address2": null,
		"address3": "Shedd Aquarium",
		"city": "Chicago",
		"state": "IL",
		"zip_code": "60605"
	},
	{
		"venue_id": "yelpN7FBGIQNFeK_JGCW5UkXaQ",
		"venue_name": "Constellation",
		"latitude": 41.9380192454996,
		"longitude": -87.687818535316,
		"address1": "3111 N Western",
		"address2": "",
		"address3": "",
		"city": "Chicago",
		"state": "IL",
		"zip_code": "60618"
	},
	{
		"venue_id": "yelpieALOkyM3XuSQrfJ_JLG5A",
		"venue_name": "Chicago Jazz Festival",
		"latitude": 41.8823266164157,
		"longitude": -87.6222968101501,
		"address1": "201 E Randolph St",
		"address2": "",
		"address3": "Millenium Park",
		"city": "Chicago",
		"state": "IL",
		"zip_code": "60601"
	},
	{
		"venue_id": "yelpSLgo2vxGDAVKZRzR_4baRQ",
		"venue_name": "The Front Room Chicago",
		"latitude": 41.88466,
		"longitude": -87.64923,
		"address1": "844 W Randolph St",
		"address2": "",
		"address3": null,
		"city": "Chicago",
		"state": "IL",
		"zip_code": "60607"
	},
	{
		"venue_id": "yelpDCO_WFjjcqG9f-Lkdk9a2Q",
		"venue_name": "Blues Heaven Foundation",
		"latitude": 41.853607,
		"longitude": -87.624221,
		"address1": "2120 S Michigan Ave",
		"address2": "",
		"address3": "",
		"city": "Chicago",
		"state": "IL",
		"zip_code": "60616"
	},
	{
		"venue_id": "yelpQ6lKMDnttYLsqxTiNzcCcg",
		"venue_name": "Serbian Village Restaurant",
		"latitude": 41.95424,
		"longitude": -87.70731,
		"address1": "3144 W Irving Park Rd",
		"address2": "",
		"address3": "",
		"city": "Chicago",
		"state": "IL",
		"zip_code": "60618"
	},
	{
		"venue_id": "yelpsp10QI-XDe404UTtNRAj8A",
		"venue_name": "Chicago by Night",
		"latitude": 41.9386719,
		"longitude": -87.7667998,
		"address1": "5600 W Belmont Ave",
		"address2": "",
		"address3": "",
		"city": "Chicago",
		"state": "IL",
		"zip_code": "60634"
	},
	{
		"venue_id": "yelp3kK8r_wPwLsB9RmT74ENyg",
		"venue_name": "Coco Club",
		"latitude": 41.80833,
		"longitude": -87.70844,
		"address1": "3350 W 47th St",
		"address2": "",
		"address3": "",
		"city": "Chicago",
		"state": "IL",
		"zip_code": "60632"
	},
	{
		"venue_id": "yelpOVCTR4-2iNr3bP8wPdknEw",
		"venue_name": "Klotz Guitar Studio",
		"latitude": 41.975619,
		"longitude": -87.663891,
		"address1": "1338 W Winona St",
		"address2": null,
		"address3": "",
		"city": "Chicago",
		"state": "IL",
		"zip_code": "60640"
	},
	{
		"venue_id": "yelpzd7fnOaEZaoW4mSz2ANCtw",
		"venue_name": "Harlem Avenue Lounge",
		"latitude": 41.824592,
		"longitude": -87.802291,
		"address1": "3701 S Harlem Ave",
		"address2": "",
		"address3": "",
		"city": "Berwyn",
		"state": "IL",
		"zip_code": "60402"
	},
	{
		"venue_id": "yelpJK8HplE2QE64BXDihEXECw",
		"venue_name": "Open Door Repertory Company",
		"latitude": 41.8725848,
		"longitude": -87.7841943,
		"address1": "902 South Ridgeland Ave",
		"address2": "",
		"address3": "Open Door Theater",
		"city": "Oak Park",
		"state": "IL",
		"zip_code": "60304"
	},
	{
		"venue_id": "yelp1v_Gbvf6n9RDrXRPHCshiQ",
		"venue_name": "Tuesdays On the Terrace",
		"latitude": 41.8972282,
		"longitude": -87.6209793,
		"address1": "220 E Chicago Ave",
		"address2": "",
		"address3": "Museum of Contemporary Art",
		"city": "Chicago",
		"state": "IL",
		"zip_code": "60611"
	},
	{
		"venue_id": "yelpz4d71RH4lIg8ODGwGZcUaA",
		"venue_name": "Music by Lise",
		"latitude": 41.92522,
		"longitude": -87.64292,
		"address1": "",
		"address2": "",
		"address3": "",
		"city": "Chicago",
		"state": "IL",
		"zip_code": "60614"
	},
	{
		"venue_id": "yelpWh3FnpQK8074fYOG3T19kw",
		"venue_name": "Chicago Jazz Philharmonic",
		"latitude": 41.9026145935059,
		"longitude": -87.6341247558594,
		"address1": "1111 N Wells St",
		"address2": "Ste 501",
		"address3": "",
		"city": "Chicago",
		"state": "IL",
		"zip_code": "60610"
	}
]