[
	{
		"venue_id": "yelptCkwBTuEFvhuaBoEUWqbuQ",
		"venue_name": "Meli Cafe & Juice Bar",
		"latitude": 41.87761,
		"longitude": -87.647,
		"address1": "301 S Halsted St",
		"address2": null,
		"address3": "",
		"city": "Chicago",
		"state": "IL",
		"zip_code": "60661"
	},
	{
		"venue_id": "yelpecFp44Y6EGdgtmZ-jPqaYA",
		"venue_name": "Pi-Hi Cafe",
		"latitude": 41.9460656925374,
		"longitude": -87.6877528213354,
		"address1": "3539 N Western Ave",
		"address2": "",
		"address3": "",
		"city": "Chicago",
		"state": "IL",
		"zip_code": "60618"
	},
	{
		"venue_id": "yelpFsoEVqFK-W7gRu0hDH84sg",
		"venue_name": "Janik's Cafe",
		"latitude": 41.9030612,
		"longitude": -87.677777,
		"address1": "2011 W Division St",
		"address2": "",
		"address3": "",
		"city": "Chicago",
		"state": "IL",
		"zip_code": "60622"
	},
	{
		"venue_id": "yelp-xQU4HFnCCEJCTwkTTCnsw",
		"venue_name": "Vegetarian Express",
		"latitude": 41.938282,
		"longitude": -87.6490631,
		"address1": "3109 N Halsted St",
		"address2": "",
		"address3": "",
		"city": "Chicago",
		"state": "IL",
		"zip_code": "60657"
	},
	{
		"venue_id": "yelpYXwVWVhmbBeVnnHJIV3mgg",
		"venue_name": "Jubilee Juice & Grill",
		"latitude": 41.8840615,
		"longitude": -87.6475148,
		"address1": "140 N Halsted St",
		"address2": "",
		"address3": "",
		"city": "Chicago",
		"state": "IL",
		"zip_code": "60661"
	},
	{
		"venue_id": "yelpp31OxfpwjoNezYCmMFfcHg",
		"venue_name": "Annette's Italian Ice",
		"latitude": 41.9184732,
		"longitude": -87.6519588,
		"address1": "2009 N Bissell St",
		"address2": "",
		"address3": "",
		"city": "Chicago",
		"state": "IL",
		"zip_code": "60614"
	},
	{
		"venue_id": "yelpAO83FW-KEkwzxC0YcvGO1w",
		"venue_name": "Osaka Sushi Express & Fresh Fruit Smoothies",
		"latitude": 41.876943,
		"longitude": -87.624532,
		"address1": "400 S Michigan Ave",
		"address2": null,
		"address3": "",
		"city": "Chicago",
		"state": "IL",
		"zip_code": "60605"
	},
	{
		"venue_id": "yelpBnaXd5uOKFKsYiGuxw3r1w",
		"venue_name": "Life Spring Health Foods & Juice Bar",
		"latitude": 41.9397151,
		"longitude": -87.650656,
		"address1": "3178 N Clark St",
		"address2": "",
		"address3": "",
		"city": "Chicago",
		"state": "IL",
		"zip_code": "60657"
	},
	{
		"venue_id": "yelppOQOEBZbKXA3MLUXWsSyTg",
		"venue_name": "Beezzee",
		"latitude": 41.9328851,
		"longitude": -87.6537007,
		"address1": "2807 N Sheffield Ave",
		"address2": null,
		"address3": "",
		"city": "Chicago",
		"state": "IL",
		"zip_code": "60657"
	},
	{
		"venue_id": "yelpc-33j2eSYNCppwBVLUFpzg",
		"venue_name": "Yummy Yummy Asian Cuisine",
		"latitude": 41.9351256288396,
		"longitude": -87.6440628857616,
		"address1": "2901 N Broadway St",
		"address2": null,
		"address3": "",
		"city": "Chicago",
		"state": "IL",
		"zip_code": "60657"
	},
	{
		"venue_id": "yelpcVULFhP_qRHskfIWNysR_w",
		"venue_name": "Meli Cafe",
		"latitude": 41.8918462775328,
		"longitude": -87.6342765335556,
		"address1": "540 N Wells St",
		"address2": "",
		"address3": null,
		"city": "Chicago",
		"state": "IL",
		"zip_code": "60654"
	},
	{
		"venue_id": "yelpbNsgLUvWZRs3TvxslbhZcA",
		"venue_name": "Loop Juice",
		"latitude": 41.8840684,
		"longitude": -87.6412297,
		"address1": "131 N Clinton St",
		"address2": "",
		"address3": "Chicago French Market",
		"city": "Chicago",
		"state": "IL",
		"zip_code": "60661"
	},
	{
		"venue_id": "yelpzvJx0BPvAGO3w5II1Tg0mw",
		"venue_name": "Hi-Vibe Superfood Juicery",
		"latitude": 41.889175,
		"longitude": -87.63306,
		"address1": "160 W Kinzie St",
		"address2": "",
		"address3": "",
		"city": "Chicago",
		"state": "IL",
		"zip_code": "60654"
	},
	{
		"venue_id": "yelp7AtKgFbKuBu88Sr7P3jo4A",
		"venue_name": "Marmalade",
		"latitude": 41.9613517672074,
		"longitude": -87.6787366428512,
		"address1": "1969 W Montrose St",
		"address2": "",
		"address3": "",
		"city": "Chicago",
		"state": "IL",
		"zip_code": "60625"
	},
	{
		"venue_id": "yelpWpiOkhWb2hWxIbS3ivl6Pw",
		"venue_name": "Azul 18",
		"latitude": 41.8580549,
		"longitude": -87.6578675,
		"address1": "1236 W 18th St",
		"address2": null,
		"address3": "",
		"city": "Chicago",
		"state": "IL",
		"zip_code": "60608"
	},
	{
		"venue_id": "yelpIoBJyhmF5i7X06kprnfsWw",
		"venue_name": "Left Coast Food + Juice",
		"latitude": 41.93391824473,
		"longitude": -87.6607146496915,
		"address1": "2878 N Lincoln Ave",
		"address2": "",
		"address3": "",
		"city": "Chicago",
		"state": "IL",
		"zip_code": "60657"
	},
	{
		"venue_id": "yelpxpWC-F1e4Qf4fAPjC701-g",
		"venue_name": "Healthy and Simple",
		"latitude": 41.89656,
		"longitude": -87.6669,
		"address1": "815 N Ashland Ave",
		"address2": null,
		"address3": "",
		"city": "Chicago",
		"state": "IL",
		"zip_code": "60622"
	},
	{
		"venue_id": "yelpZn-x7BKyOqh6vcVUZp-dGQ",
		"venue_name": "Orange",
		"latitude": 41.9429299,
		"longitude": -87.67896,
		"address1": "2011 W Roscoe St",
		"address2": "",
		"address3": "",
		"city": "Chicago",
		"state": "IL",
		"zip_code": "60618"
	},
	{
		"venue_id": "yelphZ4hSRSyEBoMkNY-jktCJg",
		"venue_name": "City Press Juice & Bottle",
		"latitude": 41.9357504,
		"longitude": -87.6440699,
		"address1": "2931 N Broadway",
		"address2": "",
		"address3": "",
		"city": "Chicago",
		"state": "IL",
		"zip_code": "60657"
	},
	{
		"venue_id": "yelpxT_ZLdD5JSZol2PLfPijiw",
		"venue_name": "Homestyle Taste",
		"latitude": 41.8360011536387,
		"longitude": -87.6459531784058,
		"address1": "3205 S Halsted St",
		"address2": "",
		"address3": "",
		"city": "Chicago",
		"state": "IL",
		"zip_code": "60608"
	},
	{
		"venue_id": "yelpIYAeo0sLwQfGJ0WXuL8jQg",
		"venue_name": "La Strada Cafe Bar",
		"latitude": 41.91837,
		"longitude": -87.69695,
		"address1": "2023 N California Ave",
		"address2": "",
		"address3": "",
		"city": "Chicago",
		"state": "IL",
		"zip_code": "60647"
	},
	{
		"venue_id": "yelpwGwnYWcFUrYmH-YLPc-vbw",
		"venue_name": "BAMBU",
		"latitude": 41.9730429,
		"longitude": -87.6599249,
		"address1": "5010 N Broadway",
		"address2": "",
		"address3": null,
		"city": "Chicago",
		"state": "IL",
		"zip_code": "60640"
	},
	{
		"venue_id": "yelpdw5iJxBRC0jYE9qPtTIGSg",
		"venue_name": "Infiniteus Rocks & Juice",
		"latitude": 41.91086,
		"longitude": -87.66952,
		"address1": "1644 W North Ave",
		"address2": null,
		"address3": "",
		"city": "Chicago",
		"state": "IL",
		"zip_code": "60622"
	},
	{
		"venue_id": "yelpgjIkM8xQRih-W4sUN_2NHQ",
		"venue_name": "Bru Chicago",
		"latitude": 41.9097,
		"longitude": -87.67693,
		"address1": "1562 N Milwaukee Ave",
		"address2": "",
		"address3": "",
		"city": "Chicago",
		"state": "IL",
		"zip_code": "60622"
	},
	{
		"venue_id": "yelpbyyWLMOHxfEiENT36Z3M8w",
		"venue_name": "Cafe El Meson",
		"latitude": 41.808998,
		"longitude": -87.703643,
		"address1": "4631 S Kedzie Ave",
		"address2": "",
		"address3": "",
		"city": "Chicago",
		"state": "IL",
		"zip_code": "60632"
	},
	{
		"venue_id": "yelpUOejNtWbGUDeeXMMC2kFwg",
		"venue_name": "The Lifeway Kefir Shop",
		"latitude": 41.90296,
		"longitude": -87.67167,
		"address1": "1745 W Division St",
		"address2": "",
		"address3": "",
		"city": "Chicago",
		"state": "IL",
		"zip_code": "60622"
	},
	{
		"venue_id": "yelp9bvyjONADY7bDmNhfDj31w",
		"venue_name": "Just Salad",
		"latitude": 41.87844,
		"longitude": -87.6268,
		"address1": "20 East Jackson Blvd",
		"address2": "",
		"address3": "",
		"city": "Chicago",
		"state": "IL",
		"zip_code": "60604"
	},
	{
		"venue_id": "yelpI2WfW2syUw_imsSs5w5UZg",
		"venue_name": "Kung Fu Tea",
		"latitude": 41.8542670308205,
		"longitude": -87.6328884447052,
		"address1": "2126B S Archer Ave",
		"address2": "",
		"address3": "",
		"city": "Chicago",
		"state": "IL",
		"zip_code": "60616"
	},
	{
		"venue_id": "yelpD-Cl-k6Xkwq6cxIV3rj9Iw",
		"venue_name": "BeeZzee Fresh Food",
		"latitude": 41.876224,
		"longitude": -87.626504,
		"address1": "424 S Wabash Ave",
		"address2": "",
		"address3": "",
		"city": "Chicago",
		"state": "IL",
		"zip_code": "60603"
	},
	{
		"venue_id": "yelpW2qT0yQO4glZ5xnFLxh95A",
		"venue_name": "Belli's",
		"latitude": 41.8578062,
		"longitude": -87.6593857,
		"address1": "1309 W 18th St",
		"address2": "",
		"address3": "",
		"city": "Chicago",
		"state": "IL",
		"zip_code": "60608"
	},
	{
		"venue_id": "yelpr9X0Rmcylp05q3lhOwUb3Q",
		"venue_name": "The Lifeway Kefir Shop",
		"latitude": 41.883453,
		"longitude": -87.628028,
		"address1": "108 N State St",
		"address2": "",
		"address3": "Pedway Level",
		"city": "Chicago",
		"state": "IL",
		"zip_code": "60602"
	},
	{
		"venue_id": "yelpcrP4fnbHX3nJZqLUkZyv2w",
		"venue_name": "Tropikava",
		"latitude": 41.9027366638184,
		"longitude": -87.6708068847656,
		"address1": "1115 N Hermitage",
		"address2": "",
		"address3": "",
		"city": "Chicago",
		"state": "IL",
		"zip_code": "60622"
	},
	{
		"venue_id": "yelpBM3tqGJ-ux8fU4XRuTEROg",
		"venue_name": "RealGood Old Town",
		"latitude": 41.9125171180794,
		"longitude": -87.6345888435856,
		"address1": "1647 N Wells St",
		"address2": null,
		"address3": "",
		"city": "Chicago",
		"state": "IL",
		"zip_code": "60614"
	},
	{
		"venue_id": "yelpBMdRFPxMEGSDI3gGcNJBdw",
		"venue_name": "Fruit Paradise",
		"latitude": 41.9240170931104,
		"longitude": -87.6990046352148,
		"address1": "2355 N Milwaukee Ave",
		"address2": "",
		"address3": "",
		"city": "Chicago",
		"state": "IL",
		"zip_code": "60647"
	},
	{
		"venue_id": "yelpADTh1H-hc4ju5g-Ii6QF1Q",
		"venue_name": "Original Pancake House",
		"latitude": 41.9330046234589,
		"longitude": -87.6446378945079,
		"address1": "616 W Diversey Pkwy",
		"address2": "",
		"address3": null,
		"city": "Chicago",
		"state": "IL",
		"zip_code": "60614"
	},
	{
		"venue_id": "yelpZDFETj5PzK5ADseNp0U7eQ",
		"venue_name": "Golden Apple Grill & Breakfast House",
		"latitude": 41.9359408869827,
		"longitude": -87.6631273417081,
		"address1": "2971 N Lincoln Ave",
		"address2": "",
		"address3": "",
		"city": "Chicago",
		"state": "IL",
		"zip_code": "60657"
	},
	{
		"venue_id": "yelpWntyn82g6He3X4ovI3GPOA",
		"venue_name": "Fruve' xPress Juicery",
		"latitude": 41.868383,
		"longitude": -87.626354,
		"address1": "1130 S Wabash Ave",
		"address2": "",
		"address3": "",
		"city": "Chicago",
		"state": "IL",
		"zip_code": "60605"
	},
	{
		"venue_id": "yelpm973NCh_zflXOrJZnUTPfA",
		"venue_name": "Mon Lung",
		"latitude": 41.9000324,
		"longitude": -87.6672824,
		"address1": "1009 N Ashland Ave",
		"address2": "",
		"address3": "",
		"city": "Chicago",
		"state": "IL",
		"zip_code": "60622"
	},
	{
		"venue_id": "yelpnK9V66lbiT9bfai5IfOhSg",
		"venue_name": "Aha Crepe",
		"latitude": 41.9266801,
		"longitude": -87.640955,
		"address1": "2435 N Clark St",
		"address2": null,
		"address3": "",
		"city": "Chicago",
		"state": "IL",
		"zip_code": "60614"
	},
	{
		"venue_id": "yelppmj-MTvnPJdTOe7la1Q-vQ",
		"venue_name": "Freezing Point",
		"latitude": 41.938668513626,
		"longitude": -87.6684396483348,
		"address1": "3127 N Ashland Ave",
		"address2": "",
		"address3": null,
		"city": "Chicago",
		"state": "IL",
		"zip_code": "60657"
	},
	{
		"venue_id": "yelpS7p_Q0gcyTp3IPKJX8H9fw",
		"venue_name": "Jaffa Bagels",
		"latitude": 41.8864511,
		"longitude": -87.6239114,
		"address1": "225 N Michigan Ave",
		"address2": "",
		"address3": "",
		"city": "Chicago",
		"state": "IL",
		"zip_code": "60601"
	},
	{
		"venue_id": "yelpMpVZfqGxXs-wWk91VtxKFQ",
		"venue_name": "Colectivo Coffee",
		"latitude": 41.9222326,
		"longitude": -87.6960043,
		"address1": "2261 N Milwaukee Ave",
		"address2": "",
		"address3": null,
		"city": "Chicago",
		"state": "IL",
		"zip_code": "60647"
	},
	{
		"venue_id": "yelpx5jeYKd5yvMO9lqq0egZpg",
		"venue_name": "BBQ King House",
		"latitude": 41.85371,
		"longitude": -87.63405,
		"address1": "2148 S Archer Ave",
		"address2": "",
		"address3": "",
		"city": "Chicago",
		"state": "IL",
		"zip_code": "60616"
	},
	{
		"venue_id": "yelpX5s4WhYbZ057yOlfGiiWOA",
		"venue_name": "Red Line Cafe",
		"latitude": 41.8347049,
		"longitude": -87.6324562,
		"address1": "218 W 33rd St",
		"address2": "",
		"address3": null,
		"city": "Chicago",
		"state": "IL",
		"zip_code": "60616"
	},
	{
		"venue_id": "yelpeVeNRO9y9mG0X6FN_5EpiQ",
		"venue_name": "JuiceRx",
		"latitude": 41.91611,
		"longitude": -87.67789,
		"address1": "1880 N Damen Ave",
		"address2": null,
		"address3": "",
		"city": "Chicago",
		"state": "IL",
		"zip_code": "60647"
	},
	{
		"venue_id": "yelp1Nq5kuGhCNPwnMwWmz2JSQ",
		"venue_name": "Mac Kelly's",
		"latitude": 41.86436,
		"longitude": -87.62368,
		"address1": "1347 S Michigan Ave",
		"address2": "",
		"address3": "",
		"city": "Chicago",
		"state": "IL",
		"zip_code": "60605"
	},
	{
		"venue_id": "yelpTbhh-pmOtXoV_5IhJpd0_Q",
		"venue_name": "Eggs Cafe",
		"latitude": 41.8947,
		"longitude": -87.61663,
		"address1": "680 N Lake Shore Dr",
		"address2": "",
		"address3": "",
		"city": "Chicago",
		"state": "IL",
		"zip_code": "60611"
	},
	{
		"venue_id": "yelp0IiTD4sC4_bpy7Mv1H-i9A",
		"venue_name": "The Corner Farmacy",
		"latitude": 41.88779,
		"longitude": -87.68207,
		"address1": "324 N Leavitt",
		"address2": "",
		"address3": "",
		"city": "Chicago",
		"state": "IL",
		"zip_code": "60612"
	},
	{
		"venue_id": "yelp38gt6s_jrOlnjHhHAODXXA",
		"venue_name": "Cellars Market",
		"latitude": 41.878077,
		"longitude": -87.632192,
		"address1": "141 W Jackson Blvd",
		"address2": "",
		"address3": "",
		"city": "Chicago",
		"state": "IL",
		"zip_code": "60604"
	},
	{
		"venue_id": "yelpSfQRsuYe1teRYqczxGsr4w",
		"venue_name": "Bonci",
		"latitude": 41.9099174300739,
		"longitude": -87.6775303235186,
		"address1": "1566 N Damen Ave",
		"address2": "",
		"address3": null,
		"city": "Chicago",
		"state": "IL",
		"zip_code": "60622"
	},
	{
		"venue_id": "yelpdYcWPW_vlugpnB6GwqDhfg",
		"venue_name": "Be Juice'd",
		"latitude": 41.9910651,
		"longitude": -87.79899,
		"address1": "6046 N Avondale Ave",
		"address2": "",
		"address3": null,
		"city": "Chicago",
		"state": "IL",
		"zip_code": "60631"
	},
	{
		"venue_id": "yelphv9IJpOjOkigqN7n8BeS4A",
		"venue_name": "D Fruta La Vida",
		"latitude": 41.924243927002,
		"longitude": -87.7209854125977,
		"address1": "3739 W Fullerton Ave",
		"address2": null,
		"address3": "",
		"city": "Chicago",
		"state": "IL",
		"zip_code": "60647"
	},
	{
		"venue_id": "yelpf-jrFczIqKgMggSi5HE1Qg",
		"venue_name": "La Michoacana Premium",
		"latitude": 41.9686208106426,
		"longitude": -87.7067827245773,
		"address1": "3108 W Lawrence",
		"address2": "",
		"address3": "",
		"city": "Chicago",
		"state": "IL",
		"zip_code": "60625"
	},
	{
		"venue_id": "yelp7FNu-uITDfg-IdCEfF239A",
		"venue_name": "Just Salad",
		"latitude": 41.8914408,
		"longitude": -87.6243185,
		"address1": "520 N Michigan Ave",
		"address2": "",
		"address3": null,
		"city": "Chicago",
		"state": "IL",
		"zip_code": "60611"
	},
	{
		"venue_id": "yelp8bQdQE3u71uTe71aygYMMg",
		"venue_name": "Okashi",
		"latitude": 41.9400633,
		"longitude": -87.6502922,
		"address1": "820 W Belmont Ave",
		"address2": null,
		"address3": "",
		"city": "Chicago",
		"state": "IL",
		"zip_code": "60657"
	},
	{
		"venue_id": "yelp97w6wPA5LykE68x9YLuF-w",
		"venue_name": "City Press Juice & Bottle",
		"latitude": 41.910667,
		"longitude": -87.681427,
		"address1": "2136 West North Ave",
		"address2": "",
		"address3": null,
		"city": "Chicago",
		"state": "IL",
		"zip_code": "60647"
	},
	{
		"venue_id": "yelpBQNGejX_I-7mxFxaFDnyfA",
		"venue_name": "The Lifeway Kefir Shop",
		"latitude": 41.8882157490865,
		"longitude": -87.6357400092621,
		"address1": "222 W Merchandise Mart Plz",
		"address2": "Ste 238",
		"address3": "",
		"city": "Chicago",
		"state": "IL",
		"zip_code": "60654"
	},
	{
		"venue_id": "yelpW9tZKyhpnRFE4vem0IXC8A",
		"venue_name": "Fruityland Ice Cream",
		"latitude": 41.9650495,
		"longitude": -87.7083797,
		"address1": "4610 Kedzie Ave",
		"address2": "",
		"address3": "",
		"city": "Chicago",
		"state": "IL",
		"zip_code": "60625"
	},
	{
		"venue_id": "yelp6N7B7gdAZSQZVcBPTgQTfQ",
		"venue_name": "Kung Fu Tea",
		"latitude": 41.97229,
		"longitude": -87.6591399,
		"address1": "4925 N Broadway",
		"address2": null,
		"address3": "",
		"city": "Chicago",
		"state": "IL",
		"zip_code": "60640"
	},
	{
		"venue_id": "yelpEhyjrJwcbwXm5d_P0ig6Dg",
		"venue_name": "Tbaar",
		"latitude": 41.8518753051758,
		"longitude": -87.6322860717773,
		"address1": "2234 S Wentworth Ave",
		"address2": "",
		"address3": null,
		"city": "Chicago",
		"state": "IL",
		"zip_code": "60616"
	},
	{
		"venue_id": "yelpt-oBHTIv6jyY0j_JoPsPVQ",
		"venue_name": "JOE & THE JUICE",
		"latitude": 41.89933,
		"longitude": -87.62784,
		"address1": "10 E Delaware Pl",
		"address2": "",
		"address3": null,
		"city": "Chicago",
		"state": "IL",
		"zip_code": "60611"
	},
	{
		"venue_id": "yelpq-V_vVyY67zxUO-nnZQR9A",
		"venue_name": "Left Coast Food",
		"latitude": 41.8952788903492,
		"longitude": -87.6341079013193,
		"address1": "717 N Wells St",
		"address2": "",
		"address3": null,
		"city": "Chicago",
		"state": "IL",
		"zip_code": "60654"
	},
	{
		"venue_id": "yelpjOJjLLBb1qZ7FbGjaQNS4A",
		"venue_name": "Red Mango",
		"latitude": 41.909543,
		"longitude": -87.675065,
		"address1": "1513 N Milwaukee Ave",
		"address2": "",
		"address3": "",
		"city": "Chicago",
		"state": "IL",
		"zip_code": "60622"
	},
	{
		"venue_id": "yelpQmPsMkMxa3yiEevwHxvJIg",
		"venue_name": "Caf\u00e9 Press Chicago",
		"latitude": 41.8719817,
		"longitude": -87.6306186,
		"address1": "800 S Clark St",
		"address2": "",
		"address3": "",
		"city": "Chicago",
		"state": "IL",
		"zip_code": "60605"
	},
	{
		"venue_id": "yelp4X1sUarc6nmsOWH6fickNQ",
		"venue_name": "Hot Shots Cafe",
		"latitude": 41.90423,
		"longitude": -87.66826,
		"address1": "1242 N Milwaukee Ave",
		"address2": "",
		"address3": null,
		"city": "Chicago",
		"state": "IL",
		"zip_code": "60622"
	},
	{
		"venue_id": "yelpm-nV58s8Xu8VrDEOl6F92A",
		"venue_name": "The Juice House",
		"latitude": 41.85815,
		"longitude": -87.6599,
		"address1": "1324 W 18th St",
		"address2": "",
		"address3": null,
		"city": "Chicago",
		"state": "IL",
		"zip_code": "60608"
	},
	{
		"venue_id": "yelpRZW9G7BATi8IvOCyOW6RXQ",
		"venue_name": "Tbaar",
		"latitude": 41.86907,
		"longitude": -87.66363,
		"address1": "1453 W Taylor St",
		"address2": "",
		"address3": null,
		"city": "Chicago",
		"state": "IL",
		"zip_code": "60607"
	},
	{
		"venue_id": "yelpcBGwsAq3srq4sosCNHZ9_w",
		"venue_name": "Fragola Yogurt And Ice Cream",
		"latitude": 41.9387841,
		"longitude": -87.7663128,
		"address1": "3207 N Cental Ave",
		"address2": "",
		"address3": "",
		"city": "Chicago",
		"state": "IL",
		"zip_code": "60634"
	},
	{
		"venue_id": "yelp1UGCqhX4QsEZhTAimxHlnQ",
		"venue_name": "JOE & THE JUICE",
		"latitude": 41.89513,
		"longitude": -87.62777,
		"address1": "8 E Huron St",
		"address2": "",
		"address3": null,
		"city": "Chicago",
		"state": "IL",
		"zip_code": "60611"
	},
	{
		"venue_id": "yelpVLmsGWzlMbgrk14WXvD3fg",
		"venue_name": "Graze",
		"latitude": 41.8937419,
		"longitude": -87.6313456,
		"address1": "648 N Clark St",
		"address2": null,
		"address3": "Studio Three",
		"city": "Chicago",
		"state": "IL",
		"zip_code": "60654"
	},
	{
		"venue_id": "yelpoDoj6IgUbwGGkz9sFyDRDQ",
		"venue_name": "JuiceRx",
		"latitude": 41.9224433,
		"longitude": -87.64849,
		"address1": "2215 N Halsted",
		"address2": null,
		"address3": "StudiosFUSE",
		"city": "Chicago",
		"state": "IL",
		"zip_code": "60614"
	},
	{
		"venue_id": "yelpxSkLYJIg_5dunncDiaGH-A",
		"venue_name": "Dairy Queen",
		"latitude": 41.9220687886343,
		"longitude": -87.6438432729182,
		"address1": "2200 N Lincoln Ave",
		"address2": "",
		"address3": "",
		"city": "Chicago",
		"state": "IL",
		"zip_code": "60614"
	},
	{
		"venue_id": "yelpZGHUs4jAlh4jO4cntDgi5Q",
		"venue_name": "Boo Bae Tea",
		"latitude": 41.92147,
		"longitude": -87.65405,
		"address1": "1013 W Webster Ave",
		"address2": "",
		"address3": null,
		"city": "Chicago",
		"state": "IL",
		"zip_code": "60614"
	},
	{
		"venue_id": "yelpzQnosNLZMXY7HfgNDDyY1w",
		"venue_name": "Harvest Juicery",
		"latitude": 41.885717433118,
		"longitude": -87.6527762472127,
		"address1": "1012 W Lake St",
		"address2": "",
		"address3": "",
		"city": "Chicago",
		"state": "IL",
		"zip_code": "60601"
	},
	{
		"venue_id": "yelpmNtevpj3KO1xj-7Q0fL4Fg",
		"venue_name": "Real Good Juice Southport",
		"latitude": 41.946698,
		"longitude": -87.6641646,
		"address1": "3548 N Southport Ave",
		"address2": "",
		"address3": null,
		"city": "Chicago",
		"state": "IL",
		"zip_code": "60657"
	},
	{
		"venue_id": "yelp19JCcJSNolVoRlgne43MbA",
		"venue_name": "TBaar Loyola-Lakeshore Campus",
		"latitude": 41.998038,
		"longitude": -87.661547,
		"address1": "1223 W Devon Ave",
		"address2": null,
		"address3": "",
		"city": "Chicago",
		"state": "IL",
		"zip_code": "60660"
	},
	{
		"venue_id": "yelpHSikNyzop4K8f3tuUzXCwg",
		"venue_name": "Real Good Juice",
		"latitude": 41.91114,
		"longitude": -87.67772,
		"address1": "1616 N Damen St",
		"address2": null,
		"address3": "",
		"city": "Chicago",
		"state": "IL",
		"zip_code": "60647"
	},
	{
		"venue_id": "yelpPMi0_GHxu-Rhk94HPvDPog",
		"venue_name": "The Rolling Bean",
		"latitude": 41.8842506408691,
		"longitude": -87.6324462890625,
		"address1": "",
		"address2": null,
		"address3": "",
		"city": "Chicago",
		"state": "IL",
		"zip_code": ""
	},
	{
		"venue_id": "yelpH3FKoaWnec9TPZSJ8aNpNw",
		"venue_name": "Tropical Smoothie Cafe",
		"latitude": 41.872500859306,
		"longitude": -87.6464903354645,
		"address1": "737 S. Halsted Street",
		"address2": "",
		"address3": "",
		"city": "Chicago",
		"state": "IL",
		"zip_code": "60607"
	},
	{
		"venue_id": "yelp6BlxYe4SHG_9uAKiVLVArQ",
		"venue_name": "Freshii",
		"latitude": 41.8833436108566,
		"longitude": -87.6258337718783,
		"address1": "50 E Washington St",
		"address2": "",
		"address3": "",
		"city": "Chicago",
		"state": "IL",
		"zip_code": "60602"
	},
	{
		"venue_id": "yelpxotwkdMIxUzxxkcNG9m5Wg",
		"venue_name": "JOE & THE JUICE",
		"latitude": 41.8898451,
		"longitude": -87.634914,
		"address1": "215 W Hubbard St",
		"address2": "",
		"address3": null,
		"city": "Chicago",
		"state": "IL",
		"zip_code": "60654"
	},
	{
		"venue_id": "yelpwII08W2x5l82vZs6EFGufA",
		"venue_name": "Carver 47 Cafe",
		"latitude": 41.8097372,
		"longitude": -87.5995175,
		"address1": "1060 E 47th St",
		"address2": "Fl 1",
		"address3": "",
		"city": "Chicago",
		"state": "IL",
		"zip_code": "60653"
	},
	{
		"venue_id": "yelpjWjJo-NoRIYnqDMvU1rvNw",
		"venue_name": "Wellness Grub",
		"latitude": 41.914363,
		"longitude": -87.634338,
		"address1": "1750 N Clark St",
		"address2": null,
		"address3": "",
		"city": "Chicago",
		"state": "IL",
		"zip_code": "60614"
	},
	{
		"venue_id": "yelpo181YeTN2hYH70puBBG9rA",
		"venue_name": "Wellness Grub",
		"latitude": 41.899543,
		"longitude": -87.624473,
		"address1": "900 N Michigan Ave",
		"address2": null,
		"address3": "",
		"city": "Chicago",
		"state": "IL",
		"zip_code": "60611"
	},
	{
		"venue_id": "yelpz33SlompX5P2Uvf7gh7bzQ",
		"venue_name": "Just Salad",
		"latitude": 41.8795449,
		"longitude": -87.6316,
		"address1": "120 W Adams St",
		"address2": "",
		"address3": "(btwn LaSalle & Clark)",
		"city": "Chicago",
		"state": "IL",
		"zip_code": "60603"
	},
	{
		"venue_id": "yelprI4xx-Rc23juBBNW5uNRDw",
		"venue_name": "City Press Juice & Bottle",
		"latitude": 41.9616149,
		"longitude": -87.67773,
		"address1": "1942 W Montrose Ave",
		"address2": "",
		"address3": null,
		"city": "Chicago",
		"state": "IL",
		"zip_code": "60613"
	},
	{
		"venue_id": "yelpqs67Zaxx465R_E2lQxxonA",
		"venue_name": "Freshii",
		"latitude": 41.9182132990976,
		"longitude": -87.6507526244577,
		"address1": "854 W Armitage Ave",
		"address2": "",
		"address3": "",
		"city": "Chicago",
		"state": "IL",
		"zip_code": "60614"
	},
	{
		"venue_id": "yelpSW_xB0BLU6l_FvpmISOjBw",
		"venue_name": "China Palace",
		"latitude": 41.9898196,
		"longitude": -87.6594721,
		"address1": "1129 W Thorndale Ave",
		"address2": "",
		"address3": "",
		"city": "Chicago",
		"state": "IL",
		"zip_code": "60660"
	},
	{
		"venue_id": "yelp5LENR0IthLzoK9vgDvIxqQ",
		"venue_name": "Edible Arrangements",
		"latitude": 41.86683,
		"longitude": -87.62352,
		"address1": "1239 S Michigan Ave",
		"address2": null,
		"address3": "",
		"city": "Chicago",
		"state": "IL",
		"zip_code": "60605"
	},
	{
		"venue_id": "yelpzNKDS43sOrWMainVltqvRQ",
		"venue_name": "Freshii",
		"latitude": 41.8779986,
		"longitude": -87.6313313,
		"address1": "111 W Jackson Blvd",
		"address2": "",
		"address3": "",
		"city": "Chicago",
		"state": "IL",
		"zip_code": "60604"
	},
	{
		"venue_id": "yelprM4qWEHheO_F5icvhi0dUA",
		"venue_name": "Jamba Juice",
		"latitude": 41.88235,
		"longitude": -87.6404699,
		"address1": "500 W Madison St",
		"address2": "# C007",
		"address3": "",
		"city": "Chicago",
		"state": "IL",
		"zip_code": "60661"
	},
	{
		"venue_id": "yelplLicZWKmiquAfrUWXOFq6Q",
		"venue_name": "Just Salad",
		"latitude": 41.88165,
		"longitude": -87.6388749,
		"address1": "10 S Riverside Plz",
		"address2": null,
		"address3": "",
		"city": "Chicago",
		"state": "IL",
		"zip_code": "60606"
	},
	{
		"venue_id": "yelp9SqWylbifPNOAymSxmLesg",
		"venue_name": "My Twist",
		"latitude": 41.848776265734,
		"longitude": -87.7437438815832,
		"address1": "2315 S Cicero Ave",
		"address2": "",
		"address3": "",
		"city": "Cicero",
		"state": "IL",
		"zip_code": "60804"
	},
	{
		"venue_id": "yelpATlXGZTMhSheo_9zB3hfbQ",
		"venue_name": "Te'amo Boba Bar",
		"latitude": 41.8914408,
		"longitude": -87.6243185,
		"address1": "520 N Michigan Ave",
		"address2": "Ste 420",
		"address3": "",
		"city": "Chicago",
		"state": "IL",
		"zip_code": "60611"
	},
	{
		"venue_id": "yelp9eUcWa16ax5MjHRsqnz8Mg",
		"venue_name": "Some Like it Black Creative Arts Bar",
		"latitude": 41.8169810951226,
		"longitude": -87.6064576821814,
		"address1": "4259 S Cottage Grove Ave",
		"address2": "Unit D",
		"address3": null,
		"city": "Chicago",
		"state": "IL",
		"zip_code": "60653"
	},
	{
		"venue_id": "yelp-K4IKb0S70sAQjWzFBg8xA",
		"venue_name": "Muscle Bar",
		"latitude": 41.969453,
		"longitude": -87.6750555,
		"address1": "1804 W Lawerence",
		"address2": null,
		"address3": "",
		"city": "Chicago",
		"state": "IL",
		"zip_code": "60640"
	},
	{
		"venue_id": "yelpJQwg13gbL0hafjQpIhPdSg",
		"venue_name": "Hi-Vibe Superfood Juicery",
		"latitude": 41.8885294055749,
		"longitude": -87.6342481703613,
		"address1": "222 Merchandise Mart Plz",
		"address2": "Ste 200",
		"address3": null,
		"city": "Chicago",
		"state": "IL",
		"zip_code": "60654"
	},
	{
		"venue_id": "yelpDfWVZN-a2USPLTDs_jsAFA",
		"venue_name": "Graze",
		"latitude": 41.8797693,
		"longitude": -87.6303311,
		"address1": "125 S Clark St",
		"address2": "",
		"address3": "Revival Food Hall",
		"city": "Chicago",
		"state": "IL",
		"zip_code": "60603"
	},
	{
		"venue_id": "yelpxycZqqR-c_1zdpK3pp8Yhw",
		"venue_name": "Protein Bar",
		"latitude": 41.8809506,
		"longitude": -87.6322451,
		"address1": "37 South La Salle St",
		"address2": "",
		"address3": null,
		"city": "Chicago",
		"state": "IL",
		"zip_code": "60603"
	},
	{
		"venue_id": "yelpcUyk2LT0CuU0idaMJM0m_w",
		"venue_name": "Shukr Cafe",
		"latitude": 41.9758449,
		"longitude": -87.712566,
		"address1": "3334 W Foster Ave",
		"address2": null,
		"address3": "",
		"city": "Chicago",
		"state": "IL",
		"zip_code": "60625"
	},
	{
		"venue_id": "yelpCK8o86c6JG4up1JAIGpVYA",
		"venue_name": "Froyo Chicago",
		"latitude": 41.95029,
		"longitude": -87.66447,
		"address1": "3746 N Southport Ave",
		"address2": "",
		"address3": "",
		"city": "Chicago",
		"state": "IL",
		"zip_code": "60613"
	},
	{
		"venue_id": "yelpwFFvPt-a11JONjRdPufOng",
		"venue_name": "Freshii",
		"latitude": 41.88235,
		"longitude": -87.6404699,
		"address1": "500 W Madison St",
		"address2": "",
		"address3": "",
		"city": "Chicago",
		"state": "IL",
		"zip_code": "60661"
	},
	{
		"venue_id": "yelp4Vowd3JBf1t2mEQ7IHPwMw",
		"venue_name": "Red Mango",
		"latitude": 41.8982525914907,
		"longitude": -87.62401945889,
		"address1": "845 N Michigan Ave",
		"address2": "",
		"address3": "",
		"city": "Chicago",
		"state": "IL",
		"zip_code": "60611"
	},
	{
		"venue_id": "yelpsgnTSJ3CqtH9ymnfEfMkHg",
		"venue_name": "Tbaar",
		"latitude": 41.869147,
		"longitude": -87.663617,
		"address1": "1453 W Taylor St",
		"address2": "",
		"address3": "",
		"city": "Chicago",
		"state": "NY",
		"zip_code": "60607"
	},
	{
		"venue_id": "yelpeb0U83AmRSSVpwMwWBZ45A",
		"venue_name": "La Michoacana Premium",
		"latitude": 41.85027,
		"longitude": -87.78759,
		"address1": "6533 Cermak Rd",
		"address2": "",
		"address3": null,
		"city": "Berwyn",
		"state": "IL",
		"zip_code": "60402"
	},
	{
		"venue_id": "yelpb3zIYn7ciQVrvQ8HYpZBXQ",
		"venue_name": "Gelatinas Cris",
		"latitude": 41.80675,
		"longitude": -87.74274,
		"address1": "4725 S Cicero Ave",
		"address2": "",
		"address3": "",
		"city": "Chicago",
		"state": "IL",
		"zip_code": "60632"
	},
	{
		"venue_id": "yelpgUEByQ94sZzdc0DSYG_8bA",
		"venue_name": "Sweet N' Healthy Nutrition",
		"latitude": 41.96851,
		"longitude": -87.72767,
		"address1": "3950 Lawrence",
		"address2": null,
		"address3": null,
		"city": "Chicago",
		"state": "IL",
		"zip_code": "60625"
	},
	{
		"venue_id": "yelpSwwhI2_Uv64W5FYF3J6V4Q",
		"venue_name": "Sholado",
		"latitude": 41.939467,
		"longitude": -87.6367848,
		"address1": "3100 N Lakefront Trl",
		"address2": "",
		"address3": "",
		"city": "Chicago",
		"state": "IL",
		"zip_code": "60657"
	},
	{
		"venue_id": "yelpUiJwliYzVMk55Ivhw3oq7A",
		"venue_name": "Freshii",
		"latitude": 41.8852480897807,
		"longitude": -87.6215350627899,
		"address1": "200 E Randolph Dr",
		"address2": "",
		"address3": "Ste No LL03",
		"city": "Chicago",
		"state": "IL",
		"zip_code": "60601"
	},
	{
		"venue_id": "yelpekgNJYJsp2-WzmnBBjB8pA",
		"venue_name": "Herb-N-Juice",
		"latitude": 41.938,
		"longitude": -87.63783,
		"address1": "3100 N Lake Shore Dr",
		"address2": "",
		"address3": null,
		"city": "Chicago",
		"state": "IL",
		"zip_code": "60657"
	},
	{
		"venue_id": "yelpodHFdfkpV5qQpskuEFd4gA",
		"venue_name": "Jamba Juice",
		"latitude": 41.8786138970841,
		"longitude": -87.6393972277641,
		"address1": "225 S Canal St",
		"address2": "",
		"address3": "",
		"city": "Chicago",
		"state": "IL",
		"zip_code": "60606"
	},
	{
		"venue_id": "yelpkxIzzXvdBUwlbzV3VDz8Xw",
		"venue_name": "Freshii",
		"latitude": 41.8916854858398,
		"longitude": -87.6083450317383,
		"address1": "600 E Grand Ave",
		"address2": "",
		"address3": "",
		"city": "Chicago",
		"state": "IL",
		"zip_code": "60611"
	},
	{
		"venue_id": "yelpJGWCW6fE1qu4fj4qo_pyLA",
		"venue_name": "Red Mango",
		"latitude": 41.884373993197,
		"longitude": -87.6248086227487,
		"address1": "151 E Randolph St",
		"address2": "",
		"address3": "",
		"city": "Chicago",
		"state": "IL",
		"zip_code": "60601"
	},
	{
		"venue_id": "yelp2k2ETwj1UtYZLQvJQCzvtw",
		"venue_name": "Ice Point Rolled Ice Cream",
		"latitude": 41.85351,
		"longitude": -87.63516,
		"address1": "2171 S China Pl",
		"address2": "",
		"address3": null,
		"city": "Chicago",
		"state": "IL",
		"zip_code": "60616"
	},
	{
		"venue_id": "yelpnszHW0BwtmBpSMlJitnKJg",
		"venue_name": "Freshii",
		"latitude": 41.888886,
		"longitude": -87.6328668,
		"address1": "350 N La Salle Blvd",
		"address2": null,
		"address3": null,
		"city": "Chicago",
		"state": "IL",
		"zip_code": "60654"
	},
	{
		"venue_id": "yelpnpSkKR_M681MDehAkoogfg",
		"venue_name": "Fruve' xPress Juicery",
		"latitude": 41.8817649,
		"longitude": -87.6550433,
		"address1": "1108 W Madison St",
		"address2": "",
		"address3": null,
		"city": "Chicago",
		"state": "IL",
		"zip_code": "60607"
	},
	{
		"venue_id": "yelpSORaAZH9bOhbtQ9y8846RA",
		"venue_name": "Tropical Smoothie Cafe",
		"latitude": 41.86864,
		"longitude": -87.668041,
		"address1": "1603 W. Taylor Street",
		"address2": null,
		"address3": null,
		"city": "Chicago",
		"state": "IL",
		"zip_code": "60517"
	},
	{
		"venue_id": "yelp43HjjQ_PpIHZmUlbAJfYLw",
		"venue_name": "Real Good Juice",
		"latitude": 41.88179,
		"longitude": -87.64717,
		"address1": "Whole Foods Market W Lp",
		"address2": "",
		"address3": "1 N Halsted",
		"city": "Chicago",
		"state": "IL",
		"zip_code": "60661"
	},
	{
		"venue_id": "yelpQaGouYZWZAgU7cgRXmg7ug",
		"venue_name": "Core juice bar",
		"latitude": 41.8224965,
		"longitude": -87.6907677,
		"address1": "3924 S Archer Ave",
		"address2": "",
		"address3": null,
		"city": "Chicago",
		"state": "IL",
		"zip_code": "60632"
	},
	{
		"venue_id": "yelpowK7eiV6k26UPiqKm_Mtxg",
		"venue_name": "RealGood River North",
		"latitude": 41.8949283476576,
		"longitude": -87.6340947563359,
		"address1": "701 N Wells St",
		"address2": null,
		"address3": "",
		"city": "Chicago",
		"state": "IL",
		"zip_code": "60654"
	},
	{
		"venue_id": "yelpcGgbmHkBwUPlzQtv_akwWQ",
		"venue_name": "Elaine's Chop Suey",
		"latitude": 41.8099849,
		"longitude": -87.6751565,
		"address1": "4512 B Damen Ave",
		"address2": "",
		"address3": "",
		"city": "Chicago",
		"state": "IL",
		"zip_code": "60609"
	},
	{
		"venue_id": "yelpDdckIGkG-Ym4cnMkLhNQPw",
		"venue_name": "Total Energy House Herbalife",
		"latitude": 41.8958,
		"longitude": -87.66643,
		"address1": "1541 W Chicago Ave",
		"address2": "",
		"address3": null,
		"city": "Chicago",
		"state": "IL",
		"zip_code": "60642"
	},
	{
		"venue_id": "yelpXrLlRI0PAFX8H81tyKyl1Q",
		"venue_name": "Freshii",
		"latitude": 41.8861,
		"longitude": -87.62433,
		"address1": "233 North Michigan Ave",
		"address2": "",
		"address3": null,
		"city": "Chicago",
		"state": "IL",
		"zip_code": "60601"
	},
	{
		"venue_id": "yelpzLwhpdkPDm0T7yWgPV_xJw",
		"venue_name": "Freshii",
		"latitude": 41.88862,
		"longitude": -87.63539,
		"address1": "222 W Merchandise Mart Plz",
		"address2": "Ste 1212",
		"address3": "",
		"city": "Chicago",
		"state": "IL",
		"zip_code": "60654"
	},
	{
		"venue_id": "yelp_Y9JMBg1uL3nL7kp7fFcng",
		"venue_name": "Bal\u00fa Smoothies and More",
		"latitude": 41.8843851,
		"longitude": -87.6260633,
		"address1": "55 East Randolph St",
		"address2": "Fl 2",
		"address3": "",
		"city": "Chicago",
		"state": "IL",
		"zip_code": "60601"
	},
	{
		"venue_id": "yelpANX7hputwVQ2p3YtVsj1AQ",
		"venue_name": "La Michoacana",
		"latitude": 41.817554473877,
		"longitude": -87.697998046875,
		"address1": "4171 S Archer Ave",
		"address2": "",
		"address3": null,
		"city": "Chicago",
		"state": "IL",
		"zip_code": "60632"
	},
	{
		"venue_id": "yelp3HtIOmCeuF33eySf--qzDA",
		"venue_name": "Happy Chinese Kitchen",
		"latitude": 41.8530529330814,
		"longitude": -87.6242785166023,
		"address1": "80 East Cermak Rd",
		"address2": "Ste B",
		"address3": "",
		"city": "Chicago",
		"state": "IL",
		"zip_code": "60616"
	},
	{
		"venue_id": "yelpcJrP4qr_Mpq2xMJReQyAkA",
		"venue_name": "First Chop Suey",
		"latitude": 41.848936,
		"longitude": -87.7440087,
		"address1": "2325 S Cicero Ave",
		"address2": "",
		"address3": "",
		"city": "Cicero",
		"state": "IL",
		"zip_code": "60804"
	},
	{
		"venue_id": "yelpQFfMWI9NDvmp9nOsDLNJBg",
		"venue_name": "Harvest Juicery",
		"latitude": 41.87979,
		"longitude": -87.63051,
		"address1": "125 S Clark St",
		"address2": "",
		"address3": null,
		"city": "Chicago",
		"state": "IL",
		"zip_code": "60603"
	},
	{
		"venue_id": "yelp7M7jsfWU2oo4yMGdGFPBTg",
		"venue_name": "Planetarium Snack Bar",
		"latitude": 41.866189,
		"longitude": -87.610434,
		"address1": "E Solidarity Dr",
		"address2": "",
		"address3": "",
		"city": "Chicago",
		"state": "IL",
		"zip_code": "60605"
	},
	{
		"venue_id": "yelpRFMtLDfZrsrfgCMSitUxtg",
		"venue_name": "Left Coast",
		"latitude": 41.88452,
		"longitude": -87.63523,
		"address1": "151 N Franklin St",
		"address2": "",
		"address3": null,
		"city": "Chicago",
		"state": "IL",
		"zip_code": "60606"
	},
	{
		"venue_id": "yelpqLai4qmHkeBSu1a4YKZeQg",
		"venue_name": "Yogolandia Yogurt & Botana Bar",
		"latitude": 41.84424,
		"longitude": -87.70711,
		"address1": "3253 W 26th St",
		"address2": "",
		"address3": null,
		"city": "Chicago",
		"state": "IL",
		"zip_code": "60623"
	},
	{
		"venue_id": "yelpaOqdlaA8KoGa1vXnrsxHYQ",
		"venue_name": "Real Good Juice",
		"latitude": 41.89137,
		"longitude": -87.62132,
		"address1": "255 E Grand Ave",
		"address2": "",
		"address3": "Whole Foods Market",
		"city": "Chicago",
		"state": "IL",
		"zip_code": "60611"
	},
	{
		"venue_id": "yelp5OcJSv8EM2e6ZbNnnbYpLA",
		"venue_name": "Juicy",
		"latitude": 41.8803806222818,
		"longitude": -87.6507089067405,
		"address1": "115 S Sangamon St",
		"address2": "",
		"address3": "",
		"city": "Chicago",
		"state": "IL",
		"zip_code": "60612"
	},
	{
		"venue_id": "yelp9052GRdCXYH0za-O6Z_HaQ",
		"venue_name": "Silk Road & Cafe Juice",
		"latitude": 41.8814501,
		"longitude": -87.6322551,
		"address1": "19 S La Salle St",
		"address2": "",
		"address3": "",
		"city": "Chicago",
		"state": "IL",
		"zip_code": "60603"
	},
	{
		"venue_id": "yelpC7x4BDnSqkVYYVUA2AjzwQ",
		"venue_name": "Smoothy's Shack",
		"latitude": 41.87867,
		"longitude": -87.64035,
		"address1": "210 S Canal",
		"address2": null,
		"address3": "",
		"city": "Chicago",
		"state": "IL",
		"zip_code": "60606"
	},
	{
		"venue_id": "yelpwxwC1MEZwIY86MAVhdovEA",
		"venue_name": "Yogen Fruz",
		"latitude": 41.95641,
		"longitude": -87.809043,
		"address1": "4104 N Harlem Ave",
		"address2": "",
		"address3": "Harlem Irving Plaza",
		"city": "Norridge",
		"state": "IL",
		"zip_code": "60706"
	},
	{
		"venue_id": "yelpqhnMFvP1bd__YifOfz7Pqw",
		"venue_name": "Urban Renuil",
		"latitude": 41.894501,
		"longitude": -87.639,
		"address1": "409 West Huron St",
		"address2": "Fl 5",
		"address3": "",
		"city": "Chicago",
		"state": "IL",
		"zip_code": "60654"
	},
	{
		"venue_id": "yelpxgtx0i6eKFbnPqRgCEgJbw",
		"venue_name": "Jamba Juice",
		"latitude": 41.8521995849909,
		"longitude": -87.6181843028143,
		"address1": "2301 S Lakeshore Dr",
		"address2": "",
		"address3": "",
		"city": "Chicago",
		"state": "IL",
		"zip_code": "60616"
	},
	{
		"venue_id": "yelpWu1j-o4cl_mvrLWMhP_pWQ",
		"venue_name": "Freshii",
		"latitude": 41.8712456,
		"longitude": -87.6738649,
		"address1": "828 S Wolcott Ave",
		"address2": null,
		"address3": null,
		"city": "Chicago",
		"state": "IL",
		"zip_code": "60612"
	},
	{
		"venue_id": "yelpA8O-pJ1D4i_7aYs9h7HDog",
		"venue_name": "La Michoacana",
		"latitude": 41.8091748997357,
		"longitude": -87.7043123915792,
		"address1": "4618 S Kedzie",
		"address2": "",
		"address3": "",
		"city": "Chicago",
		"state": "IL",
		"zip_code": "60632"
	},
	{
		"venue_id": "yelpXtInCOYrbBeda6F7cBrjSg",
		"venue_name": "Jamba Juice",
		"latitude": 41.8518647543017,
		"longitude": -87.6154437799311,
		"address1": "320-338 E Cermak Rd",
		"address2": "",
		"address3": "",
		"city": "Chicago",
		"state": "IL",
		"zip_code": "60616"
	},
	{
		"venue_id": "yelpiaD5xXC8bpxoGnihk9SckQ",
		"venue_name": "Churro Factory",
		"latitude": 41.91697,
		"longitude": -87.7213699,
		"address1": "3755 W Armitage Ave",
		"address2": null,
		"address3": null,
		"city": "Chicago",
		"state": "IL",
		"zip_code": "60647"
	},
	{
		"venue_id": "yelpZ_yTzmza5pvLqODiPgixCA",
		"venue_name": "Health & Happyness Juicery",
		"latitude": 41.80919,
		"longitude": -87.61,
		"address1": "635 E 47th St",
		"address2": "",
		"address3": null,
		"city": "Chicago",
		"state": "IL",
		"zip_code": "60653"
	},
	{
		"venue_id": "yelpdKsqsLDmbxjS2jPT2JP7Dw",
		"venue_name": "Real Good Jucie",
		"latitude": 41.9087371826172,
		"longitude": -87.652946472168,
		"address1": "1550 N Kingsbury St",
		"address2": null,
		"address3": "",
		"city": "Chicago",
		"state": "IL",
		"zip_code": "60642"
	},
	{
		"venue_id": "yelpVqqRAxYYMIlLJEyxw-L5Og",
		"venue_name": "Real Good Juice Co.",
		"latitude": 41.9398363930431,
		"longitude": -87.6687334563326,
		"address1": "3200 N Ashland",
		"address2": null,
		"address3": "",
		"city": "Chicago",
		"state": "IL",
		"zip_code": "60657"
	},
	{
		"venue_id": "yelplEz1PUKeiRSI7PCIYbSN4Q",
		"venue_name": "Delicias Amber",
		"latitude": 41.8407783508301,
		"longitude": -87.7829208374023,
		"address1": "2723 Ridgeland Ave",
		"address2": null,
		"address3": "",
		"city": "Berwyn",
		"state": "IL",
		"zip_code": "60402"
	}
]