[
	{
		"venue_id": "yelpATEIAT4wLhqdu2e8aNcjsA",
		"venue_name": "Lincoln Karaoke",
		"latitude": 41.9818305969238,
		"longitude": -87.6935501098633,
		"address1": "5526 N Lincoln Ave",
		"address2": "",
		"address3": "",
		"city": "Chicago",
		"state": "IL",
		"zip_code": "60625"
	},
	{
		"venue_id": "yelp0s3yJUGqg9KrPCSwk8hJNA",
		"venue_name": "Brando's Speakeasy",
		"latitude": 41.87713,
		"longitude": -87.629,
		"address1": "343 S Dearborn St",
		"address2": null,
		"address3": "",
		"city": "Chicago",
		"state": "IL",
		"zip_code": "60604"
	},
	{
		"venue_id": "yelpY7s0qd_70hzBaCoZNpTnqA",
		"venue_name": "Murasaki Lounge",
		"latitude": 41.89314,
		"longitude": -87.62212,
		"address1": "211 E Ontario",
		"address2": "",
		"address3": "",
		"city": "Chicago",
		"state": "IL",
		"zip_code": "60611"
	},
	{
		"venue_id": "yelpYAR6Ry6sPTCmslLNZcvOtA",
		"venue_name": "Friar Tuck",
		"latitude": 41.9364450283252,
		"longitude": -87.6448488235474,
		"address1": "3010 N Broadway St",
		"address2": "",
		"address3": "",
		"city": "Chicago",
		"state": "IL",
		"zip_code": "60657"
	},
	{
		"venue_id": "yelpAmr-mVUEl1UEgObPPWWY8A",
		"venue_name": "Rory Lake's Karaoke Dreams",
		"latitude": 41.91626,
		"longitude": -87.67375,
		"address1": "1824 W Cortland St",
		"address2": "",
		"address3": "American Legion Post 923",
		"city": "Chicago",
		"state": "IL",
		"zip_code": "60622"
	},
	{
		"venue_id": "yelpDJreayUF7JFCp6CJSaJWdQ",
		"venue_name": "Trader Todd's",
		"latitude": 41.9404521,
		"longitude": -87.6543655,
		"address1": "3216 N Sheffield Ave",
		"address2": "",
		"address3": "",
		"city": "Chicago",
		"state": "IL",
		"zip_code": "60657"
	},
	{
		"venue_id": "yelpqSq0DMpWgfVUIyPI8lag_Q",
		"venue_name": "Louie's Pub",
		"latitude": 41.910472053545,
		"longitude": -87.669959032822,
		"address1": "1659 W North Ave",
		"address2": "",
		"address3": "",
		"city": "Chicago",
		"state": "IL",
		"zip_code": "60622"
	},
	{
		"venue_id": "yelpuBAZXLQazGS9fbLopNc4Hw",
		"venue_name": "Karaoke Restaurant",
		"latitude": 41.995304,
		"longitude": -87.6997413,
		"address1": "6248 N California Ave",
		"address2": "",
		"address3": "",
		"city": "Chicago",
		"state": "IL",
		"zip_code": "60659"
	},
	{
		"venue_id": "yelpf8_5ES5FlaBjWLsCxMQ49Q",
		"venue_name": "Uptown Lounge",
		"latitude": 41.969126,
		"longitude": -87.6592017,
		"address1": "1136 W Lawrence Ave",
		"address2": null,
		"address3": "",
		"city": "Chicago",
		"state": "IL",
		"zip_code": "60640"
	},
	{
		"venue_id": "yelp2bvko1kwbGMPjMt1CvLKtg",
		"venue_name": "Mary's Attic",
		"latitude": 41.97998046875,
		"longitude": -87.6685485839844,
		"address1": "5400 N Clark St",
		"address2": "",
		"address3": "",
		"city": "Chicago",
		"state": "IL",
		"zip_code": "60640"
	},
	{
		"venue_id": "yelpVmnbFscu5ophW2UPW2KHjw",
		"venue_name": "Hidden Cove",
		"latitude": 41.97881,
		"longitude": -87.69296,
		"address1": "5336 N Lincoln Ave",
		"address2": "",
		"address3": "",
		"city": "Chicago",
		"state": "IL",
		"zip_code": "60625"
	},
	{
		"venue_id": "yelpWDp33ynmDxn4hTekP3LZGA",
		"venue_name": "Spyners Pub",
		"latitude": 41.9656181335449,
		"longitude": -87.6884307861328,
		"address1": "4623 N Western Ave",
		"address2": "",
		"address3": "",
		"city": "Chicago",
		"state": "IL",
		"zip_code": "60625"
	},
	{
		"venue_id": "yelpdLMUfjtUF-wbBEjHJ_n6TA",
		"venue_name": "Sidekicks",
		"latitude": 41.9609489,
		"longitude": -87.7394937,
		"address1": "4424 W Montrose Ave",
		"address2": "",
		"address3": "",
		"city": "Chicago",
		"state": "IL",
		"zip_code": "60641"
	},
	{
		"venue_id": "yelpHpYLieOY4j7KRlt-Mjx0JQ",
		"venue_name": "Sakura Karaoke Bar",
		"latitude": 41.853136,
		"longitude": -87.63316,
		"address1": "234 W Cermak Rd",
		"address2": null,
		"address3": "",
		"city": "Chicago",
		"state": "IL",
		"zip_code": "60616"
	},
	{
		"venue_id": "yelp8kQwwaoC3Q97hZbty4HsIg",
		"venue_name": "No.18 Karaoke",
		"latitude": 41.852646,
		"longitude": -87.631648,
		"address1": "2201 S Wentworth Ave",
		"address2": "Fl 2",
		"address3": "",
		"city": "Chicago",
		"state": "IL",
		"zip_code": "60616"
	},
	{
		"venue_id": "yelpmKRsc_b8pi4eQsIxlQ-0dw",
		"venue_name": "The Original Mother's",
		"latitude": 41.9040752,
		"longitude": -87.6292366,
		"address1": "26 W Division St",
		"address2": "",
		"address3": "",
		"city": "Chicago",
		"state": "IL",
		"zip_code": "60610"
	},
	{
		"venue_id": "yelpBWtMKy650b27xcZLFrmx_A",
		"venue_name": "Art Zone Gallery and Cafe",
		"latitude": 41.98332,
		"longitude": -87.71045,
		"address1": "3238 N Bryn Mawr Ave",
		"address2": "",
		"address3": "",
		"city": "Chicago",
		"state": "IL",
		"zip_code": "60625"
	},
	{
		"venue_id": "yelpHoXo98HjFQ1uuq_xOvkEEw",
		"venue_name": "Caminos De Michoacan Bar",
		"latitude": 41.8547592163086,
		"longitude": -87.6684036254883,
		"address1": "1659 W Cullerton",
		"address2": null,
		"address3": "",
		"city": "Chicago",
		"state": "IL",
		"zip_code": "60608"
	},
	{
		"venue_id": "yelpc7tmhGMgFpcgW5johbjeRw",
		"venue_name": "Meeting House Tavern",
		"latitude": 41.973231,
		"longitude": -87.667822,
		"address1": "5025 N Clark St",
		"address2": "",
		"address3": null,
		"city": "Chicago",
		"state": "IL",
		"zip_code": "60640"
	},
	{
		"venue_id": "yelpqM0FPEtAHC3sIO7VFh-fUA",
		"venue_name": "Chicagoland DJ Services",
		"latitude": 41.901702,
		"longitude": -87.633405,
		"address1": "",
		"address2": "",
		"address3": "",
		"city": "Chicago",
		"state": "IL",
		"zip_code": "60610"
	},
	{
		"venue_id": "yelpKbrgiiS_ug1bPvAOJgCWbA",
		"venue_name": "Mom's Place",
		"latitude": 41.8938357,
		"longitude": -87.6298449,
		"address1": "650 N Dearborn St",
		"address2": "",
		"address3": null,
		"city": "Chicago",
		"state": "IL",
		"zip_code": "60654"
	},
	{
		"venue_id": "yelpqPG6lJ3wdE3jDDbxaTbUkQ",
		"venue_name": "PL Lounge",
		"latitude": 41.9444043693006,
		"longitude": -87.7274454385042,
		"address1": "3456 N Pulaski Rd",
		"address2": "",
		"address3": "",
		"city": "Chicago",
		"state": "IL",
		"zip_code": "60641"
	},
	{
		"venue_id": "yelpLt93TIa5pmoeK4zQe5Dk1w",
		"venue_name": "Water Hole Lounge",
		"latitude": 41.862881,
		"longitude": -87.68633,
		"address1": "1400 S Western Ave",
		"address2": "",
		"address3": "",
		"city": "Chicago",
		"state": "IL",
		"zip_code": "60608"
	},
	{
		"venue_id": "yelpr7Amiuvn111ufucULC7K2Q",
		"venue_name": "The People's Stage with Pablo Serrano",
		"latitude": 41.8540371893021,
		"longitude": -87.6548280715942,
		"address1": "",
		"address2": "",
		"address3": "",
		"city": "Chicago",
		"state": "IL",
		"zip_code": "60608"
	},
	{
		"venue_id": "yelp5iHyddmdXuhnDogiLIAyRA",
		"venue_name": "Bialystok Pub",
		"latitude": 41.93163,
		"longitude": -87.71924,
		"address1": "3653 W Diversey",
		"address2": "",
		"address3": "",
		"city": "Chicago",
		"state": "IL",
		"zip_code": "60647"
	},
	{
		"venue_id": "yelp-nwEzoHtGnmxKiQbrFAvrQ",
		"venue_name": "240 Lounge & Cafe",
		"latitude": 41.9683323,
		"longitude": -87.727513,
		"address1": "3948 W Lawrence Ave",
		"address2": "",
		"address3": null,
		"city": "Chicago",
		"state": "IL",
		"zip_code": "60625"
	},
	{
		"venue_id": "yelpsV4W7rdt-Cj9degsL7C4eA",
		"venue_name": "Zero Degrees Karaoke Bar",
		"latitude": 41.84893111072,
		"longitude": -87.638703498787,
		"address1": "453 W 24th St",
		"address2": "Fl 2",
		"address3": "",
		"city": "Chicago",
		"state": "IL",
		"zip_code": "60616"
	},
	{
		"venue_id": "yelp1BsQb6SY2UEM5nc-sOpYxA",
		"venue_name": "Greenlight Korean pub & Karaoke",
		"latitude": 41.99016,
		"longitude": -87.69291,
		"address1": "2519 W Peterson Ave",
		"address2": null,
		"address3": "",
		"city": "Chicago",
		"state": "IL",
		"zip_code": "60659"
	},
	{
		"venue_id": "yelpvDSTuH_jxt5sGHWYIaeG2g",
		"venue_name": "Ysabel's Grill",
		"latitude": 41.9535149,
		"longitude": -87.7503633,
		"address1": "4908 W Irving Park Rd",
		"address2": null,
		"address3": "",
		"city": "Chicago",
		"state": "IL",
		"zip_code": "60641"
	},
	{
		"venue_id": "yelpV1jcNXHpm6bNYkYuUSjo8Q",
		"venue_name": "Pop KTV",
		"latitude": 41.8550594,
		"longitude": -87.6320696,
		"address1": "2002 S Wentworth Ave",
		"address2": "Fl 2",
		"address3": "",
		"city": "Chicago",
		"state": "IL",
		"zip_code": "60616"
	},
	{
		"venue_id": "yelpzgL4DXmnZ7oXohfVzWJ2Cg",
		"venue_name": "Good Time Sports Bar",
		"latitude": 41.8311949,
		"longitude": -87.621535,
		"address1": "206 E 35th St",
		"address2": "",
		"address3": "",
		"city": "Chicago",
		"state": "IL",
		"zip_code": "60616"
	},
	{
		"venue_id": "yelpDN-hMSy46D-VI5CLMYrYSw",
		"venue_name": "Ok Pub",
		"latitude": 41.9528465270996,
		"longitude": -87.7692718505859,
		"address1": "5659 W Irving Park Rd",
		"address2": null,
		"address3": null,
		"city": "Chicago",
		"state": "IL",
		"zip_code": "60634"
	},
	{
		"venue_id": "yelpRX0HT4oUv2zeiZ_fivFAOw",
		"venue_name": "Blind Dragon",
		"latitude": 41.892832,
		"longitude": -87.6339551,
		"address1": "613 N Wells",
		"address2": null,
		"address3": "",
		"city": "Chicago",
		"state": "IL",
		"zip_code": "60654"
	},
	{
		"venue_id": "yelp8Nh1nFmrB1OK2UiH03aK4Q",
		"venue_name": "Sharp Karaoke & DJ Entertainment",
		"latitude": 41.9704907974503,
		"longitude": -87.6920452067627,
		"address1": "",
		"address2": null,
		"address3": "",
		"city": "Chicago",
		"state": "IL",
		"zip_code": "60618"
	},
	{
		"venue_id": "yelp5UlQK6N92IsVtAuD4NIJCA",
		"venue_name": "Blueberry Hill",
		"latitude": 41.878391,
		"longitude": -87.814445,
		"address1": "427 Des Plaines Ave",
		"address2": "",
		"address3": "",
		"city": "Forest Park",
		"state": "IL",
		"zip_code": "60130"
	},
	{
		"venue_id": "yelp1jWXfQlzZ8Z1s9CXmRkIww",
		"venue_name": "Hiromi's Oriental Restaurant",
		"latitude": 41.9680824279785,
		"longitude": -87.7187194824219,
		"address1": "3609 W Lawrence Ave",
		"address2": "",
		"address3": "",
		"city": "Chicago",
		"state": "IL",
		"zip_code": "60625"
	},
	{
		"venue_id": "yelpL3CrUgYsMAkt_QWqUVNTjA",
		"venue_name": "Edelweiss Tavern",
		"latitude": 41.9394111633301,
		"longitude": -87.7227401733398,
		"address1": "3808 W Belmont Ave",
		"address2": "",
		"address3": "",
		"city": "Chicago",
		"state": "IL",
		"zip_code": "60618"
	},
	{
		"venue_id": "yelpPu9dOPn7sCV0S2yq57OjTA",
		"venue_name": "Zachary's",
		"latitude": 41.97827,
		"longitude": -87.77058,
		"address1": "5368 N Milwaukee Ave",
		"address2": "",
		"address3": "",
		"city": "Chicago",
		"state": "IL",
		"zip_code": "60630"
	},
	{
		"venue_id": "yelpp9a8OAET2vR7l0qAh-ecJw",
		"venue_name": "Star Tracks Chicago",
		"latitude": 41.9228591918945,
		"longitude": -87.7511215209961,
		"address1": "",
		"address2": null,
		"address3": "",
		"city": "Chicago",
		"state": "IL",
		"zip_code": "60639"
	},
	{
		"venue_id": "yelpGIgb9qo_v7ayJlBBdx5RXw",
		"venue_name": "Xavier Players Club",
		"latitude": 41.8128324,
		"longitude": -87.6847277,
		"address1": "4456 S Western Ave",
		"address2": "",
		"address3": "",
		"city": "Chicago",
		"state": "IL",
		"zip_code": "60609"
	},
	{
		"venue_id": "yelpboqOHvNgYQSV_qSqaG_-pg",
		"venue_name": "CKUP Chicago Karaoke Underground Party",
		"latitude": 41.9034385681152,
		"longitude": -87.660888671875,
		"address1": "Kennedy Expy",
		"address2": "",
		"address3": "",
		"city": "Chicago",
		"state": "IL",
		"zip_code": "60642"
	},
	{
		"venue_id": "yelpCHWRkIIsAlGiIgB850ge2A",
		"venue_name": "Sonic Lizard Karaoke",
		"latitude": 41.90714,
		"longitude": -87.67192,
		"address1": "Davenports Piano Bar",
		"address2": "",
		"address3": "1383 N Milwaukee",
		"city": "Chicago",
		"state": "IL",
		"zip_code": "60622"
	},
	{
		"venue_id": "yelpaAaiAGJFR4kAU8i3m62_BQ",
		"venue_name": "Chicago Blackhawk VFW Post 7975",
		"latitude": 41.9246933,
		"longitude": -87.6689914,
		"address1": "2354 N Clybourn Ave",
		"address2": "",
		"address3": "",
		"city": "Chicago",
		"state": "IL",
		"zip_code": "60614"
	},
	{
		"venue_id": "yelp80_RtZljA4l3Rua1H2PgBQ",
		"venue_name": "Sly Rose Entertainment",
		"latitude": 41.8825950622559,
		"longitude": -87.6369323730469,
		"address1": "",
		"address2": "",
		"address3": "",
		"city": "Chicago",
		"state": "IL",
		"zip_code": "60606"
	},
	{
		"venue_id": "yelp-NePLptmLM741sOxMEcoNg",
		"venue_name": "La Botana",
		"latitude": 41.80543,
		"longitude": -87.72389,
		"address1": "4818 S Pulaski Rd",
		"address2": "",
		"address3": "",
		"city": "Chicago",
		"state": "IL",
		"zip_code": "60632"
	},
	{
		"venue_id": "yelpij22vxrVkYRytqxXbGq_Zg",
		"venue_name": "Clark St  Karaoke",
		"latitude": 41.942916,
		"longitude": -87.6528574,
		"address1": "3343 N Clark St",
		"address2": "",
		"address3": "",
		"city": "Chicago",
		"state": "IL",
		"zip_code": "60657"
	},
	{
		"venue_id": "yelp7njSTwZLqDam_WNMn8Fezg",
		"venue_name": "Big Cat Entertainment",
		"latitude": 42.2698249816895,
		"longitude": -88.002571105957,
		"address1": "",
		"address2": "",
		"address3": "",
		"city": "Mundelein",
		"state": "IL",
		"zip_code": "60060"
	}
]