[
	{
		"venue_id": "yelpAkcZ1fUyB3RocKLYGFu20Q",
		"venue_name": "Art Institute of Chicago",
		"latitude": 41.8796,
		"longitude": -87.623713,
		"address1": "111 S Michigan Ave",
		"address2": "",
		"address3": "",
		"city": "Chicago",
		"state": "IL",
		"zip_code": "60603"
	},
	{
		"venue_id": "yelp5s9ntZVD45n2CxboZnLbSg",
		"venue_name": "The Cloud Gate",
		"latitude": 41.8825524,
		"longitude": -87.6225514,
		"address1": "201 E Randolph St",
		"address2": "",
		"address3": "",
		"city": "Chicago",
		"state": "IL",
		"zip_code": "60602"
	},
	{
		"venue_id": "yelpKbZ9cSMoAIsTWASs6m5mJw",
		"venue_name": "Willis Tower",
		"latitude": 41.8787339974903,
		"longitude": -87.635894766129,
		"address1": "233 S Wacker Dr",
		"address2": "",
		"address3": "",
		"city": "Chicago",
		"state": "IL",
		"zip_code": "60602"
	},
	{
		"venue_id": "yelpWfvODsf3KFDAkIbz0nWE-w",
		"venue_name": "Buckingham Fountain",
		"latitude": 41.8758096034,
		"longitude": -87.6189584077,
		"address1": "301 S Columbus Dr",
		"address2": "",
		"address3": "Grant Park",
		"city": "Chicago",
		"state": "IL",
		"zip_code": "60605"
	},
	{
		"venue_id": "yelpesdbP3ict5RGXsZndhRrcg",
		"venue_name": "360 Chicago",
		"latitude": 41.8986806,
		"longitude": -87.6239087,
		"address1": "875 N Michigan Ave",
		"address2": "Fl 94",
		"address3": "",
		"city": "Chicago",
		"state": "IL",
		"zip_code": "60611"
	},
	{
		"venue_id": "yelpqJ_iOBrjxU-unMbqRSBv9w",
		"venue_name": "Chicago Theatre",
		"latitude": 41.8854830450828,
		"longitude": -87.6275988288569,
		"address1": "175 N State St",
		"address2": null,
		"address3": "",
		"city": "Chicago",
		"state": "IL",
		"zip_code": "60601"
	},
	{
		"venue_id": "yelp5RGtrijqdZsbw0861RMSlw",
		"venue_name": "Navy Pier",
		"latitude": 41.891636,
		"longitude": -87.605326,
		"address1": "600 E Grand Ave",
		"address2": "",
		"address3": "",
		"city": "Chicago",
		"state": "IL",
		"zip_code": "60611"
	},
	{
		"venue_id": "yelpkSDupSRuYSQKCQ4f0TABWw",
		"venue_name": "Chicago Riverwalk",
		"latitude": 41.8875448,
		"longitude": -87.6174791,
		"address1": "400 E Lower Wacker Dr",
		"address2": "",
		"address3": "",
		"city": "Chicago",
		"state": "IL",
		"zip_code": "60601"
	},
	{
		"venue_id": "yelpn2oGErHBkmA0SsSgb00pDQ",
		"venue_name": "John Hancock Center",
		"latitude": 41.898819,
		"longitude": -87.623072,
		"address1": "875 N Michigan Ave",
		"address2": "Ste 3614",
		"address3": "",
		"city": "Chicago",
		"state": "IL",
		"zip_code": "60611"
	},
	{
		"venue_id": "yelpekUjqMrGrvw4y8vSfOIzOg",
		"venue_name": "Skydeck Chicago",
		"latitude": 41.8782943067863,
		"longitude": -87.6358897421028,
		"address1": "233 S Wacker Dr",
		"address2": "Fl 103",
		"address3": "",
		"city": "Chicago",
		"state": "IL",
		"zip_code": "60606"
	},
	{
		"venue_id": "yelpdftBRfw46hwn2huJVfHeMQ",
		"venue_name": "St Mary of the Angels Church",
		"latitude": 41.91512,
		"longitude": -87.67207,
		"address1": "1850 N Hermitage Ave",
		"address2": "",
		"address3": "",
		"city": "Chicago",
		"state": "IL",
		"zip_code": "60622"
	},
	{
		"venue_id": "yelpBYleLXJjgftdVjcLC7R7Ag",
		"venue_name": "The Rookery Building",
		"latitude": 41.879043,
		"longitude": -87.631902,
		"address1": "209 S LaSalle St",
		"address2": "",
		"address3": "",
		"city": "Chicago",
		"state": "IL",
		"zip_code": "60604"
	},
	{
		"venue_id": "yelp7tANz7kGoQ3B3yVHAfRHXA",
		"venue_name": "Chicago Water Tower",
		"latitude": 41.8969703,
		"longitude": -87.6246508,
		"address1": "806 N Michigan Ave",
		"address2": null,
		"address3": "",
		"city": "Chicago",
		"state": "IL",
		"zip_code": "60611"
	},
	{
		"venue_id": "yelpb2tefgaXLW-s9fDUNikaMw",
		"venue_name": "Open House Chicago",
		"latitude": 41.878597,
		"longitude": -87.6249,
		"address1": "224 S Michigan Ave",
		"address2": "",
		"address3": "",
		"city": "Chicago",
		"state": "IL",
		"zip_code": "60604"
	},
	{
		"venue_id": "yelpwcWkk4f4l7OQp_fn9zDzYg",
		"venue_name": "St John Cantius Church",
		"latitude": 41.8966223,
		"longitude": -87.6534298,
		"address1": "825 N Carpenter St",
		"address2": "",
		"address3": "",
		"city": "Chicago",
		"state": "IL",
		"zip_code": "60642"
	},
	{
		"venue_id": "yelpWLwrPXvTDhOL41fwI5vbfA",
		"venue_name": "Wrigley Building",
		"latitude": 41.88943,
		"longitude": -87.624946,
		"address1": "400 N Michigan Ave",
		"address2": "",
		"address3": "",
		"city": "Chicago",
		"state": "IL",
		"zip_code": "60611"
	},
	{
		"venue_id": "yelptl02re5YrNgT3xCvc2G7Ag",
		"venue_name": "Glessner House Museum",
		"latitude": 41.857723236084,
		"longitude": -87.621208190918,
		"address1": "1800 S Prairie Ave",
		"address2": "",
		"address3": "",
		"city": "Chicago",
		"state": "IL",
		"zip_code": "60616"
	},
	{
		"venue_id": "yelpIQeYBorj1YzNCYY3QL9n3w",
		"venue_name": "Bridge Over Lincoln Park Zoo's South Pond",
		"latitude": 41.9181818006919,
		"longitude": -87.6330471038818,
		"address1": "Stockton Dr",
		"address2": "",
		"address3": "",
		"city": "Chicago",
		"state": "IL",
		"zip_code": "60614"
	},
	{
		"venue_id": "yelp9dEzOkevVNAdMFEIkD5kSw",
		"venue_name": "Frank Lloyd Wright Home and Studio",
		"latitude": 41.894265,
		"longitude": -87.799768,
		"address1": "951 Chicago Ave",
		"address2": "",
		"address3": "",
		"city": "Oak Park",
		"state": "IL",
		"zip_code": "60302"
	},
	{
		"venue_id": "yelp5A6uOSS_H_G-NkshKfVneQ",
		"venue_name": "Centennial Fountain and Water Arc",
		"latitude": 41.8890203,
		"longitude": -87.6178149,
		"address1": "300 E McClurg Ct",
		"address2": "",
		"address3": "",
		"city": "Chicago",
		"state": "IL",
		"zip_code": "60611"
	},
	{
		"venue_id": "yelpilFMsAj8fbyxFZqPV5gixg",
		"venue_name": "Chicago Board of Trade Building",
		"latitude": 41.878037,
		"longitude": -87.63224,
		"address1": "141 W Jackson Blvd",
		"address2": "",
		"address3": "",
		"city": "Chicago",
		"state": "IL",
		"zip_code": "60604"
	},
	{
		"venue_id": "yelpEAN6sG5tNV8JXab_KgO4pg",
		"venue_name": "Aon Center",
		"latitude": 41.885257,
		"longitude": -87.621493,
		"address1": "200 E Randolph St",
		"address2": "",
		"address3": "",
		"city": "Chicago",
		"state": "IL",
		"zip_code": "60601"
	},
	{
		"venue_id": "yelpl0hk-xeUcsrQ8zFJx5r00g",
		"venue_name": "Pioneer Court",
		"latitude": 41.889568,
		"longitude": -87.623123,
		"address1": "401 N Michigan Ave",
		"address2": "",
		"address3": "",
		"city": "Chicago",
		"state": "IL",
		"zip_code": "60611"
	},
	{
		"venue_id": "yelpBRZ77pyJUo5zFebdPvAR8g",
		"venue_name": "Michigan Avenue Bridge",
		"latitude": 41.8885918508309,
		"longitude": -87.6244226233482,
		"address1": "N Michigan Ave",
		"address2": null,
		"address3": null,
		"city": "Chicago",
		"state": "IL",
		"zip_code": "60601"
	},
	{
		"venue_id": "yelpAUH83W_IRsa-mkgSQ7xHZQ",
		"venue_name": "Tilt",
		"latitude": 41.898815,
		"longitude": -87.623023,
		"address1": "875 N Michagan Ave",
		"address2": "",
		"address3": "",
		"city": "Chicago",
		"state": "IL",
		"zip_code": "60610"
	},
	{
		"venue_id": "yelpQcguFQbjIHt3j8aIXxw-JA",
		"venue_name": "Water Tower Pumping Station",
		"latitude": 41.89674,
		"longitude": -87.62423,
		"address1": "Chicago Avenue And Michigan Ave",
		"address2": "",
		"address3": "",
		"city": "Chicago",
		"state": "IL",
		"zip_code": "60686"
	},
	{
		"venue_id": "yelp56s4UeBqdbC5mX54jzVuTA",
		"venue_name": "Union Stockyards",
		"latitude": 41.819196,
		"longitude": -87.647733,
		"address1": "850 W Exchange Ave",
		"address2": null,
		"address3": "",
		"city": "Chicago",
		"state": "IL",
		"zip_code": "60609"
	},
	{
		"venue_id": "yelp3p3MUeOp2NPReyKkY0noLg",
		"venue_name": "Pulaski Park Fieldhouse",
		"latitude": 41.9069151,
		"longitude": -87.6636025,
		"address1": "1419 W Blackhawk St",
		"address2": "",
		"address3": "",
		"city": "Chicago",
		"state": "IL",
		"zip_code": "60622"
	},
	{
		"venue_id": "yelpuuLRDdds_RxAroEy7YXFig",
		"venue_name": "Elks National Veterans Memorial",
		"latitude": 41.9319354,
		"longitude": -87.6394449,
		"address1": "2750 N Lakeview Ave",
		"address2": "",
		"address3": "",
		"city": "Chicago",
		"state": "IL",
		"zip_code": "60614"
	},
	{
		"venue_id": "yelpXdbFmXE3LmSui_lusSz6bw",
		"venue_name": "Clarke House Museum",
		"latitude": 41.8570866733231,
		"longitude": -87.6218792157623,
		"address1": "1827 S Indiana Ave",
		"address2": "",
		"address3": "",
		"city": "Chicago",
		"state": "IL",
		"zip_code": "60616"
	},
	{
		"venue_id": "yelpWkalYlK6gMhaWb1oGThLcQ",
		"venue_name": "Giddings Plaza",
		"latitude": 41.96760511859,
		"longitude": -87.68756924642,
		"address1": "Giddings And Lincoln Aves",
		"address2": "",
		"address3": "",
		"city": "Chicago",
		"state": "IL",
		"zip_code": "60625"
	},
	{
		"venue_id": "yelp6DFy8l7nOnzsOdpm_lhkjQ",
		"venue_name": "Chicago's Chinatown",
		"latitude": 41.8526979125525,
		"longitude": -87.6321910667656,
		"address1": "201 W Cermak Rd",
		"address2": "",
		"address3": "Cermak & Wentworth",
		"city": "Chicago",
		"state": "IL",
		"zip_code": "60616"
	},
	{
		"venue_id": "yelpcVTNgTcyC8HR_qfvWTuqyg",
		"venue_name": "Piazza DiMaggio",
		"latitude": 41.869585054949,
		"longitude": -87.662877075914,
		"address1": "1437 W Taylor St",
		"address2": "",
		"address3": "",
		"city": "Chicago",
		"state": "IL",
		"zip_code": "60607"
	},
	{
		"venue_id": "yelpo8QoMnxvxbZbS8rrrSQTQQ",
		"venue_name": "BP Pedestrian Bridge",
		"latitude": 41.8827618552376,
		"longitude": -87.6206016534423,
		"address1": "144 Bp Pedestrian Bridge",
		"address2": "",
		"address3": null,
		"city": "Chicago",
		"state": "IL",
		"zip_code": "60601"
	},
	{
		"venue_id": "yelp84uHsT47dc-nKnlsT3YAzA",
		"venue_name": "Chicago Remembers Vietnam Memorial",
		"latitude": 41.8871770276812,
		"longitude": -87.6271784305573,
		"address1": "W Wacker Dr & N State St",
		"address2": "",
		"address3": "",
		"city": "Chicago",
		"state": "IL",
		"zip_code": "60601"
	},
	{
		"venue_id": "yelpeCCPYsH7TtkORBMJEkzldg",
		"venue_name": "Willis Tower Plaza",
		"latitude": 41.878886,
		"longitude": -87.635876,
		"address1": "233 S Wacker Dr",
		"address2": "",
		"address3": "",
		"city": "Chicago",
		"state": "IL",
		"zip_code": "60606"
	},
	{
		"venue_id": "yelpQ5ttT2lIMnjkscDMbEQctA",
		"venue_name": "Pui Tak Center",
		"latitude": 41.8524349,
		"longitude": -87.632175,
		"address1": "2216 S Wentworth Ave",
		"address2": "",
		"address3": "",
		"city": "Chicago",
		"state": "IL",
		"zip_code": "60616"
	},
	{
		"venue_id": "yelp0V_VaTNU7N_K64j5rTdo2w",
		"venue_name": "Frank Lloyd Wright Trust",
		"latitude": 41.879074,
		"longitude": -87.631797,
		"address1": "209 South LaSalle St",
		"address2": "",
		"address3": "",
		"city": "Chicago",
		"state": "IL",
		"zip_code": "60604"
	},
	{
		"venue_id": "yelpHa0ZppTcm7GUOFUdx_I_jw",
		"venue_name": "Illinois Centennial Memorial Column",
		"latitude": 41.9288949,
		"longitude": -87.7067137,
		"address1": "3200 W Logan Blvd",
		"address2": null,
		"address3": "",
		"city": "Chicago",
		"state": "IL",
		"zip_code": "60686"
	},
	{
		"venue_id": "yelpdLiONj9y5Tl-qLemhq5UeQ",
		"venue_name": "Edgewater Historical Society",
		"latitude": 41.9792964,
		"longitude": -87.6698793,
		"address1": "5358 N Ashland Ave",
		"address2": "",
		"address3": "",
		"city": "Chicago",
		"state": "IL",
		"zip_code": "60640"
	},
	{
		"venue_id": "yelprcm-3G99lV0TaBNCZzE6IA",
		"venue_name": "Wrigley Square",
		"latitude": 41.8830066845373,
		"longitude": -87.6236035619057,
		"address1": "Millenium Park",
		"address2": "",
		"address3": "201 E Randolph",
		"city": "Chicago",
		"state": "IL",
		"zip_code": "60601"
	},
	{
		"venue_id": "yelpbV1nhGhdKM1ESC3s6hb4nA",
		"venue_name": "Forgotten Chicago",
		"latitude": 41.9210968017578,
		"longitude": -87.7022552490234,
		"address1": "",
		"address2": "",
		"address3": "",
		"city": "Chicago",
		"state": "IL",
		"zip_code": "60647"
	},
	{
		"venue_id": "yelpsDSs8FN4Brgxjw5ooChjXw",
		"venue_name": "Norwood Park Historical Society",
		"latitude": 41.98342,
		"longitude": -87.79583,
		"address1": "5624 N Newark Ave",
		"address2": "",
		"address3": "",
		"city": "Chicago",
		"state": "IL",
		"zip_code": "60631"
	},
	{
		"venue_id": "yelpIHhesEYlrNKqtfKW0SAznA",
		"venue_name": "Marquette Building",
		"latitude": 41.87979,
		"longitude": -87.62974,
		"address1": "140 S Dearborn St",
		"address2": "",
		"address3": "",
		"city": "Chicago",
		"state": "IL",
		"zip_code": "60603"
	},
	{
		"venue_id": "yelpm-nmaK1Q6cIRoveEi0qIqQ",
		"venue_name": "The Kennedy Expressway",
		"latitude": 41.9613111967697,
		"longitude": -87.7442775079215,
		"address1": "O'Hare To Chicago Lp",
		"address2": "",
		"address3": "",
		"city": "Chicago",
		"state": "IL",
		"zip_code": "60686"
	},
	{
		"venue_id": "yelpoFIaLAJeuwyZpd_fnZaRag",
		"venue_name": "Miro Statue",
		"latitude": 41.88285,
		"longitude": -87.63001,
		"address1": "69 W Washington St",
		"address2": "Brunswick Plaza",
		"address3": null,
		"city": "Chicago",
		"state": "IL",
		"zip_code": "60602"
	},
	{
		"venue_id": "yelp2xBr-MlqCSPB58w7kr79ZQ",
		"venue_name": "Mccormick Row Houses District",
		"latitude": 41.922607421875,
		"longitude": -87.6509094238281,
		"address1": "800 Block Of Belden Lincoln Park",
		"address2": "",
		"address3": "",
		"city": "Chicago",
		"state": "IL",
		"zip_code": "60614"
	},
	{
		"venue_id": "yelpheN854Z5Qrs_gaZ31FnNRw",
		"venue_name": "Ernest Hemingway Birth Home",
		"latitude": 41.89273,
		"longitude": -87.79508,
		"address1": "339 N Oak Park Ave",
		"address2": "",
		"address3": "",
		"city": "Oak Park",
		"state": "IL",
		"zip_code": "60302"
	},
	{
		"venue_id": "yelp4394SR0AvqWGVH3fyJOAlg",
		"venue_name": "Charnley-Persky House",
		"latitude": 41.907682,
		"longitude": -87.627407,
		"address1": "1365 N Astor St",
		"address2": "",
		"address3": "",
		"city": "Chicago",
		"state": "IL",
		"zip_code": "60610"
	},
	{
		"venue_id": "yelpaOm1UVlZRQx7o3TX06UAtg",
		"venue_name": "Chicago Women's Park & Gardens",
		"latitude": 41.8576393127441,
		"longitude": -87.621940612793,
		"address1": "1801 S Indiana Ave",
		"address2": "",
		"address3": "",
		"city": "Chicago",
		"state": "IL",
		"zip_code": "60616"
	},
	{
		"venue_id": "yelpVlSAStGCSxbr_r_w1MIYhA",
		"venue_name": "Pittsfield Building",
		"latitude": 41.88308,
		"longitude": -87.62581,
		"address1": "55 E Washington St",
		"address2": "Ste 715",
		"address3": "",
		"city": "Chicago",
		"state": "IL",
		"zip_code": "60602"
	},
	{
		"venue_id": "yelpIHjugJzxh_TLp-KT8NSg8A",
		"venue_name": "Kwagluth Totem Pole",
		"latitude": 41.9490059438754,
		"longitude": -87.6423533633351,
		"address1": "Lakefront Trl",
		"address2": "",
		"address3": "",
		"city": "Chicago",
		"state": "IL",
		"zip_code": "60613"
	},
	{
		"venue_id": "yelpNBewKXNBcL7OMY5ZxLISOA",
		"venue_name": "Monument To The Great Northern Migration",
		"latitude": 41.8468669344917,
		"longitude": -87.6175137911618,
		"address1": "26TH St And King Dr",
		"address2": "",
		"address3": "",
		"city": "Chicago",
		"state": "IL",
		"zip_code": "60616"
	},
	{
		"venue_id": "yelpyP0ZL0vJii-3RXNpd-BtTA",
		"venue_name": "Noble-Seymour-Crippen House",
		"latitude": 41.9834688,
		"longitude": -87.7950559,
		"address1": "5622-24 N Newark Ave",
		"address2": "",
		"address3": "",
		"city": "Chicago",
		"state": "IL",
		"zip_code": "60631"
	},
	{
		"venue_id": "yelpl2afOEBTKBmQxHbYSNvkSw",
		"venue_name": "Haymarket Memorial",
		"latitude": 41.8848889036148,
		"longitude": -87.6441392086816,
		"address1": "175 N Desplaines",
		"address2": "",
		"address3": "",
		"city": "Chicago",
		"state": "IL",
		"zip_code": "60607"
	},
	{
		"venue_id": "yelpmNnjEaL9Djw9wgDFaKXGhQ",
		"venue_name": "Armour Square Park",
		"latitude": 41.8343724,
		"longitude": -87.635031,
		"address1": "3309 S Shields Ave",
		"address2": "",
		"address3": null,
		"city": "Chicago",
		"state": "IL",
		"zip_code": "60616"
	},
	{
		"venue_id": "yelpPWt06nsF9XWvgnKkPdFDew",
		"venue_name": "Chicago Historical Society",
		"latitude": 41.9113772,
		"longitude": -87.6315416,
		"address1": "1601 N Clark St",
		"address2": "",
		"address3": "",
		"city": "Chicago",
		"state": "IL",
		"zip_code": "60614"
	},
	{
		"venue_id": "yelpR9de-R2EiT1XmXkNHZ604g",
		"venue_name": "Dirksen Federal Building",
		"latitude": 41.8791809,
		"longitude": -87.6291428,
		"address1": "219 S Dearborn St",
		"address2": "",
		"address3": "",
		"city": "Chicago",
		"state": "IL",
		"zip_code": "60604"
	},
	{
		"venue_id": "yelpVd7LIUxjVEMfFLNWkXTTxA",
		"venue_name": "Read Dunning Memorial Park",
		"latitude": 41.9549801,
		"longitude": -87.7910166,
		"address1": "307 N Michigan Ave",
		"address2": "Ste 601",
		"address3": "",
		"city": "Chicago",
		"state": "IL",
		"zip_code": "60601"
	},
	{
		"venue_id": "yelpcGzB2R0iOm7CSmWqIMTbwg",
		"venue_name": "Fort Dearborn Massacre Monument",
		"latitude": 41.8883018,
		"longitude": -87.6245117,
		"address1": "Michigan Avenue Bridge",
		"address2": "",
		"address3": "Michigan Avenue and Wacker Drive",
		"city": "Chicago",
		"state": "IL",
		"zip_code": "60601"
	},
	{
		"venue_id": "yelp-Fys9-pM3vYSifvPSbZcRQ",
		"venue_name": "Walt Disney's Birthplace",
		"latitude": 41.92063,
		"longitude": -87.73312,
		"address1": "2156 N Tripp Ave",
		"address2": "",
		"address3": null,
		"city": "Chicago",
		"state": "IL",
		"zip_code": "60639"
	},
	{
		"venue_id": "yelpUMJG8NPhmqcmefu3lwyK_w",
		"venue_name": "North Avenue Bridge",
		"latitude": 41.9108949,
		"longitude": -87.6580391,
		"address1": "1200 W North Ave",
		"address2": "",
		"address3": "",
		"city": "Chicago",
		"state": "IL",
		"zip_code": "60622"
	},
	{
		"venue_id": "yelpxSU-MwkdK_4mjkf6YVTLBA",
		"venue_name": "Northwest Tower",
		"latitude": 41.9106178283691,
		"longitude": -87.6781692504883,
		"address1": "1600 N Milwaukee Ave",
		"address2": "",
		"address3": "",
		"city": "Chicago",
		"state": "IL",
		"zip_code": "60647"
	},
	{
		"venue_id": "yelpdrVV1f9cABOQqCANNVcn3A",
		"venue_name": "Return Visit",
		"latitude": 41.8896175315565,
		"longitude": -87.6244265239157,
		"address1": "Michigan Ave",
		"address2": "",
		"address3": null,
		"city": "Chicago",
		"state": "IL",
		"zip_code": ""
	},
	{
		"venue_id": "yelp4HB_oTQ1z5VZubEOTqbi9g",
		"venue_name": "Coca Cola Bottling",
		"latitude": 41.85284,
		"longitude": -87.66292,
		"address1": "1440 W Cermak Rd",
		"address2": "",
		"address3": "",
		"city": "Chicago",
		"state": "IL",
		"zip_code": "60608"
	},
	{
		"venue_id": "yelpDL2HvNR0qcPKjys7ji6OuQ",
		"venue_name": "Washington-Morris-Salomon Monument",
		"latitude": 41.8866981436129,
		"longitude": -87.6272492529175,
		"address1": "",
		"address2": "",
		"address3": "",
		"city": "Chicago",
		"state": "IL",
		"zip_code": "60601"
	},
	{
		"venue_id": "yelpqy5t_6P9KmAd4R9PIBVbfQ",
		"venue_name": "Wells Street Bridge",
		"latitude": 41.887435315344,
		"longitude": -87.634005428669,
		"address1": "200 N Wells St",
		"address2": "",
		"address3": "",
		"city": "Chicago",
		"state": "IL",
		"zip_code": "60601"
	},
	{
		"venue_id": "yelpJarTWO4oTBhqvJMWNySsoQ",
		"venue_name": "Multilevel Streets of Chicago",
		"latitude": 41.8781,
		"longitude": -87.6355899,
		"address1": "Jackson Blvd",
		"address2": "",
		"address3": null,
		"city": "Chicago",
		"state": "IL",
		"zip_code": "60606"
	},
	{
		"venue_id": "yelp1IFoNa2neQ8-EwmlizDIDg",
		"venue_name": "Kinzie Street Railroad Bridge",
		"latitude": 41.8875312805176,
		"longitude": -87.6395111083984,
		"address1": "333 North Canal St",
		"address2": "",
		"address3": null,
		"city": "Chicago",
		"state": "IL",
		"zip_code": "60606"
	},
	{
		"venue_id": "yelp5XNjguh6MBlXtSNzR-4zfw",
		"venue_name": "Inland Steel Building",
		"latitude": 41.881072,
		"longitude": -87.629005,
		"address1": "30 W Monroe Street Bsmt",
		"address2": "",
		"address3": "",
		"city": "Chicago",
		"state": "IL",
		"zip_code": "60603"
	},
	{
		"venue_id": "yelpdAGdgEgnL1edf13ehZcjYQ",
		"venue_name": "Cermak Road Bridge",
		"latitude": 41.8529059,
		"longitude": -87.6413537,
		"address1": "500 W Cermak Rd",
		"address2": "",
		"address3": "",
		"city": "Chicago",
		"state": "IL",
		"zip_code": "60616"
	},
	{
		"venue_id": "yelp_bPMl2iAeVQFnTJ478XAWA",
		"venue_name": "Marshall Field and Company Building",
		"latitude": 41.88421,
		"longitude": -87.62738,
		"address1": "111 N State St",
		"address2": "",
		"address3": null,
		"city": "Chicago",
		"state": "IL",
		"zip_code": "60602"
	},
	{
		"venue_id": "yelp5N8mo7sC-ok56LLNmobpSw",
		"venue_name": "Chinatown Gate",
		"latitude": 41.8525372,
		"longitude": -87.6321779,
		"address1": "2206 S Wentworth Ave",
		"address2": "",
		"address3": null,
		"city": "Chicago",
		"state": "IL",
		"zip_code": "60616"
	},
	{
		"venue_id": "yelp-DGi9w4Mjiy3sgxHavpGHQ",
		"venue_name": "Morris B Sachs Building",
		"latitude": 41.9321399,
		"longitude": -87.71278,
		"address1": "2800 N Milwaukee",
		"address2": "",
		"address3": "",
		"city": "Chicago",
		"state": "IL",
		"zip_code": "60686"
	},
	{
		"venue_id": "yelp-BcULRMz3S_Lzi5ZhCsC5A",
		"venue_name": "Jack Brickhouse Memorial",
		"latitude": 41.889568,
		"longitude": -87.623123,
		"address1": "401 North Michigan Ave",
		"address2": "",
		"address3": "Pioneer Court",
		"city": "Chicago",
		"state": "IL",
		"zip_code": "60611"
	},
	{
		"venue_id": "yelpEoV4h9W3en08eE4VMEEkBw",
		"venue_name": "Original White Castle Landmark Building",
		"latitude": 41.8525100637841,
		"longitude": -87.6252184165589,
		"address1": "43 E Cermak Rd",
		"address2": "",
		"address3": null,
		"city": "Chicago",
		"state": "IL",
		"zip_code": "60616"
	},
	{
		"venue_id": "yelpC85U2_jMzTuBDap--rLdzQ",
		"venue_name": "Waveland Clock Tower",
		"latitude": 41.951793708587,
		"longitude": -87.6412653923035,
		"address1": "3701 N Lake Shore Dr",
		"address2": "",
		"address3": "",
		"city": "Chicago",
		"state": "IL",
		"zip_code": "60613"
	},
	{
		"venue_id": "yelp1SpTv05aawAGzV2bXkTcyA",
		"venue_name": "Hutchinson Street Historic District",
		"latitude": 41.9592667102553,
		"longitude": -87.6475954055786,
		"address1": "600 W Hutchinson St",
		"address2": "",
		"address3": "",
		"city": "Chicago",
		"state": "IL",
		"zip_code": "60613"
	},
	{
		"venue_id": "yelpzB3u4P16OuXLCiQXNjarFQ",
		"venue_name": "Chicago Tribute Markers of Distinction",
		"latitude": 41.85,
		"longitude": -87.65,
		"address1": "",
		"address2": "",
		"address3": "",
		"city": "Chicago",
		"state": "IL",
		"zip_code": "60686"
	},
	{
		"venue_id": "yelp1kGvpjfBQcel7XvYEhF-IA",
		"venue_name": "Bryn Mawr Bricolage",
		"latitude": 41.9739999,
		"longitude": -87.87749,
		"address1": "Bryn Mawr Ave",
		"address2": "",
		"address3": null,
		"city": "Chicago",
		"state": "IL",
		"zip_code": "60647"
	},
	{
		"venue_id": "yelpNiIgD1EmxXXjEPTOKtTWCg",
		"venue_name": "State of Illinois Building",
		"latitude": 41.88955,
		"longitude": -87.63254,
		"address1": "160 N LaSalle Blvd",
		"address2": "",
		"address3": "",
		"city": "Chicago",
		"state": "IL",
		"zip_code": "60601"
	},
	{
		"venue_id": "yelpenLycjoVmjrH5-hpjmJH3Q",
		"venue_name": "Cook County Administration Building",
		"latitude": 41.882854,
		"longitude": -87.630004,
		"address1": "69 W Washington St",
		"address2": "",
		"address3": "",
		"city": "Chicago",
		"state": "IL",
		"zip_code": "60602"
	},
	{
		"venue_id": "yelpWGEyi-euICwPQDyR7y2wHA",
		"venue_name": "River North",
		"latitude": 41.8940065038332,
		"longitude": -87.6374581728623,
		"address1": "W Huron St",
		"address2": "",
		"address3": "",
		"city": "Chicago",
		"state": "IL",
		"zip_code": ""
	},
	{
		"venue_id": "yelpN8gAEN2V_hQ7ciDVMsjm3Q",
		"venue_name": "Time-Life Building",
		"latitude": 41.8930310530474,
		"longitude": -87.6198091643169,
		"address1": "541 N Fairbanks Ct",
		"address2": "",
		"address3": "",
		"city": "Chicago",
		"state": "IL",
		"zip_code": "60611"
	},
	{
		"venue_id": "yelplVzjcbdMlItd0vr7xUSkuQ",
		"venue_name": "Monadnock Building",
		"latitude": 41.877497,
		"longitude": -87.629584,
		"address1": "53 W Jackson Blvd",
		"address2": "",
		"address3": "",
		"city": "Chicago",
		"state": "IL",
		"zip_code": "60604"
	},
	{
		"venue_id": "yelpDEs9__PF31UhdwqIw4ILJg",
		"venue_name": "Jean-Baptiste Pointe DuSable Monument",
		"latitude": 41.889568,
		"longitude": -87.623123,
		"address1": "401 N Michigan Ave",
		"address2": "",
		"address3": "",
		"city": "Chicago",
		"state": "IL",
		"zip_code": "60611"
	},
	{
		"venue_id": "yelp5kSgyn1K09A90Ihz92yEKA",
		"venue_name": "Logan Monument",
		"latitude": 41.8706671320254,
		"longitude": -87.6235134915634,
		"address1": "947 S Michigan Ave",
		"address2": "",
		"address3": null,
		"city": "Chicago",
		"state": "IL",
		"zip_code": "60605"
	},
	{
		"venue_id": "yelpAyqu1m8WHVORy1dLCEr1fA",
		"venue_name": "Balbo Monument",
		"latitude": 41.864986,
		"longitude": -87.6141849,
		"address1": "1400 S Museum Campus Dr",
		"address2": "",
		"address3": "",
		"city": "Chicago",
		"state": "IL",
		"zip_code": "60605"
	},
	{
		"venue_id": "yelpjHBtu3G4oeGGK-74woM5-w",
		"venue_name": "Firefighters' Memorial Park",
		"latitude": 41.85194,
		"longitude": -87.61152,
		"address1": "2301 S Lake Shore Dr",
		"address2": "",
		"address3": "Lakefront Bike Path",
		"city": "Chicago",
		"state": "IL",
		"zip_code": "60616"
	},
	{
		"venue_id": "yelp8mLOfucOV13iSpry6qqLrw",
		"venue_name": "Ashmore Park",
		"latitude": 41.9686737060547,
		"longitude": -87.7481918334961,
		"address1": "4807 W Gunnison St",
		"address2": "",
		"address3": "",
		"city": "Chicago",
		"state": "IL",
		"zip_code": "60630"
	},
	{
		"venue_id": "yelpUJcSWoU-451Zlf0TC8fH3g",
		"venue_name": "The Monroe Building",
		"latitude": 41.880624414728,
		"longitude": -87.624840003762,
		"address1": "104 S Michigan Ave",
		"address2": "",
		"address3": "",
		"city": "Chicago",
		"state": "IL",
		"zip_code": "60603"
	},
	{
		"venue_id": "yelpu1yEkX4NV5EQqhLRHHnTmA",
		"venue_name": "Metcalfe Federal Building",
		"latitude": 41.8781621162822,
		"longitude": -87.6302291437395,
		"address1": "77 W Jackson Blvd",
		"address2": "",
		"address3": "",
		"city": "Chicago",
		"state": "IL",
		"zip_code": "60604"
	},
	{
		"venue_id": "yelpgHNIa39KsXPi_drk9WQrTg",
		"venue_name": "Stephen A Douglas Tomb and Memorial",
		"latitude": 41.8312561,
		"longitude": -87.6084236,
		"address1": "636 E 35th St",
		"address2": "",
		"address3": "",
		"city": "Chicago",
		"state": "IL",
		"zip_code": "60616"
	},
	{
		"venue_id": "yelp59Ef_dPNpn7qdgDuS46UQQ",
		"venue_name": "Fulton Market Gateway",
		"latitude": 41.8866539,
		"longitude": -87.6478577,
		"address1": "805 W Fulton Market",
		"address2": "",
		"address3": "",
		"city": "Chicago",
		"state": "IL",
		"zip_code": "60607"
	},
	{
		"venue_id": "yelp7y5WkQC7PGPjJ4UGqTcvPA",
		"venue_name": "Chicago Portage National Historic Site",
		"latitude": 41.8056285935288,
		"longitude": -87.8025358635819,
		"address1": "Salt Creek Greenway",
		"address2": "",
		"address3": "",
		"city": "Lyons",
		"state": "IL",
		"zip_code": "60534"
	},
	{
		"venue_id": "yelpb0iu71d7j1DTtcFFeNR85A",
		"venue_name": "Scoville Square Building",
		"latitude": 41.88825,
		"longitude": -87.79489,
		"address1": "137 N Oak Park Ave",
		"address2": "",
		"address3": "",
		"city": "Oak Park",
		"state": "IL",
		"zip_code": "60301"
	},
	{
		"venue_id": "yelpibQyHJ-i2NWqrmvCnzyoQw",
		"venue_name": "Cedar Lake Historical Association Museum",
		"latitude": 41.3679749,
		"longitude": -87.424696,
		"address1": "7408 Constitution Ave",
		"address2": "",
		"address3": "",
		"city": "Cedar Lake",
		"state": "IN",
		"zip_code": "46303"
	}
]