[
	{
		"venue_id": "yelpoVOkE1vno7AISm96RQjWXw",
		"venue_name": "Battle Royale",
		"latitude": 41.7803993225098,
		"longitude": -87.6026992797852,
		"address1": "",
		"address2": "",
		"address3": "",
		"city": "Chicago",
		"state": "IL",
		"zip_code": "60637"
	},
	{
		"venue_id": "yelpU4WfxCUzs3qGX3xiS2tYWg",
		"venue_name": "Enchanted Castle",
		"latitude": 41.863488749649,
		"longitude": -88.0164189518623,
		"address1": "1103 S Main St",
		"address2": "",
		"address3": "",
		"city": "Lombard",
		"state": "IL",
		"zip_code": "60148"
	},
	{
		"venue_id": "yelpDZrYqDE2ShA4HySZjSTgHg",
		"venue_name": "Fun Zone",
		"latitude": 41.7723491,
		"longitude": -88.0322066,
		"address1": "2011 63rd St",
		"address2": null,
		"address3": "",
		"city": "Downers Grove",
		"state": "IL",
		"zip_code": "60516"
	},
	{
		"venue_id": "yelpV8_TWtlvGvj6AnVObDkFrA",
		"venue_name": "Laser Quest",
		"latitude": 41.9558215,
		"longitude": -87.8071551,
		"address1": "4167 N Harlem Ave",
		"address2": "Unit A",
		"address3": "",
		"city": "Norridge",
		"state": "IL",
		"zip_code": "60706"
	},
	{
		"venue_id": "yelpyZTj5jKxx8g5R-3ocWWi6Q",
		"venue_name": "Gizmos Fun Factory",
		"latitude": 41.6189460628363,
		"longitude": -87.8426932461727,
		"address1": "66 Orland Square Dr",
		"address2": "",
		"address3": null,
		"city": "Orland Park",
		"state": "IL",
		"zip_code": "60462"
	},
	{
		"venue_id": "yelpEBW0EiONQlM7umxKSxgRkQ",
		"venue_name": "Lazer X Of Addison",
		"latitude": 41.9467812,
		"longitude": -88.0235638,
		"address1": "1455 W Lake St",
		"address2": "",
		"address3": "",
		"city": "Addison",
		"state": "IL",
		"zip_code": "60101"
	},
	{
		"venue_id": "yelp2klP_4AUhsDKf86sTdKwMA",
		"venue_name": "GameTruck Chicago",
		"latitude": 41.9592549,
		"longitude": -88.0812505,
		"address1": "",
		"address2": null,
		"address3": "",
		"city": "Bloomingdale",
		"state": "IL",
		"zip_code": "60660"
	},
	{
		"venue_id": "yelpX8PFvicNgcRr1UFWPQU9Jw",
		"venue_name": "Combat Chicago",
		"latitude": 41.6909833315841,
		"longitude": -87.7571927693115,
		"address1": "5520 W 111th St",
		"address2": "",
		"address3": null,
		"city": "Oak Lawn",
		"state": "IL",
		"zip_code": "60453"
	},
	{
		"venue_id": "yelpGNru87N9WspKm73ky8Cl1w",
		"venue_name": "iCOMBAT Chicago",
		"latitude": 41.97001,
		"longitude": -87.86229,
		"address1": "5050 N River Rd",
		"address2": null,
		"address3": "",
		"city": "Schiller Park",
		"state": "IL",
		"zip_code": "60176"
	},
	{
		"venue_id": "yelpqmlP5JPvLYeS2KUbFrsLuA",
		"venue_name": "Laser Quest",
		"latitude": 41.83579,
		"longitude": -88.023335,
		"address1": "1524-C Butterfield Rd",
		"address2": "Ste C",
		"address3": "",
		"city": "Downers Grove",
		"state": "IL",
		"zip_code": "60515"
	},
	{
		"venue_id": "yelpSRmobd9Wp0lT0wyWPL547A",
		"venue_name": "Laser Quest - Arlington Heights",
		"latitude": 42.10837,
		"longitude": -87.971403,
		"address1": "644 E Rand Rd",
		"address2": "",
		"address3": "",
		"city": "Arlington Heights",
		"state": "IL",
		"zip_code": "60004"
	},
	{
		"venue_id": "yelpRYKYK1GoxBO2KYF13UHe_g",
		"venue_name": "Orbitz Sports",
		"latitude": 41.76068,
		"longitude": -87.74542,
		"address1": "4944 W 73rd St",
		"address2": "",
		"address3": null,
		"city": "Bedford Park",
		"state": "IL",
		"zip_code": "60638"
	}
]