[
	{
		"venue_id": "yelpF7IQngaDDBgYvhA3U31q-g",
		"venue_name": "Iraz\u00fa Costa Rican Restaurant",
		"latitude": 41.9154815714051,
		"longitude": -87.6850729673014,
		"address1": "1865 N Milwaukee Ave",
		"address2": "",
		"address3": "",
		"city": "Chicago",
		"state": "IL",
		"zip_code": "60647"
	},
	{
		"venue_id": "yelpuyUKtGWLYgu-RLjlNImy0A",
		"venue_name": "Tango Sur",
		"latitude": 41.9507843879442,
		"longitude": -87.6639031774259,
		"address1": "3763 N Southport Ave",
		"address2": "",
		"address3": "",
		"city": "Chicago",
		"state": "IL",
		"zip_code": "60613"
	},
	{
		"venue_id": "yelpsfWMOqUEp8S2adDeJp7Kzg",
		"venue_name": "Carnivale",
		"latitude": 41.887075681459,
		"longitude": -87.646048728271,
		"address1": "702 W Fulton Market",
		"address2": "",
		"address3": "",
		"city": "Chicago",
		"state": "IL",
		"zip_code": "60661"
	},
	{
		"venue_id": "yelpLOwInnfIfVFXpzaFYnrsnw",
		"venue_name": "Flo",
		"latitude": 41.8963899,
		"longitude": -87.66383,
		"address1": "1434 W Chicago Ave",
		"address2": "",
		"address3": "",
		"city": "Chicago",
		"state": "IL",
		"zip_code": "60642"
	},
	{
		"venue_id": "yelp-MdaMqDSZDvNKoBIlDGlTQ",
		"venue_name": "Las Palmas",
		"latitude": 41.910266,
		"longitude": -87.673935,
		"address1": "1835 W North Ave",
		"address2": "",
		"address3": "",
		"city": "Chicago",
		"state": "IL",
		"zip_code": "60622"
	},
	{
		"venue_id": "yelpfzSR7vIQTQP0cir0Dgi9Vw",
		"venue_name": "Cafe con Leche",
		"latitude": 41.9305879,
		"longitude": -87.710207,
		"address1": "2714 N Milwaukee Ave",
		"address2": "",
		"address3": "",
		"city": "Chicago",
		"state": "IL",
		"zip_code": "60647"
	},
	{
		"venue_id": "yelpJGOl4S42CxLJj-s9uyFU2w",
		"venue_name": "Takito Kitchen",
		"latitude": 41.90289,
		"longitude": -87.67784,
		"address1": "2013 W Division St",
		"address2": null,
		"address3": "",
		"city": "Chicago",
		"state": "IL",
		"zip_code": "60622"
	},
	{
		"venue_id": "yelp0hk0dnOxW3axag0xwlwGKQ",
		"venue_name": "Papa's Cache Sabroso",
		"latitude": 41.90268,
		"longitude": -87.6902,
		"address1": "2517 W Division St",
		"address2": "",
		"address3": "",
		"city": "Chicago",
		"state": "IL",
		"zip_code": "60622"
	},
	{
		"venue_id": "yelp1uvWscUUqiO2_Q_aBpeZyA",
		"venue_name": "La Sirena Clandestina",
		"latitude": 41.887103,
		"longitude": -87.651697,
		"address1": "954 W Fulton Market",
		"address2": "",
		"address3": "",
		"city": "Chicago",
		"state": "IL",
		"zip_code": "60607"
	},
	{
		"venue_id": "yelp2WoMT3wSpp9vxZeTv6u-cw",
		"venue_name": "Las Tablas Colombian Steakhouse",
		"latitude": 41.935258,
		"longitude": -87.662681,
		"address1": "2942 N Lincoln Ave",
		"address2": "",
		"address3": "",
		"city": "Chicago",
		"state": "IL",
		"zip_code": "60657"
	},
	{
		"venue_id": "yelpgYj6ODoU3tf7TWNv-Kg2Xg",
		"venue_name": "CR\u012aO Bar and Restaurant",
		"latitude": 41.927002,
		"longitude": -87.6722383,
		"address1": "2506 N Clybourn Ave",
		"address2": "",
		"address3": "",
		"city": "Chicago",
		"state": "IL",
		"zip_code": "60614"
	},
	{
		"venue_id": "yelp6XGYBXKAc_gPUMXCrmb8qA",
		"venue_name": "Havana",
		"latitude": 41.88967,
		"longitude": -87.6314,
		"address1": "412 N Clark St",
		"address2": "",
		"address3": "",
		"city": "Chicago",
		"state": "IL",
		"zip_code": "60654"
	},
	{
		"venue_id": "yelpXZwuqqN5HZ8jFAdmxQmcKg",
		"venue_name": "Casa Yari",
		"latitude": 41.92497,
		"longitude": -87.71019,
		"address1": "3268 W Fullerton Ave",
		"address2": null,
		"address3": "",
		"city": "Chicago",
		"state": "IL",
		"zip_code": "60647"
	},
	{
		"venue_id": "yelpVhScSsvXZl6J7j1Vat7ccw",
		"venue_name": "Jarabe- Mexican Street Food",
		"latitude": 41.86886,
		"longitude": -87.68334,
		"address1": "2255 W Taylor St",
		"address2": null,
		"address3": "",
		"city": "Chicago",
		"state": "IL",
		"zip_code": "60612"
	},
	{
		"venue_id": "yelpfPlA_n18OTA09KiF8j0qXg",
		"venue_name": "11 Degrees North",
		"latitude": 41.9400605,
		"longitude": -87.6503407,
		"address1": "824 W Belmont Ave",
		"address2": "",
		"address3": null,
		"city": "Chicago",
		"state": "IL",
		"zip_code": "60657"
	},
	{
		"venue_id": "yelpg2BZVEeNbFQfruKLDDe-ZQ",
		"venue_name": "Bar Takito",
		"latitude": 41.8857,
		"longitude": -87.6519851,
		"address1": "201 N Morgan St",
		"address2": null,
		"address3": "",
		"city": "Chicago",
		"state": "IL",
		"zip_code": "60607"
	},
	{
		"venue_id": "yelpiw1_4RySfJpOMvuZ73XAvw",
		"venue_name": "Bienmesabe",
		"latitude": 41.9614551,
		"longitude": -87.670454,
		"address1": "1637 W Montrose Ave",
		"address2": "",
		"address3": "",
		"city": "Chicago",
		"state": "IL",
		"zip_code": "60613"
	},
	{
		"venue_id": "yelpKFNk35nSCX8IRum2aJdRag",
		"venue_name": "El Nandu Restaurant",
		"latitude": 41.92452,
		"longitude": -87.6962099,
		"address1": "2731 W Fullerton Ave",
		"address2": null,
		"address3": "",
		"city": "Chicago",
		"state": "IL",
		"zip_code": "60647"
	},
	{
		"venue_id": "yelpvYf4Lo0oUZcrVapLH1huBA",
		"venue_name": "Altiro Latin Fusion - Roscoe",
		"latitude": 41.94339,
		"longitude": -87.68165,
		"address1": "2116 W Roscoe St",
		"address2": "",
		"address3": "",
		"city": "Chicago",
		"state": "IL",
		"zip_code": "60618"
	},
	{
		"venue_id": "yelpH1Bs27aRoY5X3UyJEm_Q0Q",
		"venue_name": "Rica Arepa",
		"latitude": 41.9168,
		"longitude": -87.73347,
		"address1": "4253 West Armitage Ave",
		"address2": null,
		"address3": "",
		"city": "Chicago",
		"state": "IL",
		"zip_code": "60639"
	},
	{
		"venue_id": "yelpToVDS0YPKcK1Y8Ww3r7ccA",
		"venue_name": "Brasa Roja",
		"latitude": 41.9613992330456,
		"longitude": -87.7067254776816,
		"address1": "3120 W Montrose Ave",
		"address2": "",
		"address3": "",
		"city": "Chicago",
		"state": "IL",
		"zip_code": "60618"
	},
	{
		"venue_id": "yelp5VlN0m83Yd1y4hdQmPKJkg",
		"venue_name": "Mi Tocaya Antojeria",
		"latitude": 41.9289,
		"longitude": -87.6977,
		"address1": "2800 W Logan Blvd",
		"address2": "",
		"address3": null,
		"city": "Chicago",
		"state": "IL",
		"zip_code": "60647"
	},
	{
		"venue_id": "yelpjmb-2jtaaDXe8bYD4QLTzw",
		"venue_name": "La Palma Puerto Rican Restaurant",
		"latitude": 41.9057371,
		"longitude": -87.7119217,
		"address1": "1340 N Homan Ave",
		"address2": "",
		"address3": "",
		"city": "Chicago",
		"state": "IL",
		"zip_code": "60651"
	},
	{
		"venue_id": "yelpy2YPhJsm4ZAOysBVy5k4pg",
		"venue_name": "Rojo Gusano",
		"latitude": 41.9684136,
		"longitude": -87.7246131,
		"address1": "3830 W Lawrence Ave",
		"address2": "",
		"address3": "",
		"city": "Chicago",
		"state": "IL",
		"zip_code": "60625"
	},
	{
		"venue_id": "yelpm6nj6q3ENqB7R5S4ooM2gw",
		"venue_name": "La Lagartija Taqueria",
		"latitude": 41.8793561,
		"longitude": -87.6669304,
		"address1": "132 S Ashland Ave",
		"address2": "",
		"address3": "",
		"city": "Chicago",
		"state": "IL",
		"zip_code": "60607"
	},
	{
		"venue_id": "yelpzABUsfcbExmBAfZjO7dI0g",
		"venue_name": "El Carrito",
		"latitude": 41.9907368061156,
		"longitude": -87.7076021281604,
		"address1": "6019 N Lincoln Ave",
		"address2": "",
		"address3": "",
		"city": "Chicago",
		"state": "IL",
		"zip_code": "60659"
	},
	{
		"venue_id": "yelp4-ymYbhxthEMWQa2_404FQ",
		"venue_name": "Cafe Urbano",
		"latitude": 41.956659,
		"longitude": -87.723814,
		"address1": "4176 N Elston Ave",
		"address2": "",
		"address3": "",
		"city": "Chicago",
		"state": "IL",
		"zip_code": "60618"
	},
	{
		"venue_id": "yelpwoIo96mQm9ZCI51XoMdcjg",
		"venue_name": "Vermilion",
		"latitude": 41.8901732672856,
		"longitude": -87.6284838567184,
		"address1": "10 W Hubbard St",
		"address2": "",
		"address3": "",
		"city": "Chicago",
		"state": "IL",
		"zip_code": "60654"
	},
	{
		"venue_id": "yelpGFO3cU3F3m5nwcWs4Sl1xg",
		"venue_name": "Latinicity",
		"latitude": 41.883737829018,
		"longitude": -87.6286784939178,
		"address1": "108 N State St",
		"address2": null,
		"address3": null,
		"city": "Chicago",
		"state": "IL",
		"zip_code": "60602"
	},
	{
		"venue_id": "yelpJ-Jd_x3LNXIcd2bDesHauA",
		"venue_name": "La Parrilla Colombian Steakhouse",
		"latitude": 41.9527664169932,
		"longitude": -87.7878438810709,
		"address1": "6427 W Irving Park Rd",
		"address2": "",
		"address3": "",
		"city": "Chicago",
		"state": "IL",
		"zip_code": "60634"
	},
	{
		"venue_id": "yelp6lPODX1d7mfuXmhwdor-jA",
		"venue_name": "Bienmesabe",
		"latitude": 41.87937,
		"longitude": -87.62675,
		"address1": "29 E Adams St",
		"address2": "",
		"address3": null,
		"city": "Chicago",
		"state": "IL",
		"zip_code": "60603"
	},
	{
		"venue_id": "yelpAGiyzS40Wj8n6ClH7wruyg",
		"venue_name": "Ronero",
		"latitude": 41.88481,
		"longitude": -87.64722,
		"address1": "738 West Randolph St",
		"address2": "",
		"address3": null,
		"city": "Chicago",
		"state": "IL",
		"zip_code": "60661"
	},
	{
		"venue_id": "yelpq5e5xjQJTrisTRkqwoiPew",
		"venue_name": "Sweet Pepper",
		"latitude": 41.968784,
		"longitude": -87.694158,
		"address1": "2604 W Lawrence Ave",
		"address2": null,
		"address3": "",
		"city": "Chicago",
		"state": "IL",
		"zip_code": "60625"
	},
	{
		"venue_id": "yelpepOvUIFJEm9rdlxwA1jV8A",
		"venue_name": "Sabor A Cafe",
		"latitude": 41.990297,
		"longitude": -87.691057,
		"address1": "2435 W Peterson Ave",
		"address2": "",
		"address3": "",
		"city": "Chicago",
		"state": "IL",
		"zip_code": "60659"
	},
	{
		"venue_id": "yelp5u16ju2WBFKfb2Q1XUB-PA",
		"venue_name": "Mr. Pollo",
		"latitude": 41.9395401640728,
		"longitude": -87.7037347301598,
		"address1": "3026 W Belmont Ave",
		"address2": null,
		"address3": "",
		"city": "Chicago",
		"state": "IL",
		"zip_code": "60618"
	},
	{
		"venue_id": "yelp72WarrgBvCzQuh3g5-ItZA",
		"venue_name": "Borinquen Lounge",
		"latitude": 41.95075,
		"longitude": -87.68799,
		"address1": "3811 N Western Ave",
		"address2": "",
		"address3": "",
		"city": "Chicago",
		"state": "IL",
		"zip_code": "60618"
	},
	{
		"venue_id": "yelpLdeFy1hEUuK_ooXICPM8_g",
		"venue_name": "Rice Bowl Latin Cuisine",
		"latitude": 41.90011,
		"longitude": -87.6867951,
		"address1": "1021 N Western Ave",
		"address2": "",
		"address3": null,
		"city": "Chicago",
		"state": "IL",
		"zip_code": "60622"
	},
	{
		"venue_id": "yelp3nOO3B9xoASM9XLzJfbHDg",
		"venue_name": "ArePA George",
		"latitude": 41.9098848,
		"longitude": -87.7071149,
		"address1": "1552 N Kedzie Ave",
		"address2": null,
		"address3": "",
		"city": "Chicago",
		"state": "IL",
		"zip_code": "60651"
	},
	{
		"venue_id": "yelpbh55xTHTQGLx95rPIj79ug",
		"venue_name": "La Humita",
		"latitude": 41.94468,
		"longitude": -87.72768,
		"address1": "3466 N Pulaski Rd",
		"address2": "",
		"address3": "",
		"city": "Chicago",
		"state": "IL",
		"zip_code": "60641"
	},
	{
		"venue_id": "yelpJy_-RfcqgYVQ6CjIrNHEBA",
		"venue_name": "Pizza y Pan Pa' Ya",
		"latitude": 41.9609413146973,
		"longitude": -87.7068023681641,
		"address1": "3125 W Montrose",
		"address2": null,
		"address3": "",
		"city": "Chicago",
		"state": "IL",
		"zip_code": "60618"
	},
	{
		"venue_id": "yelpXL3kNO7mW7sZ2lLiJxvoEA",
		"venue_name": "Maya Del Sol",
		"latitude": 41.88603,
		"longitude": -87.79398,
		"address1": "144 S Oak Park Ave",
		"address2": "",
		"address3": "",
		"city": "Oak Park",
		"state": "IL",
		"zip_code": "60302"
	},
	{
		"venue_id": "yelprgCMC5WRAUnyCJtRn0xAJA",
		"venue_name": "D' Nuez",
		"latitude": 41.81845,
		"longitude": -87.69651,
		"address1": "4125 S Archer Ave",
		"address2": "Fl 1",
		"address3": "",
		"city": "Chicago",
		"state": "IL",
		"zip_code": "60632"
	},
	{
		"venue_id": "yelpLfufLK7Vi9LJIXOtkT6ghw",
		"venue_name": "Sora Temakeria",
		"latitude": 41.84457,
		"longitude": -87.71283,
		"address1": "3508 W 26th St",
		"address2": null,
		"address3": "",
		"city": "Chicago",
		"state": "IL",
		"zip_code": "60623"
	},
	{
		"venue_id": "yelpm5oiArAaSACwT7TXSakeTA",
		"venue_name": "Ecuador Restaurant",
		"latitude": 41.9320350140333,
		"longitude": -87.7009901404381,
		"address1": "2923 W Diversey Ave",
		"address2": "",
		"address3": "",
		"city": "Chicago",
		"state": "IL",
		"zip_code": "60647"
	},
	{
		"venue_id": "yelpy877dwNZWvVbmHbmLMR8OA",
		"venue_name": "Pueblito Viejo",
		"latitude": 41.9803810119629,
		"longitude": -87.6924667358398,
		"address1": "5429 N Lincoln Ave",
		"address2": "",
		"address3": "",
		"city": "Chicago",
		"state": "IL",
		"zip_code": "60625"
	},
	{
		"venue_id": "yelptL3lslj3Ji9YQvK9yVjLqg",
		"venue_name": "BryAnna's Restaurant",
		"latitude": 41.98515,
		"longitude": -87.69795,
		"address1": "5695 N Lincoln Ave",
		"address2": "",
		"address3": "",
		"city": "Chicago",
		"state": "IL",
		"zip_code": "60659"
	},
	{
		"venue_id": "yelpNyDEW92FKQ3ZRh4i6FFKxA",
		"venue_name": "Las Delicias",
		"latitude": 41.9611375152379,
		"longitude": -87.7283420423903,
		"address1": "4010 W Montrose Ave",
		"address2": "",
		"address3": "",
		"city": "Chicago",
		"state": "IL",
		"zip_code": "60641"
	},
	{
		"venue_id": "yelpzpLIsXCEitY8zMbW4wQELw",
		"venue_name": "Brasa Roja",
		"latitude": 41.9461541666152,
		"longitude": -87.7276231342307,
		"address1": "3556 N Pulaski Rd",
		"address2": "",
		"address3": "",
		"city": "Chicago",
		"state": "IL",
		"zip_code": "60641"
	},
	{
		"venue_id": "yelpHuDrPKz8puGVJmobXdvq4Q",
		"venue_name": "Pupuseria Metapan",
		"latitude": 41.94548,
		"longitude": -87.77929,
		"address1": "6107 W Addison St",
		"address2": null,
		"address3": "",
		"city": "Chicago",
		"state": "IL",
		"zip_code": "60634"
	},
	{
		"venue_id": "yelpDlLoZxUSHsKIJ1nKtfYiiw",
		"venue_name": "Mayfair Restaurant",
		"latitude": 41.967934,
		"longitude": -87.740293,
		"address1": "4461 W Lawrence Ave",
		"address2": "",
		"address3": "",
		"city": "Chicago",
		"state": "IL",
		"zip_code": "60630"
	},
	{
		"venue_id": "yelp8IwmGEwKYUbNnrTeT_h4fg",
		"venue_name": "Antojitos Colombianos",
		"latitude": 41.95723,
		"longitude": -87.75194,
		"address1": "4208 N Milwaukee Ave",
		"address2": null,
		"address3": "",
		"city": "Chicago",
		"state": "IL",
		"zip_code": "60641"
	},
	{
		"venue_id": "yelpBZmK7pugs9TP7q1JIyvvDw",
		"venue_name": "5411 Empanadas",
		"latitude": 41.9031531733816,
		"longitude": -87.6697906851768,
		"address1": "1659 W Division St",
		"address2": "",
		"address3": "",
		"city": "Chicago",
		"state": "IL",
		"zip_code": "60622"
	},
	{
		"venue_id": "yelpFgsvAwRexyHgUsqUMAiM3w",
		"venue_name": "Pupuseria Restaurant Cuscatleco",
		"latitude": 41.9683421098996,
		"longitude": -87.7070768441803,
		"address1": "3125 W Lawrence Ave",
		"address2": "Ste 1",
		"address3": "",
		"city": "Chicago",
		"state": "IL",
		"zip_code": "60625"
	},
	{
		"venue_id": "yelphTVR7_rxd30PmjjbV4yNlQ",
		"venue_name": "Puebla Restaurant",
		"latitude": 41.92994,
		"longitude": -87.70922,
		"address1": "2658 N Milwaukee Ave",
		"address2": "",
		"address3": "",
		"city": "Chicago",
		"state": "IL",
		"zip_code": "60647"
	},
	{
		"venue_id": "yelpWtD5fi7RuayIx2EXwCCFgA",
		"venue_name": "Restaurante Olocuilta",
		"latitude": 41.9361350141524,
		"longitude": -87.7566292136908,
		"address1": "3040 N Laramie Ave",
		"address2": "",
		"address3": "",
		"city": "Chicago",
		"state": "IL",
		"zip_code": "60641"
	},
	{
		"venue_id": "yelpPzRZebPF5eL2lTN3x3Xgzg",
		"venue_name": "Birrieria Estilo Jalisco",
		"latitude": 41.9225997924805,
		"longitude": -87.6879272460938,
		"address1": "2230 N Western Ave",
		"address2": "",
		"address3": "",
		"city": "Chicago",
		"state": "IL",
		"zip_code": "60647"
	},
	{
		"venue_id": "yelpCVnNuzqwhH2E7rwxLZC5BQ",
		"venue_name": "El Llano Restaurant - Northcenter",
		"latitude": 41.95356,
		"longitude": -87.67793,
		"address1": "3941 N Lincoln Ave",
		"address2": null,
		"address3": "",
		"city": "Chicago",
		"state": "IL",
		"zip_code": "60613"
	},
	{
		"venue_id": "yelpE_P0_bQjXwK40trAMh8s-g",
		"venue_name": "El Guanaco",
		"latitude": 41.9321136474609,
		"longitude": -87.7223587036133,
		"address1": "3802 W Diversey Ave",
		"address2": "",
		"address3": "",
		"city": "Chicago",
		"state": "IL",
		"zip_code": "60647"
	},
	{
		"venue_id": "yelpfhaRGmrgFep8_uQt1p4ALA",
		"venue_name": "El Llano Restaurant",
		"latitude": 41.954179,
		"longitude": -87.719454,
		"address1": "4011 N Elston Ave",
		"address2": "",
		"address3": "",
		"city": "Chicago",
		"state": "IL",
		"zip_code": "60618"
	},
	{
		"venue_id": "yelpnZQ6o8NSNpSz7B2u_RyNWA",
		"venue_name": "Tortuga's Latin Kitchen",
		"latitude": 41.9685749,
		"longitude": -87.7094457,
		"address1": "3224 W Lawrence Ave",
		"address2": null,
		"address3": "",
		"city": "Chicago",
		"state": "IL",
		"zip_code": "60625"
	},
	{
		"venue_id": "yelp7PqcX4QKcZPqhXueHNkEpw",
		"venue_name": "Latin Patio Restaurant",
		"latitude": 41.9375,
		"longitude": -87.7663726806641,
		"address1": "3115 N Central Ave",
		"address2": "",
		"address3": "",
		"city": "Chicago",
		"state": "IL",
		"zip_code": "60634"
	},
	{
		"venue_id": "yelpnHu53zM6dL76jrfWc7LMfQ",
		"venue_name": "Chifa Grill Chicken",
		"latitude": 41.9685518881207,
		"longitude": -87.7172939479351,
		"address1": "3536 W Lawrence Ave",
		"address2": "",
		"address3": "",
		"city": "Chicago",
		"state": "IL",
		"zip_code": "60625"
	},
	{
		"venue_id": "yelpSby9fFU1V-8dK9zD6Qhcjw",
		"venue_name": "Amerikas",
		"latitude": 41.88881,
		"longitude": -87.79431,
		"address1": "734 Lake St",
		"address2": null,
		"address3": "",
		"city": "Oak Park",
		"state": "IL",
		"zip_code": "60301"
	},
	{
		"venue_id": "yelpp9YdLf_yNO85YTl5JLwDfQ",
		"venue_name": "Pollo Campero",
		"latitude": 41.96911,
		"longitude": -87.72892,
		"address1": "4830 N Pulaski Rd",
		"address2": "",
		"address3": "",
		"city": "Chicago",
		"state": "IL",
		"zip_code": "60630"
	},
	{
		"venue_id": "yelpUBb8aCuF9_o4y3NOLysgcQ",
		"venue_name": "Fat Baby Tacos",
		"latitude": 41.88978,
		"longitude": -87.63159,
		"address1": "109 W Hubbard St",
		"address2": "",
		"address3": null,
		"city": "Chicago",
		"state": "IL",
		"zip_code": "60654"
	},
	{
		"venue_id": "yelpPfg1Vzzwc3cQVBpy5b51ZQ",
		"venue_name": "La Pe\u00f1a Restaurante",
		"latitude": 41.95733,
		"longitude": -87.75203,
		"address1": "4212 N Milwaukee Ave",
		"address2": "",
		"address3": "",
		"city": "Chicago",
		"state": "IL",
		"zip_code": "60641"
	},
	{
		"venue_id": "yelpjI1b5MvBq2ec8bFoZJdULw",
		"venue_name": "Esquina Del Sabor Catracho",
		"latitude": 41.92674,
		"longitude": -87.7558899,
		"address1": "2525 N Laramie Ave",
		"address2": "",
		"address3": "",
		"city": "Chicago",
		"state": "IL",
		"zip_code": "60639"
	},
	{
		"venue_id": "yelpXCW6MLMEPd_lhZ_3QdueAg",
		"venue_name": "El Sitio",
		"latitude": 41.9042701721191,
		"longitude": -87.7259979248047,
		"address1": "1255 N Pulaski Rd",
		"address2": "",
		"address3": "",
		"city": "Chicago",
		"state": "IL",
		"zip_code": "60651"
	},
	{
		"venue_id": "yelp0jJbDHXnphyqdrjdLGORng",
		"venue_name": "Izalco Restaurant",
		"latitude": 41.8438529968262,
		"longitude": -87.7339859008789,
		"address1": "4377 W 26th St",
		"address2": "",
		"address3": "",
		"city": "Chicago",
		"state": "IL",
		"zip_code": "60640"
	},
	{
		"venue_id": "yelp_akk97gxb21J5Syo2XSHrA",
		"venue_name": "La Gozadera Restaurant & Bar",
		"latitude": 41.99072,
		"longitude": -87.69378,
		"address1": "2542 W Peterson Ave",
		"address2": null,
		"address3": "",
		"city": "Chicago",
		"state": "IL",
		"zip_code": "60659"
	},
	{
		"venue_id": "yelpC_ZPTkpGek-5IaVlnfjXUw",
		"venue_name": "El Mirador",
		"latitude": 41.9316101074219,
		"longitude": -87.7605209350586,
		"address1": "5340 West Diversey Ave",
		"address2": "",
		"address3": null,
		"city": "Chicago",
		"state": "IL",
		"zip_code": "60639"
	},
	{
		"venue_id": "yelpnNN5aDS5bD13lh-9L-WuNQ",
		"venue_name": "Taqueria y Cafeteria Siglo XX",
		"latitude": 41.9684749,
		"longitude": -87.7191623,
		"address1": "3626 W Lawrence Ave",
		"address2": "",
		"address3": "",
		"city": "Chicago",
		"state": "IL",
		"zip_code": "60625"
	},
	{
		"venue_id": "yelpTPgx4PErBObwnVvsmq3ewQ",
		"venue_name": "El Secreto del Sabor",
		"latitude": 41.9035,
		"longitude": -87.700588,
		"address1": "Luis Munoz Marin Dr",
		"address2": "",
		"address3": "N Kedzie Ave & W Division St",
		"city": "Chicago",
		"state": "IL",
		"zip_code": "60622"
	},
	{
		"venue_id": "yelpsNUV-1OAGBefwSROuKQvZw",
		"venue_name": "La Cocinita Restaurant",
		"latitude": 42.0469939,
		"longitude": -87.6790813,
		"address1": "1625 Chicago Ave",
		"address2": "",
		"address3": "",
		"city": "Evanston",
		"state": "IL",
		"zip_code": "60201"
	},
	{
		"venue_id": "yelpyGlz3oRpODgXZl1gJWR6qg",
		"venue_name": "Cousins Grill",
		"latitude": 41.9316413998604,
		"longitude": -87.7423538267612,
		"address1": "4612 W Diversey Ave",
		"address2": "Ste A",
		"address3": "",
		"city": "Chicago",
		"state": "IL",
		"zip_code": "60639"
	},
	{
		"venue_id": "yelpaeg9nDspM5xfnRi_BfufFA",
		"venue_name": "Galapagos Cafe",
		"latitude": 41.96857,
		"longitude": -87.72337,
		"address1": "3800 W Lawrence Ave",
		"address2": "",
		"address3": "",
		"city": "Chicago",
		"state": "IL",
		"zip_code": "60625"
	},
	{
		"venue_id": "yelpXH9cgNiEavs404BorPDLsQ",
		"venue_name": "Martha's Grill",
		"latitude": 41.9315212864544,
		"longitude": -87.7390067651868,
		"address1": "4457 W Diversey Ave",
		"address2": "",
		"address3": null,
		"city": "Chicago",
		"state": "IL",
		"zip_code": "60639"
	},
	{
		"venue_id": "yelpid0CAqDvqzGWeyUvlJ4JlQ",
		"venue_name": "Ponce Place",
		"latitude": 41.91031,
		"longitude": -87.71717,
		"address1": "3612 W North Ave",
		"address2": "",
		"address3": "",
		"city": "Chicago",
		"state": "IL",
		"zip_code": "60647"
	},
	{
		"venue_id": "yelpqSrQDsG2BYdCmphu3-qrvA",
		"venue_name": "Congas",
		"latitude": 41.9801907898559,
		"longitude": -87.8032832220197,
		"address1": "7021 W Higgins Ave",
		"address2": "",
		"address3": "",
		"city": "Chicago",
		"state": "IL",
		"zip_code": "60656"
	},
	{
		"venue_id": "yelpa0NCHMP0DZJ9lLp5V7-t6Q",
		"venue_name": "Mr Pollo",
		"latitude": 41.93165,
		"longitude": -87.75737,
		"address1": "5222 W Diversey",
		"address2": "",
		"address3": "",
		"city": "Chicago",
		"state": "IL",
		"zip_code": "60639"
	},
	{
		"venue_id": "yelpdxO2DBvh5f4l7kw58Dh7gQ",
		"venue_name": "Avenida Del Sabor",
		"latitude": 41.9309890077167,
		"longitude": -87.771413885057,
		"address1": "5805 W Diversey Ave",
		"address2": "",
		"address3": "",
		"city": "Chicago",
		"state": "IL",
		"zip_code": "60639"
	},
	{
		"venue_id": "yelpvvtWIgKBNq_vGmjb7R6N1w",
		"venue_name": "Lucero Caribbean Catering",
		"latitude": 41.8588499,
		"longitude": -87.68694,
		"address1": "2443 W 16th St",
		"address2": "",
		"address3": "",
		"city": "Chicago",
		"state": "IL",
		"zip_code": "60623"
	},
	{
		"venue_id": "yelpBv_zBRpy4my4B9cCOfRNIA",
		"venue_name": "Delicias Crucita",
		"latitude": 41.9499207,
		"longitude": -87.7672272,
		"address1": "3810 N Central Ave",
		"address2": "",
		"address3": "",
		"city": "Chicago",
		"state": "IL",
		"zip_code": "60634"
	},
	{
		"venue_id": "yelpemujxCgecIP8QnofNRNhgQ",
		"venue_name": "Loncheria",
		"latitude": 41.883822124864,
		"longitude": -87.6278707855479,
		"address1": "108 N State St",
		"address2": "Fl 1",
		"address3": "",
		"city": "Chicago",
		"state": "IL",
		"zip_code": "60602"
	},
	{
		"venue_id": "yelp_kfKtQsAZrcWZNLy_dZ22g",
		"venue_name": "los tarritos",
		"latitude": 41.8505124442262,
		"longitude": -87.7808139891234,
		"address1": "6241 West Cermak Rd",
		"address2": "",
		"address3": null,
		"city": "Berwyn",
		"state": "IL",
		"zip_code": "60402"
	},
	{
		"venue_id": "yelpBZFZ4rwEsJbyEJQtQzKktA",
		"venue_name": "Latin American Restaurant & Lounge",
		"latitude": 41.9026298522949,
		"longitude": -87.6961364746094,
		"address1": "2743 W Division St",
		"address2": "",
		"address3": "",
		"city": "Chicago",
		"state": "IL",
		"zip_code": "60622"
	},
	{
		"venue_id": "yelpKHZccq1XtpLJ0AScw9KvNg",
		"venue_name": "SABORCITO ECUATORIANO",
		"latitude": 41.9684126139959,
		"longitude": -87.7174214518518,
		"address1": "3536 W Lawrence Ave",
		"address2": "",
		"address3": null,
		"city": "Chicago",
		"state": "IL",
		"zip_code": "60625"
	},
	{
		"venue_id": "yelpG64Im4c_44aPPCX_N-pAZw",
		"venue_name": "El Guanaco",
		"latitude": 41.9221038818359,
		"longitude": -87.7846832275391,
		"address1": "6345 W Grand Ave",
		"address2": "",
		"address3": "",
		"city": "Chicago",
		"state": "IL",
		"zip_code": "60639"
	},
	{
		"venue_id": "yelpU7Tpurr_1JOD5PWBchvJ5w",
		"venue_name": "Da Portable Rican",
		"latitude": 41.5780945,
		"longitude": -87.177559,
		"address1": "2556 Portage Mall",
		"address2": null,
		"address3": "",
		"city": "Portage",
		"state": "IN",
		"zip_code": "46368"
	},
	{
		"venue_id": "yelpygF9wvxGVgnvwZ2pDEk6lA",
		"venue_name": "Taste Of Latin America",
		"latitude": 41.9171104431152,
		"longitude": -87.7217330932617,
		"address1": "3600 W Armitage Ave",
		"address2": "",
		"address3": "",
		"city": "Chicago",
		"state": "IL",
		"zip_code": "60647"
	},
	{
		"venue_id": "yelpOZTJG_YNMLLZz-efHWEIng",
		"venue_name": "La Humita On Wheels",
		"latitude": 41.94468,
		"longitude": -87.72768,
		"address1": "3466 N Pulaski Rd",
		"address2": null,
		"address3": "",
		"city": "Chicago",
		"state": "IL",
		"zip_code": "60641"
	},
	{
		"venue_id": "yelpzqZ-I5tEf0HBq3WQEpA-hg",
		"venue_name": "Mr Pollo",
		"latitude": 41.96098,
		"longitude": -87.70249,
		"address1": "2937 W Montrose Ave",
		"address2": "",
		"address3": "",
		"city": "Chicago",
		"state": "IL",
		"zip_code": "60625"
	},
	{
		"venue_id": "yelpnzMndn4F4ZLCEWgzh4v3_w",
		"venue_name": "Seafood Los Dos Leones",
		"latitude": 41.93495,
		"longitude": -87.71647,
		"address1": "2943 N Milwaukee Ave",
		"address2": "",
		"address3": null,
		"city": "Chicago",
		"state": "IL",
		"zip_code": "60618"
	},
	{
		"venue_id": "yelpwBhO8J1TKU8qx0F5cCmLPA",
		"venue_name": "Taste Sabores de America",
		"latitude": 41.9492268,
		"longitude": -87.8069741,
		"address1": "3809 N Harlem Ave",
		"address2": "",
		"address3": null,
		"city": "Chicago",
		"state": "IL",
		"zip_code": "60634"
	}
]