[
	{
		"venue_id": "yelpgIWHSle9VffD3mx5Pg-eiQ",
		"venue_name": "Puppet Bike",
		"latitude": 41.8825950622559,
		"longitude": -87.6369323730469,
		"address1": "",
		"address2": "",
		"address3": "",
		"city": "Chicago",
		"state": "IL",
		"zip_code": "60606"
	},
	{
		"venue_id": "yelpq-n5CAIy6rZMwAx0YBf-Yg",
		"venue_name": "City of Chicago",
		"latitude": 41.8816184997559,
		"longitude": -87.6261215209961,
		"address1": "",
		"address2": "",
		"address3": "",
		"city": "Chicago",
		"state": "IL",
		"zip_code": "60603"
	},
	{
		"venue_id": "yelpfXuG_9iRYrZEI3AjKfVRaA",
		"venue_name": "Yelp Elites Mind Their Own \"Biscuits\" at Intermission Brunch",
		"latitude": 41.8848399,
		"longitude": -87.62866,
		"address1": "Cambria Hotel & Suites Chicago Loop - Theatre District",
		"address2": "32 W Randolph St",
		"address3": null,
		"city": "Chicago",
		"state": "IL",
		"zip_code": "60601"
	},
	{
		"venue_id": "yelpkZDtPqDZ2v2BSGcNCsfKQA",
		"venue_name": "Crown Fountain",
		"latitude": 41.8834,
		"longitude": -87.62246,
		"address1": "201 E Randolph St",
		"address2": "",
		"address3": "Millennium Park",
		"city": "Chicago",
		"state": "IL",
		"zip_code": "60602"
	},
	{
		"venue_id": "yelpPLVHdqc-gkU-s6ykDs_Dfw",
		"venue_name": "Tribune Tower",
		"latitude": 41.890383,
		"longitude": -87.623674,
		"address1": "435 N Michigan Ave",
		"address2": "",
		"address3": "",
		"city": "Chicago",
		"state": "IL",
		"zip_code": "60611"
	},
	{
		"venue_id": "yelpaJoY_kCTh4oagN1y9mnA_w",
		"venue_name": "Lake Shore Drive",
		"latitude": 41.9129447233625,
		"longitude": -87.6263779297096,
		"address1": "N Lake Shore Dr",
		"address2": "",
		"address3": "",
		"city": "Chicago",
		"state": "IL",
		"zip_code": "60611"
	},
	{
		"venue_id": "yelp_lNTKPkNxBjGTjabsfwA0w",
		"venue_name": "Yelp Elite Battle Of The Band T's @ RAISED Urban Rooftop Bar",
		"latitude": 41.886334,
		"longitude": -87.6283899,
		"address1": "1 West Wacker Dr",
		"address2": "",
		"address3": null,
		"city": "Chicago",
		"state": "IL",
		"zip_code": "60601"
	},
	{
		"venue_id": "yelpKWo9yASXYlUveU1gcgpkyQ",
		"venue_name": "Grant Park Music Festival",
		"latitude": 41.8841551,
		"longitude": -87.6220868,
		"address1": "205 East Randolph St",
		"address2": "",
		"address3": "",
		"city": "Chicago",
		"state": "IL",
		"zip_code": "60601"
	},
	{
		"venue_id": "yelpkEuTLfozDN9PynsfEpQAtg",
		"venue_name": "CTA Holiday Train",
		"latitude": 41.7634887695312,
		"longitude": -87.9710388183594,
		"address1": "Red Line",
		"address2": "",
		"address3": "",
		"city": "Chicago",
		"state": "IL",
		"zip_code": "60686"
	},
	{
		"venue_id": "yelpK1S03tXswIWjf_5jt8PDuA",
		"venue_name": "Logan Square",
		"latitude": 41.9257970094478,
		"longitude": -87.7123895005859,
		"address1": "W Belden Ave",
		"address2": "",
		"address3": "",
		"city": "Chicago",
		"state": "IL",
		"zip_code": "60647"
	},
	{
		"venue_id": "yelpLZt2eJ-c3RqEWuAfiAdn-A",
		"venue_name": "Zoolights",
		"latitude": 41.9175019672686,
		"longitude": -87.6324389129877,
		"address1": "2200 N Cannon Dr",
		"address2": "",
		"address3": "",
		"city": "Chicago",
		"state": "IL",
		"zip_code": "60614"
	},
	{
		"venue_id": "yelplQMuGcu6wgXvX_4XlVmW7Q",
		"venue_name": "Shit Fountain",
		"latitude": 41.899715423584,
		"longitude": -87.674446105957,
		"address1": "1001 N Wolcott Ave",
		"address2": null,
		"address3": "",
		"city": "Chicago",
		"state": "IL",
		"zip_code": "60622"
	},
	{
		"venue_id": "yelpuNR3wXnXDpNMnXnDLMeWQg",
		"venue_name": "Chicago Pedway",
		"latitude": 41.884006,
		"longitude": -87.625767,
		"address1": "130 N Garland Ct",
		"address2": "",
		"address3": "",
		"city": "Chicago",
		"state": "IL",
		"zip_code": "60686"
	},
	{
		"venue_id": "yelpk4Zs3Z4mRsW1YlHGdJr36g",
		"venue_name": "Pilsen Art Walk",
		"latitude": 41.85795,
		"longitude": -87.64695,
		"address1": "1800 S Halsted St",
		"address2": "",
		"address3": "",
		"city": "Chicago",
		"state": "IL",
		"zip_code": "60608"
	},
	{
		"venue_id": "yelpcc__3Ikj1nLVA_26sCqjAw",
		"venue_name": "Lower Wacker Drive",
		"latitude": 41.8822070199523,
		"longitude": -87.6369215488434,
		"address1": "233 E Wacker Dr",
		"address2": "",
		"address3": "",
		"city": "Chicago",
		"state": "IL",
		"zip_code": "60686"
	},
	{
		"venue_id": "yelpK1KHURSHQaqbnjl24JcdOQ",
		"venue_name": "Big Monster Toys",
		"latitude": 41.8808959123921,
		"longitude": -87.6569313708728,
		"address1": "21 S Racine Ave",
		"address2": "",
		"address3": "",
		"city": "Chicago",
		"state": "IL",
		"zip_code": "60607"
	},
	{
		"venue_id": "yelpt1gmVncI9CLahTvKdGw_hA",
		"venue_name": "Ribfest Chicago",
		"latitude": 41.9543495178223,
		"longitude": -87.6791763305664,
		"address1": "4000 N Lincoln Ave",
		"address2": "",
		"address3": "",
		"city": "Chicago",
		"state": "IL",
		"zip_code": "60618"
	},
	{
		"venue_id": "yelpym11M0eQk83Tgg1yhgDzkA",
		"venue_name": "Greetings From",
		"latitude": 41.9211483,
		"longitude": -87.6947639,
		"address1": "2226 N Milwaukee Ave",
		"address2": "",
		"address3": "",
		"city": "Chicago",
		"state": "IL",
		"zip_code": "60647"
	},
	{
		"venue_id": "yelpx7QMPVKnzSEIUYRuZPli0Q",
		"venue_name": "Ray St. Ray - Singing Cab Driver",
		"latitude": 41.8744277954102,
		"longitude": -87.6373825073242,
		"address1": "",
		"address2": "",
		"address3": "",
		"city": "Chicago",
		"state": "IL",
		"zip_code": "60689"
	},
	{
		"venue_id": "yelparcY9HYbSdE9hI_Z7X-M3g",
		"venue_name": "West Fest",
		"latitude": 41.89626,
		"longitude": -87.67231,
		"address1": "1800 W Chicago",
		"address2": "",
		"address3": "",
		"city": "Chicago",
		"state": "IL",
		"zip_code": "60622"
	},
	{
		"venue_id": "yelpTffHJ5PaR2gNHqgXBa-MYg",
		"venue_name": "First Tuesdays: Midwest Independent Film Festival",
		"latitude": 41.933572,
		"longitude": -87.646397,
		"address1": "2828 North Clark St",
		"address2": "",
		"address3": "Landmark's Century Centre Cinema",
		"city": "Chicago",
		"state": "IL",
		"zip_code": "60657"
	},
	{
		"venue_id": "yelplW4UULU1EvEacHYfra32sA",
		"venue_name": "Maifest Chicago",
		"latitude": 41.9669001,
		"longitude": -87.6876052,
		"address1": "4700 N Lincoln Ave",
		"address2": "",
		"address3": "",
		"city": "Chicago",
		"state": "IL",
		"zip_code": "60625"
	},
	{
		"venue_id": "yelpq7zsccHGKLtOfweKqYKMLw",
		"venue_name": "Yelp Elite Ladies Night @ ZipFit Denim",
		"latitude": 41.8953132629395,
		"longitude": -87.6491851806641,
		"address1": "700 North Green St",
		"address2": "Ste 202",
		"address3": null,
		"city": "Chicago",
		"state": "IL",
		"zip_code": "60642"
	},
	{
		"venue_id": "yelplKF22x7QD3HgPxezcHy0Dg",
		"venue_name": "Michael Jordan Statue",
		"latitude": 41.880166,
		"longitude": -87.673198,
		"address1": "1901 W Madison St",
		"address2": "",
		"address3": "",
		"city": "Chicago",
		"state": "IL",
		"zip_code": "60612"
	},
	{
		"venue_id": "yelp0TiAoXkiRHL1ZNA--iP1kg",
		"venue_name": "The Loop",
		"latitude": 41.8683815002441,
		"longitude": -87.626350402832,
		"address1": "",
		"address2": "",
		"address3": "",
		"city": "Chicago",
		"state": "IL",
		"zip_code": "60605"
	},
	{
		"venue_id": "yelpCNnkC-myn94mGo5xYNNtrQ",
		"venue_name": "Wicker Park Fest",
		"latitude": 41.90746,
		"longitude": -87.66789,
		"address1": "1414 N Ashland Ave",
		"address2": "",
		"address3": "",
		"city": "Chicago",
		"state": "IL",
		"zip_code": "60622"
	},
	{
		"venue_id": "yelpe_j48I_r3LSmhLu2gzzsxQ",
		"venue_name": "Yelp Elite Event: Broken English Taco Pub",
		"latitude": 41.8856244,
		"longitude": -87.6250087,
		"address1": "75 East Lake St",
		"address2": "",
		"address3": null,
		"city": "Chicago",
		"state": "IL",
		"zip_code": "60601"
	},
	{
		"venue_id": "yelpuav8DQ2Q06SMM7rfcRItkA",
		"venue_name": "Rick Bayless' Garden Tour",
		"latitude": 41.914089,
		"longitude": -87.671989,
		"address1": "1728 W Wabansia Ave",
		"address2": "",
		"address3": "",
		"city": "Chicago",
		"state": "IL",
		"zip_code": "60622"
	},
	{
		"venue_id": "yelpNM2axt6Y9s9sFRIZDmP4qg",
		"venue_name": "Chicago Green Festival",
		"latitude": 41.85,
		"longitude": -87.65,
		"address1": "",
		"address2": "",
		"address3": "",
		"city": "Chicago",
		"state": "IL",
		"zip_code": "60686"
	},
	{
		"venue_id": "yelpy2I6NCEI5ADBYS8nTVrZlQ",
		"venue_name": "Alta Vista Terrace",
		"latitude": 41.95183,
		"longitude": -87.65651,
		"address1": "N Alta Vista Ter",
		"address2": "",
		"address3": "",
		"city": "Chicago",
		"state": "IL",
		"zip_code": "60613"
	},
	{
		"venue_id": "yelp2HoDU7fd4XruXzC26TD-tg",
		"venue_name": "Gallagher Way Chicago",
		"latitude": 41.9483249683792,
		"longitude": -87.6570407921496,
		"address1": "3637 N Clark St",
		"address2": "",
		"address3": null,
		"city": "Chicago",
		"state": "IL",
		"zip_code": "60613"
	},
	{
		"venue_id": "yelp_HsU4C8CHQbQd0ORB7vo9g",
		"venue_name": "Gene Lee",
		"latitude": 41.90307,
		"longitude": -87.67464,
		"address1": "",
		"address2": "",
		"address3": "",
		"city": "Chicago",
		"state": "IL",
		"zip_code": "60622"
	},
	{
		"venue_id": "yelpQPn0dwHhq9JCm6PWJBwONA",
		"venue_name": "Gold Coast",
		"latitude": 41.8944091796875,
		"longitude": -87.6181716918945,
		"address1": "",
		"address2": "",
		"address3": "",
		"city": "Chicago",
		"state": "IL",
		"zip_code": "60611"
	},
	{
		"venue_id": "yelp3-OEP0LQxSx6rmubWuS7eg",
		"venue_name": "THE TACO CRAWL - CHICAGO",
		"latitude": 41.89253,
		"longitude": -87.62477,
		"address1": "River N",
		"address2": "",
		"address3": null,
		"city": "Chicago",
		"state": "IL",
		"zip_code": ""
	},
	{
		"venue_id": "yelpraRvyyq1RKj02PsH_MC7Hw",
		"venue_name": "Handmade Market Chicago",
		"latitude": 41.90047,
		"longitude": -87.6866299,
		"address1": "1035 N Western Ave",
		"address2": "",
		"address3": "",
		"city": "Chicago",
		"state": "IL",
		"zip_code": "60622"
	},
	{
		"venue_id": "yelpTV5EvURYDaxQb1fFZVQeZg",
		"venue_name": "American Legion - Franklin Delano Roosevelt Post No 923",
		"latitude": 41.91626,
		"longitude": -87.67375,
		"address1": "1824 W Cortland St",
		"address2": "",
		"address3": "",
		"city": "Chicago",
		"state": "IL",
		"zip_code": "60622"
	},
	{
		"venue_id": "yelpYKZsyimRq6SekN6VCw-8Eg",
		"venue_name": "St Patrick's Day Parade Committee of Chicago",
		"latitude": 41.88323,
		"longitude": -87.66171,
		"address1": "1340 W Washington Blvd",
		"address2": "",
		"address3": "",
		"city": "Chicago",
		"state": "IL",
		"zip_code": "60607"
	},
	{
		"venue_id": "yelpq0dy950BiJEWOGEeIm7QSQ",
		"venue_name": "Chagall's Four Seasons",
		"latitude": 41.8810667508273,
		"longitude": -87.6297620032496,
		"address1": "10 S Dearborn St",
		"address2": "",
		"address3": "",
		"city": "Chicago",
		"state": "IL",
		"zip_code": "60603"
	},
	{
		"venue_id": "yelpwRIOJrdyfRxruoh18PEaGg",
		"venue_name": "The Leaping Wall",
		"latitude": 41.8695526123047,
		"longitude": -87.6250610351562,
		"address1": "72 E 11th St",
		"address2": "",
		"address3": "",
		"city": "Chicago",
		"state": "IL",
		"zip_code": "60605"
	},
	{
		"venue_id": "yelpbqQgGXm_iKJX1ahNFLCA-w",
		"venue_name": "Lakeview Mayfest",
		"latitude": 41.9378699,
		"longitude": -87.6686,
		"address1": "Ashland & Barry",
		"address2": null,
		"address3": "",
		"city": "Chicago",
		"state": "IL",
		"zip_code": "60686"
	},
	{
		"venue_id": "yelpDXnoVp0853l-zH4JJJ-IdA",
		"venue_name": "Roscoe Village",
		"latitude": 41.9432579438085,
		"longitude": -87.6794022318744,
		"address1": "",
		"address2": "",
		"address3": "",
		"city": "Chicago",
		"state": "IL",
		"zip_code": "60618"
	},
	{
		"venue_id": "yelpxYxz06L8wU-a_GCkKtqxjA",
		"venue_name": "The Virgin Mary Viaduct Stain",
		"latitude": 41.9250844,
		"longitude": -87.6843316,
		"address1": "2200 W Fullerton",
		"address2": "",
		"address3": "",
		"city": "Chicago",
		"state": "IL",
		"zip_code": "60647"
	},
	{
		"venue_id": "yelp8DFC6CcYWnqbqWiZMaT1vA",
		"venue_name": "The Flamingo By Alexander Calder",
		"latitude": 41.8795828,
		"longitude": -87.6295635,
		"address1": "50 W Adams St",
		"address2": "",
		"address3": null,
		"city": "Chicago",
		"state": "IL",
		"zip_code": "60610"
	},
	{
		"venue_id": "yelpfUN1gvuQ5L4qjnRI0uui5g",
		"venue_name": "Wabash Arts Corridor",
		"latitude": 41.87427,
		"longitude": -87.62635,
		"address1": "600 S Wabash Ave",
		"address2": "",
		"address3": null,
		"city": "Chicago",
		"state": "IL",
		"zip_code": "60605"
	},
	{
		"venue_id": "yelpGKw_3tdnQRElT2EXocOunQ",
		"venue_name": "Soup and Bread at The Hideout",
		"latitude": 41.9138717651367,
		"longitude": -87.66259765625,
		"address1": "1354 W Wabansia",
		"address2": "",
		"address3": "",
		"city": "Chicago",
		"state": "IL",
		"zip_code": "60642"
	},
	{
		"venue_id": "yelpgku7nx9fTwnSvfJcfCgC1g",
		"venue_name": "Sheffield Garden Walk",
		"latitude": 41.92172,
		"longitude": -87.65345,
		"address1": "Webster And Sheffield",
		"address2": "",
		"address3": "",
		"city": "Chicago",
		"state": "IL",
		"zip_code": "60614"
	},
	{
		"venue_id": "yelp70wAmTlCWeR0NS18bUKdVg",
		"venue_name": "Foster Avenue Underpass Mural",
		"latitude": 41.9765610586482,
		"longitude": -87.6503849029541,
		"address1": "Foster Avenue And Lake Shore Dr",
		"address2": "",
		"address3": "",
		"city": "Chicago",
		"state": "IL",
		"zip_code": "60640"
	},
	{
		"venue_id": "yelpbSO6bbGBwNUchjeZv_jIzg",
		"venue_name": "Guinness Oyster Fest",
		"latitude": 41.94349,
		"longitude": -87.67862,
		"address1": "2000 W Roscoe Ave",
		"address2": "",
		"address3": "",
		"city": "Chicago",
		"state": "IL",
		"zip_code": "60657"
	},
	{
		"venue_id": "yelpUlHIugrdrY_duaVUqfUSTQ",
		"venue_name": "Chicago League of Lady Arm Wrestlers",
		"latitude": 41.8842506408691,
		"longitude": -87.6324462890625,
		"address1": "",
		"address2": "",
		"address3": "",
		"city": "Chicago",
		"state": "IL",
		"zip_code": ""
	},
	{
		"venue_id": "yelpBCu48ghagHOgtT3Gmsatcw",
		"venue_name": "6 Corners BBQ Fest",
		"latitude": 41.9534423947334,
		"longitude": -87.7474808692932,
		"address1": "4000 N Milwaukee Ave",
		"address2": "",
		"address3": "",
		"city": "Chicago",
		"state": "IL",
		"zip_code": "60641"
	},
	{
		"venue_id": "yelpa91IddpeAdIUHt8KPHs5lA",
		"venue_name": "Windy City Rollers' Bus",
		"latitude": 41.8743,
		"longitude": -87.65017,
		"address1": "",
		"address2": "",
		"address3": "",
		"city": "Chicago",
		"state": "IL",
		"zip_code": "60607"
	},
	{
		"venue_id": "yelpV2MgyBnP9U0VuRVszbky7g",
		"venue_name": "Gateway Park",
		"latitude": 41.8920819,
		"longitude": -87.6123044,
		"address1": "570 East Grand Ave",
		"address2": "",
		"address3": "",
		"city": "Chicago",
		"state": "IL",
		"zip_code": "60611"
	},
	{
		"venue_id": "yelpzTh11LWw0PZf-FQ2nXKG9Q",
		"venue_name": "First Fridays",
		"latitude": 41.89723,
		"longitude": -87.62098,
		"address1": "220 E Chicago Ave",
		"address2": "",
		"address3": "",
		"city": "Chicago",
		"state": "IL",
		"zip_code": "60607"
	},
	{
		"venue_id": "yelp2a5LBuNC1hQNOS9pbaRIkQ",
		"venue_name": "After Dark at The Art Institute",
		"latitude": 41.8807151,
		"longitude": -87.6231733,
		"address1": "159 E Monroe St",
		"address2": "",
		"address3": "",
		"city": "Chicago",
		"state": "IL",
		"zip_code": "60601"
	},
	{
		"venue_id": "yelpqTPTXgdQRAc4dvtKsp7DmQ",
		"venue_name": "Lake Front Path Sledding Hill",
		"latitude": 41.8581999,
		"longitude": -87.61525,
		"address1": "E 18th Dr",
		"address2": "",
		"address3": "S Museum Campus Dr",
		"city": "Chicago",
		"state": "IL",
		"zip_code": "60616"
	},
	{
		"venue_id": "yelpYlxT7LKq2CMmTPS6RNHVYg",
		"venue_name": "North Halsted Halloween Parade",
		"latitude": 41.94858,
		"longitude": -87.64992,
		"address1": "3656 North Halsted",
		"address2": "",
		"address3": "",
		"city": "Chicago",
		"state": "IL",
		"zip_code": "60657"
	},
	{
		"venue_id": "yelpf9bVCcwvZ0JDAZCm1KiQyA",
		"venue_name": "Vinejoy",
		"latitude": 41.92522,
		"longitude": -87.64292,
		"address1": "",
		"address2": "",
		"address3": "",
		"city": "Chicago",
		"state": "IL",
		"zip_code": "60614"
	},
	{
		"venue_id": "yelp0BacXrwwSgTGfFZxAJVrGQ",
		"venue_name": "Shecky's Girls Night Out",
		"latitude": 41.85,
		"longitude": -87.65,
		"address1": "Union Street Station",
		"address2": "",
		"address3": "",
		"city": "Chicago",
		"state": "IL",
		"zip_code": "60686"
	},
	{
		"venue_id": "yelpdZq6l0tGG5TAx3HOUijkHg",
		"venue_name": "Chicago Flower & Garden Show",
		"latitude": 41.8915919348816,
		"longitude": -87.6021618914795,
		"address1": "Navy Pier Exhibition Hall",
		"address2": "",
		"address3": "600 E Grand",
		"city": "Chicago",
		"state": "IL",
		"zip_code": "60611"
	},
	{
		"venue_id": "yelp1c02EXh1SSVYFwg5AaZXZA",
		"venue_name": "Hubbard Street Murals",
		"latitude": 41.89626,
		"longitude": -87.65476,
		"address1": "Between Des Plaines And Ogden",
		"address2": "",
		"address3": "",
		"city": "Chicago",
		"state": "IL",
		"zip_code": "60622"
	},
	{
		"venue_id": "yelpoFIaLAJeuwyZpd_fnZaRag",
		"venue_name": "Miro Statue",
		"latitude": 41.88285,
		"longitude": -87.63001,
		"address1": "69 W Washington St",
		"address2": "Brunswick Plaza",
		"address3": null,
		"city": "Chicago",
		"state": "IL",
		"zip_code": "60602"
	},
	{
		"venue_id": "yelpZZo-WMIn4hg_r2YIMNQWOw",
		"venue_name": "Yelp Community Connection For Business Leaders",
		"latitude": 41.88862,
		"longitude": -87.63539,
		"address1": "222 W Merchandise Mart Plz",
		"address2": "Ste 475",
		"address3": "",
		"city": "Chicago",
		"state": "IL",
		"zip_code": "60654"
	},
	{
		"venue_id": "yelpiza9d_E3KMw94ESXnRdq9w",
		"venue_name": "A Finkl & Sons",
		"latitude": 41.91815,
		"longitude": -87.66265,
		"address1": "2011 N Southport Ave",
		"address2": "",
		"address3": "",
		"city": "Chicago",
		"state": "IL",
		"zip_code": "60614"
	},
	{
		"venue_id": "yelpNLgNSO0RVHXBPu0jG98wyg",
		"venue_name": "Rock Around the Block Festival",
		"latitude": 41.9397279,
		"longitude": -87.6688825,
		"address1": "3200 N Lincoln Ave",
		"address2": "",
		"address3": "",
		"city": "Chicago",
		"state": "IL",
		"zip_code": "60657"
	},
	{
		"venue_id": "yelpgh_wo65XgxAmFlOos8Xg6g",
		"venue_name": "The Northeast Corner of State & Elm",
		"latitude": 41.90317,
		"longitude": -87.6286499,
		"address1": "State St & Elm St",
		"address2": "",
		"address3": "",
		"city": "Chicago",
		"state": "IL",
		"zip_code": "60686"
	},
	{
		"venue_id": "yelp_87PWCe43TmaZupWNYNI_A",
		"venue_name": "Lincoln Statue",
		"latitude": 41.9687820439666,
		"longitude": -87.6886624016331,
		"address1": "2350 W Lawrence Ave",
		"address2": "",
		"address3": "",
		"city": "Chicago",
		"state": "IL",
		"zip_code": "60625"
	},
	{
		"venue_id": "yelpGrsJOaWbh9L-WAyzSta56w",
		"venue_name": "New Belgium's Tour de Fat",
		"latitude": 41.8604551,
		"longitude": -87.6100383,
		"address1": "1300 S Linn White Dr",
		"address2": "",
		"address3": "",
		"city": "Chicago",
		"state": "IL",
		"zip_code": "60605"
	},
	{
		"venue_id": "yelpJwSpQgmLK-hHb6lNX_WtQQ",
		"venue_name": "Looptopia",
		"latitude": 41.8858375549316,
		"longitude": -87.6213607788086,
		"address1": "",
		"address2": "",
		"address3": "",
		"city": "Chicago",
		"state": "IL",
		"zip_code": "60601"
	},
	{
		"venue_id": "yelpTS4mL9SGBZ40V9aQ0Mf7lA",
		"venue_name": "Ron Christian",
		"latitude": 41.8781814575195,
		"longitude": -87.6289749145508,
		"address1": "Jackson Blue Line Stop",
		"address2": "",
		"address3": "",
		"city": "Chicago",
		"state": "IL",
		"zip_code": "60604"
	},
	{
		"venue_id": "yelp2GU-RAnIwPTiQl05C0JA9g",
		"venue_name": "Eli's Cheesecake Festival",
		"latitude": 41.9589799,
		"longitude": -87.79441,
		"address1": "6701 W Forest Preserve Dr",
		"address2": "",
		"address3": "",
		"city": "Chicago",
		"state": "IL",
		"zip_code": "60686"
	},
	{
		"venue_id": "yelpIbfsMRqsomxKFX_1DY-Ecw",
		"venue_name": "Donut Fest",
		"latitude": 41.9102311637253,
		"longitude": -87.678776755929,
		"address1": "2033 W North Ave",
		"address2": "",
		"address3": "",
		"city": "Chicago",
		"state": "IL",
		"zip_code": "60647"
	},
	{
		"venue_id": "yelpgl-pNHNLHhvtPriyxB5dSQ",
		"venue_name": "Bunny Rock 5K",
		"latitude": 41.9288116,
		"longitude": -87.6352844,
		"address1": "2601 N Cannon Dr",
		"address2": "",
		"address3": "Diversey Harbor",
		"city": "Chicago",
		"state": "IL",
		"zip_code": "60614"
	},
	{
		"venue_id": "yelp6z7vBkjcdcnrgy0e-x_YDw",
		"venue_name": "Chiditarod 2010",
		"latitude": 41.9033126831055,
		"longitude": -87.6837921142578,
		"address1": "",
		"address2": "",
		"address3": "",
		"city": "Chicago",
		"state": "IL",
		"zip_code": "60622"
	},
	{
		"venue_id": "yelpdxC13SrZt9t1xYATkBh7uw",
		"venue_name": "Gold Coast Hotdogs",
		"latitude": 41.8785844412752,
		"longitude": -87.6385920657472,
		"address1": "Union Station",
		"address2": "",
		"address3": "",
		"city": "Chicago",
		"state": "IL",
		"zip_code": "60606"
	},
	{
		"venue_id": "yelpYk7MBBcwAZBbcpRktuCrwQ",
		"venue_name": "Dose Market",
		"latitude": 41.8844719,
		"longitude": -87.6535034,
		"address1": "1034 W Randolph",
		"address2": "",
		"address3": "",
		"city": "Chicago",
		"state": "IL",
		"zip_code": "60607"
	},
	{
		"venue_id": "yelpgKE8fBxIymAj_dKGtOARGA",
		"venue_name": "Family Farmed Expo",
		"latitude": 41.866943,
		"longitude": -87.646141,
		"address1": "725 W Roosevelt Rd",
		"address2": "",
		"address3": "UIC",
		"city": "Chicago",
		"state": "IL",
		"zip_code": "60607"
	},
	{
		"venue_id": "yelpxlN9TovJY00doxunebIcyw",
		"venue_name": "Eve of the Eve for Highsights",
		"latitude": 41.87867,
		"longitude": -87.64035,
		"address1": "210 S Canal St",
		"address2": "",
		"address3": "Union Station",
		"city": "Chicago",
		"state": "IL",
		"zip_code": "60606"
	},
	{
		"venue_id": "yelpCbp-waAxetxxROnDlssylA",
		"venue_name": "Christkindlmarket",
		"latitude": 41.96676,
		"longitude": -87.68883,
		"address1": "Leland & Western Ave",
		"address2": "",
		"address3": "",
		"city": "Chicago",
		"state": "IL",
		"zip_code": "60625"
	},
	{
		"venue_id": "yelpPb_mM_EOymDo1SqO9ee2mA",
		"venue_name": "Mod Mex & Mod Mix With Rick Bayless",
		"latitude": 41.8989202070544,
		"longitude": -87.6489946105896,
		"address1": "1059 N Halsted St",
		"address2": "",
		"address3": "",
		"city": "Chicago",
		"state": "IL",
		"zip_code": "60642"
	},
	{
		"venue_id": "yelpWllLI7mUpjEeBPn7IugTIg",
		"venue_name": "Cubs Convention",
		"latitude": 41.8727746,
		"longitude": -87.6243149,
		"address1": "722 S Michigan Ave",
		"address2": "",
		"address3": "Chicago Hilton and Towers",
		"city": "Chicago",
		"state": "IL",
		"zip_code": "60605"
	},
	{
		"venue_id": "yelpKvWukrzoNKPy_JtasFD4pw",
		"venue_name": "Oaktoberfest",
		"latitude": 41.88,
		"longitude": -87.77891,
		"address1": "",
		"address2": "",
		"address3": "",
		"city": "Oak Park",
		"state": "IL",
		"zip_code": ""
	},
	{
		"venue_id": "yelp5UuMKB5yp8kAq0TMTybTjw",
		"venue_name": "The St. Valentine's Day Massacre",
		"latitude": 41.9206510484219,
		"longitude": -87.6375666260719,
		"address1": "2122 N Clark St",
		"address2": "",
		"address3": "",
		"city": "Chicago",
		"state": "IL",
		"zip_code": "60614"
	},
	{
		"venue_id": "yelpUMJG8NPhmqcmefu3lwyK_w",
		"venue_name": "North Avenue Bridge",
		"latitude": 41.9108949,
		"longitude": -87.6580391,
		"address1": "1200 W North Ave",
		"address2": "",
		"address3": "",
		"city": "Chicago",
		"state": "IL",
		"zip_code": "60622"
	},
	{
		"venue_id": "yelpxi3k7mb2n9Yj0VakBzFZFQ",
		"venue_name": "StarChefs Chicago Rising Stars",
		"latitude": 41.9192335947567,
		"longitude": -87.6345528289676,
		"address1": "2021 N Stockton Dr",
		"address2": "",
		"address3": null,
		"city": "Chicago",
		"state": "IL",
		"zip_code": "60614"
	},
	{
		"venue_id": "yelpDyTVvx6cWLH-2xaQURGfGw",
		"venue_name": "The Batcolumn",
		"latitude": 41.882502,
		"longitude": -87.643414,
		"address1": "600 W Madison St",
		"address2": "",
		"address3": null,
		"city": "Chicago",
		"state": "IL",
		"zip_code": "60661"
	},
	{
		"venue_id": "yelpBx_abGAZEIf_0GOtJ35gJA",
		"venue_name": "Surprise Oprah! A Farewell Spectacular",
		"latitude": 41.8811951,
		"longitude": -87.6744087,
		"address1": "1901 W Madison St",
		"address2": "",
		"address3": "",
		"city": "Chicago",
		"state": "IL",
		"zip_code": "60612"
	},
	{
		"venue_id": "yelpg8AlFhB7UoijB-MxdjcJFA",
		"venue_name": "State Street, That Great Street",
		"latitude": 41.879316,
		"longitude": -87.6278349,
		"address1": "200 S State St",
		"address2": "",
		"address3": "",
		"city": "Chicago",
		"state": "IL",
		"zip_code": "60604"
	},
	{
		"venue_id": "yelpBhjjdEk-azG0lEiLsaLZbw",
		"venue_name": "Chicago World Music Festival",
		"latitude": 41.8833949,
		"longitude": -87.6250484,
		"address1": "78 E Washington St",
		"address2": "",
		"address3": "Various Locations",
		"city": "Chicago",
		"state": "IL",
		"zip_code": "60686"
	},
	{
		"venue_id": "yelpwREQZNUCXN76de7qYDF3EQ",
		"venue_name": "Nelson Algren Fountain",
		"latitude": 41.904,
		"longitude": -87.66752,
		"address1": "Intersection Of Division Ashland And Milwaukee",
		"address2": "",
		"address3": "",
		"city": "Chicago",
		"state": "IL",
		"zip_code": "60622"
	},
	{
		"venue_id": "yelpdOoSeTPXsQwIPJ1hzXfbNg",
		"venue_name": "Louise Nevelson's Dawn Shadows",
		"latitude": 41.88227,
		"longitude": -87.63427,
		"address1": "200 W Madison St",
		"address2": "",
		"address3": null,
		"city": "Chicago",
		"state": "IL",
		"zip_code": "60606"
	},
	{
		"venue_id": "yelpjvnV21Rq8tpguq-bxgrQIw",
		"venue_name": "The Flight of Daedalus and Icarus By Roger Brown 1991",
		"latitude": 41.88371,
		"longitude": -87.63291,
		"address1": "120 North LaSalle St",
		"address2": "",
		"address3": null,
		"city": "Chicago",
		"state": "IL",
		"zip_code": "60602"
	},
	{
		"venue_id": "yelpfjxk1cu1nXM1L4N9BJEqkA",
		"venue_name": "300 S Wacker",
		"latitude": 41.877657,
		"longitude": -87.637106,
		"address1": "300 S Wacker Dr",
		"address2": "",
		"address3": null,
		"city": "Chicago",
		"state": "IL",
		"zip_code": "60606"
	},
	{
		"venue_id": "yelp8x4UAc6VKtXoKi6ta3G_xA",
		"venue_name": "Occupy Chicago",
		"latitude": 41.8831634521484,
		"longitude": -87.6272430419922,
		"address1": "La Salle Jackson",
		"address2": "",
		"address3": "Congress Michigan",
		"city": "Chicago",
		"state": "IL",
		"zip_code": "60602"
	},
	{
		"venue_id": "yelp3-6_fanknvWQmmSdJUWYlA",
		"venue_name": "Michigan Ave",
		"latitude": 41.88745,
		"longitude": -87.62502,
		"address1": "320 N Michigan Ave",
		"address2": "",
		"address3": null,
		"city": "Chicago",
		"state": "IL",
		"zip_code": "60601"
	},
	{
		"venue_id": "yelpgQB15Lm36feKHqW4UNtMEg",
		"venue_name": "Yelp Chicago's Five Star Fair",
		"latitude": 41.88862,
		"longitude": -87.63539,
		"address1": "222 West Merchandise Mart Plz",
		"address2": null,
		"address3": "Fl 5 Cafeteria",
		"city": "Chicago",
		"state": "IL",
		"zip_code": "60654"
	},
	{
		"venue_id": "yelpgLH-G4jaCqzi9pQdXEw19w",
		"venue_name": "Goethe Statue",
		"latitude": 41.9329158,
		"longitude": -87.639332,
		"address1": "N Sheridan Rd",
		"address2": "",
		"address3": null,
		"city": "Chicago",
		"state": "IL",
		"zip_code": "60613"
	},
	{
		"venue_id": "yelp_u2S_R6S9IXXZnMQZ-6grw",
		"venue_name": "Chicago Skyline",
		"latitude": 41.866324,
		"longitude": -87.609354,
		"address1": "1300 S Lake Shore Dr",
		"address2": "",
		"address3": null,
		"city": "Chicago",
		"state": "IL",
		"zip_code": "60605"
	},
	{
		"venue_id": "yelpG3lasyruRa29Upat4m_3cg",
		"venue_name": "Flash UYE: Chicago Cultural Center",
		"latitude": 41.8839695251236,
		"longitude": -87.6248842432177,
		"address1": "78 E Washington St",
		"address2": "",
		"address3": null,
		"city": "Chicago",
		"state": "IL",
		"zip_code": "60602"
	},
	{
		"venue_id": "yelpmQsu3rlKDn0ofRAXkc2Biw",
		"venue_name": "The Chicago Model",
		"latitude": 41.8785269564719,
		"longitude": -87.6246556582313,
		"address1": "The Santa Fe Building",
		"address2": "",
		"address3": "224 S Michigan",
		"city": "Chicago",
		"state": "IL",
		"zip_code": "60604"
	},
	{
		"venue_id": "yelpRSKb7dAZFwcl8Z9dh0m3vw",
		"venue_name": "Northalsted",
		"latitude": 41.93986,
		"longitude": -87.64652,
		"address1": "",
		"address2": "",
		"address3": "",
		"city": "Chicago",
		"state": "IL",
		"zip_code": "60657"
	},
	{
		"venue_id": "yelp1mIKU7qmqaXRo2LnKva-Bg",
		"venue_name": "Fashion Focus",
		"latitude": 41.8858375549316,
		"longitude": -87.6213607788086,
		"address1": "Millennium Park Chase Promenade N",
		"address2": "",
		"address3": "",
		"city": "Chicago",
		"state": "IL",
		"zip_code": "60601"
	},
	{
		"venue_id": "yelps4ptb2-nMaSZ09htEUcEHg",
		"venue_name": "Red Eye Street Team",
		"latitude": 41.8944091796875,
		"longitude": -87.6181716918945,
		"address1": "L Stops Everywhere",
		"address2": null,
		"address3": "",
		"city": "Chicago",
		"state": "IL",
		"zip_code": "60611"
	},
	{
		"venue_id": "yelp5tT5OW4DINlvrFE6rINqRg",
		"venue_name": "Clark Johnson Orchestra",
		"latitude": 41.8858375549316,
		"longitude": -87.6213607788086,
		"address1": "",
		"address2": "",
		"address3": "",
		"city": "Chicago",
		"state": "IL",
		"zip_code": "60601"
	},
	{
		"venue_id": "yelpEoV4h9W3en08eE4VMEEkBw",
		"venue_name": "Original White Castle Landmark Building",
		"latitude": 41.8525100637841,
		"longitude": -87.6252184165589,
		"address1": "43 E Cermak Rd",
		"address2": "",
		"address3": null,
		"city": "Chicago",
		"state": "IL",
		"zip_code": "60616"
	},
	{
		"venue_id": "yelpZMUil8jR9Efot0uK0FrTwg",
		"venue_name": "The Chicago Fallen Firefighter and Paramedic Memorial Park",
		"latitude": 41.8474388122559,
		"longitude": -87.6110687255859,
		"address1": "2300 S Ft Dearborn Dr",
		"address2": "",
		"address3": null,
		"city": "Chicago",
		"state": "IL",
		"zip_code": "60616"
	},
	{
		"venue_id": "yelpIs-0CSEk2z43-BseeCGl6A",
		"venue_name": "Friends of Danny Boy",
		"latitude": 41.831199,
		"longitude": -87.656578,
		"address1": "1200 West 35th St",
		"address2": "Ste 298",
		"address3": "",
		"city": "Chicago",
		"state": "IL",
		"zip_code": "60609"
	},
	{
		"venue_id": "yelpDuha-GngCUPkq9uBgrw4kw",
		"venue_name": "Little India",
		"latitude": 41.9973900059161,
		"longitude": -87.6944998651743,
		"address1": "",
		"address2": "",
		"address3": null,
		"city": "Chicago",
		"state": "IL",
		"zip_code": "60659"
	},
	{
		"venue_id": "yelpEYbIokOuoXhAvxOzjGZ0oA",
		"venue_name": "47th St Mural",
		"latitude": 41.80969,
		"longitude": -87.59244,
		"address1": "47th St & Lake Park Ave",
		"address2": "",
		"address3": "",
		"city": "Chicago",
		"state": "IL",
		"zip_code": "60615"
	},
	{
		"venue_id": "yelpBmEUFQCtE_GCnjugRq0f8w",
		"venue_name": "Pizza Fest",
		"latitude": 41.9252906635794,
		"longitude": -87.6584548040459,
		"address1": "Fullerton & Racine",
		"address2": "",
		"address3": "",
		"city": "Chicago",
		"state": "IL",
		"zip_code": "60686"
	},
	{
		"venue_id": "yelpnBLiq4W6630qm1x0Fjw2ew",
		"venue_name": "Annual Ukrainian Days Festival",
		"latitude": 41.891845,
		"longitude": -87.690013,
		"address1": "2500 W Grand Ave",
		"address2": "",
		"address3": "Smith Park",
		"city": "Chicago",
		"state": "IL",
		"zip_code": "60612"
	},
	{
		"venue_id": "yelp1lIipjDb9tL-sP4M9dw-zQ",
		"venue_name": "TLC Block Party",
		"latitude": 41.8638874,
		"longitude": -87.6146483,
		"address1": "1410 Museum Campus Dr",
		"address2": null,
		"address3": "Stadium Green At Soldier Field",
		"city": "Chicago",
		"state": "IL",
		"zip_code": "60605"
	},
	{
		"venue_id": "yelpo1Xf4z_tN0Ggc8_-VUt6MQ",
		"venue_name": "Boulevard Bash",
		"latitude": 41.92898,
		"longitude": -87.70262,
		"address1": "3000 W Logan Blvd",
		"address2": "",
		"address3": "",
		"city": "Chicago",
		"state": "IL",
		"zip_code": "60647"
	},
	{
		"venue_id": "yelpp2zjUar96470f-HlQdW58Q",
		"venue_name": "Greektown Chicago SSA #16",
		"latitude": 41.877629,
		"longitude": -87.6475461,
		"address1": "306 S Halsted St",
		"address2": "Fl 2",
		"address3": null,
		"city": "Chicago",
		"state": "IL",
		"zip_code": "60661"
	},
	{
		"venue_id": "yelpX9-y68T7RWzXt1RWEM6OHA",
		"venue_name": "Exelon Plaza",
		"latitude": 41.8817062,
		"longitude": -87.6306915,
		"address1": "21 S Clark St",
		"address2": "",
		"address3": "",
		"city": "Chicago",
		"state": "IL",
		"zip_code": "60603"
	},
	{
		"venue_id": "yelpIoG5kFlDlFYafYBE2UVwfw",
		"venue_name": "Monument with Standing Beast",
		"latitude": 41.88494,
		"longitude": -87.63168,
		"address1": "100 W Randolph St",
		"address2": "",
		"address3": null,
		"city": "Chicago",
		"state": "IL",
		"zip_code": "60601"
	},
	{
		"venue_id": "yelp1G_MyX3P7nsUFnYlyTUhvw",
		"venue_name": "River North Wine Fest",
		"latitude": 41.88882,
		"longitude": -87.6332,
		"address1": "155 West Kinzie St",
		"address2": "",
		"address3": null,
		"city": "Chicago",
		"state": "IL",
		"zip_code": "60654"
	},
	{
		"venue_id": "yelpWN0EZcm1v1p2G8I6Hobi4w",
		"venue_name": "Chicago Gourmet 2010",
		"latitude": 41.8834,
		"longitude": -87.62246,
		"address1": "201 E Randolph St",
		"address2": "",
		"address3": "",
		"city": "Chicago",
		"state": "IL",
		"zip_code": "60601"
	},
	{
		"venue_id": "yelpwSHVyJ-vPCAVt2Ac7XuhWw",
		"venue_name": "Greektown Chicago",
		"latitude": 41.8797795347444,
		"longitude": -87.64727264816,
		"address1": "306 S Halsted St",
		"address2": "Ste 1 N",
		"address3": null,
		"city": "Chicago",
		"state": "IL",
		"zip_code": "60661"
	},
	{
		"venue_id": "yelpbLEN4T8eumljpp5DEvSakA",
		"venue_name": "You Know What You Should Do",
		"latitude": 41.9197611,
		"longitude": -87.6361666,
		"address1": "2045 N Lincoln Park W",
		"address2": "",
		"address3": null,
		"city": "Chicago",
		"state": "IL",
		"zip_code": "60614"
	},
	{
		"venue_id": "yelpx-0GgrjiAehjU5H4VjBzIA",
		"venue_name": "Harvest Dinner",
		"latitude": 41.9251327514648,
		"longitude": -87.7079010009766,
		"address1": "2408 N Kedzie Blvd",
		"address2": "",
		"address3": null,
		"city": "Chicago",
		"state": "IL",
		"zip_code": "60647"
	},
	{
		"venue_id": "yelpf2IQLgTjXrmiz_gv8dRxlA",
		"venue_name": "Gapers Block Annual Block Party",
		"latitude": 41.95448,
		"longitude": -87.65122,
		"address1": "",
		"address2": "",
		"address3": "",
		"city": "Chicago",
		"state": "IL",
		"zip_code": "60613"
	},
	{
		"venue_id": "yelpFQigD2qdi5vRwSfZ3AlNvQ",
		"venue_name": "Wine Crush in Old Town",
		"latitude": 41.9115791320801,
		"longitude": -87.6352691650391,
		"address1": "1600 N Wells",
		"address2": "",
		"address3": "",
		"city": "Chicago",
		"state": "IL",
		"zip_code": "60614"
	},
	{
		"venue_id": "yelpNCQPuIRB56ANrndz5YpsNw",
		"venue_name": "The  Chicago Loop",
		"latitude": 41.88032,
		"longitude": -87.62693,
		"address1": "27 E Monroe St",
		"address2": "Ste 900 A",
		"address3": "",
		"city": "Chicago",
		"state": "IL",
		"zip_code": "60686"
	},
	{
		"venue_id": "yelpFGZjwa1pxU-HRr7JMXTNuQ",
		"venue_name": "Tony Tasset's Snow Sculpture for Chicago",
		"latitude": 41.89574,
		"longitude": -87.66792,
		"address1": "1613 W Chicago Ave",
		"address2": "",
		"address3": "",
		"city": "Chicago",
		"state": "IL",
		"zip_code": "60622"
	},
	{
		"venue_id": "yelp6fSlFX9HbCWAR2yKFP7XVQ",
		"venue_name": "Super Bears Shuffle 5k",
		"latitude": 41.8638874,
		"longitude": -87.6146483,
		"address1": "1410 S Museum Campus Dr",
		"address2": "",
		"address3": "",
		"city": "Chicago",
		"state": "IL",
		"zip_code": "60605"
	},
	{
		"venue_id": "yelpxX32Aw0y75LAKFNCvYcNUw",
		"venue_name": "International Pillow Fight Day -Chicago",
		"latitude": 41.85,
		"longitude": -87.65,
		"address1": "",
		"address2": "",
		"address3": "",
		"city": "Chicago",
		"state": "IL",
		"zip_code": "60686"
	},
	{
		"venue_id": "yelpFwDxAHA4_p7Mw5BrtA0Yhw",
		"venue_name": "Whiskey Wine & Moonshine",
		"latitude": 41.9231872558594,
		"longitude": -87.6451644897461,
		"address1": "2251 N Lincoln Ave",
		"address2": "",
		"address3": "",
		"city": "Chicago",
		"state": "IL",
		"zip_code": "60614"
	},
	{
		"venue_id": "yelpVFhIkIzbYvOfoK9_GTJKgA",
		"venue_name": "Forest Park St. Patrick's Day Parade",
		"latitude": 41.8795507664007,
		"longitude": -87.811594159957,
		"address1": "Downtown Forest Park Madison St",
		"address2": "",
		"address3": "Madison Street",
		"city": "Forest Park",
		"state": "IL",
		"zip_code": "60130"
	},
	{
		"venue_id": "yelpkSZ0d-sFJKuD-PmznUlzFA",
		"venue_name": "Georgies at Kinzie",
		"latitude": 41.9572062045336,
		"longitude": -87.7106534689665,
		"address1": "4148 North Spaulding Ave",
		"address2": "",
		"address3": null,
		"city": "Chicago",
		"state": "IL",
		"zip_code": "60618"
	},
	{
		"venue_id": "yelpuwkZ9tzgfeyvN6ENXjpcWg",
		"venue_name": "Patrick Stephen Baker's",
		"latitude": 41.9210815429688,
		"longitude": -87.7023468017578,
		"address1": "Corner of Pomp & Circumstance",
		"address2": "",
		"address3": "",
		"city": "Chicago",
		"state": "IL",
		"zip_code": "60647"
	},
	{
		"venue_id": "yelpEhy7cV55EvLwDM-KC6LiIg",
		"venue_name": "Premiere Hoops",
		"latitude": 41.8649201,
		"longitude": -87.6567549,
		"address1": "1312 S Racine",
		"address2": "",
		"address3": "",
		"city": "Chicago",
		"state": "IL",
		"zip_code": "60608"
	},
	{
		"venue_id": "yelpRjGyX6JA8sl6UuDeKdAcCA",
		"venue_name": "Three Course's the Charm at Latinicity's Menu Showcase for Yelp",
		"latitude": 41.88379,
		"longitude": -87.62826,
		"address1": "108 N State St",
		"address2": "",
		"address3": null,
		"city": "Chicago",
		"state": "IL",
		"zip_code": "60602"
	},
	{
		"venue_id": "yelp3abKdqPlTgaOvI9Sfvt7Mw",
		"venue_name": "Mars Station",
		"latitude": 41.91875,
		"longitude": -87.79538,
		"address1": "6801 W Shakespeare Ave",
		"address2": "",
		"address3": "",
		"city": "Elmwood Park",
		"state": "IL",
		"zip_code": "60707"
	},
	{
		"venue_id": "yelpy9rYYK9LbPM1FWJBixjBYg",
		"venue_name": "Family Farmed Expo",
		"latitude": 41.9087151,
		"longitude": -87.8051184,
		"address1": "7115 W North Ave",
		"address2": "Ste 504",
		"address3": "",
		"city": "Oak Park",
		"state": "IL",
		"zip_code": "60302"
	}
]