[
	{
		"venue_id": "yelpboE4Ahsssqic7o5wQLI04w",
		"venue_name": "The Purple Pig",
		"latitude": 41.89101954311,
		"longitude": -87.6245617816512,
		"address1": "500 N Michigan Ave",
		"address2": null,
		"address3": "",
		"city": "Chicago",
		"state": "IL",
		"zip_code": "60611"
	},
	{
		"venue_id": "yelpmvFimrcREBIDo-pLAhMfNg",
		"venue_name": "Avec",
		"latitude": 41.884290441849,
		"longitude": -87.6433979433133,
		"address1": "615 W Randolph St",
		"address2": "",
		"address3": "",
		"city": "Chicago",
		"state": "IL",
		"zip_code": "60661"
	},
	{
		"venue_id": "yelp_UJ3KqtHIHjExbAg-iIGUA",
		"venue_name": "Greek Islands Restaurant",
		"latitude": 41.87896,
		"longitude": -87.64763,
		"address1": "200 S Halsted St",
		"address2": "",
		"address3": "",
		"city": "Chicago",
		"state": "IL",
		"zip_code": "60661"
	},
	{
		"venue_id": "yelp_wtMT97gelNAyfI82FPFvA",
		"venue_name": "3 Arts Club Cafe",
		"latitude": 41.9058,
		"longitude": -87.63047,
		"address1": "1300 N Dearborn Pkwy",
		"address2": "",
		"address3": "",
		"city": "Chicago",
		"state": "IL",
		"zip_code": "60610"
	},
	{
		"venue_id": "yelpO6uWHgJzylSjWjPSJKGhnQ",
		"venue_name": "Sultan's Market",
		"latitude": 41.910362,
		"longitude": -87.67973,
		"address1": "2057 W North Ave",
		"address2": "",
		"address3": "",
		"city": "Chicago",
		"state": "IL",
		"zip_code": "60647"
	},
	{
		"venue_id": "yelpwzw3aysUi9sBq-wLb6OXbQ",
		"venue_name": "Zizi's Cafe",
		"latitude": 41.9333149343307,
		"longitude": -87.6537242180222,
		"address1": "2825 N Sheffield Ave",
		"address2": "",
		"address3": "",
		"city": "Chicago",
		"state": "IL",
		"zip_code": "60657"
	},
	{
		"venue_id": "yelp8j97C2qR95tvpbGtoFxEAw",
		"venue_name": "Noon O Kabab",
		"latitude": 41.9663223,
		"longitude": -87.7082342,
		"address1": "4661 N Kedzie Ave",
		"address2": "",
		"address3": "",
		"city": "Chicago",
		"state": "IL",
		"zip_code": "60625"
	},
	{
		"venue_id": "yelptuJraaFffIS_JNK_4ZqGTA",
		"venue_name": "\u0112ma",
		"latitude": 41.8909649,
		"longitude": -87.6306233,
		"address1": "74 W Illinois St",
		"address2": null,
		"address3": null,
		"city": "Chicago",
		"state": "IL",
		"zip_code": "60654"
	},
	{
		"venue_id": "yelpqXpvnq1EJ27iuoghG5A4-g",
		"venue_name": "The Gundis",
		"latitude": 41.9350992,
		"longitude": -87.646744,
		"address1": "2909 N Clark St",
		"address2": "",
		"address3": null,
		"city": "Chicago",
		"state": "IL",
		"zip_code": "60657"
	},
	{
		"venue_id": "yelpeouoOadI4bWZqBRxWhok-w",
		"venue_name": "Taza Cafe",
		"latitude": 41.88528255359,
		"longitude": -87.635568761842,
		"address1": "176 N Franklin St",
		"address2": null,
		"address3": "",
		"city": "Chicago",
		"state": "IL",
		"zip_code": "60606"
	},
	{
		"venue_id": "yelpAu1f1UMmKcgOXLsg4v56xw",
		"venue_name": "Little Bucharest Bistro",
		"latitude": 41.94799,
		"longitude": -87.7105,
		"address1": "3661 N Elston Ave",
		"address2": null,
		"address3": "",
		"city": "Chicago",
		"state": "IL",
		"zip_code": "60618"
	},
	{
		"venue_id": "yelp0BvxoQf0-fAfhUudd-bXFw",
		"venue_name": "Naf Naf Grill",
		"latitude": 41.887581,
		"longitude": -87.624981,
		"address1": "326 N Michigan Ave",
		"address2": "",
		"address3": "",
		"city": "Chicago",
		"state": "IL",
		"zip_code": "60601"
	},
	{
		"venue_id": "yelpecFp44Y6EGdgtmZ-jPqaYA",
		"venue_name": "Pi-Hi Cafe",
		"latitude": 41.9460656925374,
		"longitude": -87.6877528213354,
		"address1": "3539 N Western Ave",
		"address2": "",
		"address3": "",
		"city": "Chicago",
		"state": "IL",
		"zip_code": "60618"
	},
	{
		"venue_id": "yelp9MiP2wtclPG5EljSVJHo4g",
		"venue_name": "Dawali Mediterranean Kitchen",
		"latitude": 41.9117,
		"longitude": -87.64793,
		"address1": "1625 N Halsted St",
		"address2": null,
		"address3": "",
		"city": "Chicago",
		"state": "IL",
		"zip_code": "60614"
	},
	{
		"venue_id": "yelpt5ITATMeEW0bgFniS053Vg",
		"venue_name": "Falafel & Grill",
		"latitude": 41.90589,
		"longitude": -87.67017,
		"address1": "1317 N Milwaukee Ave",
		"address2": "",
		"address3": "",
		"city": "Chicago",
		"state": "IL",
		"zip_code": "60622"
	},
	{
		"venue_id": "yelpYqzDH4OmV43NeD1h4yu7Tg",
		"venue_name": "Kabobi Grill",
		"latitude": 41.9680551997115,
		"longitude": -87.7086880803108,
		"address1": "4748 N Kedzie Ave",
		"address2": null,
		"address3": "",
		"city": "Chicago",
		"state": "IL",
		"zip_code": "60625"
	},
	{
		"venue_id": "yelphp3xMQCqoa2yPxD1wYrwhg",
		"venue_name": "Cairo Kebab",
		"latitude": 41.92543,
		"longitude": -87.66681,
		"address1": "1524 W Fullerton Ave",
		"address2": null,
		"address3": "",
		"city": "Chicago",
		"state": "IL",
		"zip_code": "60614"
	},
	{
		"venue_id": "yelpv9M8cIvfbOfiQ0asmIxEhQ",
		"venue_name": "Pars Cove Restaurant",
		"latitude": 41.932758,
		"longitude": -87.640861,
		"address1": "435 W Diversey Pkwy",
		"address2": "",
		"address3": "",
		"city": "Chicago",
		"state": "IL",
		"zip_code": "60614"
	},
	{
		"venue_id": "yelpxy2FBJGECy-pxf0U9b2-eQ",
		"venue_name": "Sultan's Market",
		"latitude": 41.9284272,
		"longitude": -87.6420285,
		"address1": "2521 N Clark St",
		"address2": "",
		"address3": "",
		"city": "Chicago",
		"state": "IL",
		"zip_code": "60614"
	},
	{
		"venue_id": "yelpYJMFBlFB_dBpEQ370MO92g",
		"venue_name": "Athenian Room",
		"latitude": 41.9217435,
		"longitude": -87.6490466,
		"address1": "807 W Webster Ave",
		"address2": "",
		"address3": "",
		"city": "Chicago",
		"state": "IL",
		"zip_code": "60614"
	},
	{
		"venue_id": "yelpwehHaAAnkl1G51jRnkNEVg",
		"venue_name": "Oasis Cafe",
		"latitude": 41.882755,
		"longitude": -87.6260309,
		"address1": "21 N Wabash Ave",
		"address2": "",
		"address3": "",
		"city": "Chicago",
		"state": "IL",
		"zip_code": "60602"
	},
	{
		"venue_id": "yelplgdxwmfYeHFd-BVhZnTGfQ",
		"venue_name": "Eden",
		"latitude": 41.885285031685,
		"longitude": -87.6709473878145,
		"address1": "1748 W Lake St",
		"address2": "",
		"address3": null,
		"city": "Chicago",
		"state": "IL",
		"zip_code": "60612"
	},
	{
		"venue_id": "yelp-GpYHa2AAm-3vmr8hoDC1Q",
		"venue_name": "Pera Turkish Kitchen & Bar",
		"latitude": 41.93382,
		"longitude": -87.6443,
		"address1": "2833 N Broadway St",
		"address2": "",
		"address3": null,
		"city": "Chicago",
		"state": "IL",
		"zip_code": "60657"
	},
	{
		"venue_id": "yelpXHTod-9H66e1krXYQjxRBQ",
		"venue_name": "Fig & Olive - Chicago",
		"latitude": 41.901044,
		"longitude": -87.625532,
		"address1": "104 East Oak St",
		"address2": "",
		"address3": "",
		"city": "Chicago",
		"state": "IL",
		"zip_code": "60611"
	},
	{
		"venue_id": "yelpAqYFeg1GBwHe4ERL3q_LYg",
		"venue_name": "Ella Elli",
		"latitude": 41.9451151,
		"longitude": -87.6630233,
		"address1": "1349 W Cornelia Ave",
		"address2": null,
		"address3": "",
		"city": "Chicago",
		"state": "IL",
		"zip_code": "60657"
	},
	{
		"venue_id": "yelp9nUrDQ_REhU6sgcgXFAyfA",
		"venue_name": "Aba",
		"latitude": 41.8869441,
		"longitude": -87.6487949,
		"address1": "302 N Green St",
		"address2": "Fl 3",
		"address3": null,
		"city": "Chicago",
		"state": "IL",
		"zip_code": "60607"
	},
	{
		"venue_id": "yelpntLthO5cQDnwn-vKiT3WxA",
		"venue_name": "Zaytune Mediterranean Grill",
		"latitude": 41.8370666503906,
		"longitude": -87.6508560180664,
		"address1": "3129 S Morgan St",
		"address2": "",
		"address3": "",
		"city": "Chicago",
		"state": "IL",
		"zip_code": "60608"
	},
	{
		"venue_id": "yelp9ePSkh6Ht0NR9lE7kNQ_xg",
		"venue_name": "Crave Kabob",
		"latitude": 41.8813351,
		"longitude": -87.66563,
		"address1": "1521 W Madison St",
		"address2": "",
		"address3": null,
		"city": "Chicago",
		"state": "IL",
		"zip_code": "60607"
	},
	{
		"venue_id": "yelpIHb-KcVYS_wZBo4ZTIN_tw",
		"venue_name": "Salam Restaurant",
		"latitude": 41.9657874,
		"longitude": -87.708574,
		"address1": "4636 N Kedzie Ave",
		"address2": "",
		"address3": "",
		"city": "Chicago",
		"state": "IL",
		"zip_code": "60625"
	},
	{
		"venue_id": "yelpCLuaGuxDvRO2IYdWNRw7hw",
		"venue_name": "Benjyehuda",
		"latitude": 41.87695,
		"longitude": -87.634243,
		"address1": "212 W Van Buren",
		"address2": "",
		"address3": "",
		"city": "Chicago",
		"state": "IL",
		"zip_code": "60607"
	},
	{
		"venue_id": "yelpM5HhmNtjK6z1gpsTTV6T7w",
		"venue_name": "Restaurant Sarajevo",
		"latitude": 41.96835,
		"longitude": -87.69668,
		"address1": "2701 W Lawrence Ave",
		"address2": "",
		"address3": "",
		"city": "Chicago",
		"state": "IL",
		"zip_code": "60625"
	},
	{
		"venue_id": "yelpXUuowLQFgy8Bo7xpeb5bkw",
		"venue_name": "Taxim",
		"latitude": 41.9098026,
		"longitude": -87.6767066,
		"address1": "1558 N Milwaukee Ave",
		"address2": null,
		"address3": "",
		"city": "Chicago",
		"state": "IL",
		"zip_code": "60622"
	},
	{
		"venue_id": "yelpjpNBqkHd8gh3ZJnwR1aubg",
		"venue_name": "Troy Mediterranean Grill",
		"latitude": 41.935216,
		"longitude": -87.644337,
		"address1": "2908 N Broadway Ave",
		"address2": "",
		"address3": "",
		"city": "Chicago",
		"state": "IL",
		"zip_code": "60657"
	},
	{
		"venue_id": "yelp-sQAdsG5rFgpBDkaO6qYwA",
		"venue_name": "Zam Zam",
		"latitude": 41.94515,
		"longitude": -87.65463,
		"address1": "3461 N Clark St",
		"address2": null,
		"address3": "",
		"city": "Chicago",
		"state": "IL",
		"zip_code": "60657"
	},
	{
		"venue_id": "yelp1uqwWskpD_i2Icx0f9S8jg",
		"venue_name": "Roti Modern Mediterranean",
		"latitude": 41.88273,
		"longitude": -87.62906,
		"address1": "33 N Dearborn",
		"address2": "",
		"address3": "",
		"city": "Chicago",
		"state": "IL",
		"zip_code": "60602"
	},
	{
		"venue_id": "yelpnHpdKk4hYQVbYyT-CeD7_Q",
		"venue_name": "Athena Greek Restaurant",
		"latitude": 41.87864,
		"longitude": -87.64762,
		"address1": "212 S Halsted St",
		"address2": "",
		"address3": "",
		"city": "Chicago",
		"state": "IL",
		"zip_code": "60661"
	},
	{
		"venue_id": "yelpnj_Ophi8XsZLoQ0MfWnYiA",
		"venue_name": "Kurah Mediterranean",
		"latitude": 41.8641894688991,
		"longitude": -87.6238789171966,
		"address1": "1355 S Michigan Ave",
		"address2": null,
		"address3": "",
		"city": "Chicago",
		"state": "IL",
		"zip_code": "60605"
	},
	{
		"venue_id": "yelp44LpJniMmz3O-VPMziXoTw",
		"venue_name": "Nia",
		"latitude": 41.8842587674927,
		"longitude": -87.647677094592,
		"address1": "803 W Randolph St",
		"address2": "",
		"address3": "",
		"city": "Chicago",
		"state": "IL",
		"zip_code": "60607"
	},
	{
		"venue_id": "yelpN_1edjdTR11IZ4vw4dZMPA",
		"venue_name": "Sayat Nova",
		"latitude": 41.8923110961914,
		"longitude": -87.6232223510742,
		"address1": "157 E Ohio St",
		"address2": "",
		"address3": "",
		"city": "Chicago",
		"state": "IL",
		"zip_code": "60611"
	},
	{
		"venue_id": "yelpmLw2Ctbk7zpQ3N3Hm87S7g",
		"venue_name": "Zachi Express",
		"latitude": 41.9402482,
		"longitude": -87.6446729,
		"address1": "3202 N Broadway St",
		"address2": "",
		"address3": null,
		"city": "Chicago",
		"state": "IL",
		"zip_code": "60657"
	},
	{
		"venue_id": "yelpZZTbDVRmMaXmPKNGTCpWUw",
		"venue_name": "Ameer Kabob",
		"latitude": 41.90084,
		"longitude": -87.66291,
		"address1": "1050 N Milwaukee Ave",
		"address2": "",
		"address3": "",
		"city": "Chicago",
		"state": "IL",
		"zip_code": "60642"
	},
	{
		"venue_id": "yelpnX0eoQLMANnKZAQbB_1vxw",
		"venue_name": "Roti Modern Mediterranean",
		"latitude": 41.88165,
		"longitude": -87.6388749,
		"address1": "10 S Riverside Plz",
		"address2": "",
		"address3": "",
		"city": "Chicago",
		"state": "IL",
		"zip_code": "60606"
	},
	{
		"venue_id": "yelp8BXbNpuPz_WR92_LE8V8kQ",
		"venue_name": "Naf Naf Grill",
		"latitude": 41.8831067876924,
		"longitude": -87.6356236439325,
		"address1": "309 W Washington St",
		"address2": "",
		"address3": "",
		"city": "Chicago",
		"state": "IL",
		"zip_code": "60606"
	},
	{
		"venue_id": "yelpM_mqBbgxyHbj49qo5XlGxw",
		"venue_name": "Reza's Restaurant",
		"latitude": 41.9778895664059,
		"longitude": -87.6681118034762,
		"address1": "5255 N Clark St",
		"address2": "",
		"address3": "",
		"city": "Chicago",
		"state": "IL",
		"zip_code": "60640"
	},
	{
		"venue_id": "yelpYF_UAlKxbKigLeUhsHujKg",
		"venue_name": "BenjYehuda",
		"latitude": 41.8815704,
		"longitude": -87.6326146,
		"address1": "10 S LaSalle St",
		"address2": "",
		"address3": "",
		"city": "Chicago",
		"state": "IL",
		"zip_code": "60603"
	},
	{
		"venue_id": "yelpL-qeoX2SWpQcv8wNTj8XoA",
		"venue_name": "I-Cafe Sukur's Place",
		"latitude": 41.9543468,
		"longitude": -87.674757,
		"address1": "1814 W Irving Park Rd",
		"address2": "",
		"address3": "",
		"city": "Chicago",
		"state": "IL",
		"zip_code": "60613"
	},
	{
		"venue_id": "yelpnXf_dI4UysHdiHSGfOAxgw",
		"venue_name": "Olive Mediterranean Grill",
		"latitude": 41.9106011593253,
		"longitude": -87.6532985692348,
		"address1": "1001 W North Ave",
		"address2": null,
		"address3": "",
		"city": "Chicago",
		"state": "IL",
		"zip_code": "60642"
	},
	{
		"venue_id": "yelpLw1Nz0Gus-RYJsg2Kk8dXw",
		"venue_name": "Shawarma Garden",
		"latitude": 41.9030684,
		"longitude": -87.6768271,
		"address1": "1951 W Division St",
		"address2": "",
		"address3": "",
		"city": "Chicago",
		"state": "IL",
		"zip_code": "60622"
	},
	{
		"venue_id": "yelpsjKS3BR3LJub0GRob_Gvog",
		"venue_name": "Pita Heaven Restaurant",
		"latitude": 41.8660469055176,
		"longitude": -87.6242828369141,
		"address1": "1250 S Michigan Ave",
		"address2": "",
		"address3": "",
		"city": "Chicago",
		"state": "IL",
		"zip_code": "60605"
	},
	{
		"venue_id": "yelpvwH_omuDuYw1iHb8utyMtA",
		"venue_name": "Galata Turkish Restaurant",
		"latitude": 41.86457,
		"longitude": -87.64574,
		"address1": "717 W Maxwell St",
		"address2": null,
		"address3": "",
		"city": "Chicago",
		"state": "IL",
		"zip_code": "60607"
	},
	{
		"venue_id": "yelp-gVKPvkI0wLwvOucJpbd2g",
		"venue_name": "Zebda",
		"latitude": 41.959698,
		"longitude": -87.728001,
		"address1": "4344 N Elston Ave",
		"address2": "",
		"address3": "",
		"city": "Chicago",
		"state": "IL",
		"zip_code": "60641"
	},
	{
		"venue_id": "yelp7ZA31LeJRW4iUb8eEFQluA",
		"venue_name": "Andies Restaurant",
		"latitude": 41.9775873,
		"longitude": -87.6681818,
		"address1": "5253 N Clark St",
		"address2": "",
		"address3": "",
		"city": "Chicago",
		"state": "IL",
		"zip_code": "60640"
	},
	{
		"venue_id": "yelpiBK6BbZkgaKijoHqC-FVdQ",
		"venue_name": "Tarboush Mediterranean Grill",
		"latitude": 41.91087,
		"longitude": -87.66811,
		"address1": "1608 W North Ave",
		"address2": "",
		"address3": "",
		"city": "Chicago",
		"state": "IL",
		"zip_code": "60622"
	},
	{
		"venue_id": "yelptE9iDf1UZWIEeSu3RYbizg",
		"venue_name": "Koko's Mediterranean Grille",
		"latitude": 41.8962001,
		"longitude": -87.6720127,
		"address1": "1760 W Chicago Ave",
		"address2": "",
		"address3": "",
		"city": "Chicago",
		"state": "IL",
		"zip_code": "60622"
	},
	{
		"venue_id": "yelp0WqF9QEQBgNHNr3WXmwS6g",
		"venue_name": "Jubrano's",
		"latitude": 41.86906,
		"longitude": -87.664896,
		"address1": "1519 W Taylor St",
		"address2": "",
		"address3": "",
		"city": "Chicago",
		"state": "IL",
		"zip_code": "60607"
	},
	{
		"venue_id": "yelpywsJZpVHphgcbfbDERiceQ",
		"venue_name": "Chicago's Pita Grill",
		"latitude": 41.93653,
		"longitude": -87.7660779,
		"address1": "3051 N Central Ave",
		"address2": "",
		"address3": "",
		"city": "Chicago",
		"state": "IL",
		"zip_code": "60634"
	},
	{
		"venue_id": "yelpEigu1CDQVAhT5dgwHiqmhw",
		"venue_name": "Falafel Island",
		"latitude": 41.87971,
		"longitude": -87.62674,
		"address1": "24 E Adams St",
		"address2": "",
		"address3": "",
		"city": "Chicago",
		"state": "IL",
		"zip_code": "60603"
	},
	{
		"venue_id": "yelpXf_kaXDPhLe8MzQb0-EHOg",
		"venue_name": "Naf Naf Grill",
		"latitude": 41.881262,
		"longitude": -87.626397,
		"address1": "28 S Wabash Ave",
		"address2": "",
		"address3": "",
		"city": "Chicago",
		"state": "IL",
		"zip_code": "60603"
	},
	{
		"venue_id": "yelplu843HPnwHmxNWg_98HmtQ",
		"venue_name": "IDOF - I Dream Of Falafel",
		"latitude": 41.93966,
		"longitude": -87.65133,
		"address1": "851 W Belmont Ave",
		"address2": "",
		"address3": "",
		"city": "Chicago",
		"state": "IL",
		"zip_code": "60657"
	},
	{
		"venue_id": "yelpcxMvBU1TX8ZzhAZN3L6Pqw",
		"venue_name": "Pazzo's @ 311",
		"latitude": 41.8774744536594,
		"longitude": -87.63618708843,
		"address1": "311 S Wacker Dr",
		"address2": "",
		"address3": "",
		"city": "Chicago",
		"state": "IL",
		"zip_code": "60606"
	},
	{
		"venue_id": "yelpfbYUfhIcHQ10hFFb-lgIUw",
		"venue_name": "Mr Greek Gyros",
		"latitude": 41.8781661987305,
		"longitude": -87.6474990844727,
		"address1": "234 S Halsted St",
		"address2": "",
		"address3": "",
		"city": "Chicago",
		"state": "IL",
		"zip_code": "60661"
	},
	{
		"venue_id": "yelpbPiaa7fgHkC9l7B2HyS0aw",
		"venue_name": "Cedar Palace",
		"latitude": 41.918054,
		"longitude": -87.645757,
		"address1": "655 W Armitage Ave",
		"address2": null,
		"address3": null,
		"city": "Chicago",
		"state": "IL",
		"zip_code": "60614"
	},
	{
		"venue_id": "yelpJ34IIv_BwBR2QN6unAQoHw",
		"venue_name": "Barba Yianni Grecian Taverna",
		"latitude": 41.9684353,
		"longitude": -87.688226,
		"address1": "4761 N Lincoln Ave",
		"address2": "",
		"address3": "",
		"city": "Chicago",
		"state": "IL",
		"zip_code": "60625"
	},
	{
		"venue_id": "yelp7gaJhHKf1o3JLf-43rBNIw",
		"venue_name": "Chicago Halal",
		"latitude": 41.9227796,
		"longitude": -87.6447857,
		"address1": "2233 N Lincoln Ave",
		"address2": null,
		"address3": "",
		"city": "Chicago",
		"state": "IL",
		"zip_code": "60614"
	},
	{
		"venue_id": "yelpwuo4nRC_JFDQ2XTfLRqJyQ",
		"venue_name": "Tiba Restaurant Chicago",
		"latitude": 41.96828,
		"longitude": -87.6971,
		"address1": "2721 W Lawrence Ave",
		"address2": null,
		"address3": "",
		"city": "Chicago",
		"state": "IL",
		"zip_code": "60625"
	},
	{
		"venue_id": "yelpfI7t7MrpcaF5eahpd7qFEQ",
		"venue_name": "Greek Corner",
		"latitude": 41.8994436015486,
		"longitude": -87.6773046628389,
		"address1": "958 N Damen Ave",
		"address2": null,
		"address3": "",
		"city": "Chicago",
		"state": "IL",
		"zip_code": "60622"
	},
	{
		"venue_id": "yelpS7p_Q0gcyTp3IPKJX8H9fw",
		"venue_name": "Jaffa Bagels",
		"latitude": 41.8864511,
		"longitude": -87.6239114,
		"address1": "225 N Michigan Ave",
		"address2": "",
		"address3": "",
		"city": "Chicago",
		"state": "IL",
		"zip_code": "60601"
	},
	{
		"venue_id": "yelp-aIXGAuLnicdsmOutY9ebQ",
		"venue_name": "Terzo Piano",
		"latitude": 41.8807151,
		"longitude": -87.6231733,
		"address1": "159 E Monroe St",
		"address2": "",
		"address3": "",
		"city": "Chicago",
		"state": "IL",
		"zip_code": "60603"
	},
	{
		"venue_id": "yelpoFpi7EtXFUbzb1QfDLk2JA",
		"venue_name": "Le Sud",
		"latitude": 41.94285,
		"longitude": -87.68587,
		"address1": "2301 W Roscoe St",
		"address2": null,
		"address3": "",
		"city": "Chicago",
		"state": "IL",
		"zip_code": "60618"
	},
	{
		"venue_id": "yelpGQzmLIoVRahv-MxfEsPSlQ",
		"venue_name": "Grill & Garden Restaurant",
		"latitude": 41.9785144,
		"longitude": -87.6600996,
		"address1": "5318 North Broadway St",
		"address2": "",
		"address3": "",
		"city": "Chicago",
		"state": "IL",
		"zip_code": "60640"
	},
	{
		"venue_id": "yelp-iC6IMSJaNL8BcWHxvf9Sg",
		"venue_name": "Roti Modern Mediterranean",
		"latitude": 41.879467,
		"longitude": -87.6358,
		"address1": "310 W Adams",
		"address2": "",
		"address3": "",
		"city": "Chicago",
		"state": "IL",
		"zip_code": "60606"
	},
	{
		"venue_id": "yelpFW2yXvdkYWIgtC8A4KoVMQ",
		"venue_name": "Jerusalem Grill",
		"latitude": 41.9377062691616,
		"longitude": -87.7860939502716,
		"address1": "3142 N Narragansett Ave",
		"address2": "",
		"address3": null,
		"city": "Chicago",
		"state": "IL",
		"zip_code": "60634"
	},
	{
		"venue_id": "yelpa2nu5vdYxkg2mb4QAthZUw",
		"venue_name": "Falafel  Dream",
		"latitude": 41.95221,
		"longitude": -87.80747,
		"address1": "3950 N Harlem Ave",
		"address2": "",
		"address3": "",
		"city": "Chicago",
		"state": "IL",
		"zip_code": "60634"
	},
	{
		"venue_id": "yelp-6zP5QS-wP9qpTKM1Aok6g",
		"venue_name": "Couscous Restaurant",
		"latitude": 41.8691366,
		"longitude": -87.6633982,
		"address1": "1445 W Taylor St",
		"address2": "",
		"address3": "",
		"city": "Chicago",
		"state": "IL",
		"zip_code": "60607"
	},
	{
		"venue_id": "yelpxkMyDzigE37cTF_b_FgDDQ",
		"venue_name": "Nesh Mediterranean Grill",
		"latitude": 41.8804661929607,
		"longitude": -87.6338370144367,
		"address1": "110 S Wells St",
		"address2": "",
		"address3": "",
		"city": "Chicago",
		"state": "IL",
		"zip_code": "60606"
	},
	{
		"venue_id": "yelpd58UOFZpehGCQRDdJLPv3A",
		"venue_name": "Mr. Falafel",
		"latitude": 41.997748,
		"longitude": -87.6998236,
		"address1": "6404 N California Ave",
		"address2": null,
		"address3": "",
		"city": "Chicago",
		"state": "IL",
		"zip_code": "60645"
	},
	{
		"venue_id": "yelpvdUA2YrLrmFBTnYbo28sTA",
		"venue_name": "Pita Pit",
		"latitude": 41.9256497,
		"longitude": -87.6492984,
		"address1": "2404 North Lincoln Ave",
		"address2": "",
		"address3": "",
		"city": "Chicago",
		"state": "IL",
		"zip_code": "60614"
	},
	{
		"venue_id": "yelpEL7PGkZSjm_K1I96PAMoNA",
		"venue_name": "9 Muses",
		"latitude": 41.8777101,
		"longitude": -87.6470951,
		"address1": "315 S Halsted St",
		"address2": "",
		"address3": "",
		"city": "Chicago",
		"state": "IL",
		"zip_code": "60661"
	},
	{
		"venue_id": "yelpXSwKa_RHbVs8OVDef1J0pg",
		"venue_name": "Big Boy Gyros",
		"latitude": 41.94612,
		"longitude": -87.68783,
		"address1": "3541 N Western Ave",
		"address2": "",
		"address3": "",
		"city": "Chicago",
		"state": "IL",
		"zip_code": "60618"
	},
	{
		"venue_id": "yelpheyzupRbqxesZeyPxQANyQ",
		"venue_name": "IDOF - I Dream of Falafel",
		"latitude": 41.8783749,
		"longitude": -87.6256791,
		"address1": "60 E Jackson Blvd",
		"address2": "",
		"address3": "",
		"city": "Chicago",
		"state": "IL",
		"zip_code": "60604"
	},
	{
		"venue_id": "yelpcourijd3Rp6kX-lTxVpb5g",
		"venue_name": "Hub's Restaurant",
		"latitude": 41.98204,
		"longitude": -87.69387,
		"address1": "5540 N Lincoln Ave",
		"address2": "",
		"address3": "",
		"city": "Chicago",
		"state": "IL",
		"zip_code": "60625"
	},
	{
		"venue_id": "yelp1rJZHq8Cce3PJxCte1lalw",
		"venue_name": "Roti Modern Mediterranean",
		"latitude": 41.8848,
		"longitude": -87.6342,
		"address1": "200 W Randolph St",
		"address2": "",
		"address3": "",
		"city": "Chicago",
		"state": "IL",
		"zip_code": "60606"
	},
	{
		"venue_id": "yelpGkPTDjjVRMj1G8-BJkS1Ng",
		"venue_name": "Greek Kitchen",
		"latitude": 41.883041,
		"longitude": -87.634366,
		"address1": "219 W Washington St",
		"address2": "",
		"address3": "",
		"city": "Chicago",
		"state": "IL",
		"zip_code": "60606"
	},
	{
		"venue_id": "yelp5vSMh9u2CnGH5NPsXRHSEQ",
		"venue_name": "Karam Grill",
		"latitude": 41.9695228,
		"longitude": -87.708321,
		"address1": "4849 N Kedzie Ave",
		"address2": "",
		"address3": null,
		"city": "Chicago",
		"state": "IL",
		"zip_code": "60625"
	},
	{
		"venue_id": "yelpZEeJZu9BeUD_dY0-bJe2Lw",
		"venue_name": "Pita O Grill",
		"latitude": 41.9835151,
		"longitude": -87.65824,
		"address1": "1103 W Bryn Mawr Ave",
		"address2": "",
		"address3": null,
		"city": "Chicago",
		"state": "IL",
		"zip_code": "60660"
	},
	{
		"venue_id": "yelp9OlNxnd55QuNEbKZqm0yoA",
		"venue_name": "Shawarma Inn",
		"latitude": 41.9181751,
		"longitude": -87.6774399,
		"address1": "2011 N Damen Ave",
		"address2": "",
		"address3": "",
		"city": "Chicago",
		"state": "IL",
		"zip_code": "60647"
	},
	{
		"venue_id": "yelpUX6CgBLmgUUEEoELHhoI9A",
		"venue_name": "Zaatar MedGrill",
		"latitude": 41.917301,
		"longitude": -87.689675,
		"address1": "2459 W Armitage Ave",
		"address2": "",
		"address3": "",
		"city": "Chicago",
		"state": "IL",
		"zip_code": "60647"
	},
	{
		"venue_id": "yelp7MJfKpKnjgi0C9hL-7sTMQ",
		"venue_name": "Roti Modern Mediterranean",
		"latitude": 41.9111,
		"longitude": -87.65344,
		"address1": "1000 W North Ave",
		"address2": "Bldg C",
		"address3": null,
		"city": "Chicago",
		"state": "IL",
		"zip_code": "60642"
	},
	{
		"venue_id": "yelpVKGzplnfvQ4C85K2dEpLfg",
		"venue_name": "Anatolia Kitchen & Bakery",
		"latitude": 41.9392701,
		"longitude": -87.6442551,
		"address1": "3151 N Broadway St",
		"address2": "",
		"address3": null,
		"city": "Chicago",
		"state": "IL",
		"zip_code": "60657"
	},
	{
		"venue_id": "yelpkJwW0lV8ebxbUqr6d-9-dA",
		"venue_name": "Fulton Market Company",
		"latitude": 41.8858492,
		"longitude": -87.6496751,
		"address1": "205 N Peoria St",
		"address2": "",
		"address3": null,
		"city": "Chicago",
		"state": "IL",
		"zip_code": "60607"
	},
	{
		"venue_id": "yelpHBvhP7k4EGfTcI88Wg3DXQ",
		"venue_name": "Mezza Mediterranean Grill",
		"latitude": 41.8817024230957,
		"longitude": -87.6334533691406,
		"address1": "181 W Madison St",
		"address2": "",
		"address3": "",
		"city": "Chicago",
		"state": "IL",
		"zip_code": "60602"
	},
	{
		"venue_id": "yelp4FZTS2Ew-HeelbjhY5zeBw",
		"venue_name": "Fresco Pasta",
		"latitude": 41.91751,
		"longitude": -87.71964,
		"address1": "3706 W Armitage",
		"address2": null,
		"address3": "",
		"city": "Chicago",
		"state": "IL",
		"zip_code": "60647"
	},
	{
		"venue_id": "yelpGB6BnlvkiTDMhym_WrJYfQ",
		"venue_name": "North Ave Falalfel",
		"latitude": 41.9091449,
		"longitude": -87.7954399,
		"address1": "6814 W North Ave",
		"address2": null,
		"address3": "",
		"city": "Chicago",
		"state": "IL",
		"zip_code": "60707"
	},
	{
		"venue_id": "yelpSrvuz8IGFd4roIoml-f2-A",
		"venue_name": "Mezza Mediterranean Grill",
		"latitude": 41.8917667,
		"longitude": -87.624208,
		"address1": "520 N Michigan Ave",
		"address2": "",
		"address3": "",
		"city": "Chicago",
		"state": "IL",
		"zip_code": "60611"
	},
	{
		"venue_id": "yelp3U36iE6Ir_dg3NodDxGzew",
		"venue_name": "IDOF Fresh Mediterranean",
		"latitude": 41.86918,
		"longitude": -87.65541,
		"address1": "1129 W Taylor St",
		"address2": "",
		"address3": null,
		"city": "Chicago",
		"state": "IL",
		"zip_code": "60607"
	},
	{
		"venue_id": "yelpqY7AHkUtFJC9K6uJFdYwTA",
		"venue_name": "Roti Modern Mediterranean",
		"latitude": 41.886106,
		"longitude": -87.624991,
		"address1": "80 E Lake St",
		"address2": "",
		"address3": null,
		"city": "Chicago",
		"state": "IL",
		"zip_code": "60601"
	},
	{
		"venue_id": "yelpG-MiXZmEveHiZlgsSxkiZg",
		"venue_name": "Milo's Pita",
		"latitude": 41.993518,
		"longitude": -87.659774,
		"address1": "6141 N Broadway",
		"address2": null,
		"address3": "",
		"city": "Chicago",
		"state": "IL",
		"zip_code": "60660"
	},
	{
		"venue_id": "yelpGc558RKbp7KNDkAZTHlqPw",
		"venue_name": "Shawarma Stop",
		"latitude": 41.9361,
		"longitude": -87.65367,
		"address1": "947 W Wellington Ave",
		"address2": "",
		"address3": null,
		"city": "Chicago",
		"state": "IL",
		"zip_code": "60657"
	},
	{
		"venue_id": "yelpIqJKz6-IBIbcfUcotMXO8Q",
		"venue_name": "Cafe Istanbul",
		"latitude": 41.9373814027462,
		"longitude": -87.6483453891039,
		"address1": "3037 N Clark St",
		"address2": "",
		"address3": null,
		"city": "Chicago",
		"state": "IL",
		"zip_code": "60657"
	},
	{
		"venue_id": "yelpw6-s9rcX1aocHS0t68odjw",
		"venue_name": "Naf Naf Grill",
		"latitude": 41.8813347882692,
		"longitude": -87.6413682624917,
		"address1": "14 S Clinton St",
		"address2": "",
		"address3": null,
		"city": "Chicago",
		"state": "IL",
		"zip_code": "60661"
	},
	{
		"venue_id": "yelpPzNAxJFwACXoTWE_q6f9AQ",
		"venue_name": "Caff\u00e8 Oliva",
		"latitude": 41.8930064208813,
		"longitude": -87.6133322994751,
		"address1": "550 E Grand Ave",
		"address2": "",
		"address3": "",
		"city": "Chicago",
		"state": "IL",
		"zip_code": "60611"
	},
	{
		"venue_id": "yelp24JpRRgJk0nutWyLFiVfVQ",
		"venue_name": "Morse Gyros & Chicken",
		"latitude": 42.0078027123219,
		"longitude": -87.6652430187031,
		"address1": "1335 W Morse Ave",
		"address2": "",
		"address3": "",
		"city": "Chicago",
		"state": "IL",
		"zip_code": "60626"
	},
	{
		"venue_id": "yelpPbhTObynLXKQE918heQFNw",
		"venue_name": "Baba Pita",
		"latitude": 41.868755,
		"longitude": -87.6853261,
		"address1": "2343 W Taylor St",
		"address2": "",
		"address3": "",
		"city": "Chicago",
		"state": "IL",
		"zip_code": "60612"
	},
	{
		"venue_id": "yelpvxy-Ikt7d2n3LrUky4SWhQ",
		"venue_name": "I Dream of Falafel",
		"latitude": 41.880299,
		"longitude": -87.641889,
		"address1": "555 W Monroe St",
		"address2": "",
		"address3": "",
		"city": "Chicago",
		"state": "IL",
		"zip_code": "60661"
	},
	{
		"venue_id": "yelp3pCsmuHWlse4ZVev7D5Xvw",
		"venue_name": "Autre Monde Caf\u00e9",
		"latitude": 41.8649,
		"longitude": -87.79286,
		"address1": "6727 W Roosevelt Rd",
		"address2": "",
		"address3": "",
		"city": "Berwyn",
		"state": "IL",
		"zip_code": "60402"
	},
	{
		"venue_id": "yelpHiObZSuhumq09SvTmL157g",
		"venue_name": "Habibi's Mediterranean & Mexican Grill",
		"latitude": 41.9758749,
		"longitude": -87.71061,
		"address1": "3246 W Foster Ave",
		"address2": null,
		"address3": "",
		"city": "Chicago",
		"state": "IL",
		"zip_code": "60625"
	},
	{
		"venue_id": "yelp5nK1TxKpOJlAw-L2cebVww",
		"venue_name": "Bread Basket",
		"latitude": 41.9387950341512,
		"longitude": -87.7453918761358,
		"address1": "4725 W Belmont Ave",
		"address2": "",
		"address3": "",
		"city": "Chicago",
		"state": "IL",
		"zip_code": "60641"
	},
	{
		"venue_id": "yelpvi11Aim7og9-Px-LMDsqTQ",
		"venue_name": "Ali Baba Cafe & Restaurant",
		"latitude": 41.9683565,
		"longitude": -87.729919,
		"address1": "4046 W Lawrence Ave",
		"address2": "",
		"address3": "",
		"city": "Chicago",
		"state": "IL",
		"zip_code": "60630"
	},
	{
		"venue_id": "yelpz5nkKjat1z4qinPVUFZ3fA",
		"venue_name": "BenjYehuda",
		"latitude": 41.8825776971372,
		"longitude": -87.6402557109161,
		"address1": "500 W Madison",
		"address2": "",
		"address3": "",
		"city": "Chicago",
		"state": "IL",
		"zip_code": "60661"
	},
	{
		"venue_id": "yelpzVoXJZmRbDbbN6bdZAtzeg",
		"venue_name": "IDOF Fresh Mediterranean",
		"latitude": 42.0019621,
		"longitude": -87.6609512,
		"address1": "6558 N Sheridan Rd",
		"address2": "",
		"address3": null,
		"city": "Chicago",
		"state": "IL",
		"zip_code": "60626"
	},
	{
		"venue_id": "yelpKy6VeoI1-0M0Z46v5gSWwg",
		"venue_name": "The Steak Out",
		"latitude": 41.85365,
		"longitude": -87.62675,
		"address1": "2113 S State St",
		"address2": null,
		"address3": "",
		"city": "Chicago",
		"state": "IL",
		"zip_code": "60616"
	},
	{
		"venue_id": "yelpKF5u34bIz0oaAJW5TDFbWg",
		"venue_name": "Papaspiros",
		"latitude": 41.888847,
		"longitude": -87.794087,
		"address1": "728 Lake St",
		"address2": null,
		"address3": "",
		"city": "Oak Park",
		"state": "IL",
		"zip_code": "60301"
	},
	{
		"venue_id": "yelpj3TxRholLijW1atv_jixMA",
		"venue_name": "Mezza Mediterranean Grill",
		"latitude": 41.8824427,
		"longitude": -87.6394681,
		"address1": "2 N Riverside Plz",
		"address2": null,
		"address3": "",
		"city": "Chicago",
		"state": "IL",
		"zip_code": "60606"
	},
	{
		"venue_id": "yelpkiPqRx1tKWxqoLrWCoko6w",
		"venue_name": "Greek Kitchen",
		"latitude": 41.894459,
		"longitude": -87.62222,
		"address1": "251 E Huron St",
		"address2": "Fl 2",
		"address3": "",
		"city": "Chicago",
		"state": "IL",
		"zip_code": "60611"
	},
	{
		"venue_id": "yelpVeY4IjbkuHqzjFI-Gpf1Ow",
		"venue_name": "Rustico",
		"latitude": 41.888803,
		"longitude": -87.793817,
		"address1": "722 Lake St",
		"address2": "",
		"address3": null,
		"city": "Oak Park",
		"state": "IL",
		"zip_code": "60301"
	},
	{
		"venue_id": "yelppXJSoZChusmb2u2k67gbjA",
		"venue_name": "Steve's Place",
		"latitude": 41.8967842923312,
		"longitude": -87.6354599994636,
		"address1": "230 W Chicago Ave",
		"address2": "",
		"address3": "",
		"city": "Chicago",
		"state": "IL",
		"zip_code": "60610"
	},
	{
		"venue_id": "yelpGLKDBqWDpdY4haKDjXouZw",
		"venue_name": "Falafelji",
		"latitude": 41.8204425158816,
		"longitude": -87.8031288814204,
		"address1": "3910 Harlem Ave",
		"address2": "",
		"address3": "",
		"city": "Lyons",
		"state": "IL",
		"zip_code": "60534"
	},
	{
		"venue_id": "yelpXRgQjx4uqTQCx9CE-NyD7w",
		"venue_name": "Stevo's Grill",
		"latitude": 41.9397202,
		"longitude": -87.6867065,
		"address1": "2326 W Belmont Ave",
		"address2": null,
		"address3": "",
		"city": "Chicago",
		"state": "IL",
		"zip_code": "60618"
	},
	{
		"venue_id": "yelpTmG_SrOhNY0s0SuwMGG1HA",
		"venue_name": "Citrine Cafe",
		"latitude": 41.886688,
		"longitude": -87.794156,
		"address1": "100 S Oak Park Ave",
		"address2": "",
		"address3": "",
		"city": "Oak Park",
		"state": "IL",
		"zip_code": "60302"
	},
	{
		"venue_id": "yelpUu4D4ujmxJL_l1RMXCzp8w",
		"venue_name": "Grape Leaves Restaurant",
		"latitude": 41.886244,
		"longitude": -87.7946107,
		"address1": "129 S Oak Park Ave",
		"address2": "",
		"address3": "",
		"city": "Oak Park",
		"state": "IL",
		"zip_code": "60302"
	},
	{
		"venue_id": "yelpqYqKC2_YrJhc2xGE9DW4rQ",
		"venue_name": "Yemen Restaurant",
		"latitude": 41.9673013547868,
		"longitude": -87.7400847442262,
		"address1": "4748 N Kenneth Ave",
		"address2": "",
		"address3": "",
		"city": "Chicago",
		"state": "IL",
		"zip_code": "60630"
	},
	{
		"venue_id": "yelpU2vD2pVLO1w4CLQXI-bbgQ",
		"venue_name": "Mezza Mediterranean Grill",
		"latitude": 41.888367,
		"longitude": -87.635361,
		"address1": "222 Merchandise Mart Plz",
		"address2": "",
		"address3": "",
		"city": "Chicago",
		"state": "IL",
		"zip_code": "60654"
	},
	{
		"venue_id": "yelptS5-4k816PCEio_7gLBU4g",
		"venue_name": "IDOF Fresh Mediterranean",
		"latitude": 41.8823425,
		"longitude": -87.6336951,
		"address1": "19 N Wells St",
		"address2": "",
		"address3": null,
		"city": "Chicago",
		"state": "IL",
		"zip_code": "60606"
	},
	{
		"venue_id": "yelpDAiKQ2aSoDawgJzmvGiXmQ",
		"venue_name": "FelFel Grill",
		"latitude": 41.9341531,
		"longitude": -87.6461469,
		"address1": "2852 N Clark",
		"address2": "",
		"address3": "",
		"city": "Chicago",
		"state": "IL",
		"zip_code": "60657"
	},
	{
		"venue_id": "yelprmjStZld9wzmS-X-EbmitQ",
		"venue_name": "Toscana Grill",
		"latitude": 41.9788673,
		"longitude": -87.6924649,
		"address1": "5357 N Lincoln",
		"address2": "",
		"address3": "",
		"city": "Chicago",
		"state": "IL",
		"zip_code": "60625"
	},
	{
		"venue_id": "yelp6GR5kUjrz7hlRhiY84aTWQ",
		"venue_name": "Olive Mediterranean Grill",
		"latitude": 41.8907745927572,
		"longitude": -87.6316054165363,
		"address1": "111 W Illinois St",
		"address2": null,
		"address3": "",
		"city": "Chicago",
		"state": "IL",
		"zip_code": "60654"
	},
	{
		"venue_id": "yelpXXm9MSUGojHeY5DhmMVPvw",
		"venue_name": "Petra Falafel",
		"latitude": 41.87931,
		"longitude": -87.8078,
		"address1": "7314 Madison St",
		"address2": "",
		"address3": null,
		"city": "Forest Park",
		"state": "IL",
		"zip_code": "60130"
	},
	{
		"venue_id": "yelpct7aBShG3STtsso3MQk-8Q",
		"venue_name": "Roti Modern Mediterranean",
		"latitude": 41.883967,
		"longitude": -87.641087,
		"address1": "121 N Clinton St",
		"address2": null,
		"address3": "",
		"city": "Chicago",
		"state": "IL",
		"zip_code": "60661"
	},
	{
		"venue_id": "yelp-aOONkNm9xqHXnrEi06e1Q",
		"venue_name": "Cafe Bonhomme",
		"latitude": 41.88531,
		"longitude": -87.63726,
		"address1": "180 N Upper Wacker Dr",
		"address2": "",
		"address3": null,
		"city": "Chicago",
		"state": "IL",
		"zip_code": "60606"
	},
	{
		"venue_id": "yelpOlUhNs5POzpp0BTsRf3RGg",
		"venue_name": "Pita Alsharq",
		"latitude": 41.9673174,
		"longitude": -87.8110868,
		"address1": "7336 W Lawrence Ave",
		"address2": "",
		"address3": "",
		"city": "Harwood Heights",
		"state": "IL",
		"zip_code": "60706"
	},
	{
		"venue_id": "yelp0kY9ZJ_d83-l8j2dcHJJbw",
		"venue_name": "Greek Kitchen",
		"latitude": 41.8766378397654,
		"longitude": -87.6340045590032,
		"address1": "400 S Wells St",
		"address2": "",
		"address3": "",
		"city": "Chicago",
		"state": "IL",
		"zip_code": "60607"
	},
	{
		"venue_id": "yelpHjderTH6aNez9_zXvYDQ0Q",
		"venue_name": "Benjyehuda",
		"latitude": 41.8844263764957,
		"longitude": -87.6338940113783,
		"address1": "145 N Wells St",
		"address2": "",
		"address3": null,
		"city": "Chicago",
		"state": "IL",
		"zip_code": "60606"
	},
	{
		"venue_id": "yelpUXIxRvdo45UBkwQ4BK1K-Q",
		"venue_name": "Greek Kitchen",
		"latitude": 41.8803359,
		"longitude": -87.6313101,
		"address1": "111 W Monroe St",
		"address2": "",
		"address3": "",
		"city": "Chicago",
		"state": "IL",
		"zip_code": "60603"
	},
	{
		"venue_id": "yelpTlqY_G5wJci_E0cHD8rSgA",
		"venue_name": "Olive Mediterranean Grill",
		"latitude": 41.8769739,
		"longitude": -87.6333522,
		"address1": "186 W Van Buren St",
		"address2": "",
		"address3": null,
		"city": "Chicago",
		"state": "IL",
		"zip_code": "60605"
	},
	{
		"venue_id": "yelpIXJr2Dwvg011djl9jZ4udQ",
		"venue_name": "Stella's Carry Out",
		"latitude": 41.9543800354004,
		"longitude": -87.6838150024414,
		"address1": "2200 W Irving Park Rd",
		"address2": "",
		"address3": "",
		"city": "Chicago",
		"state": "IL",
		"zip_code": "60618"
	},
	{
		"venue_id": "yelpZTOrY7bcpxY_-xBbLSda0Q",
		"venue_name": "Mezza Mediterranean Grill",
		"latitude": 41.8777351379395,
		"longitude": -87.6322708129883,
		"address1": "141 W Jackson Blvd",
		"address2": "",
		"address3": "",
		"city": "Chicago",
		"state": "IL",
		"zip_code": "60603"
	},
	{
		"venue_id": "yelp_G6smQGJfyDCq1afVxowWg",
		"venue_name": "Libero Cafe",
		"latitude": 41.9736557,
		"longitude": -87.6920242,
		"address1": "5074-76 N Lincoln",
		"address2": "",
		"address3": "",
		"city": "Chicago",
		"state": "IL",
		"zip_code": "60625"
	},
	{
		"venue_id": "yelpUJ2EoYMwv_Db2VetmwKXYw",
		"venue_name": "Roti Modern Mediterranean",
		"latitude": 41.88459,
		"longitude": -87.65277,
		"address1": "1012 W Randolph St",
		"address2": "",
		"address3": null,
		"city": "Chicago",
		"state": "IL",
		"zip_code": "60607"
	},
	{
		"venue_id": "yelpcG_cV5P_9y0JKpa12R3t9Q",
		"venue_name": "J & N Grille",
		"latitude": 41.9648104329303,
		"longitude": -87.6571294483752,
		"address1": "4570 N Broadway St",
		"address2": "",
		"address3": null,
		"city": "Chicago",
		"state": "IL",
		"zip_code": "60640"
	},
	{
		"venue_id": "yelpFZmJR3gRAEqlctYX7EskfA",
		"venue_name": "IDOF Fresh Mediterranean",
		"latitude": 41.891568,
		"longitude": -87.607375,
		"address1": "600 E Grand Ave",
		"address2": "",
		"address3": null,
		"city": "Chicago",
		"state": "IL",
		"zip_code": "60611"
	},
	{
		"venue_id": "yelpqZ3Bw-BIBO2N1g7mSulgbg",
		"venue_name": "Tanoor Kabob",
		"latitude": 41.84974,
		"longitude": -87.70552,
		"address1": "2304 S Kedzie",
		"address2": null,
		"address3": null,
		"city": "Chicago",
		"state": "IL",
		"zip_code": "60623"
	},
	{
		"venue_id": "yelp1OTcMRQeBi0ZQ1b9zZkiSA",
		"venue_name": "Alibaba Retro Restaurant",
		"latitude": 41.97593,
		"longitude": -87.80673,
		"address1": "5211 N Harlem Ave",
		"address2": null,
		"address3": "",
		"city": "Chicago",
		"state": "IL",
		"zip_code": "60656"
	},
	{
		"venue_id": "yelpP0e2DJrF3a_DEJPXAGBCgg",
		"venue_name": "Westside Gyros & Pita Kabab",
		"latitude": 41.87135,
		"longitude": -87.6865399,
		"address1": "754 S Western Ave",
		"address2": "",
		"address3": "",
		"city": "Chicago",
		"state": "IL",
		"zip_code": "60612"
	},
	{
		"venue_id": "yelploXj9lt31wO6lJEHrgy1vg",
		"venue_name": "Mediterranean Express",
		"latitude": 41.879655,
		"longitude": -87.637467,
		"address1": "150 S Wacker Dr",
		"address2": "",
		"address3": "",
		"city": "Chicago",
		"state": "IL",
		"zip_code": "60610"
	},
	{
		"venue_id": "yelpWDxdTWMif-fhhchm1jt_Yw",
		"venue_name": "Rozana Restaurant",
		"latitude": 41.9931208,
		"longitude": -87.7123646,
		"address1": "6120 N Lincoln Ave",
		"address2": "",
		"address3": "",
		"city": "Chicago",
		"state": "IL",
		"zip_code": "60659"
	},
	{
		"venue_id": "yelpv9d1-W91yQXPRKSk-c44-A",
		"venue_name": "The BISTRO At 151",
		"latitude": 41.8775205,
		"longitude": -87.6136357592774,
		"address1": "151 E Wacker Dr",
		"address2": "",
		"address3": "Hyatt Regency Chicago",
		"city": "Chicago",
		"state": "IL",
		"zip_code": "60601"
	},
	{
		"venue_id": "yelpI0xar9SkgQsUayq0SZBt0g",
		"venue_name": "Village Garden Express",
		"latitude": 41.9104933980976,
		"longitude": -87.643605619669,
		"address1": "1554 N Larrabee St",
		"address2": "",
		"address3": null,
		"city": "Chicago",
		"state": "IL",
		"zip_code": "60610"
	},
	{
		"venue_id": "yelpW2GGegCedVxCMcPoh0oysg",
		"venue_name": "Falafel And Shawarma Corner",
		"latitude": 41.9003299,
		"longitude": -87.63761,
		"address1": "944 N Orleans St",
		"address2": "",
		"address3": null,
		"city": "Chicago",
		"state": "IL",
		"zip_code": "60610"
	},
	{
		"venue_id": "yelpHMGSNk6lzvqqbj6gjWcyvg",
		"venue_name": "Sandella's Capers",
		"latitude": 41.8781967,
		"longitude": -87.6390305,
		"address1": "444 West Jackson Bvld",
		"address2": "Ste 2007",
		"address3": "",
		"city": "Chicago",
		"state": "IL",
		"zip_code": "60606"
	},
	{
		"venue_id": "yelpQoq3JXkbUO93NoCj1ZyO4w",
		"venue_name": "Cafe Crisp",
		"latitude": 41.9341531,
		"longitude": -87.6461469,
		"address1": "2852 N Clark St",
		"address2": "",
		"address3": null,
		"city": "Chicago",
		"state": "IL",
		"zip_code": "60657"
	},
	{
		"venue_id": "yelpDTWQBKHRmcSWIaH3F_bfbQ",
		"venue_name": "Lafa",
		"latitude": 41.98669,
		"longitude": -87.70173,
		"address1": "5800 N Lincoln Ave",
		"address2": "",
		"address3": null,
		"city": "Chicago",
		"state": "IL",
		"zip_code": "60659"
	},
	{
		"venue_id": "yelpeEN8UYdnkb2o6XWqYbIv0g",
		"venue_name": "Roti Modern Mediterranean",
		"latitude": 41.87811,
		"longitude": -87.62571,
		"address1": "55 E Jackson Blvd",
		"address2": null,
		"address3": "",
		"city": "Chicago",
		"state": "IL",
		"zip_code": "60604"
	},
	{
		"venue_id": "yelp0Sg5XdI-eaRbnv2bzwmoiw",
		"venue_name": "Capers Mediterranean",
		"latitude": 41.878639,
		"longitude": -87.638947,
		"address1": "444 W Jackson Blvd",
		"address2": "",
		"address3": "",
		"city": "Chicago",
		"state": "IL",
		"zip_code": "60606"
	},
	{
		"venue_id": "yelp5BiImxKl2DJ-ufuCgzh1Lw",
		"venue_name": "Mamina Kuhinja",
		"latitude": 41.9887941,
		"longitude": -87.6701543,
		"address1": "5910 N Clark St",
		"address2": "",
		"address3": null,
		"city": "Chicago",
		"state": "IL",
		"zip_code": "60660"
	},
	{
		"venue_id": "yelpmv0cVNaibE7uOIWLrm8u5A",
		"venue_name": "Idof Fresh Mediterranian",
		"latitude": 42.0019621,
		"longitude": -87.6609512,
		"address1": "6558 N Sheridan",
		"address2": null,
		"address3": null,
		"city": "Chicago",
		"state": "IL",
		"zip_code": "60626"
	},
	{
		"venue_id": "yelphJtr2NAP3Nz0nun86-K6UQ",
		"venue_name": "Shwarma and Falafal Corner",
		"latitude": 41.9002604683513,
		"longitude": -87.6375760138035,
		"address1": "944 N Orleans St",
		"address2": "",
		"address3": null,
		"city": "Chicago",
		"state": "IL",
		"zip_code": "60610"
	}
]