[
  {
    "venue_id": "yelpAkcZ1fUyB3RocKLYGFu20Q",
    "venue_name": "Art Institute of Chicago",
    "latitude": 41.8796,
    "longitude": -87.623713,
    "address1": "111 S Michigan Ave",
    "address2": "",
    "address3": "",
    "city": "Chicago",
    "state": "IL",
    "zip_code": "60603"
  },
  {
    "venue_id": "yelpHbZM4AiFef0Qd875QsVIaw",
    "venue_name": "The Field Museum",
    "latitude": 41.8663902282715,
    "longitude": -87.6168365478516,
    "address1": "1400 S Lake Shore Dr",
    "address2": "",
    "address3": "",
    "city": "Chicago",
    "state": "IL",
    "zip_code": "60605"
  },
  {
    "venue_id": "yelp0c0sRK0EJy-0cpKm8T3rbg",
    "venue_name": "Chicago Architecture Center",
    "latitude": 41.888041737312,
    "longitude": -87.6235734860398,
    "address1": "111 E Wacker Dr",
    "address2": "",
    "address3": "",
    "city": "Chicago",
    "state": "IL",
    "zip_code": "60601"
  },
  {
    "venue_id": "yelpmL67OJF-5RYheEmVtshQeA",
    "venue_name": "National Museum of Mexican Art",
    "latitude": 41.8560049,
    "longitude": -87.6732899,
    "address1": "1852 W 19th St",
    "address2": "",
    "address3": "",
    "city": "Chicago",
    "state": "IL",
    "zip_code": "60608"
  },
  {
    "venue_id": "yelpJk3Df503X6Y53sFlB_y0Kw",
    "venue_name": "Museum of Contemporary Art",
    "latitude": 41.897133205545,
    "longitude": -87.6214514115064,
    "address1": "220 E Chicago Ave",
    "address2": "",
    "address3": "",
    "city": "Chicago",
    "state": "IL",
    "zip_code": "60611"
  },
  {
    "venue_id": "yelpw4eSvNabRvAgsODaqUEdBw",
    "venue_name": "Chicago History Museum",
    "latitude": 41.9113772,
    "longitude": -87.6315416,
    "address1": "1601 N Clark St",
    "address2": "",
    "address3": "",
    "city": "Chicago",
    "state": "IL",
    "zip_code": "60614"
  },
  {
    "venue_id": "yelpz0luJPSQb4w8953Dci5Kcg",
    "venue_name": "Peggy Notebaert Nature Museum",
    "latitude": 41.9262474775314,
    "longitude": -87.6339550316334,
    "address1": "2430 N Cannon Dr",
    "address2": "",
    "address3": "",
    "city": "Chicago",
    "state": "IL",
    "zip_code": "60614"
  },
  {
    "venue_id": "yelp1Sz1C_jyrjx_f7I7jyyOpw",
    "venue_name": "Driehaus Museum",
    "latitude": 41.8939343632448,
    "longitude": -87.6274770509009,
    "address1": "40 E Erie St",
    "address2": "",
    "address3": "",
    "city": "Chicago",
    "state": "IL",
    "zip_code": "60611"
  },
  {
    "venue_id": "yelpeS79n-Oue8Ez1pNsOo7hVg",
    "venue_name": "Chicago Children's Museum",
    "latitude": 41.891432,
    "longitude": -87.609147,
    "address1": "700 E Grand Ave",
    "address2": "",
    "address3": "",
    "city": "Chicago",
    "state": "IL",
    "zip_code": "60611"
  },
  {
    "venue_id": "yelpyWZvBfOmZuX_JnkHwLDiew",
    "venue_name": "Money Museum",
    "latitude": 41.8784264509655,
    "longitude": -87.6327071338892,
    "address1": "230 S LaSalle St",
    "address2": "",
    "address3": "Federal Reserve Bank of Chicago",
    "city": "Chicago",
    "state": "IL",
    "zip_code": "60604"
  },
  {
    "venue_id": "yelpiac-yzUqZKqCGVSZhWONvw",
    "venue_name": "Museum Campus",
    "latitude": 41.86821,
    "longitude": -87.62733,
    "address1": "",
    "address2": "",
    "address3": "",
    "city": "Chicago",
    "state": "IL",
    "zip_code": "60605"
  },
  {
    "venue_id": "yelp8sZZM3Dr0G46JYBT9h599A",
    "venue_name": "International Museum of Surgical Science",
    "latitude": 41.9102601910586,
    "longitude": -87.6266419992433,
    "address1": "1524 N Lake Shore Dr",
    "address2": "",
    "address3": "",
    "city": "Chicago",
    "state": "IL",
    "zip_code": "60610"
  },
  {
    "venue_id": "yelpGPdbhW48nofVP492dtmJdw",
    "venue_name": "The Modern Wing - Art Institute of Chicago",
    "latitude": 41.8807151,
    "longitude": -87.6231733,
    "address1": "159 E Monroe St",
    "address2": "",
    "address3": "",
    "city": "Chicago",
    "state": "IL",
    "zip_code": "60603"
  },
  {
    "venue_id": "yelp2TFyYhmC2lpGsUOoirQYpg",
    "venue_name": "Intuit: The Center For Intuitive & Outsider Art",
    "latitude": 41.895355,
    "longitude": -87.654615,
    "address1": "756 N Milwaukee Ave",
    "address2": "",
    "address3": "",
    "city": "Chicago",
    "state": "IL",
    "zip_code": "60642"
  },
  {
    "venue_id": "yelpTjFyWaldz0VjPc_uMJ6UiQ",
    "venue_name": "Klairmont Kollections",
    "latitude": 41.9378736180092,
    "longitude": -87.7427605167031,
    "address1": "3117 N Knox",
    "address2": "",
    "address3": null,
    "city": "Chicago",
    "state": "IL",
    "zip_code": "60641"
  },
  {
    "venue_id": "yelp3TF92CS4gqJd43nVcJot7Q",
    "venue_name": "Swedish American Museum",
    "latitude": 41.9766599,
    "longitude": -87.6682977,
    "address1": "5211 N Clark St",
    "address2": "",
    "address3": "",
    "city": "Chicago",
    "state": "IL",
    "zip_code": "60640"
  },
  {
    "venue_id": "yelpR_iDjxHFWoX0P6u6D-t8zw",
    "venue_name": "American Writers Museum",
    "latitude": 41.8855975,
    "longitude": -87.625001,
    "address1": "180 N Michigan Ave",
    "address2": "Fl 2",
    "address3": null,
    "city": "Chicago",
    "state": "IL",
    "zip_code": "60601"
  },
  {
    "venue_id": "yelptl02re5YrNgT3xCvc2G7Ag",
    "venue_name": "Glessner House Museum",
    "latitude": 41.857723236084,
    "longitude": -87.621208190918,
    "address1": "1800 S Prairie Ave",
    "address2": "",
    "address3": "",
    "city": "Chicago",
    "state": "IL",
    "zip_code": "60616"
  },
  {
    "venue_id": "yelp0aaNoHueSD9mmSWOYIW1qg",
    "venue_name": "Mccormick Bridgehouse and Chicago River Museum",
    "latitude": 41.8880302,
    "longitude": -87.6247144,
    "address1": "376 N Michigan Ave",
    "address2": "",
    "address3": "",
    "city": "Chicago",
    "state": "IL",
    "zip_code": "60601"
  },
  {
    "venue_id": "yelpk9ZdgaSp0AgWDEMphgtyrA",
    "venue_name": "Museum of Broadcast Communications",
    "latitude": 41.8891531012943,
    "longitude": -87.628172885675,
    "address1": "360 N State St",
    "address2": "",
    "address3": "",
    "city": "Chicago",
    "state": "IL",
    "zip_code": "60654"
  },
  {
    "venue_id": "yelpZR2i4lzgFiHTv0XQJ0t79g",
    "venue_name": "Museum Of Contemporary Photography",
    "latitude": 41.874423,
    "longitude": -87.6243649,
    "address1": "600 S Michigan Ave",
    "address2": "",
    "address3": "",
    "city": "Chicago",
    "state": "IL",
    "zip_code": "60605"
  },
  {
    "venue_id": "yelp9dEzOkevVNAdMFEIkD5kSw",
    "venue_name": "Frank Lloyd Wright Home and Studio",
    "latitude": 41.894265,
    "longitude": -87.799768,
    "address1": "951 Chicago Ave",
    "address2": "",
    "address3": "",
    "city": "Oak Park",
    "state": "IL",
    "zip_code": "60302"
  },
  {
    "venue_id": "yelpB1PhErldBfvj1MGMRiTrJw",
    "venue_name": "Jane Addams Hull House Museum",
    "latitude": 41.8720602,
    "longitude": -87.6472549,
    "address1": "800 S Halsted St",
    "address2": "",
    "address3": "",
    "city": "Chicago",
    "state": "IL",
    "zip_code": "60607"
  },
  {
    "venue_id": "yelp6BgOYoGfO_4LYfRrN889rg",
    "venue_name": "National Veterans Art Museum",
    "latitude": 41.95449,
    "longitude": -87.74855,
    "address1": "4041 N Milwaukee Ave",
    "address2": "Fl 2",
    "address3": "",
    "city": "Chicago",
    "state": "IL",
    "zip_code": "60641"
  },
  {
    "venue_id": "yelpmEAuaubbgqIlZ8k1pew5Sg",
    "venue_name": "Pritzker Military Museum & Library",
    "latitude": 41.8805952,
    "longitude": -87.6246565,
    "address1": "104 South Michigan Ave",
    "address2": "Ste 400",
    "address3": "",
    "city": "Chicago",
    "state": "IL",
    "zip_code": "60603"
  },
  {
    "venue_id": "yelp7IkwHBuBoMIpHwYzAucOJw",
    "venue_name": "National Hellenic Museum",
    "latitude": 41.87709,
    "longitude": -87.64699,
    "address1": "333 S Halsted St",
    "address2": "",
    "address3": "",
    "city": "Chicago",
    "state": "IL",
    "zip_code": "60661"
  },
  {
    "venue_id": "yelpQ_-j0cbPVVdri-q3IgRHKQ",
    "venue_name": "The Leather Archives & Museum",
    "latitude": 41.9986553,
    "longitude": -87.6681638,
    "address1": "6418 N Greenview Ave",
    "address2": "",
    "address3": "",
    "city": "Chicago",
    "state": "IL",
    "zip_code": "60626"
  },
  {
    "venue_id": "yelpPKp0S24BXd9wzPtwUjeBXg",
    "venue_name": "Loyola University Museum of Art",
    "latitude": 41.8973983,
    "longitude": -87.6249849,
    "address1": "820 N Michigan Ave",
    "address2": "",
    "address3": "",
    "city": "Chicago",
    "state": "IL",
    "zip_code": "60611"
  },
  {
    "venue_id": "yelpZNmkoZhlFHlrnxGLmjNd3g",
    "venue_name": "Ukrainian National Museum",
    "latitude": 41.8947651,
    "longitude": -87.6838599,
    "address1": "2249 W Superior St",
    "address2": "",
    "address3": "",
    "city": "Chicago",
    "state": "IL",
    "zip_code": "60612"
  },
  {
    "venue_id": "yelpVkdGp2kzevnRRnOrUsEeDg",
    "venue_name": "Ukrainian Institute of Modern Art",
    "latitude": 41.89603,
    "longitude": -87.68545,
    "address1": "2320 W Chicago Ave",
    "address2": "",
    "address3": "",
    "city": "Chicago",
    "state": "IL",
    "zip_code": "60622"
  },
  {
    "venue_id": "yelphA6U8ALJsHwHDyp6NUzPhQ",
    "venue_name": "Field Museum Store",
    "latitude": 41.8663902282715,
    "longitude": -87.6168365478516,
    "address1": "1400 S Lake Shore Dr",
    "address2": "",
    "address3": "",
    "city": "Chicago",
    "state": "IL",
    "zip_code": "60646"
  },
  {
    "venue_id": "yelpH7qEvrCe6hl_h_GZXt9-MA",
    "venue_name": "DePaul Art Museum",
    "latitude": 41.9251437602712,
    "longitude": -87.6525233571658,
    "address1": "935 W Fullerton Ave",
    "address2": null,
    "address3": "",
    "city": "Chicago",
    "state": "IL",
    "zip_code": "60614"
  },
  {
    "venue_id": "yelpebxK8sYUPpsR782Lw9RHcg",
    "venue_name": "Chinese-American Museum of Chicago",
    "latitude": 41.8512725830078,
    "longitude": -87.6335296630859,
    "address1": "238 W 23rd St",
    "address2": "",
    "address3": "",
    "city": "Chicago",
    "state": "IL",
    "zip_code": "60616"
  },
  {
    "venue_id": "yelpT6ntUpfmnZzCoQ0xyJJR0A",
    "venue_name": "Design Museum of Chicago",
    "latitude": 41.8838972,
    "longitude": -87.628465,
    "address1": "108 N State St",
    "address2": "Fl 3",
    "address3": null,
    "city": "Chicago",
    "state": "IL",
    "zip_code": "60602"
  },
  {
    "venue_id": "yelp6rWBiMfJqgh5S2JTtaE4Ow",
    "venue_name": "U.S. Pizza Museum",
    "latitude": 41.868273,
    "longitude": -87.6329049,
    "address1": "1146 S Delano Ct W",
    "address2": "",
    "address3": null,
    "city": "Chicago",
    "state": "IL",
    "zip_code": "60605"
  },
  {
    "venue_id": "yelpfZzwf2DOLpoR7bAAvCbyFg",
    "venue_name": "Chicago Sports Museum",
    "latitude": 41.8979675,
    "longitude": -87.6235594,
    "address1": "835 N Michigan Ave",
    "address2": "",
    "address3": "",
    "city": "Chicago",
    "state": "IL",
    "zip_code": "60611"
  },
  {
    "venue_id": "yelpXdbFmXE3LmSui_lusSz6bw",
    "venue_name": "Clarke House Museum",
    "latitude": 41.8570866733231,
    "longitude": -87.6218792157623,
    "address1": "1827 S Indiana Ave",
    "address2": "",
    "address3": "",
    "city": "Chicago",
    "state": "IL",
    "zip_code": "60616"
  },
  {
    "venue_id": "yelpOo8H9bfDMOa-IpbsVunnkw",
    "venue_name": "Polish Museum of America",
    "latitude": 41.8996764,
    "longitude": -87.6610389,
    "address1": "984 N Milwaukee Ave",
    "address2": "",
    "address3": "",
    "city": "Chicago",
    "state": "IL",
    "zip_code": "60622"
  },
  {
    "venue_id": "yelpn9IspWC-5FfRA0fPyBZbjg",
    "venue_name": "Adler After Dark",
    "latitude": 41.8664568,
    "longitude": -87.6192535,
    "address1": "1300 S Lake Shore Dr",
    "address2": "",
    "address3": "",
    "city": "Chicago",
    "state": "IL",
    "zip_code": "60605"
  },
  {
    "venue_id": "yelp4A8dxXRyXxvg6pYcXYuXag",
    "venue_name": "MCA Warehouse",
    "latitude": 41.8896851,
    "longitude": -87.6711093,
    "address1": "1747 W Hubbard St",
    "address2": "",
    "address3": "",
    "city": "Chicago",
    "state": "IL",
    "zip_code": "60686"
  },
  {
    "venue_id": "yelphp4IMNjSyA5RQdCBZlEGHQ",
    "venue_name": "Wonder Works Children's Museum",
    "latitude": 41.90881,
    "longitude": -87.78695,
    "address1": "6445 W North Ave",
    "address2": "",
    "address3": "",
    "city": "Oak Park",
    "state": "IL",
    "zip_code": "60302"
  },
  {
    "venue_id": "yelpFGU87-A1-2De32kJs0fKYQ",
    "venue_name": "Corbett vs. Dempsey",
    "latitude": 41.9021682739258,
    "longitude": -87.667854309082,
    "address1": "1120 N Ashland Ave",
    "address2": "Fl 3",
    "address3": "",
    "city": "Chicago",
    "state": "IL",
    "zip_code": "60622"
  },
  {
    "venue_id": "yelpDnUuzcXnev9TXuGD9WbI8Q",
    "venue_name": "Graham Foundation For Advanced Studies In the Fine Arts",
    "latitude": 41.9096345,
    "longitude": -87.6291654,
    "address1": "4 W Burton Pl",
    "address2": "",
    "address3": "",
    "city": "Chicago",
    "state": "IL",
    "zip_code": "60610"
  },
  {
    "venue_id": "yelpMbBQ7G_Bp25PFYzURixkeg",
    "venue_name": "wndr museum",
    "latitude": 41.880535824996,
    "longitude": -87.6558485627174,
    "address1": "1130 W Monroe St",
    "address2": "",
    "address3": null,
    "city": "Chicago",
    "state": "IL",
    "zip_code": "60607"
  },
  {
    "venue_id": "yelpTIhc8rPlrIUOG6DgYxOg7g",
    "venue_name": "The Arts Club of Chicago",
    "latitude": 41.8931007385254,
    "longitude": -87.6224212646484,
    "address1": "201 E Ontario St",
    "address2": "",
    "address3": "",
    "city": "Chicago",
    "state": "IL",
    "zip_code": "60611"
  },
  {
    "venue_id": "yelp0V_VaTNU7N_K64j5rTdo2w",
    "venue_name": "Frank Lloyd Wright Trust",
    "latitude": 41.879074,
    "longitude": -87.631797,
    "address1": "209 South LaSalle St",
    "address2": "",
    "address3": "",
    "city": "Chicago",
    "state": "IL",
    "zip_code": "60604"
  },
  {
    "venue_id": "yelpzTh11LWw0PZf-FQ2nXKG9Q",
    "venue_name": "First Fridays",
    "latitude": 41.89723,
    "longitude": -87.62098,
    "address1": "220 E Chicago Ave",
    "address2": "",
    "address3": "",
    "city": "Chicago",
    "state": "IL",
    "zip_code": "60607"
  },
  {
    "venue_id": "yelpdLiONj9y5Tl-qLemhq5UeQ",
    "venue_name": "Edgewater Historical Society",
    "latitude": 41.9792964,
    "longitude": -87.6698793,
    "address1": "5358 N Ashland Ave",
    "address2": "",
    "address3": "",
    "city": "Chicago",
    "state": "IL",
    "zip_code": "60640"
  },
  {
    "venue_id": "yelpYXE2UDcaKMEf7j3rz_zO_Q",
    "venue_name": "Zolla Lieberman Gallery",
    "latitude": 41.8945236206055,
    "longitude": -87.6366500854492,
    "address1": "325 W Huron St",
    "address2": "",
    "address3": "",
    "city": "Chicago",
    "state": "IL",
    "zip_code": "60654"
  },
  {
    "venue_id": "yelpoFIaLAJeuwyZpd_fnZaRag",
    "venue_name": "Miro Statue",
    "latitude": 41.88285,
    "longitude": -87.63001,
    "address1": "69 W Washington St",
    "address2": "Brunswick Plaza",
    "address3": null,
    "city": "Chicago",
    "state": "IL",
    "zip_code": "60602"
  },
  {
    "venue_id": "yelp4394SR0AvqWGVH3fyJOAlg",
    "venue_name": "Charnley-Persky House",
    "latitude": 41.907682,
    "longitude": -87.627407,
    "address1": "1365 N Astor St",
    "address2": "",
    "address3": "",
    "city": "Chicago",
    "state": "IL",
    "zip_code": "60610"
  },
  {
    "venue_id": "yelpBPuoS8ClqnhAE-x1Yt8Dvw",
    "venue_name": "Dr. Sun Yat-Sen Museum of Chicago",
    "latitude": 41.85161,
    "longitude": -87.63162,
    "address1": "2245 S Wentworth Ave",
    "address2": "Fl 3",
    "address3": "",
    "city": "Chicago",
    "state": "IL",
    "zip_code": "60616"
  },
  {
    "venue_id": "yelp0NAkPX4ujIBGtW_OQddVFg",
    "venue_name": "Unity Temple Restoration Foundation",
    "latitude": 41.888408,
    "longitude": -87.796844,
    "address1": "875 Lake St",
    "address2": "",
    "address3": "",
    "city": "Oak Park",
    "state": "IL",
    "zip_code": "60301"
  },
  {
    "venue_id": "yelpy8-k1Vt5oxC3FHAlqgJfLg",
    "venue_name": "Addington Gallery",
    "latitude": 41.8950271606445,
    "longitude": -87.6345062255859,
    "address1": "704 N Wells St",
    "address2": "",
    "address3": "",
    "city": "Chicago",
    "state": "IL",
    "zip_code": "60654"
  },
  {
    "venue_id": "yelpawgdABonVGOfu7he0sfx8A",
    "venue_name": "Pullman Porter Museum",
    "latitude": 41.8743,
    "longitude": -87.65017,
    "address1": "",
    "address2": "",
    "address3": "",
    "city": "Chicago",
    "state": "IL",
    "zip_code": "60607"
  },
  {
    "venue_id": "yelpPWt06nsF9XWvgnKkPdFDew",
    "venue_name": "Chicago Historical Society",
    "latitude": 41.9113772,
    "longitude": -87.6315416,
    "address1": "1601 N Clark St",
    "address2": "",
    "address3": "",
    "city": "Chicago",
    "state": "IL",
    "zip_code": "60614"
  },
  {
    "venue_id": "yelpZYs7pTEvDqkQVBKBiio7pQ",
    "venue_name": "Chicago Maritime Museum",
    "latitude": 41.8313648254439,
    "longitude": -87.6561372354627,
    "address1": "1200 W 35th St",
    "address2": "Ste 0E-5010",
    "address3": null,
    "city": "Chicago",
    "state": "IL",
    "zip_code": "60609"
  },
  {
    "venue_id": "yelprKU3rgMsXmjGjIG5if8Dfw",
    "venue_name": "ArchiTech",
    "latitude": 41.895747,
    "longitude": -87.6357949,
    "address1": "730 N Franklin St",
    "address2": "Ste 200",
    "address3": "",
    "city": "Chicago",
    "state": "IL",
    "zip_code": "60654"
  },
  {
    "venue_id": "yelpD1FCybUCENhx96QbHQHF9Q",
    "venue_name": "Chicago History Museum Store",
    "latitude": 41.9113772,
    "longitude": -87.6315416,
    "address1": "1601 N Clark St",
    "address2": "",
    "address3": "",
    "city": "Chicago",
    "state": "IL",
    "zip_code": "60614"
  },
  {
    "venue_id": "yelpm7UUKAn996wUhQ1-CUxT7g",
    "venue_name": "National Italian American Sports Hall Of Fame",
    "latitude": 41.86909,
    "longitude": -87.6628,
    "address1": "1431 W Taylor St",
    "address2": "",
    "address3": "",
    "city": "Chicago",
    "state": "IL",
    "zip_code": "60607"
  },
  {
    "venue_id": "yelpCWT8ObXtk4vSBuFI9b5d6Q",
    "venue_name": "Brunk Children's Museum of Immigration",
    "latitude": 41.97666,
    "longitude": -87.66803,
    "address1": "5211 N Clark St",
    "address2": "",
    "address3": "",
    "city": "Chicago",
    "state": "IL",
    "zip_code": "60640"
  },
  {
    "venue_id": "yelpyLuUeFP67i6IDcU-O-OPtg",
    "venue_name": "Byron Roche Gallery",
    "latitude": 41.89627,
    "longitude": -87.63597,
    "address1": "750 N Franklin St",
    "address2": "Ste 105",
    "address3": "",
    "city": "Chicago",
    "state": "IL",
    "zip_code": "60654"
  },
  {
    "venue_id": "yelp1NG5WpkiWVbqRgc5T__b7w",
    "venue_name": "Maya Polsky Gallery",
    "latitude": 41.8953475952148,
    "longitude": -87.6348648071289,
    "address1": "215 W Superior St",
    "address2": "",
    "address3": "",
    "city": "Chicago",
    "state": "IL",
    "zip_code": "60654"
  },
  {
    "venue_id": "yelp457kRLNbXMmRrahERlH-SQ",
    "venue_name": "Heritage Museum of Asian Art",
    "latitude": 41.8457811,
    "longitude": -87.6326754,
    "address1": "218 W 26th St",
    "address2": "",
    "address3": "",
    "city": "Chicago",
    "state": "IL",
    "zip_code": "60616"
  },
  {
    "venue_id": "yelpy22bXY5XD3ysqKTtuMvlvA",
    "venue_name": "Stampland",
    "latitude": 41.89596,
    "longitude": -87.69466,
    "address1": "2708 W Chicago Ave",
    "address2": "",
    "address3": "",
    "city": "Chicago",
    "state": "IL",
    "zip_code": "60622"
  },
  {
    "venue_id": "yelpKfQ9v8RjHzGbXp56G48k9Q",
    "venue_name": "Newberry Library: Ptolemy's Geography and Renaissance Mapmakers",
    "latitude": 41.8999349,
    "longitude": -87.6304651,
    "address1": "60 W Walton Pl",
    "address2": "",
    "address3": "",
    "city": "Chicago",
    "state": "IL",
    "zip_code": "60610"
  },
  {
    "venue_id": "yelpUrTBaPDGDQxhlyTvqMG-Dw",
    "venue_name": "Carl Hammer Gallery",
    "latitude": 41.89598,
    "longitude": -87.63449,
    "address1": "740 N Wells St",
    "address2": "",
    "address3": "",
    "city": "Chicago",
    "state": "IL",
    "zip_code": "60610"
  },
  {
    "venue_id": "yelphcA4hETWtemWiw5dAr7UWg",
    "venue_name": "Gerber Hart Library and Archives",
    "latitude": 41.999916,
    "longitude": -87.671646,
    "address1": "6500 N Clark St",
    "address2": "",
    "address3": "",
    "city": "Chicago",
    "state": "IL",
    "zip_code": "60626"
  },
  {
    "venue_id": "yelpyJ_hpjv_wdZ0YP-8SCQ2Zw",
    "venue_name": "Pleasant Home Foundation",
    "latitude": 41.8849666,
    "longitude": -87.8002229,
    "address1": "217 Home Ave",
    "address2": "",
    "address3": "",
    "city": "Oak Park",
    "state": "IL",
    "zip_code": "60302"
  },
  {
    "venue_id": "yelpqX4VMYhZZd-zbUCoSuFlfQ",
    "venue_name": "StoryBus",
    "latitude": 41.911699,
    "longitude": -87.679919,
    "address1": "1658 N Milwaukee Ave",
    "address2": "Ste 394",
    "address3": "",
    "city": "Chicago",
    "state": "IL",
    "zip_code": "60647"
  },
  {
    "venue_id": "yelpYUCTlAUF5bmXtOgkg8hMjA",
    "venue_name": "Galeria Gala",
    "latitude": 41.89514,
    "longitude": -87.63454,
    "address1": "708 N Wells St",
    "address2": "",
    "address3": "",
    "city": "Chicago",
    "state": "IL",
    "zip_code": "60654"
  },
  {
    "venue_id": "yelpfRGpe_UrJx9xWzePvV23xg",
    "venue_name": "Illinois State Museum Chicago Gallery",
    "latitude": 41.885097,
    "longitude": -87.631523,
    "address1": "100 W Randolph St",
    "address2": "",
    "address3": "",
    "city": "Chicago",
    "state": "IL",
    "zip_code": "60601"
  },
  {
    "venue_id": "yelpCMvM_f-eOzY3uwLGyRDYkg",
    "venue_name": "Galleria 773",
    "latitude": 41.8856247514486,
    "longitude": -87.6470703631639,
    "address1": "773 W Lake St",
    "address2": "",
    "address3": "",
    "city": "Chicago",
    "state": "IL",
    "zip_code": "60610"
  },
  {
    "venue_id": "yelpgjpV12uBBhChKDd1j2kYAA",
    "venue_name": "Chinese American Veteran's Memorial",
    "latitude": 41.8525892567918,
    "longitude": -87.6349802414571,
    "address1": "Cermak And Archer",
    "address2": "",
    "address3": "",
    "city": "Chicago",
    "state": "IL",
    "zip_code": "60616"
  },
  {
    "venue_id": "yelpELtibUKftaHPdGIAaLJBsA",
    "venue_name": "Sullivan Galleries",
    "latitude": 41.8815994262695,
    "longitude": -87.6278076171875,
    "address1": "33 S State St",
    "address2": "Fl 7",
    "address3": "",
    "city": "Chicago",
    "state": "IL",
    "zip_code": "60602"
  },
  {
    "venue_id": "yelpi3i7YHYZVXoUWaYJzeEgkQ",
    "venue_name": "Stephen Kelly Gallery",
    "latitude": 41.89627,
    "longitude": -87.63597,
    "address1": "750 N Franklin St",
    "address2": "Ste 101",
    "address3": "",
    "city": "Chicago",
    "state": "IL",
    "zip_code": "60654"
  },
  {
    "venue_id": "yelpmLrdYMSZHwiFnX1dZZCGEA",
    "venue_name": "Melanee Cooper Gallery",
    "latitude": 41.8958389,
    "longitude": -87.6357949,
    "address1": "740 N Franklin St",
    "address2": "",
    "address3": "",
    "city": "Chicago",
    "state": "IL",
    "zip_code": "60654"
  },
  {
    "venue_id": "yelpP7vjNZ2smn7MEyPB_qir7Q",
    "venue_name": "Serbian American Museum St. Sava",
    "latitude": 41.9380188,
    "longitude": -87.6413727,
    "address1": "448 W Barry Ave",
    "address2": "",
    "address3": "",
    "city": "Chicago",
    "state": "IL",
    "zip_code": "60657"
  },
  {
    "venue_id": "yelpeNgSrwPnC1KrVmJL7CSptw",
    "venue_name": "Rogers Park West Ridge Historical Society",
    "latitude": 42.0077451,
    "longitude": -87.6675362,
    "address1": "1447 W Morse Ave",
    "address2": "",
    "address3": "",
    "city": "Chicago",
    "state": "IL",
    "zip_code": "60626"
  },
  {
    "venue_id": "yelpLsmOwTxVo14C0bGqs6Ogug",
    "venue_name": "Wrightwood659",
    "latitude": 41.92883,
    "longitude": -87.64504,
    "address1": "659 W Wrightwood Ave",
    "address2": "",
    "address3": null,
    "city": "Chicago",
    "state": "IL",
    "zip_code": "60614"
  },
  {
    "venue_id": "yelpE8g9aZ4fgu98sEdOwKDu_w",
    "venue_name": "National Jazz Museum",
    "latitude": 41.8583641052246,
    "longitude": -87.6218948364258,
    "address1": "1727 South Indiana Ave",
    "address2": "",
    "address3": "",
    "city": "Chicago",
    "state": "IL",
    "zip_code": "60616"
  },
  {
    "venue_id": "yelpvZL4LnV4qBGDGOQg68PDxA",
    "venue_name": "Jurassic Quest - Chicago",
    "latitude": 41.8917086045063,
    "longitude": -87.6042680069804,
    "address1": "600 E Grand Ave",
    "address2": "",
    "address3": null,
    "city": "Chicago",
    "state": "IL",
    "zip_code": "60611"
  },
  {
    "venue_id": "yelpibQyHJ-i2NWqrmvCnzyoQw",
    "venue_name": "Cedar Lake Historical Association Museum",
    "latitude": 41.3679749,
    "longitude": -87.424696,
    "address1": "7408 Constitution Ave",
    "address2": "",
    "address3": "",
    "city": "Cedar Lake",
    "state": "IN",
    "zip_code": "46303"
  },
  {
    "venue_id": "yelpgNEQxYgc5gU55liLE34JUw",
    "venue_name": "Berwyn Route 66 Museum",
    "latitude": 41.8255064,
    "longitude": -87.7976383,
    "address1": "7003 W Ogden Ave",
    "address2": "",
    "address3": "",
    "city": "Berwyn",
    "state": "IL",
    "zip_code": "60402"
  }
]

