[
	{
		"venue_id": "yelpqjnpkS8yZO8xcyEIy5OU9A",
		"venue_name": "Girl & the Goat",
		"latitude": 41.8841049992939,
		"longitude": -87.6479440725005,
		"address1": "809 W Randolph St",
		"address2": "",
		"address3": "",
		"city": "Chicago",
		"state": "IL",
		"zip_code": "60607"
	},
	{
		"venue_id": "yelpcKZNbMvoqJaUe7n6lf6i7w",
		"venue_name": "Wildberry Pancakes and Cafe",
		"latitude": 41.884668,
		"longitude": -87.62288,
		"address1": "130 E Randolph St",
		"address2": "",
		"address3": "",
		"city": "Chicago",
		"state": "IL",
		"zip_code": "60601"
	},
	{
		"venue_id": "yelppbEiXam9YJL3neCYHGwLUA",
		"venue_name": "Alinea",
		"latitude": 41.9134194160823,
		"longitude": -87.6482384681229,
		"address1": "1723 N Halsted St",
		"address2": "",
		"address3": "",
		"city": "Chicago",
		"state": "IL",
		"zip_code": "60614"
	},
	{
		"venue_id": "yelpLMaoM2Ue2BR_HI9ba3JsZg",
		"venue_name": "The Publican",
		"latitude": 41.886644,
		"longitude": -87.648765,
		"address1": "837 W Fulton Market",
		"address2": "",
		"address3": "",
		"city": "Chicago",
		"state": "IL",
		"zip_code": "60607"
	},
	{
		"venue_id": "yelpvvhfPV-Llkd4fE2SHuLVvA",
		"venue_name": "The Gage",
		"latitude": 41.8810478466356,
		"longitude": -87.6245328837886,
		"address1": "24 S Michigan Ave",
		"address2": null,
		"address3": "",
		"city": "Chicago",
		"state": "IL",
		"zip_code": "60603"
	},
	{
		"venue_id": "yelpoEFJ29zAQaCNnQzebHQvpg",
		"venue_name": "The Violet Hour",
		"latitude": 41.909095,
		"longitude": -87.677829,
		"address1": "1520 N Damen Ave",
		"address2": "",
		"address3": "",
		"city": "Chicago",
		"state": "IL",
		"zip_code": "60622"
	},
	{
		"venue_id": "yelpf1P5hZSitUEAC-mtXlBB7w",
		"venue_name": "Del Seoul",
		"latitude": 41.929444,
		"longitude": -87.643016,
		"address1": "2568 N Clark St",
		"address2": "",
		"address3": "",
		"city": "Chicago",
		"state": "IL",
		"zip_code": "60614"
	},
	{
		"venue_id": "yelp4i1Ny2zIE1VJSU9gLMkHqg",
		"venue_name": "Lula Cafe",
		"latitude": 41.927668036295,
		"longitude": -87.706845233929,
		"address1": "2537 N Kedzie Blvd",
		"address2": "",
		"address3": "",
		"city": "Chicago",
		"state": "IL",
		"zip_code": "60647"
	},
	{
		"venue_id": "yelpzXDVdB7jofrt1IWODlOtUA",
		"venue_name": "Beatrix River North",
		"latitude": 41.891477,
		"longitude": -87.6308169,
		"address1": "519 North Clark Street",
		"address2": "",
		"address3": "",
		"city": "Chicago",
		"state": "IL",
		"zip_code": "60654"
	},
	{
		"venue_id": "yelpXKUZV9O2sRFLDIpAmwmG5g",
		"venue_name": "Boka",
		"latitude": 41.9135158,
		"longitude": -87.6480859,
		"address1": "1729 N Halsted St",
		"address2": "",
		"address3": "",
		"city": "Chicago",
		"state": "IL",
		"zip_code": "60614"
	},
	{
		"venue_id": "yelpdSqRMhGNCWuSjPT_4lsZqw",
		"venue_name": "Siena Tavern",
		"latitude": 41.8890751,
		"longitude": -87.6299699,
		"address1": "51 W Kinzie St",
		"address2": "",
		"address3": "",
		"city": "Chicago",
		"state": "IL",
		"zip_code": "60654"
	},
	{
		"venue_id": "yelpsDYjKyI_67eUhFAqVneYjA",
		"venue_name": "Gilt Bar",
		"latitude": 41.8894,
		"longitude": -87.6353199,
		"address1": "230 W Kinzie St",
		"address2": null,
		"address3": null,
		"city": "Chicago",
		"state": "IL",
		"zip_code": "60654"
	},
	{
		"venue_id": "yelpOKOfoisduqP24uK3WYvx7Q",
		"venue_name": "Revolution Brewing",
		"latitude": 41.92353,
		"longitude": -87.698153,
		"address1": "2323 N Milwaukee Ave",
		"address2": "",
		"address3": "",
		"city": "Chicago",
		"state": "IL",
		"zip_code": "60647"
	},
	{
		"venue_id": "yelpnd1KFxtZHXIMLqPtgubLpQ",
		"venue_name": "m.henry",
		"latitude": 41.9856948852539,
		"longitude": -87.6688842773438,
		"address1": "5707 N Clark St",
		"address2": null,
		"address3": "",
		"city": "Chicago",
		"state": "IL",
		"zip_code": "60660"
	},
	{
		"venue_id": "yelpfJhF5Yy4nguguaaH3TabmQ",
		"venue_name": "Bandera Restaurant",
		"latitude": 41.8919021875965,
		"longitude": -87.6236184577346,
		"address1": "535 N Michigan Ave",
		"address2": "",
		"address3": "",
		"city": "Chicago",
		"state": "IL",
		"zip_code": "60611"
	},
	{
		"venue_id": "yelpNOKQi1saEWWp-cbUhkUtFQ",
		"venue_name": "Velvet Taco",
		"latitude": 41.9022,
		"longitude": -87.62858,
		"address1": "1110 N State St",
		"address2": "",
		"address3": "",
		"city": "Chicago",
		"state": "IL",
		"zip_code": "60610"
	},
	{
		"venue_id": "yelpsfWMOqUEp8S2adDeJp7Kzg",
		"venue_name": "Carnivale",
		"latitude": 41.887075681459,
		"longitude": -87.646048728271,
		"address1": "702 W Fulton Market",
		"address2": "",
		"address3": "",
		"city": "Chicago",
		"state": "IL",
		"zip_code": "60661"
	},
	{
		"venue_id": "yelp_b69OdBNLhysN1jFlYNQiA",
		"venue_name": "The Bongo Room",
		"latitude": 41.90841,
		"longitude": -87.67492,
		"address1": "1470 N Milwaukee Ave",
		"address2": "",
		"address3": "",
		"city": "Chicago",
		"state": "IL",
		"zip_code": "60622"
	},
	{
		"venue_id": "yelpPsi34XLTOtVqLYS9StO1hA",
		"venue_name": "Tweet",
		"latitude": 41.973934,
		"longitude": -87.6551426,
		"address1": "5020 N Sheridan Rd",
		"address2": "",
		"address3": "",
		"city": "Chicago",
		"state": "IL",
		"zip_code": "60640"
	},
	{
		"venue_id": "yelpDn23mAnWMquipOt4b76fOQ",
		"venue_name": "TWO Restaurant",
		"latitude": 41.89133,
		"longitude": -87.65613,
		"address1": "1132 W Grand Ave",
		"address2": "",
		"address3": "",
		"city": "Chicago",
		"state": "IL",
		"zip_code": "60642"
	},
	{
		"venue_id": "yelpbFxtGcL0W7ZNEj3NwTmM0A",
		"venue_name": "Blackbird",
		"latitude": 41.8842918333133,
		"longitude": -87.6435537582028,
		"address1": "619 W Randolph St",
		"address2": "",
		"address3": "",
		"city": "Chicago",
		"state": "IL",
		"zip_code": "60661"
	},
	{
		"venue_id": "yelpWODBuNjlEgNIf459Wh-AWw",
		"venue_name": "Gather",
		"latitude": 41.9643402,
		"longitude": -87.6853638,
		"address1": "4539 N Lincoln Ave",
		"address2": null,
		"address3": "",
		"city": "Chicago",
		"state": "IL",
		"zip_code": "60625"
	},
	{
		"venue_id": "yelp70jKs0LvwuqaKvkaqVQP9Q",
		"venue_name": "Home Bistro",
		"latitude": 41.943935,
		"longitude": -87.649505,
		"address1": "3404 N Halsted St",
		"address2": "",
		"address3": "",
		"city": "Chicago",
		"state": "IL",
		"zip_code": "60657"
	},
	{
		"venue_id": "yelpriT822EnU7y_5eCuJsd9sA",
		"venue_name": "Cindy's",
		"latitude": 41.8816894031196,
		"longitude": -87.6250061730162,
		"address1": "12 S Michigan Ave",
		"address2": "",
		"address3": "",
		"city": "Chicago",
		"state": "IL",
		"zip_code": "60603"
	},
	{
		"venue_id": "yelpeUlykGltBGH0RC5lkwx2eg",
		"venue_name": "Honey Butter Fried Chicken",
		"latitude": 41.9426302817062,
		"longitude": -87.7027218416333,
		"address1": "3361 N Elston Ave",
		"address2": "",
		"address3": "",
		"city": "Chicago",
		"state": "IL",
		"zip_code": "60618"
	},
	{
		"venue_id": "yelpsWYRaPCYHrTxsZPLWmzkzQ",
		"venue_name": "Scofflaw",
		"latitude": 41.9173240661621,
		"longitude": -87.7071762084961,
		"address1": "3201 W Armitage Ave",
		"address2": "",
		"address3": "",
		"city": "Chicago",
		"state": "IL",
		"zip_code": "60647"
	},
	{
		"venue_id": "yelpZIqeTQDb26J1dnPeHGRiLA",
		"venue_name": "The Bongo Room",
		"latitude": 41.8677,
		"longitude": -87.62647,
		"address1": "1152 S Wabash Ave",
		"address2": "",
		"address3": "",
		"city": "Chicago",
		"state": "IL",
		"zip_code": "60605"
	},
	{
		"venue_id": "yelp0S44DHW394RexDqtFYMQLg",
		"venue_name": "The Bristol",
		"latitude": 41.92105,
		"longitude": -87.67804,
		"address1": "2152 N Damen Ave",
		"address2": "",
		"address3": "",
		"city": "Chicago",
		"state": "IL",
		"zip_code": "60647"
	},
	{
		"venue_id": "yelpLmOCyxWKENwQRlixDlObqw",
		"venue_name": "BIG & little's Restaurant",
		"latitude": 41.9400472330334,
		"longitude": -87.6555045423279,
		"address1": "1034 W Belmont Ave",
		"address2": null,
		"address3": "",
		"city": "Chicago",
		"state": "IL",
		"zip_code": "60657"
	},
	{
		"venue_id": "yelp0VEE9H6OuGaswhC70tjKeQ",
		"venue_name": "Beatrix Streeterville",
		"latitude": 41.8944242,
		"longitude": -87.622564,
		"address1": "671 N St Clair",
		"address2": "",
		"address3": "",
		"city": "Chicago",
		"state": "IL",
		"zip_code": "60611"
	},
	{
		"venue_id": "yelpU9D0vqEP4QrJfJYs8mr3DA",
		"venue_name": "Oiistar",
		"latitude": 41.9070880100627,
		"longitude": -87.6720839738846,
		"address1": "1385 N Milwaukee Ave",
		"address2": "",
		"address3": "",
		"city": "Chicago",
		"state": "IL",
		"zip_code": "60622"
	},
	{
		"venue_id": "yelp14dFm81gm4Kb8C0nd7wcmQ",
		"venue_name": "Doc B's Fresh Kitchen",
		"latitude": 41.900246,
		"longitude": -87.625163,
		"address1": "100 E Walton St",
		"address2": "",
		"address3": "",
		"city": "Chicago",
		"state": "IL",
		"zip_code": "60611"
	},
	{
		"venue_id": "yelp8KzVXx6GCNBZBdtRGIdZDA",
		"venue_name": "Sable Kitchen & Bar",
		"latitude": 41.89111,
		"longitude": -87.62754,
		"address1": "505 N State St",
		"address2": "",
		"address3": "",
		"city": "Chicago",
		"state": "IL",
		"zip_code": "60654"
	},
	{
		"venue_id": "yelpIACTngt-bZGrhzflliIx7w",
		"venue_name": "Yolk River North",
		"latitude": 41.8962039977196,
		"longitude": -87.6339920320032,
		"address1": "747 N Wells",
		"address2": "",
		"address3": "",
		"city": "Chicago",
		"state": "IL",
		"zip_code": "60654"
	},
	{
		"venue_id": "yelp4Gxtzba86P8mY3ZgFeZ2IA",
		"venue_name": "Hub 51",
		"latitude": 41.8899784766276,
		"longitude": -87.6296997070312,
		"address1": "51 W Hubbard St",
		"address2": "",
		"address3": "",
		"city": "Chicago",
		"state": "IL",
		"zip_code": "60654"
	},
	{
		"venue_id": "yelp_MnIiS_b3enHyx8Y62gd4Q",
		"venue_name": "Oriole",
		"latitude": 41.8860966,
		"longitude": -87.6449481,
		"address1": "661 W Walnut St",
		"address2": "",
		"address3": "",
		"city": "Chicago",
		"state": "IL",
		"zip_code": "60661"
	},
	{
		"venue_id": "yelpJ-i3frdwkM0prRxH98Zp2Q",
		"venue_name": "Native Foods Cafe",
		"latitude": 41.87887,
		"longitude": -87.63117,
		"address1": "218 S Clark St",
		"address2": "",
		"address3": "",
		"city": "Chicago",
		"state": "IL",
		"zip_code": "60604"
	},
	{
		"venue_id": "yelpAu1f1UMmKcgOXLsg4v56xw",
		"venue_name": "Little Bucharest Bistro",
		"latitude": 41.94799,
		"longitude": -87.7105,
		"address1": "3661 N Elston Ave",
		"address2": null,
		"address3": "",
		"city": "Chicago",
		"state": "IL",
		"zip_code": "60618"
	},
	{
		"venue_id": "yelpLeed_L3l2U8tKBdJwj8CyQ",
		"venue_name": "True Food Kitchen",
		"latitude": 41.8939058892114,
		"longitude": -87.6285624504089,
		"address1": "1 W Erie St",
		"address2": "",
		"address3": null,
		"city": "Chicago",
		"state": "IL",
		"zip_code": "60654"
	},
	{
		"venue_id": "yelpAHpwEeyDT_brMzF5cYQpag",
		"venue_name": "RL Restaurant",
		"latitude": 41.897007,
		"longitude": -87.624961,
		"address1": "115 E Chicago Ave",
		"address2": "",
		"address3": "",
		"city": "Chicago",
		"state": "IL",
		"zip_code": "60611"
	},
	{
		"venue_id": "yelpmPFMi734NXkvLFotygLrCA",
		"venue_name": "Sepia",
		"latitude": 41.883933,
		"longitude": -87.6424,
		"address1": "123 N Jefferson St",
		"address2": "",
		"address3": "",
		"city": "Chicago",
		"state": "IL",
		"zip_code": "60661"
	},
	{
		"venue_id": "yelpm8qrUdRl8TCqvW-L6uWVsA",
		"venue_name": "EL Ideas",
		"latitude": 41.86275,
		"longitude": -87.687,
		"address1": "2419 W 14th St",
		"address2": "",
		"address3": "",
		"city": "Chicago",
		"state": "IL",
		"zip_code": "60608"
	},
	{
		"venue_id": "yelpISHl0cSIx-bHvmUblXEdTg",
		"venue_name": "Dusek's Board & Beer",
		"latitude": 41.857871,
		"longitude": -87.65739,
		"address1": "1227 W 18th St",
		"address2": null,
		"address3": "",
		"city": "Chicago",
		"state": "IL",
		"zip_code": "60608"
	},
	{
		"venue_id": "yelprnjz2KNgsQ2YaC_kjeuuAQ",
		"venue_name": "Kinzie Chophouse",
		"latitude": 41.8893789,
		"longitude": -87.634279,
		"address1": "400 N Wells St",
		"address2": null,
		"address3": "",
		"city": "Chicago",
		"state": "IL",
		"zip_code": "60654"
	},
	{
		"venue_id": "yelpOEHnRYfv0E0JaJhMh-TpMQ",
		"venue_name": "Burger Bar Chicago - Lincoln Park",
		"latitude": 41.910173,
		"longitude": -87.648924,
		"address1": "1578 N Clybourn Ave",
		"address2": "",
		"address3": "",
		"city": "Chicago",
		"state": "IL",
		"zip_code": "60642"
	},
	{
		"venue_id": "yelpcI-QGo3SDDbOxJJXavfjVQ",
		"venue_name": "Copper Fox Gastropub",
		"latitude": 41.8932151,
		"longitude": -87.6233697,
		"address1": "155 East Ontario St",
		"address2": "",
		"address3": "",
		"city": "Chicago",
		"state": "IL",
		"zip_code": "60611"
	},
	{
		"venue_id": "yelpRWULs45ZzaD-OJj5A-Kk8g",
		"venue_name": "LYFE Kitchen",
		"latitude": 41.8897715425784,
		"longitude": -87.6308315944427,
		"address1": "413 North Clark St",
		"address2": "",
		"address3": "",
		"city": "Chicago",
		"state": "IL",
		"zip_code": "60654"
	},
	{
		"venue_id": "yelpBstNoM1kPic54_eLCPLDiQ",
		"venue_name": "The Signature Room at the 95th",
		"latitude": 41.8987400255629,
		"longitude": -87.6228248552254,
		"address1": "875 N Michigan Ave",
		"address2": "",
		"address3": "",
		"city": "Chicago",
		"state": "IL",
		"zip_code": "60611"
	},
	{
		"venue_id": "yelp-W8rtYk_mBsgoQHYVxAh2g",
		"venue_name": "Cheesie's Pub and Grub",
		"latitude": 41.9400049,
		"longitude": -87.6538139,
		"address1": "958 W Belmont Ave",
		"address2": "",
		"address3": "",
		"city": "Chicago",
		"state": "IL",
		"zip_code": "60657"
	},
	{
		"venue_id": "yelpLoJYMDMAFEIavz-VIUqe0Q",
		"venue_name": "NoMI Kitchen",
		"latitude": 41.8969705807961,
		"longitude": -87.6251828670502,
		"address1": "800 N Michigan Ave",
		"address2": "Fl 7",
		"address3": "Park Hyatt Chicago",
		"city": "Chicago",
		"state": "IL",
		"zip_code": "60611"
	},
	{
		"venue_id": "yelpPpQ7LNHTEGNoY3g5GPBDyQ",
		"venue_name": "Next",
		"latitude": 41.886641182708,
		"longitude": -87.6519030656,
		"address1": "953 W Fulton Market",
		"address2": "",
		"address3": "",
		"city": "Chicago",
		"state": "IL",
		"zip_code": "60607"
	},
	{
		"venue_id": "yelp7mCeefskNUtOkzxt_MLHKA",
		"venue_name": "3rd Coast Cafe",
		"latitude": 41.90565,
		"longitude": -87.63047,
		"address1": "1260 N Dearborn St",
		"address2": "Goethe",
		"address3": "",
		"city": "Chicago",
		"state": "IL",
		"zip_code": "60610"
	},
	{
		"venue_id": "yelpN0CzLRbl79f4f6WqjNKM0g",
		"venue_name": "Theory",
		"latitude": 41.8899748,
		"longitude": -87.6286362,
		"address1": "9 W Hubbard St",
		"address2": "",
		"address3": "",
		"city": "Chicago",
		"state": "IL",
		"zip_code": "60654"
	},
	{
		"venue_id": "yelp5FK-H2Zxcje-OH1FcsdJ5A",
		"venue_name": "Umami Burger - Wicker Park",
		"latitude": 41.9085899,
		"longitude": -87.6752,
		"address1": "1480 N Milwaukee Ave",
		"address2": null,
		"address3": "",
		"city": "Chicago",
		"state": "IL",
		"zip_code": "60622"
	},
	{
		"venue_id": "yelpbNXpwTSavHBV9zBk2lUlGA",
		"venue_name": "Schwa",
		"latitude": 41.90892,
		"longitude": -87.66793,
		"address1": "1466 N Ashland Ave",
		"address2": null,
		"address3": "",
		"city": "Chicago",
		"state": "IL",
		"zip_code": "60622"
	},
	{
		"venue_id": "yelprgaoVm01HFYC292weFuTXA",
		"venue_name": "Goosefoot",
		"latitude": 41.9686849,
		"longitude": -87.6960164,
		"address1": "2656 W Lawrence Ave",
		"address2": "",
		"address3": "",
		"city": "Chicago",
		"state": "IL",
		"zip_code": "60625"
	},
	{
		"venue_id": "yelpTAueIovlJFslHSVEfnAaaA",
		"venue_name": "DryHop Brewers",
		"latitude": 41.9392443174878,
		"longitude": -87.6442063962951,
		"address1": "3155 N Broadway",
		"address2": "",
		"address3": "",
		"city": "Chicago",
		"state": "IL",
		"zip_code": "60657"
	},
	{
		"venue_id": "yelpDBtXy8wcPsVr80oFfz-CbA",
		"venue_name": "Nana",
		"latitude": 41.834550484255,
		"longitude": -87.6460413707298,
		"address1": "3267 S Halsted St",
		"address2": "",
		"address3": "",
		"city": "Chicago",
		"state": "IL",
		"zip_code": "60608"
	},
	{
		"venue_id": "yelpDDtElQ0VMOox12kb7V7cow",
		"venue_name": "Native Foods Cafe",
		"latitude": 41.9397892506553,
		"longitude": -87.655069123534,
		"address1": "1023 W Belmont Ave",
		"address2": "",
		"address3": "",
		"city": "Chicago",
		"state": "IL",
		"zip_code": "60657"
	},
	{
		"venue_id": "yelpwfkj7DK8YzhdwhhFc2OntA",
		"venue_name": "Giant",
		"latitude": 41.9171,
		"longitude": -87.70746,
		"address1": "3209 W Armitage Ave",
		"address2": "",
		"address3": null,
		"city": "Chicago",
		"state": "IL",
		"zip_code": "60647"
	},
	{
		"venue_id": "yelpiOMvXQYFl6_mtw0wX6ZUXw",
		"venue_name": "Forbidden Root",
		"latitude": 41.8962684049794,
		"longitude": -87.6713814117853,
		"address1": "1746 W Chicago Ave",
		"address2": "",
		"address3": "",
		"city": "Chicago",
		"state": "IL",
		"zip_code": "60622"
	},
	{
		"venue_id": "yelpI5sSX3kNw8SN5kjB1Yc4UQ",
		"venue_name": "Native Foods Cafe",
		"latitude": 41.90866,
		"longitude": -87.67531,
		"address1": "1484 N Milwaukee Ave",
		"address2": "",
		"address3": "",
		"city": "Chicago",
		"state": "IL",
		"zip_code": "60622"
	},
	{
		"venue_id": "yelp2Nf6OAPkD8V1eSHBrqezFw",
		"venue_name": "Beacon Tavern",
		"latitude": 41.88945,
		"longitude": -87.62647,
		"address1": "405 N Wabash Ave",
		"address2": "",
		"address3": "",
		"city": "Chicago",
		"state": "IL",
		"zip_code": "60611"
	},
	{
		"venue_id": "yelpxT9OM3wztrQwObecCHpMBA",
		"venue_name": "Benny\u2019s Chop House",
		"latitude": 41.89065,
		"longitude": -87.62698,
		"address1": "444 N Wabash Ave",
		"address2": "",
		"address3": null,
		"city": "Chicago",
		"state": "IL",
		"zip_code": "60611"
	},
	{
		"venue_id": "yelpxF8ZBzcMGpBd6U5GAbb-hQ",
		"venue_name": "Roister",
		"latitude": 41.886524,
		"longitude": -87.6518661,
		"address1": "951 W Fulton Market",
		"address2": "",
		"address3": "",
		"city": "Chicago",
		"state": "IL",
		"zip_code": "60607"
	},
	{
		"venue_id": "yelpLaYrGWnZazWsc3xi1sTYfw",
		"venue_name": "Arbella",
		"latitude": 41.8920162809497,
		"longitude": -87.6318293755272,
		"address1": "112 W Grand Ave",
		"address2": "",
		"address3": "",
		"city": "Chicago",
		"state": "IL",
		"zip_code": "60654"
	},
	{
		"venue_id": "yelpYkiz1UT9SO5u-y8nqDTy4A",
		"venue_name": "Fork",
		"latitude": 41.96511,
		"longitude": -87.68662,
		"address1": "4600 N Lincoln Ave",
		"address2": "",
		"address3": "",
		"city": "Chicago",
		"state": "IL",
		"zip_code": "60625"
	},
	{
		"venue_id": "yelpUwZE-wYxFYnbRcsrWcIVxg",
		"venue_name": "The River Valley Farmer's Table",
		"latitude": 41.965285053298,
		"longitude": -87.6757046380287,
		"address1": "1820 W Wilson Ave",
		"address2": "",
		"address3": "",
		"city": "Chicago",
		"state": "IL",
		"zip_code": "60640"
	},
	{
		"venue_id": "yelp1uFRbr6B-BiNGtT90sdk0w",
		"venue_name": "Community Tavern",
		"latitude": 41.9540099,
		"longitude": -87.74883,
		"address1": "4038 N Milwaukee Ave",
		"address2": null,
		"address3": "",
		"city": "Chicago",
		"state": "IL",
		"zip_code": "60641"
	},
	{
		"venue_id": "yelpFNXQQX_Tz9fGtLI3t-1sFQ",
		"venue_name": "Mortar & Pestle",
		"latitude": 41.93806,
		"longitude": -87.64464,
		"address1": "3108 N Broadway St",
		"address2": "",
		"address3": "",
		"city": "Chicago",
		"state": "IL",
		"zip_code": "60657"
	},
	{
		"venue_id": "yelpvlNvk_U6l2MFBaOnPfK6uw",
		"venue_name": "Cherry Circle Room",
		"latitude": 41.881664276123,
		"longitude": -87.6249694824219,
		"address1": "12 S Michigan Ave",
		"address2": null,
		"address3": "",
		"city": "Chicago",
		"state": "IL",
		"zip_code": "60603"
	},
	{
		"venue_id": "yelp9Um0VdIot6ugCd1yoBN-9g",
		"venue_name": "Pick Me Up Cafe",
		"latitude": 41.9438,
		"longitude": -87.65403,
		"address1": "3408 N Clark St",
		"address2": "",
		"address3": "",
		"city": "Chicago",
		"state": "IL",
		"zip_code": "60657"
	},
	{
		"venue_id": "yelp_gcDPMZjM4rVO5ZVfM3xlA",
		"venue_name": "Parson's Chicken & Fish",
		"latitude": 41.91758764277,
		"longitude": -87.7013152429917,
		"address1": "2952 W Armitage",
		"address2": "",
		"address3": "",
		"city": "Chicago",
		"state": "IL",
		"zip_code": "60647"
	},
	{
		"venue_id": "yelpIRa05qXL2uU_WotrRgWNiQ",
		"venue_name": "The Marq",
		"latitude": 41.8796191,
		"longitude": -87.6299253,
		"address1": "60 West Adams St",
		"address2": "",
		"address3": "",
		"city": "Chicago",
		"state": "IL",
		"zip_code": "60603"
	},
	{
		"venue_id": "yelpbjQFZfYCjR1UmnUYZUL9Zg",
		"venue_name": "The Hampton Social - River North",
		"latitude": 41.8898337310695,
		"longitude": -87.6378512282417,
		"address1": "353 W Hubbard St",
		"address2": "",
		"address3": "",
		"city": "Chicago",
		"state": "IL",
		"zip_code": "60654"
	},
	{
		"venue_id": "yelpvxA930_6OGv8WpyHoQjioQ",
		"venue_name": "Sunny Side Up & Coffee Shop",
		"latitude": 41.8957916402964,
		"longitude": -87.6263844966888,
		"address1": "42 E Superior St",
		"address2": "",
		"address3": "",
		"city": "Chicago",
		"state": "IL",
		"zip_code": "60611"
	},
	{
		"venue_id": "yelpXVDQYUFhJ4Ur_92eVYs3CA",
		"venue_name": "Vincent Restaurant",
		"latitude": 41.9798175448213,
		"longitude": -87.6675344363907,
		"address1": "1475 W Balmoral Ave",
		"address2": "",
		"address3": "",
		"city": "Chicago",
		"state": "IL",
		"zip_code": "60640"
	},
	{
		"venue_id": "yelpkyZQnv62VQnDk23i_TxO3g",
		"venue_name": "Parachute",
		"latitude": 41.944707,
		"longitude": -87.706518,
		"address1": "3500 N Elston Ave",
		"address2": "",
		"address3": "",
		"city": "Chicago",
		"state": "IL",
		"zip_code": "60618"
	},
	{
		"venue_id": "yelpfS0FUHFtsKFNjBYHcPgZPg",
		"venue_name": "Bad Hunter",
		"latitude": 41.88463,
		"longitude": -87.64769,
		"address1": "802 W Randolph St",
		"address2": null,
		"address3": "",
		"city": "Chicago",
		"state": "IL",
		"zip_code": "60607"
	},
	{
		"venue_id": "yelpj3chLwR9p9Rb-j2KNOpS5Q",
		"venue_name": "Inspiration Kitchens",
		"latitude": 41.88502,
		"longitude": -87.71402,
		"address1": "3504 W Lake St",
		"address2": "",
		"address3": "",
		"city": "Chicago",
		"state": "IL",
		"zip_code": "60624"
	},
	{
		"venue_id": "yelpC9zXJ484qD6K8o0ISOQI7w",
		"venue_name": "North Pond",
		"latitude": 41.92931,
		"longitude": -87.636616,
		"address1": "2610 N Cannon Dr",
		"address2": null,
		"address3": "",
		"city": "Chicago",
		"state": "IL",
		"zip_code": "60614"
	},
	{
		"venue_id": "yelpDCjO2J5tZiCi96u_-hdtDg",
		"venue_name": "MAD Social",
		"latitude": 41.88187,
		"longitude": -87.65598,
		"address1": "1140 W. Madison St",
		"address2": "",
		"address3": "",
		"city": "Chicago",
		"state": "IL",
		"zip_code": "60607"
	},
	{
		"venue_id": "yelp7erf6yRfYGkrQAuLo9e9xA",
		"venue_name": "Schubas Tavern",
		"latitude": 41.93965,
		"longitude": -87.66343,
		"address1": "3159 N Southport Ave",
		"address2": "",
		"address3": "",
		"city": "Chicago",
		"state": "IL",
		"zip_code": "60657"
	},
	{
		"venue_id": "yelpxo3zcBRNkPFnHCy1UvkrGw",
		"venue_name": "HQ Howard Quintero",
		"latitude": 41.95622,
		"longitude": -87.70842,
		"address1": "4114 N Kedzie Ave",
		"address2": null,
		"address3": "",
		"city": "Chicago",
		"state": "IL",
		"zip_code": "60618"
	},
	{
		"venue_id": "yelpXs7VQkl9cFTWQqmq69UvuQ",
		"venue_name": "Barrio",
		"latitude": 41.8890751,
		"longitude": -87.6302265,
		"address1": "65 W Kinzie St",
		"address2": null,
		"address3": "",
		"city": "Chicago",
		"state": "IL",
		"zip_code": "60654"
	},
	{
		"venue_id": "yelpzH7lgLLw0FVfA6HrwV4pTw",
		"venue_name": "S.K.Y.",
		"latitude": 41.8577851,
		"longitude": -87.6578749,
		"address1": "1239 W 18th St",
		"address2": "",
		"address3": null,
		"city": "Chicago",
		"state": "IL",
		"zip_code": "60608"
	},
	{
		"venue_id": "yelpArT0vbIky7FvWFpPoIerEw",
		"venue_name": "The Berghoff Restaurant",
		"latitude": 41.8793326,
		"longitude": -87.6286679,
		"address1": "17 W Adams St",
		"address2": "",
		"address3": "",
		"city": "Chicago",
		"state": "IL",
		"zip_code": "60603"
	},
	{
		"venue_id": "yelpQ9uxInveq-RFvpF1jkO8wQ",
		"venue_name": "Band of Bohemia",
		"latitude": 41.96761,
		"longitude": -87.6751,
		"address1": "4710 N Ravenswood Ave",
		"address2": "",
		"address3": "",
		"city": "Chicago",
		"state": "IL",
		"zip_code": "60640"
	},
	{
		"venue_id": "yelp2HCUc0_ALwpoyrZjblrg5A",
		"venue_name": "Pinstripes",
		"latitude": 41.8908475350465,
		"longitude": -87.6161211240793,
		"address1": "435 E Illinois St",
		"address2": "",
		"address3": "",
		"city": "Chicago",
		"state": "IL",
		"zip_code": "60611"
	},
	{
		"venue_id": "yelppOQOEBZbKXA3MLUXWsSyTg",
		"venue_name": "Beezzee",
		"latitude": 41.9328851,
		"longitude": -87.6537007,
		"address1": "2807 N Sheffield Ave",
		"address2": null,
		"address3": "",
		"city": "Chicago",
		"state": "IL",
		"zip_code": "60657"
	},
	{
		"venue_id": "yelpWLcAdMilB7fDFIZLa2vI_w",
		"venue_name": "STK Chicago",
		"latitude": 41.88902,
		"longitude": -87.62864,
		"address1": "9 West Kinzie St",
		"address2": null,
		"address3": null,
		"city": "Chicago",
		"state": "IL",
		"zip_code": "60654"
	},
	{
		"venue_id": "yelpKGMxtvX0191P1teCk1Yt6w",
		"venue_name": "Untitled Supper Club",
		"latitude": 41.8889649,
		"longitude": -87.6316229,
		"address1": "111 W Kinzie St",
		"address2": null,
		"address3": "",
		"city": "Chicago",
		"state": "IL",
		"zip_code": "60654"
	},
	{
		"venue_id": "yelpiV0dJWBCENr4ZiTgqK4lLQ",
		"venue_name": "Southport & Irving SIP",
		"latitude": 41.95452,
		"longitude": -87.6644318,
		"address1": "4000 N Southport Ave",
		"address2": "",
		"address3": "",
		"city": "Chicago",
		"state": "IL",
		"zip_code": "60613"
	},
	{
		"venue_id": "yelptL8lLGQaAnKb9I7a0vsGtg",
		"venue_name": "PR Italian Bistro",
		"latitude": 41.953,
		"longitude": -87.65477,
		"address1": "3908 N Sheridan Rd",
		"address2": "",
		"address3": "",
		"city": "Chicago",
		"state": "IL",
		"zip_code": "60613"
	},
	{
		"venue_id": "yelpZGnxEJXlv8e41qhVLkfKtQ",
		"venue_name": "Acadia",
		"latitude": 41.859047,
		"longitude": -87.625243,
		"address1": "1639 S Wabash Ave",
		"address2": "",
		"address3": "",
		"city": "Chicago",
		"state": "IL",
		"zip_code": "60616"
	},
	{
		"venue_id": "yelpbEhKMjnmpZLtFb7oAKjYYA",
		"venue_name": "Fatpour Tap Works",
		"latitude": 41.90289,
		"longitude": -87.67762,
		"address1": "2005 W Division St",
		"address2": "",
		"address3": "",
		"city": "Chicago",
		"state": "IL",
		"zip_code": "60622"
	},
	{
		"venue_id": "yelpt3Gg5wW9wxHO4s9tGBArQQ",
		"venue_name": "Protein Bar",
		"latitude": 41.8790123356902,
		"longitude": -87.6350229818467,
		"address1": "235 S Franklin St",
		"address2": "",
		"address3": "",
		"city": "Chicago",
		"state": "IL",
		"zip_code": "60606"
	},
	{
		"venue_id": "yelplgdxwmfYeHFd-BVhZnTGfQ",
		"venue_name": "Eden",
		"latitude": 41.885285031685,
		"longitude": -87.6709473878145,
		"address1": "1748 W Lake St",
		"address2": "",
		"address3": null,
		"city": "Chicago",
		"state": "IL",
		"zip_code": "60612"
	},
	{
		"venue_id": "yelpDPjDl5yUOh2jj_-Y2YODGQ",
		"venue_name": "Lady Gregory's",
		"latitude": 41.9774908,
		"longitude": -87.6685493,
		"address1": "5260 N Clark St",
		"address2": "",
		"address3": "",
		"city": "Chicago",
		"state": "IL",
		"zip_code": "60640"
	},
	{
		"venue_id": "yelpISK4YPxKYvG9PzmxBE6CJg",
		"venue_name": "Bistronomic",
		"latitude": 41.8979072566376,
		"longitude": -87.6272430870994,
		"address1": "840 N Wabash Ave",
		"address2": "",
		"address3": "",
		"city": "Chicago",
		"state": "IL",
		"zip_code": "60611"
	},
	{
		"venue_id": "yelpzcMR0uDgshgPA0rauDlekA",
		"venue_name": "Uncommon Ground",
		"latitude": 41.95125,
		"longitude": -87.66007,
		"address1": "3800 N Clark St",
		"address2": "",
		"address3": "",
		"city": "Chicago",
		"state": "IL",
		"zip_code": "60613"
	},
	{
		"venue_id": "yelpPFg_W14UFHXtwHOxquirIA",
		"venue_name": "Yoshi's Cafe",
		"latitude": 41.9417028,
		"longitude": -87.6492322,
		"address1": "3257 N Halsted St",
		"address2": "",
		"address3": "",
		"city": "Chicago",
		"state": "IL",
		"zip_code": "60657"
	},
	{
		"venue_id": "yelpMU5NxL5nQzRhuzSC0APmiA",
		"venue_name": "Headquarters Beercade River North",
		"latitude": 41.89718,
		"longitude": -87.6352,
		"address1": "213 W Institute Pl",
		"address2": "",
		"address3": "",
		"city": "Chicago",
		"state": "IL",
		"zip_code": "60610"
	},
	{
		"venue_id": "yelpAqYFeg1GBwHe4ERL3q_LYg",
		"venue_name": "Ella Elli",
		"latitude": 41.9451151,
		"longitude": -87.6630233,
		"address1": "1349 W Cornelia Ave",
		"address2": null,
		"address3": "",
		"city": "Chicago",
		"state": "IL",
		"zip_code": "60657"
	},
	{
		"venue_id": "yelp2mXTTmT65KzUCf_2l-VS-w",
		"venue_name": "The Duck Inn",
		"latitude": 41.8444817593219,
		"longitude": -87.6601841065537,
		"address1": "2701 S Eleanor",
		"address2": "",
		"address3": "",
		"city": "Chicago",
		"state": "IL",
		"zip_code": "60608"
	},
	{
		"venue_id": "yelpwsox4oAdEk94m6YploUfdA",
		"venue_name": "Gemini",
		"latitude": 41.9200319,
		"longitude": -87.640967,
		"address1": "2075 N Lincoln Ave",
		"address2": "",
		"address3": "",
		"city": "Chicago",
		"state": "IL",
		"zip_code": "60614"
	},
	{
		"venue_id": "yelptCBKjclvCuiuSkiNz1fOjw",
		"venue_name": "Wood",
		"latitude": 41.942829280388,
		"longitude": -87.649184667136,
		"address1": "3335 N Halsted St",
		"address2": "",
		"address3": "",
		"city": "Chicago",
		"state": "IL",
		"zip_code": "60657"
	},
	{
		"venue_id": "yelpdkN4tBckgSUM39_yI5eGEA",
		"venue_name": "Broken Shaker Chicago",
		"latitude": 41.89233,
		"longitude": -87.62727,
		"address1": "19 East Ohio St",
		"address2": "",
		"address3": "",
		"city": "Chicago",
		"state": "IL",
		"zip_code": "60611"
	},
	{
		"venue_id": "yelpqizzFBua15kSbWB48T8XGg",
		"venue_name": "Public House",
		"latitude": 41.8893653140557,
		"longitude": -87.6282758306885,
		"address1": "400 N State St",
		"address2": "",
		"address3": "",
		"city": "Chicago",
		"state": "IL",
		"zip_code": "60654"
	},
	{
		"venue_id": "yelpugOU_IJV4qFSaC1BtuazyQ",
		"venue_name": "Sweetwater Tavern and Grille",
		"latitude": 41.88644,
		"longitude": -87.62411,
		"address1": "225 N Michigan Ave",
		"address2": "",
		"address3": "",
		"city": "Chicago",
		"state": "IL",
		"zip_code": "60601"
	},
	{
		"venue_id": "yelpMwobGG_QI3QLf5HencV3Yg",
		"venue_name": "The Kitchen",
		"latitude": 41.8880238,
		"longitude": -87.6312069,
		"address1": "316 N Clark St",
		"address2": "",
		"address3": "",
		"city": "Chicago",
		"state": "IL",
		"zip_code": "60654"
	},
	{
		"venue_id": "yelpbvB-S8FsKodF7qkfIfYI8g",
		"venue_name": "Pops for Champagne",
		"latitude": 41.8926209396105,
		"longitude": -87.6279114723251,
		"address1": "601 N State St",
		"address2": "",
		"address3": "",
		"city": "Chicago",
		"state": "IL",
		"zip_code": "60654"
	},
	{
		"venue_id": "yelpKx9pLt4R4xidSYp0O6eYIg",
		"venue_name": "Frontier",
		"latitude": 41.901201,
		"longitude": -87.663558,
		"address1": "1072 N Milwaukee Ave",
		"address2": "",
		"address3": "",
		"city": "Chicago",
		"state": "IL",
		"zip_code": "60642"
	},
	{
		"venue_id": "yelp34C7qV4KzeOyRWZId6pl_g",
		"venue_name": "Smith & Wollensky",
		"latitude": 41.8883017,
		"longitude": -87.6281349,
		"address1": "318 N State St",
		"address2": "",
		"address3": "",
		"city": "Chicago",
		"state": "IL",
		"zip_code": "60654"
	},
	{
		"venue_id": "yelprPp8L8pwkNwepgPRVBy99g",
		"venue_name": "Old Irving Brewing",
		"latitude": 41.9606817809204,
		"longitude": -87.7393777788835,
		"address1": "4419 W Montrose Ave",
		"address2": "",
		"address3": null,
		"city": "Chicago",
		"state": "IL",
		"zip_code": "60641"
	},
	{
		"venue_id": "yelpHRGw4jttKMokp_PSGPhh8g",
		"venue_name": "Nookies Edgewater",
		"latitude": 41.98395,
		"longitude": -87.65824,
		"address1": "1100 W Bryn Mawr Ave",
		"address2": "",
		"address3": "",
		"city": "Chicago",
		"state": "IL",
		"zip_code": "60660"
	},
	{
		"venue_id": "yelpEfSiYrSkWfGV6q0G-if6hw",
		"venue_name": "Rockwell's Neighborhood Grill",
		"latitude": 41.96587,
		"longitude": -87.6939699,
		"address1": "4632 N Rockwell St",
		"address2": null,
		"address3": "",
		"city": "Chicago",
		"state": "IL",
		"zip_code": "60625"
	},
	{
		"venue_id": "yelpSbdZRJSSISB-cUQ9ShBetQ",
		"venue_name": "Corridor Brewery & Provisions",
		"latitude": 41.94474,
		"longitude": -87.66429,
		"address1": "3446 N Southport",
		"address2": "",
		"address3": "",
		"city": "Chicago",
		"state": "IL",
		"zip_code": "60657"
	},
	{
		"venue_id": "yelpNk4H9CkU8B1VPAofaB2qcQ",
		"venue_name": "Mable's Table",
		"latitude": 41.91582,
		"longitude": -87.6699,
		"address1": "1655 W Cortland St",
		"address2": "",
		"address3": null,
		"city": "Chicago",
		"state": "IL",
		"zip_code": "60622"
	},
	{
		"venue_id": "yelpID-0tVdM9YatcHzjDfiofg",
		"venue_name": "Fremont",
		"latitude": 41.89063,
		"longitude": -87.6287,
		"address1": "15 W Illinois St",
		"address2": "",
		"address3": "",
		"city": "Chicago",
		"state": "IL",
		"zip_code": "60654"
	},
	{
		"venue_id": "yelpsqaHmXuonFpBxJuQFmmsng",
		"venue_name": "Arbor",
		"latitude": 41.9316253662109,
		"longitude": -87.6921005249023,
		"address1": "2545 W Diversey Ave",
		"address2": null,
		"address3": "",
		"city": "Chicago",
		"state": "IL",
		"zip_code": "60647"
	},
	{
		"venue_id": "yelpn7rLXbPv_ivYU2CLD04jUw",
		"venue_name": "Lokal",
		"latitude": 41.91071,
		"longitude": -87.67536,
		"address1": "1904 W North Ave",
		"address2": "",
		"address3": "",
		"city": "Chicago",
		"state": "IL",
		"zip_code": "60622"
	},
	{
		"venue_id": "yelpIITu5GokSXIJC902vV_b0A",
		"venue_name": "Kit Kat Lounge & Supper Club",
		"latitude": 41.949263828004,
		"longitude": -87.6497471053475,
		"address1": "3700 N Halsted St",
		"address2": "",
		"address3": "",
		"city": "Chicago",
		"state": "IL",
		"zip_code": "60613"
	},
	{
		"venue_id": "yelpWjNakFKJRj1vajq-JYopbg",
		"venue_name": "Beatrix Fulton Market",
		"latitude": 41.8868249661409,
		"longitude": -87.6488907835047,
		"address1": "834 W Fulton Market",
		"address2": null,
		"address3": null,
		"city": "Chicago",
		"state": "IL",
		"zip_code": "60607"
	},
	{
		"venue_id": "yelp6gZTET0y7ARZMrbJRmI2mw",
		"venue_name": "The Fifty/50",
		"latitude": 41.90301427628,
		"longitude": -87.6788022511999,
		"address1": "2047 W Division St",
		"address2": "",
		"address3": "",
		"city": "Chicago",
		"state": "IL",
		"zip_code": "60622"
	},
	{
		"venue_id": "yelpKEurf3alWcf4Z0RqPtTYDQ",
		"venue_name": "Monnie Burke's",
		"latitude": 41.85759,
		"longitude": -87.65562,
		"address1": "1163 W 18th St",
		"address2": null,
		"address3": "",
		"city": "Chicago",
		"state": "IL",
		"zip_code": "60608"
	},
	{
		"venue_id": "yelpax-3aOMpoJD9jaoU75g96A",
		"venue_name": "Protein Bar",
		"latitude": 41.8889455786121,
		"longitude": -87.6312258839607,
		"address1": "352 N Clark",
		"address2": "",
		"address3": "",
		"city": "Chicago",
		"state": "IL",
		"zip_code": "60654"
	},
	{
		"venue_id": "yelpSv1_VhFbQOBc60KfCT5ENg",
		"venue_name": "Travelle at The Langham",
		"latitude": 41.888596585748,
		"longitude": -87.6275642841309,
		"address1": "330 N Wabash Ave",
		"address2": "Fl 2",
		"address3": "",
		"city": "Chicago",
		"state": "IL",
		"zip_code": "60611"
	},
	{
		"venue_id": "yelp_wpU0jwlbpfun7MVU79UbQ",
		"venue_name": "Park & Field",
		"latitude": 41.92433,
		"longitude": -87.71428,
		"address1": "3509 Fullerton",
		"address2": "",
		"address3": "",
		"city": "Chicago",
		"state": "IL",
		"zip_code": "60647"
	},
	{
		"venue_id": "yelpsai33VSs51v_OVrJjFW_PQ",
		"venue_name": "City Winery",
		"latitude": 41.88463,
		"longitude": -87.6574,
		"address1": "1200 W Randolph St",
		"address2": "",
		"address3": "",
		"city": "Chicago",
		"state": "IL",
		"zip_code": "60607"
	},
	{
		"venue_id": "yelpUBRUh0001F5MbeziBV-BFw",
		"venue_name": "Range",
		"latitude": 41.921427,
		"longitude": -87.656728,
		"address1": "1119 W Webster",
		"address2": "",
		"address3": "",
		"city": "Chicago",
		"state": "IL",
		"zip_code": "60614"
	},
	{
		"venue_id": "yelpxypCmZGXwNwayGla_geIAA",
		"venue_name": "The Reservoir",
		"latitude": 41.9620989014783,
		"longitude": -87.6517045497894,
		"address1": "844 W Montrose Ave",
		"address2": "",
		"address3": "",
		"city": "Chicago",
		"state": "IL",
		"zip_code": "60613"
	},
	{
		"venue_id": "yelpsJOPkTGLi53eB46ykvDeRg",
		"venue_name": "Farm Bar Lakeview",
		"latitude": 41.93643,
		"longitude": -87.66141,
		"address1": "1300 W Wellington Ave",
		"address2": null,
		"address3": "",
		"city": "Chicago",
		"state": "IL",
		"zip_code": "60657"
	},
	{
		"venue_id": "yelpJfgS1O2N84LCnEnzUY8bSQ",
		"venue_name": "Baptiste & Bottle",
		"latitude": 41.893975,
		"longitude": -87.6252358,
		"address1": "101 E Erie St",
		"address2": "Fl 20",
		"address3": null,
		"city": "Chicago",
		"state": "IL",
		"zip_code": "60611"
	},
	{
		"venue_id": "yelp7SlA6TVEt5lp-Li3rU0sVA",
		"venue_name": "AceBounce",
		"latitude": 41.8864846,
		"longitude": -87.6311647,
		"address1": "230 N Clark St",
		"address2": null,
		"address3": "",
		"city": "Chicago",
		"state": "IL",
		"zip_code": "60601"
	},
	{
		"venue_id": "yelpngB0iQM1Yz7Nx_tQZqU7NA",
		"venue_name": "Daisies",
		"latitude": 41.92735,
		"longitude": -87.70405,
		"address1": "2523 N Milwaukee Ave",
		"address2": "",
		"address3": null,
		"city": "Chicago",
		"state": "IL",
		"zip_code": "60647"
	},
	{
		"venue_id": "yelpezrUk-iYbs4Ly5KwN6KayQ",
		"venue_name": "Allium",
		"latitude": 41.8994803738048,
		"longitude": -87.625531218946,
		"address1": "120 E Delaware Pl",
		"address2": "",
		"address3": "",
		"city": "Chicago",
		"state": "IL",
		"zip_code": "60611"
	},
	{
		"venue_id": "yelpn7ENmPWxhAXEONNMN393Jw",
		"venue_name": "Interurban Boathouse",
		"latitude": 41.91706,
		"longitude": -87.66494,
		"address1": "1438 W Cortland",
		"address2": "",
		"address3": "",
		"city": "Chicago",
		"state": "IL",
		"zip_code": "60614"
	},
	{
		"venue_id": "yelp-pO0hsi0xlF4FwqLGJUizg",
		"venue_name": "Uncommon Ground",
		"latitude": 41.9980244460366,
		"longitude": -87.6655852796304,
		"address1": "1401 W Devon Ave",
		"address2": null,
		"address3": "",
		"city": "Chicago",
		"state": "IL",
		"zip_code": "60660"
	},
	{
		"venue_id": "yelpO12QxTwfeeavxVx2uKjBlw",
		"venue_name": "Earls Kitchen + Bar",
		"latitude": 41.9086332515198,
		"longitude": -87.6474467969988,
		"address1": "1538 N Clybourn Ave",
		"address2": "",
		"address3": "",
		"city": "Chicago",
		"state": "IL",
		"zip_code": "60642"
	},
	{
		"venue_id": "yelpUcsEEL6JaSXInc9kr0ACxw",
		"venue_name": "Rocking Horse",
		"latitude": 41.9275588989258,
		"longitude": -87.7044525146484,
		"address1": "2535 N Milwaukee Ave",
		"address2": "",
		"address3": "",
		"city": "Chicago",
		"state": "IL",
		"zip_code": "60647"
	},
	{
		"venue_id": "yelpbFWnNX0WIxrx13J_7xleeg",
		"venue_name": "BLVD",
		"latitude": 41.8854,
		"longitude": -87.64823,
		"address1": "817 W Lake St",
		"address2": "",
		"address3": null,
		"city": "Chicago",
		"state": "IL",
		"zip_code": "60607"
	},
	{
		"venue_id": "yelpIJMLIIudGq04iDwQGxTMJA",
		"venue_name": "the Albert",
		"latitude": 41.89368,
		"longitude": -87.62148,
		"address1": "228 E Ontario St",
		"address2": "Fl 1",
		"address3": "",
		"city": "Chicago",
		"state": "IL",
		"zip_code": "60611"
	},
	{
		"venue_id": "yelpzwEvkkliEdhDcRZtnHO2JA",
		"venue_name": "Centennial Crafted Beer & Eatery",
		"latitude": 41.8958299,
		"longitude": -87.63235,
		"address1": "733 N LaSalle Dr",
		"address2": null,
		"address3": "",
		"city": "Chicago",
		"state": "IL",
		"zip_code": "60654"
	},
	{
		"venue_id": "yelp8XNGM8f0QLSOqDEactfigA",
		"venue_name": "Split-Rail",
		"latitude": 41.8959276538074,
		"longitude": -87.6895823702216,
		"address1": "2500 W Chicago Ave",
		"address2": "",
		"address3": null,
		"city": "Chicago",
		"state": "IL",
		"zip_code": "60622"
	},
	{
		"venue_id": "yelp6bjsGpmLl9JgbsRZ-JYR-w",
		"venue_name": "Cellar Door Provisions",
		"latitude": 41.9319251,
		"longitude": -87.7035224,
		"address1": "3025 W Diversey Ave",
		"address2": "",
		"address3": "",
		"city": "Chicago",
		"state": "IL",
		"zip_code": "60647"
	},
	{
		"venue_id": "yelpW8-W5b8kZYCM7AnN7Ct7TA",
		"venue_name": "The Little Beet Table",
		"latitude": 41.8980946545345,
		"longitude": -87.6280522408365,
		"address1": "845 N State St",
		"address2": "Ste 101",
		"address3": "",
		"city": "Chicago",
		"state": "IL",
		"zip_code": "60610"
	},
	{
		"venue_id": "yelpNTQlPwOGbQhwbbjkUBoPuw",
		"venue_name": "Fulton Market Kitchen",
		"latitude": 41.887184,
		"longitude": -87.650678,
		"address1": "311 North Sangamon",
		"address2": "",
		"address3": "",
		"city": "Chicago",
		"state": "IL",
		"zip_code": "60607"
	},
	{
		"venue_id": "yelpl8UBwRko7ztwSZfoLtIVaw",
		"venue_name": "Atwood",
		"latitude": 41.88304,
		"longitude": -87.62826,
		"address1": "1 W Washington St",
		"address2": "",
		"address3": "",
		"city": "Chicago",
		"state": "IL",
		"zip_code": "60602"
	},
	{
		"venue_id": "yelpxz3DNtv-sTAltyk8iFDz1w",
		"venue_name": "Hubbard Inn",
		"latitude": 41.89025,
		"longitude": -87.63179,
		"address1": "110 W Hubbard St",
		"address2": "",
		"address3": "",
		"city": "Chicago",
		"state": "IL",
		"zip_code": "60654"
	},
	{
		"venue_id": "yelpP5fNfTYRKGYo23rhpTxgIQ",
		"venue_name": "Volo Restaurant Wine Bar",
		"latitude": 41.9433228,
		"longitude": -87.6788849,
		"address1": "2008 W Roscoe St",
		"address2": null,
		"address3": "",
		"city": "Chicago",
		"state": "IL",
		"zip_code": "60618"
	},
	{
		"venue_id": "yelpWpiOkhWb2hWxIbS3ivl6Pw",
		"venue_name": "Azul 18",
		"latitude": 41.8580549,
		"longitude": -87.6578675,
		"address1": "1236 W 18th St",
		"address2": null,
		"address3": "",
		"city": "Chicago",
		"state": "IL",
		"zip_code": "60608"
	},
	{
		"venue_id": "yelprgm88VTnviugKVctY83ydQ",
		"venue_name": "Five Star Bar",
		"latitude": 41.896292,
		"longitude": -87.663504,
		"address1": "1424 W Chicago Ave",
		"address2": null,
		"address3": "",
		"city": "Chicago",
		"state": "IL",
		"zip_code": "60642"
	},
	{
		"venue_id": "yelpdQ2Qex78N_fzVraAwkxmQg",
		"venue_name": "Kendall College - The Dining Room",
		"latitude": 41.8987998962402,
		"longitude": -87.6487884521484,
		"address1": "900 N North Branch St",
		"address2": null,
		"address3": "",
		"city": "Chicago",
		"state": "IL",
		"zip_code": "60642"
	},
	{
		"venue_id": "yelp8oOZU9ERRyiiz3AP78d1Gw",
		"venue_name": "Roanoke Restaurant",
		"latitude": 41.8818351,
		"longitude": -87.6319349,
		"address1": "135 W Madison St",
		"address2": null,
		"address3": "",
		"city": "Chicago",
		"state": "IL",
		"zip_code": "60602"
	},
	{
		"venue_id": "yelpRcmyqKQeG5gceCrGW237Ig",
		"venue_name": "LYFE Kitchen",
		"latitude": 41.8936116473435,
		"longitude": -87.6204406772432,
		"address1": "259 E Erie St",
		"address2": "",
		"address3": "",
		"city": "Chicago",
		"state": "IL",
		"zip_code": "60611"
	},
	{
		"venue_id": "yelpKPQTn3g1aawws-rp6A3hNg",
		"venue_name": "Elizabeth Restaurant",
		"latitude": 41.96954,
		"longitude": -87.68863,
		"address1": "4835 N Western Ave",
		"address2": "Unit D",
		"address3": "",
		"city": "Chicago",
		"state": "IL",
		"zip_code": "60625"
	},
	{
		"venue_id": "yelpPEG6gRkU_z89nUcDgyAGFg",
		"venue_name": "Taco In A Bag",
		"latitude": 41.9650957935014,
		"longitude": -87.6860730074457,
		"address1": "4603 N Lincoln Ave",
		"address2": "",
		"address3": "",
		"city": "Chicago",
		"state": "IL",
		"zip_code": "60625"
	},
	{
		"venue_id": "yelpS82Ug9CXLF-mFAi6n33UEA",
		"venue_name": "G & O",
		"latitude": 41.8905555032465,
		"longitude": -87.6591891823589,
		"address1": "459 W Ogden Ave",
		"address2": "",
		"address3": "",
		"city": "Chicago",
		"state": "IL",
		"zip_code": "60642"
	},
	{
		"venue_id": "yelpEoVwnUgEUXI49jwxLRMamw",
		"venue_name": "The Cheesecake Factory",
		"latitude": 41.8985768129586,
		"longitude": -87.6233098699753,
		"address1": "875 N Michigan Ave",
		"address2": "",
		"address3": "",
		"city": "Chicago",
		"state": "IL",
		"zip_code": "60611"
	},
	{
		"venue_id": "yelpR50c3h3efIq7V8j2hZsE_A",
		"venue_name": "Fat Cat",
		"latitude": 41.9701070447662,
		"longitude": -87.6599332164817,
		"address1": "4840 N Broadway St",
		"address2": "",
		"address3": "",
		"city": "Chicago",
		"state": "IL",
		"zip_code": "60640"
	},
	{
		"venue_id": "yelpPrt0N_cokvWKoowVIzMHCQ",
		"venue_name": "ROOF on theWit",
		"latitude": 41.8860699,
		"longitude": -87.6276199,
		"address1": "201 N State St",
		"address2": "",
		"address3": "",
		"city": "Chicago",
		"state": "IL",
		"zip_code": "60601"
	},
	{
		"venue_id": "yelp3n35t-1LPBDqWjEzqfAJZg",
		"venue_name": "The Flower Flat",
		"latitude": 41.9477407,
		"longitude": -87.646633,
		"address1": "620 W Addison St",
		"address2": "",
		"address3": "",
		"city": "Chicago",
		"state": "IL",
		"zip_code": "60613"
	},
	{
		"venue_id": "yelpfW5mNILkfD3-0cOqoPsRvA",
		"venue_name": "Labriola",
		"latitude": 41.8919830322266,
		"longitude": -87.6235427856445,
		"address1": "535 N Michigan Ave",
		"address2": "",
		"address3": "",
		"city": "Chicago",
		"state": "IL",
		"zip_code": "60611"
	},
	{
		"venue_id": "yelp1Gg16kUQ7bbJ3IHa_u1NXQ",
		"venue_name": "Homestead on the Roof",
		"latitude": 41.896157,
		"longitude": -87.675662,
		"address1": "1924 W Chicago Ave",
		"address2": "",
		"address3": "",
		"city": "Chicago",
		"state": "IL",
		"zip_code": "60622"
	},
	{
		"venue_id": "yelp2fZ02ae7kZG9PW0vKjtTRQ",
		"venue_name": "Protein Bar",
		"latitude": 41.8858024477959,
		"longitude": -87.6283451914787,
		"address1": "10 W Lake St",
		"address2": "",
		"address3": "",
		"city": "Chicago",
		"state": "IL",
		"zip_code": "60601"
	},
	{
		"venue_id": "yelpACxKsayQAP9eCV2WIv_6Ww",
		"venue_name": "Brownstone Tavern & Grill",
		"latitude": 41.9533996582031,
		"longitude": -87.6778411865234,
		"address1": "3937 N Lincoln Ave",
		"address2": "",
		"address3": "",
		"city": "Chicago",
		"state": "IL",
		"zip_code": "60613"
	},
	{
		"venue_id": "yelpXt75l3uhbczQeEvLyXVJfA",
		"venue_name": "The Loyalist",
		"latitude": 41.88491,
		"longitude": -87.66036,
		"address1": "177 N Ada St",
		"address2": "Ste 001",
		"address3": null,
		"city": "Chicago",
		"state": "IL",
		"zip_code": "60607"
	},
	{
		"venue_id": "yelpXb9CnDQWxtdNLLkuCWTuDg",
		"venue_name": "State Restaurant",
		"latitude": 41.9215,
		"longitude": -87.65248,
		"address1": "935 W Webster Ave",
		"address2": null,
		"address3": "",
		"city": "Chicago",
		"state": "IL",
		"zip_code": "60614"
	},
	{
		"venue_id": "yelp_KzZ5hqFD1uJS6gm2tsP2g",
		"venue_name": "Clever Rabbit",
		"latitude": 41.90289,
		"longitude": -87.67793,
		"address1": "2015 W Division St",
		"address2": "",
		"address3": null,
		"city": "Chicago",
		"state": "IL",
		"zip_code": "60622"
	},
	{
		"venue_id": "yelpRqUPrDTsGTuCzwQylbAEtg",
		"venue_name": "Bellemore",
		"latitude": 41.8847,
		"longitude": -87.6423,
		"address1": "564 W Randolph St",
		"address2": null,
		"address3": null,
		"city": "Chicago",
		"state": "IL",
		"zip_code": "60661"
	},
	{
		"venue_id": "yelpdrDsgY_5E7bm7iLGCdOelQ",
		"venue_name": "Seven Lions",
		"latitude": 41.879908,
		"longitude": -87.624697,
		"address1": "130 S Michigan Ave",
		"address2": "",
		"address3": "",
		"city": "Chicago",
		"state": "IL",
		"zip_code": "60603"
	},
	{
		"venue_id": "yelp5I9mVLHZupksTqU0BsP9Mw",
		"venue_name": "The Madison Bar and Kitchen",
		"latitude": 41.88138,
		"longitude": -87.65321,
		"address1": "1027 W Madison St",
		"address2": null,
		"address3": "",
		"city": "Chicago",
		"state": "IL",
		"zip_code": "60607"
	},
	{
		"venue_id": "yelpLeeIwHvIXFejO_cK0c9fYw",
		"venue_name": "Smyth",
		"latitude": 41.88491,
		"longitude": -87.66036,
		"address1": "177 North Ada St",
		"address2": "",
		"address3": null,
		"city": "Chicago",
		"state": "IL",
		"zip_code": "60607"
	},
	{
		"venue_id": "yelpW2QV6SILHer3qB_-CZ1z1A",
		"venue_name": "etta",
		"latitude": 41.91073,
		"longitude": -87.67417,
		"address1": "1840 W North Ave",
		"address2": null,
		"address3": "",
		"city": "Chicago",
		"state": "IL",
		"zip_code": "60622"
	},
	{
		"venue_id": "yelpVkIQgupDqCFZorV8Ro-89A",
		"venue_name": "State and Lake Chicago Tavern",
		"latitude": 41.885777,
		"longitude": -87.627901,
		"address1": "theWit Hotel",
		"address2": "201 N State St",
		"address3": "",
		"city": "Chicago",
		"state": "IL",
		"zip_code": "60601"
	},
	{
		"venue_id": "yelpsyFfym4JRuHrT_3cUhuF1g",
		"venue_name": "Bernie's Lunch & Supper",
		"latitude": 41.8941497802734,
		"longitude": -87.6373977661133,
		"address1": "660 N Orleans St",
		"address2": null,
		"address3": "",
		"city": "Chicago",
		"state": "IL",
		"zip_code": "60654"
	},
	{
		"venue_id": "yelp2_NW90Nrx5_ag4BR3jYqhQ",
		"venue_name": "Meli Cafe",
		"latitude": 41.875586,
		"longitude": -87.629506,
		"address1": "500 S Dearborn St",
		"address2": "",
		"address3": "",
		"city": "Chicago",
		"state": "IL",
		"zip_code": "60605"
	},
	{
		"venue_id": "yelp8p2TNg1jXZ26jOTbYa8OjA",
		"venue_name": "Rudy's Bar & Grille",
		"latitude": 41.881905,
		"longitude": -87.625666,
		"address1": "69 E Madison St",
		"address2": "",
		"address3": "",
		"city": "Chicago",
		"state": "IL",
		"zip_code": "60603"
	},
	{
		"venue_id": "yelp2utBBiZLq0YqcxmiMYySgA",
		"venue_name": "Kaiser Tiger",
		"latitude": 41.883812,
		"longitude": -87.662903,
		"address1": "1415 W Randolph St",
		"address2": "",
		"address3": "",
		"city": "Chicago",
		"state": "IL",
		"zip_code": "60607"
	},
	{
		"venue_id": "yelplqJvhcQBirF5J-wNC0kGuA",
		"venue_name": "Woodie's Flat",
		"latitude": 41.91021,
		"longitude": -87.63422,
		"address1": "1535 N Wells St",
		"address2": null,
		"address3": "",
		"city": "Chicago",
		"state": "IL",
		"zip_code": "60610"
	},
	{
		"venue_id": "yelp0jxO2gCuNI6rTz9R1xHBig",
		"venue_name": "First Slice",
		"latitude": 41.9661744,
		"longitude": -87.7010771,
		"address1": "4664 N Manor Ave",
		"address2": "",
		"address3": "",
		"city": "Chicago",
		"state": "IL",
		"zip_code": "60625"
	},
	{
		"venue_id": "yelpe2Lrtjx60UZKDYa6OJjYzQ",
		"venue_name": "Outdoor Grill",
		"latitude": 41.9405364990234,
		"longitude": -87.7256546020508,
		"address1": "3265 N Milwaukee Ave",
		"address2": "",
		"address3": "",
		"city": "Chicago",
		"state": "IL",
		"zip_code": "60618"
	},
	{
		"venue_id": "yelpXOLX_XVqY776i6PyIHp_6Q",
		"venue_name": "The Warbler",
		"latitude": 41.9642255519757,
		"longitude": -87.6854829048272,
		"address1": "4535 N Lincoln Ave",
		"address2": "",
		"address3": null,
		"city": "Chicago",
		"state": "IL",
		"zip_code": "60625"
	},
	{
		"venue_id": "yelpfTZXvgEaXLqm5Nxbuclxtw",
		"venue_name": "The Boundary Tavern & Grille",
		"latitude": 41.9033149,
		"longitude": -87.676244,
		"address1": "1932 W Division St",
		"address2": "",
		"address3": "",
		"city": "Chicago",
		"state": "IL",
		"zip_code": "60622"
	},
	{
		"venue_id": "yelpJ54uFvc21BslX_jqzIDW5A",
		"venue_name": "Hopsmith Tavern",
		"latitude": 41.903838,
		"longitude": -87.629366,
		"address1": "15 W Division Ave",
		"address2": "",
		"address3": "",
		"city": "Chicago",
		"state": "IL",
		"zip_code": "60610"
	},
	{
		"venue_id": "yelp1ukE2y-MzEnG-SM3p8Mq0Q",
		"venue_name": "Protein Bar",
		"latitude": 41.8832075515937,
		"longitude": -87.6345729796018,
		"address1": "221 W Washington",
		"address2": null,
		"address3": "",
		"city": "Chicago",
		"state": "IL",
		"zip_code": "60606"
	},
	{
		"venue_id": "yelpfGAYT6b0vZSGiTISd-zFZg",
		"venue_name": "Cafe Robey",
		"latitude": 41.910642,
		"longitude": -87.678264,
		"address1": "2018 W North Ave",
		"address2": "",
		"address3": null,
		"city": "Chicago",
		"state": "IL",
		"zip_code": "60647"
	},
	{
		"venue_id": "yelpcx4CJLlDqcjDJb1ec9pFPQ",
		"venue_name": "Tabaq Restaurant",
		"latitude": 41.90482,
		"longitude": -87.64053,
		"address1": "1245 N Clybourn St",
		"address2": "",
		"address3": "",
		"city": "Chicago",
		"state": "IL",
		"zip_code": "60610"
	},
	{
		"venue_id": "yelpnE5IGY8AVkeKtOzmuFfKqA",
		"venue_name": "Entente",
		"latitude": 41.93714,
		"longitude": -87.66564,
		"address1": "3056 N Lincoln Ave",
		"address2": "",
		"address3": null,
		"city": "Chicago",
		"state": "IL",
		"zip_code": "60657"
	},
	{
		"venue_id": "yelpIwgIbrT1RYh_gy-JUGiHjg",
		"venue_name": "Tarantino's",
		"latitude": 41.918331,
		"longitude": -87.655967,
		"address1": "1112 W Armitage Ave",
		"address2": "",
		"address3": "",
		"city": "Chicago",
		"state": "IL",
		"zip_code": "60614"
	},
	{
		"venue_id": "yelpw4ohg89-SnoF1zrvXjZywA",
		"venue_name": "City Mouse",
		"latitude": 41.88717,
		"longitude": -87.65184,
		"address1": "311 N Morgan St",
		"address2": "",
		"address3": null,
		"city": "Chicago",
		"state": "IL",
		"zip_code": "60607"
	},
	{
		"venue_id": "yelpkr7qd033PuVWOa664Za3hg",
		"venue_name": "Park Grill at Millennium Park",
		"latitude": 41.882686667881,
		"longitude": -87.6235798878008,
		"address1": "11 N Michigan Ave",
		"address2": "",
		"address3": "Millennium Park",
		"city": "Chicago",
		"state": "IL",
		"zip_code": "60602"
	},
	{
		"venue_id": "yelpSugQCPP3FVPGJATlVXBVDA",
		"venue_name": "South Branch Tavern Grille",
		"latitude": 41.880509,
		"longitude": -87.637837,
		"address1": "100 S Wacker Dr",
		"address2": null,
		"address3": "",
		"city": "Chicago",
		"state": "IL",
		"zip_code": "60606"
	},
	{
		"venue_id": "yelpHSitGmiKzqS-BySlan18UQ",
		"venue_name": "Yard House",
		"latitude": 41.9086163734939,
		"longitude": -87.6470703227539,
		"address1": "1500 N Clybourn Ave",
		"address2": "",
		"address3": null,
		"city": "Chicago",
		"state": "IL",
		"zip_code": "60610"
	},
	{
		"venue_id": "yelpDJEyjd7_tm0jPjuj2gnDPg",
		"venue_name": "Bar Pastoral",
		"latitude": 41.9363021850586,
		"longitude": -87.6441345214844,
		"address1": "2947 N Broadway",
		"address2": "",
		"address3": "",
		"city": "Chicago",
		"state": "IL",
		"zip_code": "60657"
	},
	{
		"venue_id": "yelpdyhE07aOoG0QCr--lIchmQ",
		"venue_name": "Bellwether Meeting House & Eatery",
		"latitude": 41.8911629,
		"longitude": -87.6198906,
		"address1": "302 E Illinois St",
		"address2": "",
		"address3": "",
		"city": "Chicago",
		"state": "IL",
		"zip_code": "60611"
	},
	{
		"venue_id": "yelpvwjgTD_eSgkkwjKYRBBKBQ",
		"venue_name": "Celeste",
		"latitude": 41.889783,
		"longitude": -87.631672,
		"address1": "111 W Hubbard St",
		"address2": "",
		"address3": "",
		"city": "Chicago",
		"state": "IL",
		"zip_code": "60654"
	},
	{
		"venue_id": "yelpecj6b2CGcThT_1tQSxnStA",
		"venue_name": "The Ogden",
		"latitude": 41.8797578827261,
		"longitude": -87.6677996381323,
		"address1": "1659 W Ogden Ave",
		"address2": "",
		"address3": "",
		"city": "Chicago",
		"state": "IL",
		"zip_code": "60612"
	},
	{
		"venue_id": "yelpzDBpKDT-vMHoHtBxOTkqiA",
		"venue_name": "Willow Room",
		"latitude": 41.9139586307373,
		"longitude": -87.6485445788551,
		"address1": "1800 N Halsted St",
		"address2": "",
		"address3": null,
		"city": "Chicago",
		"state": "IL",
		"zip_code": "60614"
	},
	{
		"venue_id": "yelpZnR9rmUba6K4u4RLzcqgow",
		"venue_name": "Marisol",
		"latitude": 41.8974851,
		"longitude": -87.6214486,
		"address1": "205 E Pearson St",
		"address2": "",
		"address3": null,
		"city": "Chicago",
		"state": "IL",
		"zip_code": "60611"
	},
	{
		"venue_id": "yelpkPt3MMzO1njXvxNiveygRA",
		"venue_name": "Temporis",
		"latitude": 41.8989028930664,
		"longitude": -87.6670227050781,
		"address1": "933 N Ashland Ave",
		"address2": "",
		"address3": null,
		"city": "Chicago",
		"state": "IL",
		"zip_code": "60622"
	},
	{
		"venue_id": "yelpY1b6Z9D_WzAzUbTsjNJ8IQ",
		"venue_name": "Raised, an Urban Rooftop Bar",
		"latitude": 41.8862680666176,
		"longitude": -87.6283286355819,
		"address1": "1 West Upper Wacker Drive",
		"address2": "",
		"address3": "",
		"city": "Chicago",
		"state": "IL",
		"zip_code": "60601"
	},
	{
		"venue_id": "yelpbf_caOeh50EvuUwfPSDuNA",
		"venue_name": "Matilda",
		"latitude": 41.938237,
		"longitude": -87.653866,
		"address1": "3101 N Sheffield Ave",
		"address2": "",
		"address3": "",
		"city": "Chicago",
		"state": "IL",
		"zip_code": "60657"
	},
	{
		"venue_id": "yelpviFGd1WmuObof_x-qup7HQ",
		"venue_name": "Tuman's Tap and Grill",
		"latitude": 41.8957413,
		"longitude": -87.6817991,
		"address1": "2159 W Chicago Ave",
		"address2": "",
		"address3": "",
		"city": "Chicago",
		"state": "IL",
		"zip_code": "60622"
	},
	{
		"venue_id": "yelpfrS8eDV3w7dmi4zMzUr7Ig",
		"venue_name": "The Scout Waterhouse + Kitchen",
		"latitude": 41.8657449359089,
		"longitude": -87.6255132110611,
		"address1": "1301 S Wabash Ave",
		"address2": "",
		"address3": "",
		"city": "Chicago",
		"state": "IL",
		"zip_code": "60605"
	},
	{
		"venue_id": "yelpIY1Daz2ijJuy0BZmrUz8zw",
		"venue_name": "Publican Anker",
		"latitude": 41.9099917,
		"longitude": -87.6770808,
		"address1": "1576 N Milwaukee Ave",
		"address2": "",
		"address3": null,
		"city": "Chicago",
		"state": "IL",
		"zip_code": "60622"
	},
	{
		"venue_id": "yelpTr2b8s55GDgx7cz2VbWC8w",
		"venue_name": "The Harding Tavern",
		"latitude": 41.9308003,
		"longitude": -87.7102403,
		"address1": "2732 N Milwaukee Ave",
		"address2": "",
		"address3": "",
		"city": "Chicago",
		"state": "IL",
		"zip_code": "60647"
	},
	{
		"venue_id": "yelpZTn2YtEFijkqlrFwa9aBsw",
		"venue_name": "Estelle's",
		"latitude": 41.9105210720695,
		"longitude": -87.6782602371864,
		"address1": "2013 W North Ave",
		"address2": "",
		"address3": "",
		"city": "Chicago",
		"state": "IL",
		"zip_code": "60647"
	},
	{
		"venue_id": "yelpM7oU-UoQ16aFkfQ1ItHEgg",
		"venue_name": "Angry Pig Tavern",
		"latitude": 41.9102951,
		"longitude": -87.6792899,
		"address1": "2039 W North Ave",
		"address2": null,
		"address3": "",
		"city": "Chicago",
		"state": "IL",
		"zip_code": "60647"
	},
	{
		"venue_id": "yelpA8BgHAgLIEONw8XgkizxQw",
		"venue_name": "Freds Chicago",
		"latitude": 41.900370422272,
		"longitude": -87.6276825275454,
		"address1": "15 E Oak St",
		"address2": "",
		"address3": "",
		"city": "Chicago",
		"state": "IL",
		"zip_code": "60611"
	},
	{
		"venue_id": "yelpEaLu2MY_zlyHpzfyP9nIcg",
		"venue_name": "Derby",
		"latitude": 41.921875,
		"longitude": -87.659387,
		"address1": "1224 W Webster Ave",
		"address2": "",
		"address3": "",
		"city": "Chicago",
		"state": "IL",
		"zip_code": "60614"
	},
	{
		"venue_id": "yelpVxx3lwMeskJ3NWfN38yxjg",
		"venue_name": "Savanna Restaurant",
		"latitude": 41.95641,
		"longitude": -87.67992,
		"address1": "4111 N Lincoln Ave",
		"address2": null,
		"address3": "",
		"city": "Chicago",
		"state": "IL",
		"zip_code": "60618"
	},
	{
		"venue_id": "yelpR1dwGBJUNbp0vJLjk7tntQ",
		"venue_name": "Cit\u00e9",
		"latitude": 41.89153,
		"longitude": -87.61272,
		"address1": "505 N Lake Shore Dr",
		"address2": "",
		"address3": "Lake Point Tower, Fl 70",
		"city": "Chicago",
		"state": "IL",
		"zip_code": "60611"
	},
	{
		"venue_id": "yelpImnN3MAT6bz6XIepMs6nIQ",
		"venue_name": "Protein Bar",
		"latitude": 41.884746,
		"longitude": -87.624139,
		"address1": "151 N Michigan Ave",
		"address2": null,
		"address3": "",
		"city": "Chicago",
		"state": "IL",
		"zip_code": "60601"
	},
	{
		"venue_id": "yelpk5qqAUpe2onzecwqTREhMA",
		"venue_name": "Elske",
		"latitude": 41.8843849,
		"longitude": -87.6608303,
		"address1": "1350 W Randolph St",
		"address2": "",
		"address3": null,
		"city": "Chicago",
		"state": "IL",
		"zip_code": "60607"
	},
	{
		"venue_id": "yelpqPEQWFd7v2OwjQJiBOM1lg",
		"venue_name": "Portsmith",
		"latitude": 41.8941686,
		"longitude": -87.6283048,
		"address1": "660 N State St",
		"address2": "",
		"address3": null,
		"city": "Chicago",
		"state": "IL",
		"zip_code": "60654"
	},
	{
		"venue_id": "yelpaGbrvG-oxzsIFfA0QJHLaA",
		"venue_name": "The Spoke & Bird",
		"latitude": 41.8578733,
		"longitude": -87.6219721,
		"address1": "205 E 18th St",
		"address2": null,
		"address3": "",
		"city": "Chicago",
		"state": "IL",
		"zip_code": "60616"
	},
	{
		"venue_id": "yelpAhGJ0ss_fajxoNsDlqANlg",
		"venue_name": "Waterhouse",
		"latitude": 41.9435806274414,
		"longitude": -87.6708602905273,
		"address1": "3407 N Paulina St",
		"address2": "",
		"address3": "",
		"city": "Chicago",
		"state": "IL",
		"zip_code": "60657"
	},
	{
		"venue_id": "yelp_NaPVNK8n7VV_i_YJvLwNQ",
		"venue_name": "676 Restaurant & Bar",
		"latitude": 41.89474,
		"longitude": -87.62494,
		"address1": "676 N Michigan Ave",
		"address2": "",
		"address3": "",
		"city": "Chicago",
		"state": "IL",
		"zip_code": "60611"
	},
	{
		"venue_id": "yelpzv6Np3a15fxtn8isqCFGPg",
		"venue_name": "Park Tavern",
		"latitude": 41.8773,
		"longitude": -87.66869,
		"address1": "1645 W Jackson Blvd",
		"address2": "",
		"address3": "",
		"city": "Chicago",
		"state": "IL",
		"zip_code": "60612"
	},
	{
		"venue_id": "yelpOu2YEm7bBufTfHKTHUIvWQ",
		"venue_name": "The Diag",
		"latitude": 41.9337598783472,
		"longitude": -87.6636512302175,
		"address1": "2856 N Southport Ave",
		"address2": "",
		"address3": "",
		"city": "Chicago",
		"state": "IL",
		"zip_code": "60657"
	},
	{
		"venue_id": "yelpp2KxGY6wKgAowBmwZaTH8w",
		"venue_name": "Bar Louie",
		"latitude": 41.8720534377198,
		"longitude": -87.6288966064385,
		"address1": "47 W Polk St",
		"address2": "",
		"address3": null,
		"city": "Chicago",
		"state": "IL",
		"zip_code": "60605"
	},
	{
		"venue_id": "yelpAJw1pkVQJ-DmXU89CgZ9-w",
		"venue_name": "Shamrock Club",
		"latitude": 41.8893394730647,
		"longitude": -87.6346463334214,
		"address1": "210 W Kinzie St",
		"address2": "",
		"address3": "",
		"city": "Chicago",
		"state": "IL",
		"zip_code": "60654"
	},
	{
		"venue_id": "yelpFMwj-CNNLCgJr39nUjNqrw",
		"venue_name": "The Metropolitan",
		"latitude": 41.8787402857064,
		"longitude": -87.6362679644444,
		"address1": "233 S Wacker Dr",
		"address2": "Fl 67",
		"address3": "",
		"city": "Chicago",
		"state": "IL",
		"zip_code": "60606"
	},
	{
		"venue_id": "yelprGzgpBcA59VgWJHEfHJjaQ",
		"venue_name": "Protein Bar",
		"latitude": 41.8945731,
		"longitude": -87.621595,
		"address1": "251 E Huron St",
		"address2": "Fl 2",
		"address3": "",
		"city": "Chicago",
		"state": "IL",
		"zip_code": "60611"
	},
	{
		"venue_id": "yelpmePTM5r8gRE9FXTbRPnhMA",
		"venue_name": "Rivers",
		"latitude": 41.88122,
		"longitude": -87.63752,
		"address1": "30 S Wacker Dr",
		"address2": "",
		"address3": "",
		"city": "Chicago",
		"state": "IL",
		"zip_code": "60606"
	},
	{
		"venue_id": "yelpq7dTN0tFCYKUAeK4ozLoEQ",
		"venue_name": "The Press Room",
		"latitude": 41.88322,
		"longitude": -87.65578,
		"address1": "1134 W Washington Blvd",
		"address2": "Lower level",
		"address3": "",
		"city": "Chicago",
		"state": "IL",
		"zip_code": "60607"
	},
	{
		"venue_id": "yelpUzFBm9hEru_WwXg6pERbVQ",
		"venue_name": "HopCat",
		"latitude": 41.9297742,
		"longitude": -87.6428134,
		"address1": "2577 N Clark St",
		"address2": "",
		"address3": null,
		"city": "Chicago",
		"state": "IL",
		"zip_code": "60614"
	},
	{
		"venue_id": "yelpPJLWYg8sNqxVvhvYjwCkkw",
		"venue_name": "Zig Zag Kitchen",
		"latitude": 41.9137,
		"longitude": -87.64801,
		"address1": "1733 N Halsted St",
		"address2": "",
		"address3": "",
		"city": "Chicago",
		"state": "IL",
		"zip_code": "60614"
	},
	{
		"venue_id": "yelpCXRD13qG7ElwKmYU4GD1ww",
		"venue_name": "Lupita's Restaurant",
		"latitude": 41.857963,
		"longitude": -87.665756,
		"address1": "1723 S Ashland",
		"address2": "",
		"address3": "",
		"city": "Chicago",
		"state": "IL",
		"zip_code": "60608"
	},
	{
		"venue_id": "yelpyKzQnhfX--yYuNg70bb3NA",
		"venue_name": "The Irish Oak",
		"latitude": 41.9460546,
		"longitude": -87.6554356,
		"address1": "3511 N Clark St",
		"address2": null,
		"address3": "",
		"city": "Chicago",
		"state": "IL",
		"zip_code": "60657"
	},
	{
		"venue_id": "yelpKzZFCaXVo68eRa08nvW97Q",
		"venue_name": "Bassment",
		"latitude": 41.889817,
		"longitude": -87.637859,
		"address1": "353 W Hubbard St",
		"address2": "",
		"address3": "Lower Level",
		"city": "Chicago",
		"state": "IL",
		"zip_code": "60654"
	},
	{
		"venue_id": "yelpTdUE8NPGaCkaygitV0s08A",
		"venue_name": "Pauline's",
		"latitude": 41.979923248291,
		"longitude": -87.6741638183594,
		"address1": "1754 W Balmoral Ave",
		"address2": "",
		"address3": "",
		"city": "Chicago",
		"state": "IL",
		"zip_code": "60640"
	},
	{
		"venue_id": "yelphZ64aFe4-4ClppyFdpNNcQ",
		"venue_name": "Ironside Bar & Galley",
		"latitude": 41.8920293169464,
		"longitude": -87.6342369988561,
		"address1": "546 N Wells St",
		"address2": "",
		"address3": null,
		"city": "Chicago",
		"state": "IL",
		"zip_code": "60654"
	},
	{
		"venue_id": "yelpChYBFc47Q84yh4MrOSHM7Q",
		"venue_name": "Protein Bar",
		"latitude": 41.91677,
		"longitude": -87.65721,
		"address1": "1953 N Clybourn",
		"address2": "",
		"address3": "",
		"city": "Chicago",
		"state": "IL",
		"zip_code": "60614"
	},
	{
		"venue_id": "yelp-GiApkLFH7P777PmgXUhQw",
		"venue_name": "Diana's Food & Restaurant",
		"latitude": 41.89938,
		"longitude": -87.69961,
		"address1": "1000 N Francisco Ave",
		"address2": "",
		"address3": "",
		"city": "Chicago",
		"state": "IL",
		"zip_code": "60622"
	},
	{
		"venue_id": "yelptzvY0hGCrzH4CgEB7TDsgg",
		"venue_name": "Vines On Clark",
		"latitude": 41.94681,
		"longitude": -87.65659,
		"address1": "3554 N Clark  St",
		"address2": "",
		"address3": "",
		"city": "Chicago",
		"state": "IL",
		"zip_code": "60657"
	},
	{
		"venue_id": "yelp1y1xDvXbO-bKZFgmkMALVA",
		"venue_name": "Lockwood Restaurant & Bar",
		"latitude": 41.8802285297945,
		"longitude": -87.6270397898271,
		"address1": "17 E Monroe St",
		"address2": "",
		"address3": "The Palmer House A Hilton Hotel",
		"city": "Chicago",
		"state": "IL",
		"zip_code": "60603"
	},
	{
		"venue_id": "yelpIQSdTSf_lYqapnW9LXaI0Q",
		"venue_name": "Primebar",
		"latitude": 41.884761,
		"longitude": -87.636315,
		"address1": "155 N Wacker Dr",
		"address2": "",
		"address3": "",
		"city": "Chicago",
		"state": "IL",
		"zip_code": "60606"
	},
	{
		"venue_id": "yelpAWtX75h91qeXQ3Yf3ho3ng",
		"venue_name": "Fennel & Iris",
		"latitude": 41.939938,
		"longitude": -87.670761,
		"address1": "1652 W Belmont Ave",
		"address2": "",
		"address3": "",
		"city": "Chicago",
		"state": "IL",
		"zip_code": "60657"
	},
	{
		"venue_id": "yelpcdncUMyMlJjVxzMkaiKSEg",
		"venue_name": "Alulu Brewpub",
		"latitude": 41.85473,
		"longitude": -87.6634,
		"address1": "2011 South Laflin St",
		"address2": "",
		"address3": null,
		"city": "Chicago",
		"state": "IL",
		"zip_code": "60608"
	},
	{
		"venue_id": "yelpwYtovs58GQ2pUr6yBJfPgw",
		"venue_name": "Terrace 16",
		"latitude": 41.88922,
		"longitude": -87.62655,
		"address1": "401 N Wabash Ave",
		"address2": "",
		"address3": "",
		"city": "Chicago",
		"state": "IL",
		"zip_code": "60611"
	},
	{
		"venue_id": "yelpYoH4mvFDGZzEL_6EpAN4Rg",
		"venue_name": "404 Wine Bar",
		"latitude": 41.9340339,
		"longitude": -87.6639416,
		"address1": "2852 N Southport Ave",
		"address2": "",
		"address3": "",
		"city": "Chicago",
		"state": "IL",
		"zip_code": "60657"
	},
	{
		"venue_id": "yelpNw0YaJPZA2lSnfkGtjnNCQ",
		"venue_name": "Steadfast",
		"latitude": 41.88093,
		"longitude": -87.63169,
		"address1": "120 W Monroe St",
		"address2": "",
		"address3": null,
		"city": "Chicago",
		"state": "IL",
		"zip_code": "60603"
	},
	{
		"venue_id": "yelp-R1JS9R1KK1D_a2YFvQvsg",
		"venue_name": "Ballast Point Chicago",
		"latitude": 41.8861250353046,
		"longitude": -87.6488304612113,
		"address1": "212 N Green St",
		"address2": "",
		"address3": null,
		"city": "Chicago",
		"state": "IL",
		"zip_code": "60607"
	},
	{
		"venue_id": "yelp1sMa5flhmM9UGQpBh4u5Iw",
		"venue_name": "Nutella Cafe",
		"latitude": 41.8855589,
		"longitude": -87.6243248,
		"address1": "189 N Michigan Ave",
		"address2": "",
		"address3": null,
		"city": "Chicago",
		"state": "IL",
		"zip_code": "60601"
	},
	{
		"venue_id": "yelpJnaatj70xLwtHrrYQXCr7A",
		"venue_name": "Wise Owl Drinkery & Cookhouse",
		"latitude": 41.8767083604545,
		"longitude": -87.6571454693116,
		"address1": "324 S Racine Ave",
		"address2": "",
		"address3": "",
		"city": "Chicago",
		"state": "IL",
		"zip_code": "60607"
	},
	{
		"venue_id": "yelpAU3ywP9QtJdcuvpskJ_-Zg",
		"venue_name": "Iron Horse Ale House",
		"latitude": 41.99336,
		"longitude": -87.80131,
		"address1": "6158 N Northwest Hwy",
		"address2": null,
		"address3": "",
		"city": "Chicago",
		"state": "IL",
		"zip_code": "60631"
	},
	{
		"venue_id": "yelpGYLD2PapaQ69-3P3rOLL5A",
		"venue_name": "Matisse Tavern & Grill",
		"latitude": 41.93302,
		"longitude": -87.64649,
		"address1": "674 West Diversey Pkwy",
		"address2": "",
		"address3": null,
		"city": "Chicago",
		"state": "IL",
		"zip_code": "60614"
	},
	{
		"venue_id": "yelpR1IOuYS_KkY_gKxTeo44XA",
		"venue_name": "The Bar Below",
		"latitude": 41.87995,
		"longitude": -87.62727,
		"address1": "127 S State St",
		"address2": null,
		"address3": null,
		"city": "Chicago",
		"state": "IL",
		"zip_code": "60603"
	},
	{
		"venue_id": "yelpgpWE2-eFFw9xwueEMABCHQ",
		"venue_name": "Drawl Southern Cook House & Whiskey Room",
		"latitude": 41.92653,
		"longitude": -87.64044,
		"address1": "2423 N Clark St",
		"address2": "",
		"address3": null,
		"city": "Chicago",
		"state": "IL",
		"zip_code": "60614"
	},
	{
		"venue_id": "yelpqkrSKj2uk2QQcpGAgfyS4Q",
		"venue_name": "California Pizza Kitchen at Ohio Street",
		"latitude": 41.892635,
		"longitude": -87.626097,
		"address1": "52 E Ohio St",
		"address2": "Ohio Street",
		"address3": "",
		"city": "Chicago",
		"state": "IL",
		"zip_code": "60611"
	},
	{
		"venue_id": "yelpTbhh-pmOtXoV_5IhJpd0_Q",
		"venue_name": "Eggs Cafe",
		"latitude": 41.8947,
		"longitude": -87.61663,
		"address1": "680 N Lake Shore Dr",
		"address2": "",
		"address3": "",
		"city": "Chicago",
		"state": "IL",
		"zip_code": "60611"
	},
	{
		"venue_id": "yelprPCwxWl6alrBZBJX31HqUg",
		"venue_name": "Hard Rock Cafe",
		"latitude": 41.8930987627453,
		"longitude": -87.6305429264903,
		"address1": "63 W. Ontario",
		"address2": "",
		"address3": "",
		"city": "Chicago",
		"state": "IL",
		"zip_code": "60610"
	},
	{
		"venue_id": "yelpjF3k0wUWqOda2bW5_CHJlw",
		"venue_name": "Protein Bar",
		"latitude": 41.88132,
		"longitude": -87.62564,
		"address1": "33 S Wabash Ave",
		"address2": null,
		"address3": "",
		"city": "Chicago",
		"state": "IL",
		"zip_code": "60603"
	},
	{
		"venue_id": "yelpPNVshX58m5A6hNAjUIe3AQ",
		"venue_name": "PitchFork",
		"latitude": 41.9542694091797,
		"longitude": -87.7016983032227,
		"address1": "2922 W Irving Park Rd",
		"address2": "",
		"address3": "",
		"city": "Chicago",
		"state": "IL",
		"zip_code": "60618"
	},
	{
		"venue_id": "yelpiws9L3RkcaOMdpye9L9Ljg",
		"venue_name": "Hashbrowns",
		"latitude": 41.8645668029785,
		"longitude": -87.6462936401367,
		"address1": "731 W Maxwell St",
		"address2": null,
		"address3": "",
		"city": "Chicago",
		"state": "IL",
		"zip_code": "60607"
	},
	{
		"venue_id": "yelpQpev7myTY-SqxZh3sM56ag",
		"venue_name": "Booth One",
		"latitude": 41.90594,
		"longitude": -87.62835,
		"address1": "1301 N State Pkwy",
		"address2": null,
		"address3": null,
		"city": "Chicago",
		"state": "IL",
		"zip_code": "60610"
	},
	{
		"venue_id": "yelprdAK2cU6T16ci_ub2JYmlQ",
		"venue_name": "LYFE Kitchen",
		"latitude": 41.8976854875219,
		"longitude": -87.6280541305691,
		"address1": "831 N State St",
		"address2": null,
		"address3": "",
		"city": "Chicago",
		"state": "IL",
		"zip_code": "60610"
	},
	{
		"venue_id": "yelpliDhjEqe0PbbpUS7CSy6Tw",
		"venue_name": "The Kennison",
		"latitude": 41.9154213,
		"longitude": -87.6345554,
		"address1": "1800 N Lincoln Ave",
		"address2": null,
		"address3": null,
		"city": "Chicago",
		"state": "IL",
		"zip_code": "60614"
	},
	{
		"venue_id": "yelpNfigrGVZr3-LLZnyGlM3nQ",
		"venue_name": "Joy District",
		"latitude": 41.8899377283746,
		"longitude": -87.6314447365695,
		"address1": "112 Hubbard St",
		"address2": "",
		"address3": "",
		"city": "Chicago",
		"state": "IL",
		"zip_code": "60654"
	},
	{
		"venue_id": "yelpL7eTBjOjIR3Y-xTLJZOyEg",
		"venue_name": "Pacific Standard Time",
		"latitude": 41.893872,
		"longitude": -87.632941,
		"address1": "141 W Erie St",
		"address2": null,
		"address3": "",
		"city": "Chicago",
		"state": "IL",
		"zip_code": "60654"
	},
	{
		"venue_id": "yelpMRZRq78_bY3zi4t0iPmNAQ",
		"venue_name": "Sugar Factory - American Brasserie",
		"latitude": 41.8913867352473,
		"longitude": -87.626222289853,
		"address1": "55 E Grand Ave",
		"address2": "",
		"address3": null,
		"city": "Chicago",
		"state": "IL",
		"zip_code": "60611"
	},
	{
		"venue_id": "yelpRqZAYrIzVRD6LBiMiwjnqg",
		"venue_name": "Rebar",
		"latitude": 41.8887211559895,
		"longitude": -87.6267614232788,
		"address1": "401 N Wabash Ave",
		"address2": "",
		"address3": "Trump International Hotel & Tower Chicago",
		"city": "Chicago",
		"state": "IL",
		"zip_code": "60611"
	},
	{
		"venue_id": "yelpcmOyagGx7V6Z16C6t6qfyA",
		"venue_name": "The Butcher's Tap",
		"latitude": 41.9467887878418,
		"longitude": -87.6636428833008,
		"address1": "3553 N Southport Ave",
		"address2": "",
		"address3": "",
		"city": "Chicago",
		"state": "IL",
		"zip_code": "60657"
	},
	{
		"venue_id": "yelppXgqD02xAF1HWIn9KeOFiA",
		"venue_name": "Punch Bowl Social Chicago",
		"latitude": 41.88722,
		"longitude": -87.6490199,
		"address1": "310 N Green St",
		"address2": null,
		"address3": null,
		"city": "Chicago",
		"state": "IL",
		"zip_code": "60607"
	},
	{
		"venue_id": "yelpefRsbbfjcuDXABJNXdgl7w",
		"venue_name": "Wollensky's Grill",
		"latitude": 41.8883276,
		"longitude": -87.6281349,
		"address1": "318 N State St",
		"address2": "",
		"address3": "",
		"city": "Chicago",
		"state": "IL",
		"zip_code": "60654"
	},
	{
		"venue_id": "yelpuNc4MGOG82eYctxiKn2GnQ",
		"venue_name": "Celtic Crown Public House",
		"latitude": 41.9596406,
		"longitude": -87.6883012,
		"address1": "4301 N Western Ave",
		"address2": "",
		"address3": "",
		"city": "Chicago",
		"state": "IL",
		"zip_code": "60618"
	},
	{
		"venue_id": "yelpU0srsr4F2BxU_5599fsHUg",
		"venue_name": "Jefferson Park Grill",
		"latitude": 41.9704818725586,
		"longitude": -87.7627716064453,
		"address1": "5364 W Gale St",
		"address2": "",
		"address3": "",
		"city": "Chicago",
		"state": "IL",
		"zip_code": "60630"
	},
	{
		"venue_id": "yelpeiAGDMO4Rf5Q4V-F9-0JGw",
		"venue_name": "Half Sour",
		"latitude": 41.87241,
		"longitude": -87.63028,
		"address1": "755 S Clark St",
		"address2": "",
		"address3": null,
		"city": "Chicago",
		"state": "IL",
		"zip_code": "60605"
	},
	{
		"venue_id": "yelpk5f-N-Oh64tivQiti_pkDQ",
		"venue_name": "FTW Chicago",
		"latitude": 41.8914199,
		"longitude": -87.61894,
		"address1": "322 E Illinois St",
		"address2": "",
		"address3": "",
		"city": "Chicago",
		"state": "IL",
		"zip_code": "60611"
	},
	{
		"venue_id": "yelpg3ikCPmGq81xZlaatM0ekA",
		"venue_name": "Salad House",
		"latitude": 41.9398164,
		"longitude": -87.6445778,
		"address1": "3176 N Broadway St",
		"address2": "",
		"address3": "",
		"city": "Chicago",
		"state": "IL",
		"zip_code": "60657"
	},
	{
		"venue_id": "yelpIjl3PaNFTCdOCWSEifP5ig",
		"venue_name": "Hannah's Bretzel",
		"latitude": 41.889585,
		"longitude": -87.633053,
		"address1": "400 N La Salle St",
		"address2": "",
		"address3": "",
		"city": "Chicago",
		"state": "IL",
		"zip_code": "60654"
	},
	{
		"venue_id": "yelpBwvB--ttJSgDXSCOh42uCQ",
		"venue_name": "Protein Bar",
		"latitude": 41.879986,
		"longitude": -87.639085,
		"address1": "120 S Riverside",
		"address2": "",
		"address3": "",
		"city": "Chicago",
		"state": "IL",
		"zip_code": "60606"
	},
	{
		"venue_id": "yelpCmFq1RkC-QYyUF3cVEJYPw",
		"venue_name": "LOKaL",
		"latitude": 41.9270706,
		"longitude": -87.6685562,
		"address1": "2500 N Ashland",
		"address2": "",
		"address3": "",
		"city": "Chicago",
		"state": "IL",
		"zip_code": "60614"
	},
	{
		"venue_id": "yelp1BkFacyzt_hz3qHeqWHtlg",
		"venue_name": "New Line Tavern",
		"latitude": 41.8857720899852,
		"longitude": -87.6412246658106,
		"address1": "201 N Clinton St",
		"address2": "",
		"address3": "",
		"city": "Chicago",
		"state": "IL",
		"zip_code": "60661"
	},
	{
		"venue_id": "yelppu6yIiyxQ4zLh9hgWOmNfA",
		"venue_name": "One North Kitchen & Bar",
		"latitude": 41.88226,
		"longitude": -87.63639,
		"address1": "1 N Wacker Dr",
		"address2": "",
		"address3": "",
		"city": "Chicago",
		"state": "IL",
		"zip_code": "60606"
	},
	{
		"venue_id": "yelpw23NFdXcrS9v_mFWrebVvQ",
		"venue_name": "Blu 57 Seafood & Small Plates",
		"latitude": 41.98557,
		"longitude": -87.66881,
		"address1": "5701 N Clark St",
		"address2": "",
		"address3": null,
		"city": "Chicago",
		"state": "IL",
		"zip_code": "60660"
	},
	{
		"venue_id": "yelplf8WcC4IvzvmvlSmYIoi3Q",
		"venue_name": "The Dock At Montrose Beach",
		"latitude": 41.9645959121368,
		"longitude": -87.6363945007324,
		"address1": "200 W Montrose Harbor Dr",
		"address2": null,
		"address3": "",
		"city": "Chicago",
		"state": "IL",
		"zip_code": "60601"
	},
	{
		"venue_id": "yelpkIRh7fTsw8g_8FBB4JGXZw",
		"venue_name": "Ikram Cafe",
		"latitude": 41.8946884749847,
		"longitude": -87.6275549650818,
		"address1": "15 E Huron Ave",
		"address2": "",
		"address3": "",
		"city": "Chicago",
		"state": "IL",
		"zip_code": "60611"
	},
	{
		"venue_id": "yelpz6HrMrTZJjCL1x0GyzEstA",
		"venue_name": "Veggie Grill",
		"latitude": 41.8859271698794,
		"longitude": -87.6339875915105,
		"address1": "204 N Wells St",
		"address2": null,
		"address3": "",
		"city": "Chicago",
		"state": "IL",
		"zip_code": "60606"
	},
	{
		"venue_id": "yelpu_EXw9hhggk42EP4vAAzZg",
		"venue_name": "Stout Barrel House and Pizza",
		"latitude": 41.8937606811523,
		"longitude": -87.6312942504883,
		"address1": "642 N Clark St",
		"address2": "",
		"address3": "",
		"city": "Chicago",
		"state": "IL",
		"zip_code": "60654"
	},
	{
		"venue_id": "yelpXOqAhX8s4Hgif8sMe-3fHg",
		"venue_name": "Lizzie McNeill's Irish Pub",
		"latitude": 41.8893740971253,
		"longitude": -87.617735277895,
		"address1": "400 N McClurg Ct",
		"address2": "",
		"address3": "",
		"city": "Chicago",
		"state": "IL",
		"zip_code": "60611"
	},
	{
		"venue_id": "yelp80Hc97dvAL50tupxzswfRA",
		"venue_name": "Tricycle Chicago",
		"latitude": 41.91243,
		"longitude": -87.6778099,
		"address1": "1700 N Damen Ave",
		"address2": "",
		"address3": null,
		"city": "Chicago",
		"state": "IL",
		"zip_code": "60647"
	},
	{
		"venue_id": "yelp8Wwpm0I68xaKrEDeG_blQQ",
		"venue_name": "Buffalo Wings & Rings",
		"latitude": 41.831629,
		"longitude": -87.6462546,
		"address1": "3434 S Halsted St",
		"address2": "",
		"address3": "",
		"city": "Chicago",
		"state": "IL",
		"zip_code": "60608"
	},
	{
		"venue_id": "yelp8qZyXQDIavElB-UTnLnPUw",
		"venue_name": "Randolph Tavern",
		"latitude": 41.8846111655354,
		"longitude": -87.6337068903127,
		"address1": "188 W Randolph St",
		"address2": "",
		"address3": "",
		"city": "Chicago",
		"state": "IL",
		"zip_code": "60601"
	},
	{
		"venue_id": "yelpYHuPXFjVI4DdGL9cua4brw",
		"venue_name": "Turkey Chop",
		"latitude": 41.89575,
		"longitude": -87.71428,
		"address1": "3506 W Chicago Ave",
		"address2": "",
		"address3": "",
		"city": "Chicago",
		"state": "IL",
		"zip_code": "60651"
	},
	{
		"venue_id": "yelp3dd5NPshFaWKFgAruhAlRw",
		"venue_name": "Declan's Irish Pub",
		"latitude": 41.9050149,
		"longitude": -87.634638,
		"address1": "1240 N Wells St",
		"address2": "",
		"address3": "",
		"city": "Chicago",
		"state": "IL",
		"zip_code": "60610"
	},
	{
		"venue_id": "yelpr17uN0awOi-X9j24TOO98Q",
		"venue_name": "LG's Bar",
		"latitude": 41.909814424764,
		"longitude": -87.6344818320695,
		"address1": "1525 N Wells St",
		"address2": "",
		"address3": null,
		"city": "Chicago",
		"state": "IL",
		"zip_code": "60610"
	},
	{
		"venue_id": "yelpUK_26HeSOdwfH1yhr_OiZQ",
		"venue_name": "Municipal Bar & Dining",
		"latitude": 41.892617,
		"longitude": -87.634916,
		"address1": "216 W Ohio St",
		"address2": null,
		"address3": "",
		"city": "Chicago",
		"state": "IL",
		"zip_code": "60654"
	},
	{
		"venue_id": "yelpaCFgGok-JMpCisy8vt0jbw",
		"venue_name": "The Mid-America Club",
		"latitude": 41.8852740489589,
		"longitude": -87.6210656762123,
		"address1": "200 E Randolph Dr",
		"address2": "Fl 80",
		"address3": "",
		"city": "Chicago",
		"state": "IL",
		"zip_code": "60601"
	},
	{
		"venue_id": "yelpuKsmkLZETXitUV9RW5bP3g",
		"venue_name": "City's Edge Chicago",
		"latitude": 41.9975928291085,
		"longitude": -87.7612422779202,
		"address1": "5310 W Devon Ave",
		"address2": "",
		"address3": null,
		"city": "Chicago",
		"state": "IL",
		"zip_code": "60646"
	},
	{
		"venue_id": "yelpWY_fIQxIDwAynBB4CI3twA",
		"venue_name": "80 Proof",
		"latitude": 41.90924,
		"longitude": -87.63498,
		"address1": "1500 N Wells St",
		"address2": "",
		"address3": null,
		"city": "Chicago",
		"state": "IL",
		"zip_code": "60610"
	},
	{
		"venue_id": "yelphHislpkPZSqnFePunjtbhg",
		"venue_name": "Kiko's Market & Restaurant",
		"latitude": 41.9739468660265,
		"longitude": -87.6918498426676,
		"address1": "5077 N Lincoln Ave",
		"address2": "",
		"address3": "",
		"city": "Chicago",
		"state": "IL",
		"zip_code": "60625"
	},
	{
		"venue_id": "yelpIr6L_W_rJfcM7FaM8KZmbA",
		"venue_name": "BIG Bar",
		"latitude": 41.8877181931284,
		"longitude": -87.622622216919,
		"address1": "151 E Wacker Dr",
		"address2": "",
		"address3": "",
		"city": "Chicago",
		"state": "IL",
		"zip_code": "60610"
	},
	{
		"venue_id": "yelpYqzEFsbA3GsOSVnLfmxTTQ",
		"venue_name": "20 East",
		"latitude": 41.8994,
		"longitude": -87.6275,
		"address1": "20 E Delaware Pl",
		"address2": "",
		"address3": null,
		"city": "Chicago",
		"state": "IL",
		"zip_code": "60611"
	},
	{
		"venue_id": "yelpQ7WCegN7sRe9LZ5OaX45lg",
		"venue_name": "Tiny Tapp & Cafe",
		"latitude": 41.8870400000156,
		"longitude": -87.63094,
		"address1": "55 W Riverwalk S",
		"address2": null,
		"address3": "",
		"city": "Chicago",
		"state": "IL",
		"zip_code": "60602"
	},
	{
		"venue_id": "yelpNd_wrGc4aaEofAysL3KW7w",
		"venue_name": "Free Rein",
		"latitude": 41.886072,
		"longitude": -87.6246549,
		"address1": "224 N Michigan Ave",
		"address2": "",
		"address3": null,
		"city": "Chicago",
		"state": "IL",
		"zip_code": "60601"
	},
	{
		"venue_id": "yelpn2rzMDhJ8M8qkB1iBwH53g",
		"venue_name": "Oak Tree",
		"latitude": 41.899412,
		"longitude": -87.624561,
		"address1": "900 N Michigan Ave",
		"address2": "Fl 6",
		"address3": "",
		"city": "Chicago",
		"state": "IL",
		"zip_code": "60611"
	},
	{
		"venue_id": "yelpSkNftIwHBHgJHc7qM238Ag",
		"venue_name": "The Royal Grocer & Co",
		"latitude": 41.9201777,
		"longitude": -87.6778824,
		"address1": "2118 N Damen Ave",
		"address2": "",
		"address3": null,
		"city": "Chicago",
		"state": "IL",
		"zip_code": "60647"
	},
	{
		"venue_id": "yelpZ623Bv0_Y8mYWJpq9SeBxg",
		"venue_name": "Houndstooth Saloon",
		"latitude": 41.94344,
		"longitude": -87.6533199,
		"address1": "3369 N Clark St",
		"address2": null,
		"address3": "",
		"city": "Chicago",
		"state": "IL",
		"zip_code": "60657"
	},
	{
		"venue_id": "yelplg9FfJZzHWvLZvqf7lKK1w",
		"venue_name": "Beatrix Market Depaul Loop",
		"latitude": 41.87804,
		"longitude": -87.62679,
		"address1": "23 E Jackson Blvd",
		"address2": "",
		"address3": null,
		"city": "Chicago",
		"state": "IL",
		"zip_code": "60604"
	},
	{
		"venue_id": "yelpJGJs1iA9sZXEvDbFEI_jWg",
		"venue_name": "Mordecai",
		"latitude": 41.94792,
		"longitude": -87.6575,
		"address1": "3632 N Clark St",
		"address2": "",
		"address3": null,
		"city": "Chicago",
		"state": "IL",
		"zip_code": "60613"
	},
	{
		"venue_id": "yelpotNL_e7mtLqaihbHeB4AYA",
		"venue_name": "Nola pub",
		"latitude": 41.9456953,
		"longitude": -87.6550152,
		"address1": "3481 N Clark St",
		"address2": null,
		"address3": "",
		"city": "Chicago",
		"state": "IL",
		"zip_code": "60657"
	},
	{
		"venue_id": "yelpkJwW0lV8ebxbUqr6d-9-dA",
		"venue_name": "Fulton Market Company",
		"latitude": 41.8858492,
		"longitude": -87.6496751,
		"address1": "205 N Peoria St",
		"address2": "",
		"address3": null,
		"city": "Chicago",
		"state": "IL",
		"zip_code": "60607"
	},
	{
		"venue_id": "yelpDNy0sRymG0_nN-9KjU2FFQ",
		"venue_name": "Townhouse Restaurant & Wine Bar",
		"latitude": 41.8805212,
		"longitude": -87.6366133,
		"address1": "111 S Wacker Dr",
		"address2": null,
		"address3": "",
		"city": "Chicago",
		"state": "IL",
		"zip_code": "60606"
	},
	{
		"venue_id": "yelpYvcGdQrgF7QFRV4_zFB2sA",
		"venue_name": "Manjares Restaurant",
		"latitude": 41.8510724,
		"longitude": -87.6661764,
		"address1": "2230 S Ashland Ave",
		"address2": "",
		"address3": "",
		"city": "Chicago",
		"state": "IL",
		"zip_code": "60608"
	},
	{
		"venue_id": "yelpf6KqJe_33R6yMrvXAQKhqQ",
		"venue_name": "The Hampton Social - Streeterville",
		"latitude": 41.89202,
		"longitude": -87.623,
		"address1": "164 E Grand Ave",
		"address2": "",
		"address3": null,
		"city": "Chicago",
		"state": "IL",
		"zip_code": "60611"
	},
	{
		"venue_id": "yelp4V0Qwxhu0dZTF-IjRBOZIg",
		"venue_name": "Tied House",
		"latitude": 41.93958,
		"longitude": -87.66342,
		"address1": "3157 N Southport Ave",
		"address2": null,
		"address3": "",
		"city": "Chicago",
		"state": "IL",
		"zip_code": "60657"
	},
	{
		"venue_id": "yelpqeZHhs1J2ObtaSLbtPBKow",
		"venue_name": "Umami Burger - West Loop",
		"latitude": 41.88405,
		"longitude": -87.65179,
		"address1": "945 W Randolph St",
		"address2": "",
		"address3": null,
		"city": "West Loop",
		"state": "IL",
		"zip_code": "60607"
	},
	{
		"venue_id": "yelpFJo_4AIueTL4lufYofF1Mw",
		"venue_name": "Parlay",
		"latitude": 41.89026,
		"longitude": -87.6318,
		"address1": "112 W Hubbard St",
		"address2": "",
		"address3": null,
		"city": "Chicago",
		"state": "IL",
		"zip_code": "60654"
	},
	{
		"venue_id": "yelpynloEehLRbX69kYLJFiL2A",
		"venue_name": "Norman's Bistro",
		"latitude": 41.81667,
		"longitude": -87.60146,
		"address1": "1001 E 43rd",
		"address2": "",
		"address3": "",
		"city": "Chicago",
		"state": "IL",
		"zip_code": "60653"
	},
	{
		"venue_id": "yelpS5irm3mmBaCjDoObTm33Cg",
		"venue_name": "Dine",
		"latitude": 41.8808106938643,
		"longitude": -87.6467025563934,
		"address1": "733 W Madison St",
		"address2": null,
		"address3": "",
		"city": "Chicago",
		"state": "IL",
		"zip_code": "60661"
	},
	{
		"venue_id": "yelpayPQMVS3wOXBJecg7O7rAA",
		"venue_name": "Maxwell's at the Club",
		"latitude": 41.88976,
		"longitude": -87.63863,
		"address1": "500 N Kingsbury St",
		"address2": "",
		"address3": "",
		"city": "Chicago",
		"state": "IL",
		"zip_code": "60654"
	},
	{
		"venue_id": "yelpMRieadIlUVGTaTbDeGQylQ",
		"venue_name": "The Rookery",
		"latitude": 41.8956764367953,
		"longitude": -87.6803047314218,
		"address1": "2109 W Chicago Ave",
		"address2": "",
		"address3": "",
		"city": "Chicago",
		"state": "IL",
		"zip_code": "60622"
	},
	{
		"venue_id": "yelpfzkLLjSXjgkn6J-KnC2XaQ",
		"venue_name": "Mariposa",
		"latitude": 41.8958299,
		"longitude": -87.62408,
		"address1": "737 N Michigan Ave",
		"address2": null,
		"address3": null,
		"city": "Chicago",
		"state": "IL",
		"zip_code": "60611"
	},
	{
		"venue_id": "yelp19gvebbqcEFMzKI5GcBb3g",
		"venue_name": "Burton Place",
		"latitude": 41.90904,
		"longitude": -87.6344699,
		"address1": "1447 N Wells St",
		"address2": "",
		"address3": "",
		"city": "Chicago",
		"state": "IL",
		"zip_code": "60610"
	},
	{
		"venue_id": "yelpktHCSRqn7jNu-BPRXTeG9Q",
		"venue_name": "Carbon Arc Bar & Board",
		"latitude": 41.965308898417,
		"longitude": -87.6866131648421,
		"address1": "4614 North Lincoln Ave",
		"address2": "",
		"address3": null,
		"city": "Chicago",
		"state": "IL",
		"zip_code": "60625"
	},
	{
		"venue_id": "yelpLpUsZDshqInFYPq4_0tb7g",
		"venue_name": "Martino's Italian Cuisine & Pizzeria",
		"latitude": 41.9901470671718,
		"longitude": -87.7153591021383,
		"address1": "3431 W Peterson Ave",
		"address2": "",
		"address3": "",
		"city": "Chicago",
		"state": "IL",
		"zip_code": "60659"
	},
	{
		"venue_id": "yelpLqVElfU9FlVKPWvmHjKhKw",
		"venue_name": "Stock and Ledger Kitchen & Spirits",
		"latitude": 41.8823,
		"longitude": -87.63023,
		"address1": "70 W Madison St",
		"address2": "",
		"address3": null,
		"city": "Chicago",
		"state": "IL",
		"zip_code": "60602"
	},
	{
		"venue_id": "yelpOHl34eI8EENNANB0fuQA4w",
		"venue_name": "Porter Kitchen & Deck ",
		"latitude": 41.8852477324604,
		"longitude": -87.638622438905,
		"address1": "150 N Riverside Plz",
		"address2": null,
		"address3": null,
		"city": "Chicago",
		"state": "IL",
		"zip_code": "60606"
	},
	{
		"venue_id": "yelpaehWvh8YUAKYk7dx3Sy55Q",
		"venue_name": "The Rabbit Hole",
		"latitude": 41.90419,
		"longitude": -87.63477,
		"address1": "1208 N Wells St",
		"address2": null,
		"address3": "",
		"city": "Chicago",
		"state": "IL",
		"zip_code": "60610"
	},
	{
		"venue_id": "yelpC8qNzVPoa6XezobByO5ObQ",
		"venue_name": "House of Blues Restaurant & Bar",
		"latitude": 41.88835,
		"longitude": -87.62881,
		"address1": "329 N Dearborn St",
		"address2": null,
		"address3": null,
		"city": "Chicago",
		"state": "IL",
		"zip_code": "60654"
	},
	{
		"venue_id": "yelpp0UquNGFSGewziWPevA0Ng",
		"venue_name": "Dylans Tavern & Grill",
		"latitude": 41.8799,
		"longitude": -87.64144,
		"address1": "118 S Clinton St",
		"address2": "",
		"address3": "",
		"city": "Chicago",
		"state": "IL",
		"zip_code": "60661"
	},
	{
		"venue_id": "yelpnVR90jC48d712DmoNKuM6g",
		"venue_name": "Roadhouse 66 Gas N' Grill",
		"latitude": 41.9454839,
		"longitude": -87.6551705,
		"address1": "3478 N Clark St",
		"address2": "",
		"address3": "",
		"city": "Chicago",
		"state": "IL",
		"zip_code": "60657"
	},
	{
		"venue_id": "yelpb3o4BsYln2AM9PJb9vErnA",
		"venue_name": "Protein Bar",
		"latitude": 41.888251,
		"longitude": -87.63539,
		"address1": "222 W Merchandise Mart Plz",
		"address2": "Fl 2",
		"address3": "",
		"city": "Chicago",
		"state": "IL",
		"zip_code": "60654"
	},
	{
		"venue_id": "yelpogpUWakOljukHV2O7A9ulQ",
		"venue_name": "The Graystone Tavern",
		"latitude": 41.9447779,
		"longitude": -87.6539943,
		"address1": "3441 N Sheffield Ave",
		"address2": "",
		"address3": "",
		"city": "Chicago",
		"state": "IL",
		"zip_code": "60657"
	},
	{
		"venue_id": "yelphM2vsGRufnUXfscqSNvskg",
		"venue_name": "Colletti's",
		"latitude": 41.98522,
		"longitude": -87.7679,
		"address1": "5707 N Central Ave",
		"address2": "",
		"address3": "",
		"city": "Chicago",
		"state": "IL",
		"zip_code": "60646"
	},
	{
		"venue_id": "yelpugSIP2rgLbJobTJIHdd8nA",
		"venue_name": "Market Creations",
		"latitude": 41.8850593423402,
		"longitude": -87.6237870801227,
		"address1": "130 E Randolph St",
		"address2": null,
		"address3": "",
		"city": "Chicago",
		"state": "IL",
		"zip_code": "60601"
	},
	{
		"venue_id": "yelpZ-ksrSX8PfQocdJrE_TE1w",
		"venue_name": "Lido Banquets",
		"latitude": 41.98161,
		"longitude": -87.77361,
		"address1": "5504 N Milwaukee Ave",
		"address2": "",
		"address3": "",
		"city": "Chicago",
		"state": "IL",
		"zip_code": "60630"
	},
	{
		"venue_id": "yelpVtVw_fYKsx-iZwEcRBAGvQ",
		"venue_name": "Tiny Tavern",
		"latitude": 41.891269,
		"longitude": -87.605882,
		"address1": "600 E Grand Ave",
		"address2": null,
		"address3": "",
		"city": "Chicago",
		"state": "IL",
		"zip_code": "60611"
	},
	{
		"venue_id": "yelp5nK1TxKpOJlAw-L2cebVww",
		"venue_name": "Bread Basket",
		"latitude": 41.9387950341512,
		"longitude": -87.7453918761358,
		"address1": "4725 W Belmont Ave",
		"address2": "",
		"address3": "",
		"city": "Chicago",
		"state": "IL",
		"zip_code": "60641"
	},
	{
		"venue_id": "yelpAfHH1Knr1w2hFmVut427EA",
		"venue_name": "Estate",
		"latitude": 41.9026474,
		"longitude": -87.657422,
		"address1": "1177 N Elston Ave",
		"address2": "",
		"address3": "",
		"city": "Chicago",
		"state": "IL",
		"zip_code": "60642"
	},
	{
		"venue_id": "yelpy8GOpmsFxjbNOb-QP8hfwg",
		"venue_name": "Old Crow Smokehouse River North",
		"latitude": 41.88889,
		"longitude": -87.63306,
		"address1": "149 W Kinzie St",
		"address2": "",
		"address3": "",
		"city": "Chicago",
		"state": "IL",
		"zip_code": "60654"
	},
	{
		"venue_id": "yelpSby9fFU1V-8dK9zD6Qhcjw",
		"venue_name": "Amerikas",
		"latitude": 41.88881,
		"longitude": -87.79431,
		"address1": "734 Lake St",
		"address2": null,
		"address3": "",
		"city": "Oak Park",
		"state": "IL",
		"zip_code": "60301"
	},
	{
		"venue_id": "yelpJxqAairiVoRjZ1hlWngHGg",
		"venue_name": "Mason",
		"latitude": 41.892832,
		"longitude": -87.6339551,
		"address1": "613 N Wells St",
		"address2": null,
		"address3": "",
		"city": "Chicago",
		"state": "IL",
		"zip_code": "60654"
	},
	{
		"venue_id": "yelpoBEX_Y-9IhCmQJlwMnVtXw",
		"venue_name": "Walton Street Kitchen and Bar",
		"latitude": 41.8996908076912,
		"longitude": -87.6283960108398,
		"address1": "912 N State St",
		"address2": "",
		"address3": null,
		"city": "Chicago",
		"state": "IL",
		"zip_code": "60610"
	},
	{
		"venue_id": "yelpefjE9fu4FvY-mPyC8k6qhQ",
		"venue_name": "Foundation Room",
		"latitude": 41.88835,
		"longitude": -87.62881,
		"address1": "329 N Dearborn St",
		"address2": "",
		"address3": "House of Blues Restaurant & Bar",
		"city": "Chicago",
		"state": "IL",
		"zip_code": "60654"
	},
	{
		"venue_id": "yelp7-7qDbtq5Bp9zuc_xzDJ3Q",
		"venue_name": "Jackson Tavern",
		"latitude": 41.8783344,
		"longitude": -87.6343759,
		"address1": "216 W Jackson Blvd",
		"address2": "",
		"address3": "",
		"city": "Chicago",
		"state": "IL",
		"zip_code": "60606"
	},
	{
		"venue_id": "yelph4e5YKJv4vdxU4iriYpbqg",
		"venue_name": "Lasalle Cafe Luna",
		"latitude": 41.8742747,
		"longitude": -87.6254547,
		"address1": "63 E Harrison St",
		"address2": null,
		"address3": "",
		"city": "Chicago",
		"state": "IL",
		"zip_code": "60605"
	},
	{
		"venue_id": "yelpvoB-4387cZouOMWUy_Al1g",
		"venue_name": "Eleven Eleven",
		"latitude": 41.88527,
		"longitude": -87.65501,
		"address1": "1111 W Lake St",
		"address2": "",
		"address3": null,
		"city": "Chicago",
		"state": "IL",
		"zip_code": "60607"
	},
	{
		"venue_id": "yelpoW1A_uqrMSHjAK6D5uZrFA",
		"venue_name": "Staytion Market & Bar",
		"latitude": 41.8862800598145,
		"longitude": -87.6284790039062,
		"address1": "1 West Wacker Dr",
		"address2": "",
		"address3": "",
		"city": "Chicago",
		"state": "IL",
		"zip_code": "60601"
	},
	{
		"venue_id": "yelpnoZ9uNuIqbCeM10DbRziZw",
		"venue_name": "The Levee",
		"latitude": 41.9243385,
		"longitude": -87.7281273,
		"address1": "4035 W Fullerton Ave",
		"address2": "",
		"address3": "",
		"city": "Chicago",
		"state": "IL",
		"zip_code": "60639"
	},
	{
		"venue_id": "yelpWA-uUSoCOc-nIcrjMjL5Qw",
		"venue_name": "Local Foods Cafe",
		"latitude": 41.914015,
		"longitude": -87.663125,
		"address1": "1427 W Willow",
		"address2": "",
		"address3": "",
		"city": "Chicago",
		"state": "IL",
		"zip_code": "60642"
	},
	{
		"venue_id": "yelpwhS2ox80ViPMCR5-FhAr7w",
		"venue_name": "Madison Park Kitchen",
		"latitude": 41.879599,
		"longitude": -87.813245,
		"address1": "7525 West Madison St",
		"address2": "",
		"address3": "",
		"city": "Forest Park",
		"state": "IL",
		"zip_code": "60130"
	},
	{
		"venue_id": "yelpW1hxr5NUeFV7T3vVb2RQnA",
		"venue_name": "Clarkes Rogers Park",
		"latitude": 41.9993586398675,
		"longitude": -87.6601576782708,
		"address1": "6431 N Sheridan Rd",
		"address2": null,
		"address3": "",
		"city": "Chicago",
		"state": "IL",
		"zip_code": "60626"
	},
	{
		"venue_id": "yelptR5DolsS4iOwfx070lENSw",
		"venue_name": "Bar Louie",
		"latitude": 41.8645882295572,
		"longitude": -87.6466512680054,
		"address1": "1325 S Halsted",
		"address2": "",
		"address3": "",
		"city": "Chicago",
		"state": "IL",
		"zip_code": "60607"
	},
	{
		"venue_id": "yelpWpHADJayQodCYAioDTSM9g",
		"venue_name": "Beatnik On The River",
		"latitude": 41.88531,
		"longitude": -87.63726,
		"address1": "180 N Upper Wacker Dr",
		"address2": "",
		"address3": null,
		"city": "Chicago",
		"state": "IL",
		"zip_code": "60606"
	},
	{
		"venue_id": "yelpJeoQphJ9x2_0bBYsMQBMtw",
		"venue_name": "The Heritage",
		"latitude": 41.8797532428734,
		"longitude": -87.809843569994,
		"address1": "7403 Madison St",
		"address2": "",
		"address3": null,
		"city": "Forest Park",
		"state": "IL",
		"zip_code": "60130"
	},
	{
		"venue_id": "yelpnFPm6bpBVgkZU_-iGD7ubQ",
		"venue_name": "TUKO CANTINA",
		"latitude": 41.90351,
		"longitude": -87.67639,
		"address1": "1938 W Division St",
		"address2": null,
		"address3": "",
		"city": "Chicago",
		"state": "IL",
		"zip_code": "60622"
	},
	{
		"venue_id": "yelpQSulFZvtulv99uEqkvLb8Q",
		"venue_name": "VU Rooftop Bar",
		"latitude": 41.852770214366,
		"longitude": -87.6232894079096,
		"address1": "133 E Cermak Rd",
		"address2": "Fl 22",
		"address3": "",
		"city": "Chicago",
		"state": "IL",
		"zip_code": "60616"
	},
	{
		"venue_id": "yelplEq8m6YGd2PWfEOPQcGFLA",
		"venue_name": "Winberie's Restaurant",
		"latitude": 41.8885017069329,
		"longitude": -87.7945654843375,
		"address1": "151 N Oak Park Ave",
		"address2": null,
		"address3": null,
		"city": "Oak Park",
		"state": "IL",
		"zip_code": "60301"
	},
	{
		"venue_id": "yelpW2BAwHWnYi1RinvaZEe2BQ",
		"venue_name": "Life Restaurant",
		"latitude": 41.88106,
		"longitude": -87.72313,
		"address1": "3858 W Madison",
		"address2": null,
		"address3": "",
		"city": "Chicago",
		"state": "IL",
		"zip_code": "60624"
	},
	{
		"venue_id": "yelpxDnFjnaZJ1egGMb4UiMoCw",
		"venue_name": "Optima Chicago",
		"latitude": 41.9054,
		"longitude": -87.63486,
		"address1": "1252 N Wells St",
		"address2": "",
		"address3": null,
		"city": "Chicago",
		"state": "IL",
		"zip_code": "60610"
	},
	{
		"venue_id": "yelpYnpFjtWh_RCznkhDWKRHAQ",
		"venue_name": "Early Society",
		"latitude": 41.8865,
		"longitude": -87.63075,
		"address1": "77 W Wacker Dr",
		"address2": "",
		"address3": "",
		"city": "Chicago",
		"state": "IL",
		"zip_code": "60601"
	},
	{
		"venue_id": "yelp0TVx0ib_qjBTtA9R0A1tXw",
		"venue_name": "Brass Heart",
		"latitude": 41.9669959,
		"longitude": -87.6586911,
		"address1": "4662 North Broadway",
		"address2": "",
		"address3": null,
		"city": "Chicago",
		"state": "IL",
		"zip_code": "60640"
	},
	{
		"venue_id": "yelpygtoZss_DEwal-cLnAoI2g",
		"venue_name": "Oakwood 83",
		"latitude": 41.96127,
		"longitude": -87.67854,
		"address1": "1959 W Montrose Ave",
		"address2": "",
		"address3": "",
		"city": "Chicago",
		"state": "IL",
		"zip_code": "60613"
	},
	{
		"venue_id": "yelpyuPkGRoguRFVrGuTI5afEw",
		"venue_name": "Lavergne's Tavern",
		"latitude": 41.83414,
		"longitude": -87.78771,
		"address1": "6546 Windsor Ave",
		"address2": "",
		"address3": "",
		"city": "Berwyn",
		"state": "IL",
		"zip_code": "60402"
	},
	{
		"venue_id": "yelp6BlxYe4SHG_9uAKiVLVArQ",
		"venue_name": "Freshii",
		"latitude": 41.8833436108566,
		"longitude": -87.6258337718783,
		"address1": "50 E Washington St",
		"address2": "",
		"address3": "",
		"city": "Chicago",
		"state": "IL",
		"zip_code": "60602"
	},
	{
		"venue_id": "yelpLRciHPE228RkgYfH97VagA",
		"venue_name": "Rooks Corner",
		"latitude": 41.8738837,
		"longitude": -87.6660615,
		"address1": "625 S Ashland Ave",
		"address2": "",
		"address3": "",
		"city": "Chicago",
		"state": "IL",
		"zip_code": "60607"
	},
	{
		"venue_id": "yelpj4Hfca8T_8YbrLIPL-2ylw",
		"venue_name": "Market Thyme",
		"latitude": 41.8853219609297,
		"longitude": -87.6212335398248,
		"address1": "200 E Randolph",
		"address2": "",
		"address3": "",
		"city": "Chicago",
		"state": "IL",
		"zip_code": "60601"
	},
	{
		"venue_id": "yelpy1wiz7jtgV1oiYkYlr1xfg",
		"venue_name": "ETA Restaurant + Bar",
		"latitude": 41.889985,
		"longitude": -87.6191292,
		"address1": "455 N Park Dr",
		"address2": "",
		"address3": null,
		"city": "Chicago",
		"state": "IL",
		"zip_code": "60611"
	},
	{
		"venue_id": "yelpTWVE2nC0v1qQ74VnrpBhkg",
		"venue_name": "M & G Char Grill",
		"latitude": 41.9540853,
		"longitude": -87.6751822,
		"address1": "1821A W Irving Park Rd",
		"address2": "",
		"address3": "",
		"city": "Chicago",
		"state": "IL",
		"zip_code": "60613"
	},
	{
		"venue_id": "yelpf87NpkBHg9dvjH5d-3T27w",
		"venue_name": "Vero's Caffe & Gelato",
		"latitude": 41.8812702,
		"longitude": -87.647361,
		"address1": "40 S Halsted St",
		"address2": "",
		"address3": "",
		"city": "Chicago",
		"state": "IL",
		"zip_code": "60661"
	},
	{
		"venue_id": "yelpN7X03pDN0vqxKkCX9SYfRg",
		"venue_name": "The Little Gem Cafe",
		"latitude": 41.890246,
		"longitude": -87.80287,
		"address1": "189 N Marion St",
		"address2": "",
		"address3": "",
		"city": "Oak Park",
		"state": "IL",
		"zip_code": "60301"
	},
	{
		"venue_id": "yelpBNaElIaBfIZjyxc4Eo7WLw",
		"venue_name": "LH Rooftop",
		"latitude": 41.887788,
		"longitude": -87.625329,
		"address1": "85 E Wacker Dr",
		"address2": null,
		"address3": "",
		"city": "Chicago",
		"state": "IL",
		"zip_code": "60601"
	},
	{
		"venue_id": "yelpca9Wd5BG9pwLR3a8BmZdvQ",
		"venue_name": "Castle Food & Liquor",
		"latitude": 41.9900055974722,
		"longitude": -87.659423276782,
		"address1": "1128 W Thorndale Ave",
		"address2": "",
		"address3": "",
		"city": "Chicago",
		"state": "IL",
		"zip_code": "60660"
	},
	{
		"venue_id": "yelpmMwRybmMd_uJKpsP0eiC-g",
		"venue_name": "Clandestino Supper Club",
		"latitude": 41.8487091064453,
		"longitude": -87.6709365844727,
		"address1": "",
		"address2": "",
		"address3": null,
		"city": "Chicago",
		"state": "IL",
		"zip_code": "60608"
	},
	{
		"venue_id": "yelppOVnDbSAQotGvguTxrcAGQ",
		"venue_name": "Cooper's Hawk Winery & Restaurant - Oak Park",
		"latitude": 41.88894,
		"longitude": -87.80007,
		"address1": "950 Lake St",
		"address2": null,
		"address3": "",
		"city": "Oak Park",
		"state": "IL",
		"zip_code": "60301"
	},
	{
		"venue_id": "yelpSHFiv9tJi9-rdN0tyA3p_w",
		"venue_name": "Upstairs at Gwen",
		"latitude": 41.8912568,
		"longitude": -87.6253654,
		"address1": "521 N Rush St",
		"address2": "Fl 5",
		"address3": "",
		"city": "Chicago",
		"state": "IL",
		"zip_code": "60611"
	},
	{
		"venue_id": "yelp5wUQfG9gopy89RqfUPbAVw",
		"venue_name": "Caf\u00e9 Nordstrom",
		"latitude": 41.89524,
		"longitude": -87.6232,
		"address1": "Nordstrom",
		"address2": "",
		"address3": null,
		"city": "Chicago",
		"state": "IL",
		"zip_code": "60611"
	},
	{
		"venue_id": "yelpLxM-Bw8L8ukWo4LcieZpiw",
		"venue_name": "Oak Street Beach Food + Drink",
		"latitude": 41.90062,
		"longitude": -87.62005,
		"address1": "1001 N Lake Shore Dr",
		"address2": "",
		"address3": "",
		"city": "Chicago",
		"state": "IL",
		"zip_code": "60611"
	},
	{
		"venue_id": "yelpe2sEbHiXavem_dV56cLOCQ",
		"venue_name": "The Red Star Bar",
		"latitude": 41.8917282821107,
		"longitude": -87.6204998329537,
		"address1": "255 E Grand Ave",
		"address2": "",
		"address3": "",
		"city": "Chicago",
		"state": "IL",
		"zip_code": "60611"
	},
	{
		"venue_id": "yelpmM8IrFugec_AS_RoLEgz1w",
		"venue_name": "The Living Room",
		"latitude": 41.88769,
		"longitude": -87.62286,
		"address1": "151 East Wacker Dr",
		"address2": "",
		"address3": "Hyatt Regency Chicago",
		"city": "Chicago",
		"state": "IL",
		"zip_code": "60601"
	},
	{
		"venue_id": "yelpUgD8IWu9a7KfXx3728-Bow",
		"venue_name": "Sunnyday Tap",
		"latitude": 41.970829,
		"longitude": -87.7440109,
		"address1": "4953 N Elston Ave",
		"address2": "",
		"address3": "",
		"city": "Chicago",
		"state": "IL",
		"zip_code": "60630"
	},
	{
		"venue_id": "yelpJH-k4jQ2QRl6L48YewBvpA",
		"venue_name": "The Midway Club",
		"latitude": 41.8896732177435,
		"longitude": -87.6221348328492,
		"address1": "450 N Citifront Plaza Dr",
		"address2": "Fl 5",
		"address3": "The University Of Chicago Booth School Of Business",
		"city": "Chicago",
		"state": "IL",
		"zip_code": "60611"
	},
	{
		"venue_id": "yelpyG12wnFV0DQfd0EoHS9roA",
		"venue_name": "Galileo's Cafe",
		"latitude": 41.866724,
		"longitude": -87.606662,
		"address1": "1300 S Lake Shore Dr",
		"address2": "",
		"address3": "Adler Planetarium",
		"city": "Chicago",
		"state": "IL",
		"zip_code": "60689"
	},
	{
		"venue_id": "yelpuQmakHT7TWCM0NJ2qciVZw",
		"venue_name": "Obsessed Kitchen and Bar",
		"latitude": 41.87416,
		"longitude": -87.79389,
		"address1": "800 S Oak Park Ave",
		"address2": null,
		"address3": "",
		"city": "Oak Park",
		"state": "IL",
		"zip_code": "60304"
	},
	{
		"venue_id": "yelp8ex4Tn-aTbQ12_rxZrwHAA",
		"venue_name": "Miller's Ale House - Norridge",
		"latitude": 41.96157,
		"longitude": -87.80813,
		"address1": "4474 N Harlem Ave",
		"address2": null,
		"address3": null,
		"city": "Norridge",
		"state": "IL",
		"zip_code": "60706"
	},
	{
		"venue_id": "yelpsp10QI-XDe404UTtNRAj8A",
		"venue_name": "Chicago by Night",
		"latitude": 41.9386719,
		"longitude": -87.7667998,
		"address1": "5600 W Belmont Ave",
		"address2": "",
		"address3": "",
		"city": "Chicago",
		"state": "IL",
		"zip_code": "60634"
	},
	{
		"venue_id": "yelpXfNkwQuyJeH8EujkFm02tw",
		"venue_name": "D'Nuez",
		"latitude": 41.8579099,
		"longitude": -87.67615,
		"address1": "2000 W 18th St",
		"address2": "",
		"address3": null,
		"city": "Chicago",
		"state": "IL",
		"zip_code": "60608"
	},
	{
		"venue_id": "yelpYbrm7iWefWbRQWavc2U2AA",
		"venue_name": "Florian Opera Bistro",
		"latitude": 41.8808089151939,
		"longitude": -87.6262664794922,
		"address1": "20 N Wacker Dr",
		"address2": "",
		"address3": "Civic Opera House",
		"city": "Chicago",
		"state": "IL",
		"zip_code": "60606"
	},
	{
		"venue_id": "yelpd39digxGUnQraEl3ErpTSg",
		"venue_name": "NiX Restaurant",
		"latitude": 41.8999220684385,
		"longitude": -87.6227141899964,
		"address1": "163 East Walton Place",
		"address2": "",
		"address3": "",
		"city": "Chicago",
		"state": "IL",
		"zip_code": "60611"
	},
	{
		"venue_id": "yelpEm3GSPR2REgo6HFEmFkepQ",
		"venue_name": "Market Creations",
		"latitude": 41.88155,
		"longitude": -87.63508,
		"address1": "1 S Franklin St",
		"address2": "Fl 2",
		"address3": null,
		"city": "Chicago",
		"state": "IL",
		"zip_code": "60606"
	},
	{
		"venue_id": "yelpD8sB4j4FxeGJhowlF0meMA",
		"venue_name": "Shor Restaurant",
		"latitude": 41.8517100113788,
		"longitude": -87.6173830032349,
		"address1": "2233 S Martin Luther King Dr",
		"address2": "",
		"address3": "",
		"city": "Chicago",
		"state": "IL",
		"zip_code": "60616"
	},
	{
		"venue_id": "yelpHX1aoqc7Yjngvdnem0h0kQ",
		"venue_name": "Margaret's",
		"latitude": 41.95361,
		"longitude": -87.7561,
		"address1": "5134 W Irving Park Rd",
		"address2": null,
		"address3": null,
		"city": "Chicago",
		"state": "IL",
		"zip_code": "60641"
	},
	{
		"venue_id": "yelpCt0zLxJqsv6IinVpAEfNLg",
		"venue_name": "Landshark Beer Garden",
		"latitude": 41.8919106,
		"longitude": -87.6144104,
		"address1": "Navy Pier 600 E Grand Ave",
		"address2": "",
		"address3": "",
		"city": "Chicago",
		"state": "IL",
		"zip_code": "60611"
	},
	{
		"venue_id": "yelpoCmkezusc3v7VDQTn10LTQ",
		"venue_name": "M Avenue Restaurant",
		"latitude": 41.895077,
		"longitude": -87.624243,
		"address1": "701 N Michigan Ave",
		"address2": "",
		"address3": "",
		"city": "Chicago",
		"state": "IL",
		"zip_code": "60611"
	},
	{
		"venue_id": "yelpLHoZs_heEoVjNdkq43t-ig",
		"venue_name": "North and Clark Caf\u00e9",
		"latitude": 41.9113772,
		"longitude": -87.6315416,
		"address1": "1601 N Clark St",
		"address2": "",
		"address3": "Chicago History Museum",
		"city": "Chicago",
		"state": "IL",
		"zip_code": "60614"
	},
	{
		"venue_id": "yelp465jzbxtdXXvCgl6yXBddQ",
		"venue_name": "Lake Street Kitchen + Bar",
		"latitude": 41.88839,
		"longitude": -87.80265,
		"address1": "1101 Lake St",
		"address2": "",
		"address3": "",
		"city": "Oak Park",
		"state": "IL",
		"zip_code": "60301"
	},
	{
		"venue_id": "yelplZJNapc0cbbl-ynhaz7T1Q",
		"venue_name": "Broiler's Flip",
		"latitude": 41.9602389,
		"longitude": -87.7774813,
		"address1": "6009 W Montrose Ave",
		"address2": "",
		"address3": "",
		"city": "Chicago",
		"state": "IL",
		"zip_code": "60634"
	},
	{
		"venue_id": "yelpoxRfcXvaHioZo96xtvfSHA",
		"venue_name": "Trino's Pizza",
		"latitude": 41.8577919006348,
		"longitude": -87.6521530151367,
		"address1": "1013 W 18th St",
		"address2": "",
		"address3": "",
		"city": "Chicago",
		"state": "IL",
		"zip_code": "60608"
	},
	{
		"venue_id": "yelp7UKAxVZZrr0S_SSJOPpcCg",
		"venue_name": "Market Creations",
		"latitude": 41.8823761,
		"longitude": -87.637451,
		"address1": "20 N Wacker Dr",
		"address2": "",
		"address3": "Civic Opera House",
		"city": "Chicago",
		"state": "IL",
		"zip_code": "60606"
	},
	{
		"venue_id": "yelpnrCsZq8efWiHSkx7Mx6wHg",
		"venue_name": "David's Grill",
		"latitude": 41.8527749,
		"longitude": -87.6467687,
		"address1": "800 W Cermak Rd",
		"address2": "",
		"address3": "",
		"city": "Chicago",
		"state": "IL",
		"zip_code": "60608"
	},
	{
		"venue_id": "yelpA9tAJqtGcIhmT7mz4hmGmQ",
		"venue_name": "The Sarah and Peer Pedersen Room",
		"latitude": 41.8824963,
		"longitude": -87.637329,
		"address1": "20 North Wacker Dr",
		"address2": "",
		"address3": "Civic Opera House",
		"city": "Chicago",
		"state": "IL",
		"zip_code": "60606"
	},
	{
		"venue_id": "yelpmf7hOrLYxfTmNNPc0QCx4Q",
		"venue_name": "SPACE 519 | The Lunchroom",
		"latitude": 41.89871,
		"longitude": -87.62142,
		"address1": "200 E Chestnut St",
		"address2": null,
		"address3": "SPACE 519",
		"city": "Chicago",
		"state": "IL",
		"zip_code": "60611"
	},
	{
		"venue_id": "yelpnafQKuUH7oEBAEK9K6HaSw",
		"venue_name": "Old Country Buffet",
		"latitude": 41.9250180123377,
		"longitude": -87.7898547828339,
		"address1": "6560 W Fullerton Ave",
		"address2": "",
		"address3": "",
		"city": "Chicago",
		"state": "IL",
		"zip_code": "60707"
	},
	{
		"venue_id": "yelplCj1Cmxkbg2sSVbyl8f4pQ",
		"venue_name": "The River Kitchen and Bar",
		"latitude": 41.9346878,
		"longitude": -87.6537551,
		"address1": "2909 N Sheffield Ave",
		"address2": null,
		"address3": "",
		"city": "Chicago",
		"state": "IL",
		"zip_code": "60657"
	},
	{
		"venue_id": "yelpn3zaMGGj9z0zRYlaZwrNgw",
		"venue_name": "Sunny's Bar & Grill",
		"latitude": 41.8744499981403,
		"longitude": -87.6399169117212,
		"address1": "506 W Harrison St",
		"address2": null,
		"address3": "",
		"city": "Chicago",
		"state": "IL",
		"zip_code": "60607"
	},
	{
		"venue_id": "yelpEoPxr4NLfNKXhLkn4vd6rQ",
		"venue_name": "On The Mall",
		"latitude": 41.87127,
		"longitude": -87.66995,
		"address1": "1717 W Polk St",
		"address2": "",
		"address3": "",
		"city": "Chicago",
		"state": "IL",
		"zip_code": "60610"
	},
	{
		"venue_id": "yelpHoLba4sRSQ8A7eg08_1nlA",
		"venue_name": "Miller's Ale House - North Riverside",
		"latitude": 41.8498405619304,
		"longitude": -87.8094671452376,
		"address1": "7515 W Cermak Rd",
		"address2": null,
		"address3": null,
		"city": "N Riverside",
		"state": "IL",
		"zip_code": "60546"
	},
	{
		"venue_id": "yelpgArflaXOdZzhxbSCVjJ9zQ",
		"venue_name": "Little Olive Lounge",
		"latitude": 41.90929,
		"longitude": -87.6763,
		"address1": "1540 N Milwaukee Ave",
		"address2": null,
		"address3": "",
		"city": "Chicago",
		"state": "IL",
		"zip_code": "60622"
	},
	{
		"venue_id": "yelptyeMxEKngFndgwGZl3W0iQ",
		"venue_name": "Jack Melnick's Corner Tap",
		"latitude": 41.9005089,
		"longitude": -87.6243134,
		"address1": "980 N Michigan Ave",
		"address2": "",
		"address3": "",
		"city": "Chicago",
		"state": "IL",
		"zip_code": "60611"
	},
	{
		"venue_id": "yelpC9KJwU_Dy-KUb62RatF5qg",
		"venue_name": "Bar Louie",
		"latitude": 41.8887249,
		"longitude": -87.803774,
		"address1": "1122 Lake St",
		"address2": "",
		"address3": "",
		"city": "Oak Park",
		"state": "IL",
		"zip_code": "60301"
	},
	{
		"venue_id": "yelpQdRASstCZUYBiQVPARxrPA",
		"venue_name": "Market Creations",
		"latitude": 41.8778495788574,
		"longitude": -87.6313018798828,
		"address1": "111 W Jackson Blvd",
		"address2": "",
		"address3": null,
		"city": "Chicago",
		"state": "IL",
		"zip_code": "60604"
	},
	{
		"venue_id": "yelpbUHP4CdMbiLho7-NLYh2ug",
		"venue_name": "1901 At AceBounce",
		"latitude": 41.886547,
		"longitude": -87.631225,
		"address1": "230 N Clark St",
		"address2": null,
		"address3": "",
		"city": "Chicago",
		"state": "IL",
		"zip_code": "60601"
	},
	{
		"venue_id": "yelpWjqzKhknP9mqN5LNqpuJRg",
		"venue_name": "Tj's Family Restaurant",
		"latitude": 41.8523101806641,
		"longitude": -87.6745529174805,
		"address1": "1928 W Cermak Rd",
		"address2": "",
		"address3": "",
		"city": "Chicago",
		"state": "IL",
		"zip_code": "60608"
	},
	{
		"venue_id": "yelpWffPTCn6q33SBzcy1N-t1Q",
		"venue_name": "Hogsalt",
		"latitude": 41.85,
		"longitude": -87.65,
		"address1": "",
		"address2": "",
		"address3": "",
		"city": "Chicago",
		"state": "IL",
		"zip_code": ""
	},
	{
		"venue_id": "yelpcvPm6xaeVni1_jzYUSta0Q",
		"venue_name": "Top Dog II",
		"latitude": 41.9535141,
		"longitude": -87.7272644,
		"address1": "3961 W Irving Park Rd",
		"address2": "",
		"address3": "",
		"city": "Chicago",
		"state": "IL",
		"zip_code": "60618"
	},
	{
		"venue_id": "yelp3iTbG62mk7dCe3apyAz-hg",
		"venue_name": "District Kitchen & Tap",
		"latitude": 41.8728249,
		"longitude": -87.7801334,
		"address1": "220 Harrison St",
		"address2": "",
		"address3": null,
		"city": "Oak Park",
		"state": "IL",
		"zip_code": "60304"
	},
	{
		"venue_id": "yelpn0FA2tNFJHahZlk94bI7pg",
		"venue_name": "O'Sullivan's Public House",
		"latitude": 41.87943,
		"longitude": -87.80681,
		"address1": "7244 Madison St",
		"address2": "",
		"address3": "",
		"city": "Forest Park",
		"state": "IL",
		"zip_code": "60130"
	},
	{
		"venue_id": "yelpAau8aNGpLEdWrrvXlKjnsQ",
		"venue_name": "Streeterville Social",
		"latitude": 41.890168,
		"longitude": -87.61957,
		"address1": "455 N Park Dr",
		"address2": "",
		"address3": "",
		"city": "Chicago",
		"state": "IL",
		"zip_code": "60611"
	},
	{
		"venue_id": "yelptiDlqR7RRYubS0-nhC7iXA",
		"venue_name": "Hoots",
		"latitude": 41.85082,
		"longitude": -87.74384,
		"address1": "2201 S Cicero Ave",
		"address2": "",
		"address3": null,
		"city": "Cicero",
		"state": "IL",
		"zip_code": "60804"
	},
	{
		"venue_id": "yelpzLwhpdkPDm0T7yWgPV_xJw",
		"venue_name": "Freshii",
		"latitude": 41.88862,
		"longitude": -87.63539,
		"address1": "222 W Merchandise Mart Plz",
		"address2": "Ste 1212",
		"address3": "",
		"city": "Chicago",
		"state": "IL",
		"zip_code": "60654"
	},
	{
		"venue_id": "yelpq1Q4Ov2S0ueDkiExKmib4g",
		"venue_name": "The Landing",
		"latitude": 41.8832697719336,
		"longitude": -87.6385603845119,
		"address1": "100 N Riverside Plz",
		"address2": "",
		"address3": "",
		"city": "Chicago",
		"state": "IL",
		"zip_code": "60606"
	},
	{
		"venue_id": "yelp_mKMZaqUj7xgZ1sczXGqeA",
		"venue_name": "Arciel",
		"latitude": 41.8757762610178,
		"longitude": -87.6310477341205,
		"address1": "440 South Lasalle St",
		"address2": "Ste 3",
		"address3": "",
		"city": "Chicago",
		"state": "IL",
		"zip_code": "60605"
	},
	{
		"venue_id": "yelpRJ99sx_a004t36AQzihAOw",
		"venue_name": "Motel Bar",
		"latitude": 41.89738,
		"longitude": -87.64372,
		"address1": "600 W Chicago Ave",
		"address2": "",
		"address3": null,
		"city": "Chicago",
		"state": "IL",
		"zip_code": "60654"
	},
	{
		"venue_id": "yelpP9_-JplrEFjTm3O_n6qhOw",
		"venue_name": "Odyssey Cruises",
		"latitude": 41.8910273909569,
		"longitude": -87.617505043745,
		"address1": "401 E Illinois St",
		"address2": "Ste 310",
		"address3": "",
		"city": "Chicago",
		"state": "IL",
		"zip_code": "60611"
	},
	{
		"venue_id": "yelpBiGATnJx8moxbPOtYgWSjg",
		"venue_name": "The James Kitchen and Bar",
		"latitude": 41.8931674,
		"longitude": -87.626312,
		"address1": "55 E Ontario St",
		"address2": "",
		"address3": null,
		"city": "Chicago",
		"state": "IL",
		"zip_code": "60611"
	},
	{
		"venue_id": "yelpxZZPwUH5MR1OglgDb1pAsA",
		"venue_name": "Snap Kitchen",
		"latitude": 41.89166,
		"longitude": -87.621,
		"address1": "255 E Grand Ave",
		"address2": null,
		"address3": null,
		"city": "Chicago",
		"state": "IL",
		"zip_code": "60611"
	},
	{
		"venue_id": "yelp1eAPR_DR0VVTbaUTlU80sw",
		"venue_name": "Sang's Kitchen",
		"latitude": 41.87774,
		"longitude": -87.64471,
		"address1": "711 W Jackson Blvd",
		"address2": "",
		"address3": null,
		"city": "Chicago",
		"state": "IL",
		"zip_code": "60661"
	},
	{
		"venue_id": "yelpiKrvwY844nyHWkk1ZIxNGg",
		"venue_name": "The Lounge",
		"latitude": 41.87906,
		"longitude": -87.63302,
		"address1": "151 W Adams St",
		"address2": "",
		"address3": "",
		"city": "Chicago",
		"state": "IL",
		"zip_code": "60604"
	},
	{
		"venue_id": "yelpHujTbpmagh1MKLKAGNHI3Q",
		"venue_name": "Onward",
		"latitude": 42.0023338239383,
		"longitude": -87.6609102264047,
		"address1": "6580 N Sheridan Rd",
		"address2": "",
		"address3": null,
		"city": "Chicago",
		"state": "IL",
		"zip_code": "60626"
	},
	{
		"venue_id": "yelp8geEJIbmX3VfKmmWLU4c0Q",
		"venue_name": "Merchants Cafe",
		"latitude": 41.8880814948566,
		"longitude": -87.6383394925996,
		"address1": "350 W Mart Center Dr",
		"address2": "Fl 15",
		"address3": "Holiday Inn",
		"city": "Chicago",
		"state": "IL",
		"zip_code": "60654"
	},
	{
		"venue_id": "yelp-erk2TTTQWypnolIwMewjA",
		"venue_name": "El Barzon",
		"latitude": 41.83853,
		"longitude": -87.72474,
		"address1": "3002 S Pulaski Rd",
		"address2": "",
		"address3": "",
		"city": "Chicago",
		"state": "IL",
		"zip_code": "60623"
	},
	{
		"venue_id": "yelpcDWekwlRu7YyFgRIBDcnNw",
		"venue_name": "Mi Palmar",
		"latitude": 41.9166270073372,
		"longitude": -87.7527851779098,
		"address1": "5046 W Armitage",
		"address2": "",
		"address3": "",
		"city": "Chicago",
		"state": "IL",
		"zip_code": "60639"
	},
	{
		"venue_id": "yelp29yLtCmodFEy0E-zMML4gQ",
		"venue_name": "El Rebozo",
		"latitude": 41.85,
		"longitude": -87.65,
		"address1": "4701 W Diversey Ave",
		"address2": "",
		"address3": "",
		"city": "Chicago",
		"state": "IL",
		"zip_code": "60639"
	},
	{
		"venue_id": "yelpqY31vh8aqAwbBx1Kxsm6iw",
		"venue_name": "Blanco Y Negro",
		"latitude": 41.843941,
		"longitude": -87.726273,
		"address1": "4043 W 26th St",
		"address2": "",
		"address3": "",
		"city": "Chicago",
		"state": "IL",
		"zip_code": "60623"
	},
	{
		"venue_id": "yelp18o8AYE-tI2I2PwrOGCrnQ",
		"venue_name": "Sky Terrace",
		"latitude": 41.89315,
		"longitude": -87.62143,
		"address1": "233 E Ontario St",
		"address2": "",
		"address3": "Ivy Boutique Hotel",
		"city": "Chicago",
		"state": "IL",
		"zip_code": "60611"
	},
	{
		"venue_id": "yelp47zWE6UapmlmegeXEv2IUA",
		"venue_name": "Happy Fish and Chicken",
		"latitude": 41.8802913,
		"longitude": -87.7450752,
		"address1": "5 S Cicero Ave",
		"address2": "",
		"address3": "",
		"city": "Chicago",
		"state": "IL",
		"zip_code": "60644"
	},
	{
		"venue_id": "yelp6jeTUP9RPGO3ElM2MsiTfw",
		"venue_name": "Market Creations",
		"latitude": 41.88595,
		"longitude": -87.63951,
		"address1": "444 W Lake St",
		"address2": "Ste 100",
		"address3": null,
		"city": "Chicago",
		"state": "IL",
		"zip_code": "60606"
	},
	{
		"venue_id": "yelpa9_K78kWipDsQabSS9IgFA",
		"venue_name": "Shor",
		"latitude": 41.8511101013573,
		"longitude": -87.6180317580393,
		"address1": "Hyatt McCormick Pl",
		"address2": "",
		"address3": "",
		"city": "Chicago",
		"state": "IL",
		"zip_code": ""
	},
	{
		"venue_id": "yelpoKEkPz6t-y3H9CLloorY2g",
		"venue_name": "The Grafton",
		"latitude": 41.8974051,
		"longitude": -87.6265152,
		"address1": "55 E Pearson St",
		"address2": "",
		"address3": "The Clare",
		"city": "Chicago",
		"state": "IL",
		"zip_code": "60611"
	},
	{
		"venue_id": "yelprjvR9o-lV4iGK4raicW28Q",
		"venue_name": "Seasons Cafe",
		"latitude": 41.8993191,
		"longitude": -87.6251117,
		"address1": "120 E Delaware Pl",
		"address2": "",
		"address3": "Four Seasons Hotel",
		"city": "Chicago",
		"state": "IL",
		"zip_code": "60611"
	},
	{
		"venue_id": "yelprLDPgkpep1njDwg09k4yTA",
		"venue_name": "El Pilon",
		"latitude": 41.917511,
		"longitude": -87.71965,
		"address1": "3706 W Armitage Ave",
		"address2": "",
		"address3": "",
		"city": "Chicago",
		"state": "IL",
		"zip_code": "60647"
	},
	{
		"venue_id": "yelpvRrBRSNHI4g7mVwwsB_iDg",
		"venue_name": "Kelly's Cajun Grill",
		"latitude": 41.8789423,
		"longitude": -87.6397538,
		"address1": "222 S Canal St",
		"address2": "",
		"address3": "Chicago Union Station",
		"city": "Chicago",
		"state": "IL",
		"zip_code": "60606"
	},
	{
		"venue_id": "yelpG3r9TFu11eUo3le5jyKVcQ",
		"venue_name": "The Plate Room",
		"latitude": 41.8497192074286,
		"longitude": -87.6159032642899,
		"address1": "320-338 E Cermak Rd",
		"address2": "",
		"address3": "",
		"city": "Chicago",
		"state": "IL",
		"zip_code": "60616"
	},
	{
		"venue_id": "yelpdqvgDMj69aOqb02xw_MdGA",
		"venue_name": "Midland Social Club",
		"latitude": 41.87973,
		"longitude": -87.63314,
		"address1": "172 W Adams St",
		"address2": null,
		"address3": "",
		"city": "Chicago",
		"state": "IL",
		"zip_code": "60603"
	},
	{
		"venue_id": "yelpw-KM0WqnR1PAJFKVXeVP9g",
		"venue_name": "ManBQue",
		"latitude": 41.8581314,
		"longitude": -87.6600723,
		"address1": "1328 W 18th St",
		"address2": "",
		"address3": "",
		"city": "Chicago",
		"state": "IL",
		"zip_code": "60608"
	},
	{
		"venue_id": "yelpMYUnUsuWK5X9P-kzH3C8sg",
		"venue_name": "New Vivians Grill",
		"latitude": 41.895679834481,
		"longitude": -87.7103684842587,
		"address1": "3334 W Chicago Ave",
		"address2": "",
		"address3": null,
		"city": "Chicago",
		"state": "IL",
		"zip_code": "60651"
	},
	{
		"venue_id": "yelpmKm2FpWxwfTayoRq9wleTA",
		"venue_name": "Bobby's Lincoln Park",
		"latitude": 41.93314,
		"longitude": -87.65918,
		"address1": "2815 N Lincoln Ave",
		"address2": "",
		"address3": null,
		"city": "Chicago",
		"state": "IL",
		"zip_code": "60657"
	},
	{
		"venue_id": "yelps1XHmV4ByaV3_B652d1cvA",
		"venue_name": "Chicago Riverwalk Cafe",
		"latitude": 41.888229,
		"longitude": -87.621258,
		"address1": "117 W Riverwalk S",
		"address2": "",
		"address3": "",
		"city": "Chicago",
		"state": "IL",
		"zip_code": "60611"
	},
	{
		"venue_id": "yelppMlkkrFYFna5cn3CX0m20A",
		"venue_name": "Pritzker Club",
		"latitude": 41.8365302681923,
		"longitude": -87.6264850795269,
		"address1": "3201 S State St",
		"address2": null,
		"address3": "",
		"city": "Chicago",
		"state": "IL",
		"zip_code": "60616"
	},
	{
		"venue_id": "yelprzXTHtbxmGNIbxbUgzLMDA",
		"venue_name": "Hot Grill Restaurant",
		"latitude": 41.8247875988692,
		"longitude": -87.7435872386303,
		"address1": "3740 S Cicero Ave",
		"address2": "",
		"address3": "",
		"city": "Cicero",
		"state": "IL",
		"zip_code": "60804"
	},
	{
		"venue_id": "yelpQlA9hgPIASRb3fgpGP0e2w",
		"venue_name": "Dream chef kitchen",
		"latitude": 41.8733807455997,
		"longitude": -87.6960177873331,
		"address1": "611 South California Ave",
		"address2": "",
		"address3": null,
		"city": "Chicago",
		"state": "IL",
		"zip_code": "60612"
	},
	{
		"venue_id": "yelpN_h75j1gI3HLZuSVPO8oZw",
		"venue_name": "GoldCoast Tickets Club",
		"latitude": 41.829899364116,
		"longitude": -87.6343882506421,
		"address1": "W 35th St",
		"address2": "",
		"address3": "",
		"city": "Chicago",
		"state": "IL",
		"zip_code": ""
	},
	{
		"venue_id": "yelpcMW6Ff_EsBM7EhMwO5-R8w",
		"venue_name": "Mikey's Kitchen",
		"latitude": 41.8499840163056,
		"longitude": -87.6498712539673,
		"address1": "Traveling Food Truck",
		"address2": null,
		"address3": "",
		"city": "Chicago",
		"state": "IL",
		"zip_code": ""
	},
	{
		"venue_id": "yelpl0W7vaECF62Vv6bOmFEP3g",
		"venue_name": "Herban Gourmet",
		"latitude": 41.8547307771611,
		"longitude": -87.6509857177734,
		"address1": "900 N Michigan Ave",
		"address2": "Ste Ll3",
		"address3": null,
		"city": "Chicago",
		"state": "IL",
		"zip_code": "60611"
	},
	{
		"venue_id": "yelpAppVPEgSd_AKThR5vuvYIg",
		"venue_name": "Waffleria26",
		"latitude": 41.84528,
		"longitude": -87.62764,
		"address1": "2600 South State St",
		"address2": "",
		"address3": "",
		"city": "Chicago",
		"state": "IL",
		"zip_code": "60616"
	},
	{
		"venue_id": "yelpUTz614mMaro8I7Bq1gB1Ug",
		"venue_name": "Mr Philly & More",
		"latitude": 41.895191192627,
		"longitude": -87.7577743530273,
		"address1": "5254 W Chicago Ave",
		"address2": "",
		"address3": "",
		"city": "Chicago",
		"state": "IL",
		"zip_code": "60651"
	},
	{
		"venue_id": "yelp5AcayeCU8oEysS4WzXmUiA",
		"venue_name": "K & L Corner",
		"latitude": 41.9687195,
		"longitude": -87.7087708,
		"address1": "3200 W Lawrence Ave",
		"address2": "",
		"address3": "",
		"city": "Chicago",
		"state": "IL",
		"zip_code": "60625"
	},
	{
		"venue_id": "yelpIhdQkQPIidTPZ_iljuKAHA",
		"venue_name": "Mrs Parks Tavern",
		"latitude": 41.8994941711426,
		"longitude": -87.6222381591797,
		"address1": "198 E Delaware Pl",
		"address2": "",
		"address3": "",
		"city": "Chicago",
		"state": "IL",
		"zip_code": "60611"
	},
	{
		"venue_id": "yelpDicFlcm9h7nBzmaqTgED1g",
		"venue_name": "Bunz On Halsted",
		"latitude": 41.9486769961344,
		"longitude": -87.6498794305565,
		"address1": "Inside Of Whole Foods Market",
		"address2": "",
		"address3": "3640 North Halsted",
		"city": "Chicago",
		"state": "IL",
		"zip_code": "60613"
	},
	{
		"venue_id": "yelp8EbhXdhvdn2IQX12dRRxUw",
		"venue_name": "L Restaurant",
		"latitude": 41.8454361,
		"longitude": -87.6273727,
		"address1": "11 West 26 St",
		"address2": "",
		"address3": "South Loop Hotel",
		"city": "Chicago",
		"state": "IL",
		"zip_code": "60616"
	},
	{
		"venue_id": "yelp5DQzZoAtxLrKEKcVmZE-Yw",
		"venue_name": "Mi Taqueria Ochoa",
		"latitude": 41.847873912722,
		"longitude": -87.7540358528495,
		"address1": "2411-13 S Laramie Ave",
		"address2": "",
		"address3": "",
		"city": "Cicero",
		"state": "IL",
		"zip_code": "60804"
	}
]