[
	{
		"venue_id": "yelpf69LjfUFOumQB69QgMWIUw",
		"venue_name": "Paintball Explosion Park",
		"latitude": 42.091102154958,
		"longitude": -88.258152805726,
		"address1": "601 Dundee Ave",
		"address2": null,
		"address3": "",
		"city": "East Dundee",
		"state": "IL",
		"zip_code": "60118"
	},
	{
		"venue_id": "yelpEk94Z4QqmlhDXGgANqm38g",
		"venue_name": "Ohare Paintball Park",
		"latitude": 42.10064,
		"longitude": -88.01051,
		"address1": "519 South Consumers Ave",
		"address2": "",
		"address3": null,
		"city": "Palatine",
		"state": "IL",
		"zip_code": "60074"
	},
	{
		"venue_id": "yelpEJK-1a0eB-yLDjSuNzbaow",
		"venue_name": "Badlandz Paintball Field",
		"latitude": 41.40993,
		"longitude": -87.62017,
		"address1": "306 W Elms Ct Ln",
		"address2": "",
		"address3": "",
		"city": "Crete",
		"state": "IL",
		"zip_code": "60417"
	},
	{
		"venue_id": "yelpeGj_eFdqqG8as7eZnovbAA",
		"venue_name": "Fox Paintball",
		"latitude": 41.7947439,
		"longitude": -88.2818265,
		"address1": "1891 N Farnsworth Ave",
		"address2": "",
		"address3": "",
		"city": "Aurora",
		"state": "IL",
		"zip_code": "60505"
	},
	{
		"venue_id": "yelpnkQ6lKjpokQvFVTKH2i-7g",
		"venue_name": "Power Paintball",
		"latitude": 41.860822,
		"longitude": -88.01722,
		"address1": "1161 S Main St",
		"address2": "",
		"address3": null,
		"city": "Lombard",
		"state": "IL",
		"zip_code": "60148"
	},
	{
		"venue_id": "yelpAiPFySR0XXIbyrDZ_2bEvg",
		"venue_name": "Odyssey Fun World",
		"latitude": 41.80465,
		"longitude": -88.21318,
		"address1": "3440 Odyssey Ct",
		"address2": "",
		"address3": "",
		"city": "Naperville",
		"state": "IL",
		"zip_code": "60540"
	},
	{
		"venue_id": "yelpdzLOX_ZzrlHmVDaps2VUjg",
		"venue_name": "Blast Camp",
		"latitude": 41.5242,
		"longitude": -87.17709,
		"address1": "563 W 600th N",
		"address2": "",
		"address3": "",
		"city": "Hobart",
		"state": "IN",
		"zip_code": "46342"
	},
	{
		"venue_id": "yelpD1tiY2ymPzVA2NLOAojxxQ",
		"venue_name": "Legacy Adventure Park",
		"latitude": 41.566775,
		"longitude": -88.070604,
		"address1": "2807 Canal St",
		"address2": null,
		"address3": "",
		"city": "Lockport",
		"state": "IL",
		"zip_code": "60441"
	},
	{
		"venue_id": "yelpYkb1qW9QPwICH4XiBXRvIw",
		"venue_name": "Richmond Hunting Club",
		"latitude": 42.4800349,
		"longitude": -88.2906042,
		"address1": "5016 Il Route 173",
		"address2": "",
		"address3": "",
		"city": "Richmond",
		"state": "IL",
		"zip_code": "60071"
	},
	{
		"venue_id": "yelpBDqjDPDiCWDbycsDAE9OHg",
		"venue_name": "Mir Tactical",
		"latitude": 42.1717904062273,
		"longitude": -87.9305545323887,
		"address1": "1348 Busch Pkwy",
		"address2": null,
		"address3": "",
		"city": "Buffalo Grove",
		"state": "IL",
		"zip_code": "60089"
	},
	{
		"venue_id": "yelpaXvnafg2oG1I3F2Y3Vgp_Q",
		"venue_name": "Warped Sportz",
		"latitude": 41.418195,
		"longitude": -87.3647286,
		"address1": "103 N Main St",
		"address2": null,
		"address3": null,
		"city": "Crown Point",
		"state": "IN",
		"zip_code": "46307"
	},
	{
		"venue_id": "yelppFwsS16keJP51dfm45h99Q",
		"venue_name": "Rhc Paintball Fields",
		"latitude": 42.48384,
		"longitude": -88.29376,
		"address1": "5016 Illinois Rt 173",
		"address2": null,
		"address3": "",
		"city": "Richmond",
		"state": "IL",
		"zip_code": "60071"
	},
	{
		"venue_id": "yelpxlxftqc-Lmb7m0C7yLF9xw",
		"venue_name": "Aggressive Paintball",
		"latitude": 41.7027639,
		"longitude": -87.78967,
		"address1": "10349 Sw Hwy",
		"address2": "",
		"address3": "",
		"city": "Chicago Ridge",
		"state": "IL",
		"zip_code": "60415"
	},
	{
		"venue_id": "yelpXzZHXVuWheRbRqP06uvMfA",
		"venue_name": "Bad Boyz Toyz",
		"latitude": 41.406341,
		"longitude": -87.619647,
		"address1": "306 West Elmscourt Ln",
		"address2": "",
		"address3": "",
		"city": "Crete",
		"state": "IL",
		"zip_code": "60417"
	},
	{
		"venue_id": "yelpztDQX0K9RGybar0Ihec74w",
		"venue_name": "Paint Pursuit Games",
		"latitude": 41.538121,
		"longitude": -88.306818,
		"address1": "2490 Van Dyke Rd",
		"address2": "",
		"address3": "",
		"city": "Minooka",
		"state": "IL",
		"zip_code": "60447"
	},
	{
		"venue_id": "yelpAoxCefZF2NimlJRtjV18Gg",
		"venue_name": "Chicago Paintball Field White Wolf",
		"latitude": 42.3947,
		"longitude": -88.02134,
		"address1": "19697 W Grand Ave",
		"address2": "",
		"address3": "",
		"city": "Lake Villa",
		"state": "IL",
		"zip_code": "60046"
	},
	{
		"venue_id": "yelpiA4p0TbR1Q1hjFLX3_epew",
		"venue_name": "Promised Land Paint-Ball",
		"latitude": 42.504678357152,
		"longitude": -88.161442575561,
		"address1": "29039 Hwy C",
		"address2": "",
		"address3": "",
		"city": "Trevor",
		"state": "WI",
		"zip_code": "53179"
	},
	{
		"venue_id": "yelpiJxeXgfDdTD5GT7SEf-U3w",
		"venue_name": "Guts and Glory Paintball",
		"latitude": 42.344528,
		"longitude": -88.26384,
		"address1": "3327 W Elm St",
		"address2": null,
		"address3": "",
		"city": "McHenry",
		"state": "IL",
		"zip_code": "60050"
	},
	{
		"venue_id": "yelpbMNqZ8kLPZ53u4vQlFhdNQ",
		"venue_name": "Team Combat LIVE",
		"latitude": 41.46964,
		"longitude": -87.25722,
		"address1": "8183 Grand Blvd",
		"address2": "",
		"address3": "",
		"city": "Merrillville",
		"state": "IN",
		"zip_code": "46410"
	}
]