[
	{
		"venue_id": "yelpjDFnrQnCc8oQ0814SyLn5Q",
		"venue_name": "Bottle & Bottega Chicago Lakeview",
		"latitude": 41.9342713,
		"longitude": -87.6613761,
		"address1": "2900 N Lincoln Ave",
		"address2": "",
		"address3": "",
		"city": "Chicago",
		"state": "IL",
		"zip_code": "60657"
	},
	{
		"venue_id": "yelp-85jiEW2dBIb94fw8VRhcA",
		"venue_name": "Pinot's Palette - Logan Square",
		"latitude": 41.9313959777355,
		"longitude": -87.7113635838032,
		"address1": "2768 N Milwaukee Ave",
		"address2": null,
		"address3": "",
		"city": "Chicago",
		"state": "IL",
		"zip_code": "60647"
	},
	{
		"venue_id": "yelpTbEubTRr4n6cORGnBEQEzg",
		"venue_name": "Ian Sherwin Gallery",
		"latitude": 41.953133,
		"longitude": -87.6693099,
		"address1": "3920 N Ashland Ave",
		"address2": "Ste A",
		"address3": "",
		"city": "Chicago",
		"state": "IL",
		"zip_code": "60613"
	},
	{
		"venue_id": "yelpv_YYxpIAkhg4VfjCbaldLQ",
		"venue_name": "VIP Paints",
		"latitude": 41.856493,
		"longitude": -87.6463841,
		"address1": "1907 S Halsted St",
		"address2": null,
		"address3": "",
		"city": "Chicago",
		"state": "IL",
		"zip_code": "60608"
	},
	{
		"venue_id": "yelpfJ35m90m095ahGohIG3idw",
		"venue_name": "Pinot's Palette West Loop",
		"latitude": 41.8817016660457,
		"longitude": -87.6582847790828,
		"address1": "1222 W Madison St",
		"address2": "Ste 200",
		"address3": "",
		"city": "Chicago",
		"state": "IL",
		"zip_code": "60607"
	},
	{
		"venue_id": "yelpiALyAQ4pqBL_0hW3USO72w",
		"venue_name": "Surreal Rabbit",
		"latitude": 41.8575,
		"longitude": -87.66762,
		"address1": "1637 W 18th St",
		"address2": null,
		"address3": "",
		"city": "Chicago",
		"state": "IL",
		"zip_code": "60608"
	},
	{
		"venue_id": "yelphHbysepkS-35SbZ1bNczAQ",
		"venue_name": "Bottle & Bottega Chicago Downtown",
		"latitude": 41.8663976,
		"longitude": -87.6240928,
		"address1": "1241 S Michigan Ave",
		"address2": "",
		"address3": "",
		"city": "Chicago",
		"state": "IL",
		"zip_code": "60605"
	},
	{
		"venue_id": "yelpKjbxyw6sBvd1jK6uhUxxAw",
		"venue_name": "RAM Art Studio",
		"latitude": 41.99254,
		"longitude": -87.66073,
		"address1": "6054 N Broadway St",
		"address2": null,
		"address3": "",
		"city": "Chicago",
		"state": "IL",
		"zip_code": "60660"
	},
	{
		"venue_id": "yelpxenXPxRvIiK0-EWzOOrKUw",
		"venue_name": "Color Cocktail Factory",
		"latitude": 41.8578151,
		"longitude": -87.6496022,
		"address1": "917 West 18th St",
		"address2": "",
		"address3": "",
		"city": "Chicago",
		"state": "IL",
		"zip_code": "60608"
	},
	{
		"venue_id": "yelphnJBBbLFVQ1QXJJ8LdXD-Q",
		"venue_name": "The Tipsy Brush",
		"latitude": 41.9243240356445,
		"longitude": -87.7147445678711,
		"address1": "3523 W Fullerton Ave",
		"address2": null,
		"address3": "",
		"city": "Chicago",
		"state": "IL",
		"zip_code": "60647"
	},
	{
		"venue_id": "yelpC9Df5Kvc_48H2zwKHYGEaQ",
		"venue_name": "Chicago Sip & Paint",
		"latitude": 41.9609795,
		"longitude": -87.7551804,
		"address1": "4412 N Milwaukee",
		"address2": "",
		"address3": "",
		"city": "Chicago",
		"state": "IL",
		"zip_code": "60630"
	},
	{
		"venue_id": "yelpsqhstUVhTQeORxv56qG9IA",
		"venue_name": "Aartwerk Studio",
		"latitude": 41.9944027,
		"longitude": -87.6596405,
		"address1": "1141 W Granville Ave",
		"address2": null,
		"address3": "",
		"city": "Chicago",
		"state": "IL",
		"zip_code": "60660"
	},
	{
		"venue_id": "yelpMP4s6LeNNZosHaCw_WUMXw",
		"venue_name": "Vino Van Gogh",
		"latitude": 41.899892,
		"longitude": -87.637198,
		"address1": "",
		"address2": "",
		"address3": "",
		"city": "Chicago",
		"state": "IL",
		"zip_code": "60610"
	},
	{
		"venue_id": "yelpBH4HdQWwZdpASRNIPNin0g",
		"venue_name": "Indigo & Violet Studio",
		"latitude": 41.9541951,
		"longitude": -87.6649118,
		"address1": "1411 W Irving Park Rd",
		"address2": null,
		"address3": "",
		"city": "Chicago",
		"state": "IL",
		"zip_code": "60613"
	},
	{
		"venue_id": "yelpkyzOoTBA5PkU1KdHK68sqA",
		"venue_name": "Creativita",
		"latitude": 41.8793721,
		"longitude": -87.8123063,
		"address1": "7512 Madison",
		"address2": null,
		"address3": "",
		"city": "Forest Park",
		"state": "IL",
		"zip_code": "60130"
	},
	{
		"venue_id": "yelp2Ai1nwPvZ0Ucv6wp5O5Ydg",
		"venue_name": "Toast To Paint",
		"latitude": 41.9124112,
		"longitude": -87.8054753,
		"address1": "7185 W Bloomingdale",
		"address2": null,
		"address3": "",
		"city": "Chicago",
		"state": "IL",
		"zip_code": "60707"
	},
	{
		"venue_id": "yelp2CdqwssXzI7jTrk6w886GQ",
		"venue_name": "Bottle & Bottega Homewood",
		"latitude": 41.811929,
		"longitude": -87.68732,
		"address1": "2009 Ridge Rd",
		"address2": null,
		"address3": "",
		"city": "Homewood",
		"state": "IL",
		"zip_code": "60430"
	},
	{
		"venue_id": "yelptp7DBSJAYzzIaQVpCyQVWw",
		"venue_name": "The Artful Bachelorette",
		"latitude": 41.8955955505371,
		"longitude": -87.6229934692383,
		"address1": "",
		"address2": null,
		"address3": "",
		"city": "Chicago",
		"state": "IL",
		"zip_code": "60611"
	},
	{
		"venue_id": "yelpVNskYqIKCkCoTBc_zt9xAg",
		"venue_name": "Choate Studio",
		"latitude": 41.8456,
		"longitude": -87.6577,
		"address1": "2535 S Eleanor St",
		"address2": null,
		"address3": "",
		"city": "Chicago",
		"state": "IL",
		"zip_code": "60608"
	},
	{
		"venue_id": "yelp-2-2WQrv3odfwnBtUQEIQg",
		"venue_name": "4 Paws Portraits",
		"latitude": 41.85,
		"longitude": -87.65,
		"address1": "720 Dodge Ave",
		"address2": null,
		"address3": "",
		"city": "Evanston",
		"state": "IL",
		"zip_code": "60202"
	},
	{
		"venue_id": "yelp0w0hKiVEeccK_k5XxvCn3g",
		"venue_name": "Ka'Lab",
		"latitude": 41.8092,
		"longitude": -87.61353,
		"address1": "501 1/2 East 47th St",
		"address2": null,
		"address3": "",
		"city": "Chicago",
		"state": "IL",
		"zip_code": "60653"
	},
	{
		"venue_id": "yelp3VIZnady_3aHk6CVJPxg8g",
		"venue_name": "Grotesque Burlesque Figure Drawing",
		"latitude": 41.9675078,
		"longitude": -87.6586194,
		"address1": "4707 N Broadway St",
		"address2": "",
		"address3": "Uptown Underground",
		"city": "Chicago",
		"state": "IL",
		"zip_code": "60640"
	},
	{
		"venue_id": "yelpbrVTwnN_U79qYzW2E0AVFg",
		"venue_name": "Modern Scapes Sketches",
		"latitude": 41.96411,
		"longitude": -87.80871,
		"address1": "",
		"address2": null,
		"address3": "",
		"city": "Chicago",
		"state": "IL",
		"zip_code": "60706"
	},
	{
		"venue_id": "yelpdHDKA-41op4D2dg-7McVtg",
		"venue_name": "The Painted Penguin",
		"latitude": 41.89802,
		"longitude": -87.62292,
		"address1": "845 N Michigan Ave",
		"address2": "Fl 7",
		"address3": "",
		"city": "Chicago",
		"state": "IL",
		"zip_code": "60611"
	},
	{
		"venue_id": "yelpMgP1WOERJWyr9gQjhoB-NA",
		"venue_name": "Studio 928",
		"latitude": 41.8944244384766,
		"longitude": -87.7903289794922,
		"address1": "",
		"address2": null,
		"address3": "",
		"city": "Oak Park",
		"state": "IL",
		"zip_code": "60302"
	}
]