[
	{
		"venue_id": "yelpkUpqpEqkBjZguS1uA6NQYA",
		"venue_name": "En Hakkore 2.0",
		"latitude": 41.90869,
		"longitude": -87.6743,
		"address1": "1467 N Milwaukee Ave",
		"address2": null,
		"address3": "",
		"city": "Chicago",
		"state": "IL",
		"zip_code": "60622"
	},
	{
		"venue_id": "yelps8wBdh-OCgkeC5mGQ3_Eeg",
		"venue_name": "Aloha Poke",
		"latitude": 41.8840768,
		"longitude": -87.6408517,
		"address1": "131 N Clinton St",
		"address2": "",
		"address3": "Chicago French Market",
		"city": "Chicago",
		"state": "IL",
		"zip_code": "60661"
	},
	{
		"venue_id": "yelprAPCpaJENgcSDM-t_Lsqag",
		"venue_name": "Pokiology",
		"latitude": 41.965489041314,
		"longitude": -87.6613923567586,
		"address1": "4600 N Magnolia Ave",
		"address2": "Ste C",
		"address3": null,
		"city": "Chicago",
		"state": "IL",
		"zip_code": "60640"
	},
	{
		"venue_id": "yelpIcxvTVeRFmSb_ytS4UbJhg",
		"venue_name": "Pok\u00e9works",
		"latitude": 41.8819551,
		"longitude": -87.6250045,
		"address1": "79 E Madison St",
		"address2": null,
		"address3": "",
		"city": "Chicago",
		"state": "IL",
		"zip_code": "60602"
	},
	{
		"venue_id": "yelp26fp5NRrNERDEjEyyaJOCA",
		"venue_name": "Poke Burrito",
		"latitude": 41.959774,
		"longitude": -87.682362,
		"address1": "4301 N Lincoln Ave",
		"address2": null,
		"address3": "",
		"city": "Chicago",
		"state": "IL",
		"zip_code": "60618"
	},
	{
		"venue_id": "yelp2UnRn6H-WRDdfpbtHS2JvA",
		"venue_name": "Aloha Poke",
		"latitude": 41.9398699921574,
		"longitude": -87.6510490633663,
		"address1": "843 W Belmont Ave",
		"address2": "",
		"address3": null,
		"city": "Chicago",
		"state": "IL",
		"zip_code": "60657"
	},
	{
		"venue_id": "yelpL9bAwHt6Kom4jr1otNQeOw",
		"venue_name": "Poke Pok\u00e9",
		"latitude": 41.8804348,
		"longitude": -87.6263029,
		"address1": "118 S Wabash Ave",
		"address2": null,
		"address3": "",
		"city": "Chicago",
		"state": "IL",
		"zip_code": "60603"
	},
	{
		"venue_id": "yelpGFF2zGooltfNedj2UGZgdQ",
		"venue_name": "Pok\u00e9works",
		"latitude": 41.88532,
		"longitude": -87.65289,
		"address1": "1017 W Lake St",
		"address2": null,
		"address3": "",
		"city": "Chicago",
		"state": "IL",
		"zip_code": "60607"
	},
	{
		"venue_id": "yelpVCWUdp3A9585VBT66HXn5w",
		"venue_name": "Poke Burrito",
		"latitude": 41.876299,
		"longitude": -87.6290489,
		"address1": "423 South Dearborn St",
		"address2": null,
		"address3": "",
		"city": "Chicago",
		"state": "IL",
		"zip_code": "60605"
	},
	{
		"venue_id": "yelpE9wmPI67Isl12ADggUvYFA",
		"venue_name": "Aloha Poke",
		"latitude": 41.8797693,
		"longitude": -87.6303311,
		"address1": "125 S Clark St",
		"address2": "",
		"address3": null,
		"city": "Chicago",
		"state": "IL",
		"zip_code": "60603"
	},
	{
		"venue_id": "yelp56geLNeG35U8o6JivThzYg",
		"venue_name": "Poke Pok\u00e9",
		"latitude": 41.9400893,
		"longitude": -87.6494668,
		"address1": "802 W Belmont Ave",
		"address2": null,
		"address3": "",
		"city": "Chicago",
		"state": "IL",
		"zip_code": "60657"
	},
	{
		"venue_id": "yelpOpHEqpJR2bZwX93n273pdw",
		"venue_name": "Fusion Poke",
		"latitude": 41.8980056,
		"longitude": -87.6232355,
		"address1": "845 N Michigan Ave",
		"address2": "",
		"address3": null,
		"city": "Chicago",
		"state": "IL",
		"zip_code": "60611"
	},
	{
		"venue_id": "yelptf1zf95ZIh_ksH6bSvsIHA",
		"venue_name": "Poke Bar",
		"latitude": 41.88146,
		"longitude": -87.63259,
		"address1": "10 S La Salle St",
		"address2": "Ste 105",
		"address3": null,
		"city": "Chicago",
		"state": "IL",
		"zip_code": "60603"
	},
	{
		"venue_id": "yelp_ONXWOUBOoX8zc2owwoHmw",
		"venue_name": "Aloha Poke",
		"latitude": 41.9110151,
		"longitude": -87.63405,
		"address1": "163 West N Ave",
		"address2": null,
		"address3": "",
		"city": "Chicago",
		"state": "IL",
		"zip_code": "60610"
	},
	{
		"venue_id": "yelpPlXkdqggPoJz7x2dmBThCQ",
		"venue_name": "Pok\u0113 Bowl Co",
		"latitude": 41.908767,
		"longitude": -87.652759,
		"address1": "1550 N Kingsbury",
		"address2": null,
		"address3": "Whole Foods Market",
		"city": "Chicago",
		"state": "IL",
		"zip_code": "60642"
	},
	{
		"venue_id": "yelpAaJYcw3EBYRenLMvhHrGqw",
		"venue_name": "Kimura Sushi",
		"latitude": 41.86959,
		"longitude": -87.66261,
		"address1": "1422 W Taylor St",
		"address2": "",
		"address3": null,
		"city": "Chicago",
		"state": "IL",
		"zip_code": "60607"
	},
	{
		"venue_id": "yelpIRP56Alm8MLqx1t9BWzXrw",
		"venue_name": "High Tide Poke",
		"latitude": 41.886106,
		"longitude": -87.631726,
		"address1": "203 N LaSalle",
		"address2": "",
		"address3": null,
		"city": "Chicago",
		"state": "IL",
		"zip_code": "60601"
	},
	{
		"venue_id": "yelpYBox8Tp3QQKoFntM9lMtsA",
		"venue_name": "Poke Pok\u00e9",
		"latitude": 41.8818399,
		"longitude": -87.63114,
		"address1": "105 W Madison St",
		"address2": null,
		"address3": "",
		"city": "Chicago",
		"state": "IL",
		"zip_code": "60602"
	},
	{
		"venue_id": "yelpdEt7EWzwls49-PhccGms3A",
		"venue_name": "Aloha Poke",
		"latitude": 41.9255849,
		"longitude": -87.64952,
		"address1": "818 W Fullerton Ave",
		"address2": "",
		"address3": null,
		"city": "Chicago",
		"state": "IL",
		"zip_code": "60614"
	},
	{
		"venue_id": "yelpQCGm5KLZnTrYB3OvRA9iYQ",
		"venue_name": "Aloha Poke",
		"latitude": 41.8914408,
		"longitude": -87.6243185,
		"address1": "520 N Michigan Ave",
		"address2": "",
		"address3": null,
		"city": "Chicago",
		"state": "IL",
		"zip_code": "60611"
	},
	{
		"venue_id": "yelpAdX6QOhzlhoHehzDlZAUyA",
		"venue_name": "Raw II",
		"latitude": 41.92189,
		"longitude": -87.66429,
		"address1": "2203 N Clybourn Ave",
		"address2": "",
		"address3": null,
		"city": "Chicago",
		"state": "IL",
		"zip_code": "60614"
	},
	{
		"venue_id": "yelpQ2KLdjCwgAsVhJMzB2YNlg",
		"venue_name": "Poke Burrito",
		"latitude": 41.8884951,
		"longitude": -87.8017654,
		"address1": "1025 Lake St",
		"address2": "",
		"address3": null,
		"city": "Oak Park",
		"state": "IL",
		"zip_code": "60301"
	},
	{
		"venue_id": "yelpOCzeqAaaUlFJJDko4fGnNw",
		"venue_name": "Aloha Poke",
		"latitude": 41.9998245,
		"longitude": -87.660871,
		"address1": "6462 Sheridan Rd",
		"address2": "",
		"address3": null,
		"city": "Chicago",
		"state": "IL",
		"zip_code": "60626"
	},
	{
		"venue_id": "yelpj2Ke_EPZX-6CsjF5jVQL7w",
		"venue_name": "Aloha Poke",
		"latitude": 41.8818623153471,
		"longitude": -87.6355566982507,
		"address1": "303 W Madison St",
		"address2": "",
		"address3": null,
		"city": "Chicago",
		"state": "IL",
		"zip_code": "60606"
	},
	{
		"venue_id": "yelpPwKWMEXlfAZ0k-dHtZr48w",
		"venue_name": "Pok\u0113 Bowl Co",
		"latitude": 41.89137,
		"longitude": -87.62132,
		"address1": "255 E Grand",
		"address2": null,
		"address3": "Whole Foods",
		"city": "Chicago",
		"state": "IL",
		"zip_code": "60611"
	}
]