[
	{
		"venue_id": "yelpGnAltFPAh38FJO7wXpi1Ww",
		"venue_name": "Gold Star Bar",
		"latitude": 41.902961730957,
		"longitude": -87.6720428466797,
		"address1": "1755 W Division St",
		"address2": "",
		"address3": "",
		"city": "Chicago",
		"state": "IL",
		"zip_code": "60622"
	},
	{
		"venue_id": "yelpwmiWWaog8C_PFP4kN6E3Fg",
		"venue_name": "Game Room",
		"latitude": 41.881649,
		"longitude": -87.6250076,
		"address1": "Chicago Athletic Association",
		"address2": "",
		"address3": "12 S Michigan",
		"city": "Chicago",
		"state": "IL",
		"zip_code": "60603"
	},
	{
		"venue_id": "yelpxMwdRUPoXYIRLy8qduD2Ag",
		"venue_name": "Pressure Billiards & Cafe",
		"latitude": 41.99704,
		"longitude": -87.67088,
		"address1": "6318 N Clark St",
		"address2": "",
		"address3": "",
		"city": "Chicago",
		"state": "IL",
		"zip_code": "60660"
	},
	{
		"venue_id": "yelpWD-saOnTF2oCKNlpagYQ5Q",
		"venue_name": "Surge Coffee Bar & Billiards",
		"latitude": 41.96091,
		"longitude": -87.70994,
		"address1": "3241 W Montrose Ave",
		"address2": null,
		"address3": "",
		"city": "Chicago",
		"state": "IL",
		"zip_code": "60618"
	},
	{
		"venue_id": "yelp_6hBsrxcZRBh6hfeIecEqw",
		"venue_name": "Waveland Bowl",
		"latitude": 41.9490578803574,
		"longitude": -87.688816493313,
		"address1": "3700 N Western Ave",
		"address2": "",
		"address3": "",
		"city": "Chicago",
		"state": "IL",
		"zip_code": "60618"
	},
	{
		"venue_id": "yelpY3cmO36CJg920ExoBeBnOQ",
		"venue_name": "City Pool Hall & Sports Bar",
		"latitude": 41.89032,
		"longitude": -87.64479,
		"address1": "640 W Hubbard St",
		"address2": null,
		"address3": "",
		"city": "Chicago",
		"state": "IL",
		"zip_code": "60654"
	},
	{
		"venue_id": "yelpJAsC9-H4AcRYh0ydt7GM8Q",
		"venue_name": "G-Cue Billiards",
		"latitude": 41.8847808837891,
		"longitude": -87.6517715454102,
		"address1": "157 N Morgan St",
		"address2": "",
		"address3": "",
		"city": "Chicago",
		"state": "IL",
		"zip_code": "60607"
	},
	{
		"venue_id": "yelpm4qDrrdTKfO2mydIAP7iIA",
		"venue_name": "Zakopane",
		"latitude": 41.90355,
		"longitude": -87.67132,
		"address1": "1734 W Division St",
		"address2": "",
		"address3": "",
		"city": "Chicago",
		"state": "IL",
		"zip_code": "60622"
	},
	{
		"venue_id": "yelpQ0uuTq4cSZVCmnnvXMjaBQ",
		"venue_name": "Chris's Billiards",
		"latitude": 41.9650099,
		"longitude": -87.7580544,
		"address1": "4637 N Milwaukee Ave",
		"address2": "",
		"address3": "",
		"city": "Chicago",
		"state": "IL",
		"zip_code": "60630"
	},
	{
		"venue_id": "yelprGmWs3bKxRV4NT4PxKm_dA",
		"venue_name": "439 Nightclub",
		"latitude": 41.8900795,
		"longitude": -87.6595612,
		"address1": "439 N Ogden Ave",
		"address2": "",
		"address3": "",
		"city": "Chicago",
		"state": "IL",
		"zip_code": "60642"
	},
	{
		"venue_id": "yelp9nI6LcoV685jh3DmMRq-Kg",
		"venue_name": "Nick's Billiards",
		"latitude": 41.9622719,
		"longitude": -87.7276842,
		"address1": "4445 N Pulaski Rd",
		"address2": "",
		"address3": "",
		"city": "Chicago",
		"state": "IL",
		"zip_code": "60630"
	},
	{
		"venue_id": "yelp13wXzFAI1dctlNwf6hQ5pg",
		"venue_name": "Trinity Pub",
		"latitude": 41.989128,
		"longitude": -87.792841,
		"address1": "5943 N Nw Hwy",
		"address2": "",
		"address3": "",
		"city": "Chicago",
		"state": "IL",
		"zip_code": "60631"
	},
	{
		"venue_id": "yelpRaXJCoOkvHeiVrbN0AP9Wg",
		"venue_name": "Chicago Billiard Cafe",
		"latitude": 41.9527626037598,
		"longitude": -87.7757263183594,
		"address1": "5935 W Irving Park Rd",
		"address2": "",
		"address3": "",
		"city": "Chicago",
		"state": "IL",
		"zip_code": "60634"
	},
	{
		"venue_id": "yelp8C3fjoWF_4zjVXAz79yrTg",
		"venue_name": "Berwyn Tap Room",
		"latitude": 41.8580013513565,
		"longitude": -87.7827458828688,
		"address1": "6330 16th St",
		"address2": null,
		"address3": "",
		"city": "Berwyn",
		"state": "IL",
		"zip_code": "60402"
	},
	{
		"venue_id": "yelpKtIkNym984wrp15erl0PWA",
		"venue_name": "Ate Music House",
		"latitude": 41.8481555572998,
		"longitude": -87.6424149091919,
		"address1": "610 W 24th Pl",
		"address2": null,
		"address3": "",
		"city": "Chicago",
		"state": "IL",
		"zip_code": "60616"
	},
	{
		"venue_id": "yelpmNi1nY-BbEXDZLbJDgu2OA",
		"venue_name": "Angelo O'Leary's",
		"latitude": 41.8793453,
		"longitude": -87.8130692,
		"address1": "7522 W Madison St",
		"address2": "",
		"address3": "",
		"city": "Forest Park",
		"state": "IL",
		"zip_code": "60130"
	},
	{
		"venue_id": "yelpIAyaTuMLlqMT3FDatECB2g",
		"venue_name": "Cognoscenti Cues - Precision Billiard Instruments",
		"latitude": 41.9490477,
		"longitude": -87.6735007,
		"address1": "3711 North Ravenswood",
		"address2": null,
		"address3": "",
		"city": "Chicago",
		"state": "IL",
		"zip_code": "60613"
	},
	{
		"venue_id": "yelp6qL2z2J7oizK2anTmKjZFg",
		"venue_name": "Grand Billiards",
		"latitude": 41.92389,
		"longitude": -87.80308,
		"address1": "7110 W Grand Ave",
		"address2": "",
		"address3": "",
		"city": "Chicago",
		"state": "IL",
		"zip_code": "60707"
	},
	{
		"venue_id": "yelp8XFxqFiAgCEy7MJxnxWISw",
		"venue_name": "Lite Inn",
		"latitude": 41.9028449,
		"longitude": -87.7169511,
		"address1": "3616 W Division St",
		"address2": "",
		"address3": "",
		"city": "Chicago",
		"state": "IL",
		"zip_code": "60651"
	},
	{
		"venue_id": "yelpR9Eu8sy68j2OVC1TMr5WtQ",
		"venue_name": "Question Mark",
		"latitude": 41.92387,
		"longitude": -87.79852,
		"address1": "6918 W Grand Ave",
		"address2": "",
		"address3": "",
		"city": "Chicago",
		"state": "IL",
		"zip_code": "60707"
	},
	{
		"venue_id": "yelprqlSkY5AMo6iiMPDkbYeAw",
		"venue_name": "Uno Billiard",
		"latitude": 41.9686049,
		"longitude": -87.706653,
		"address1": "3112 W Lawrence Ave",
		"address2": "",
		"address3": "",
		"city": "Chicago",
		"state": "IL",
		"zip_code": "60625"
	},
	{
		"venue_id": "yelpjjC4omHRRntDwybKsmAGpw",
		"venue_name": "Silver Cue Billard",
		"latitude": 41.9955549,
		"longitude": -87.7127287,
		"address1": "6255 N McCormick Rd",
		"address2": "",
		"address3": "",
		"city": "Chicago",
		"state": "IL",
		"zip_code": "60659"
	},
	{
		"venue_id": "yelp7gyyvFo8xgPenz-OQ5FyDg",
		"venue_name": "Gamer's Hall",
		"latitude": 41.9099074997357,
		"longitude": -87.7171990851941,
		"address1": "3609 W North Ave",
		"address2": "",
		"address3": null,
		"city": "Chicago",
		"state": "IL",
		"zip_code": "60647"
	},
	{
		"venue_id": "yelpjSKeFeeggXoGUcvoQJMzkw",
		"venue_name": "International Billiard",
		"latitude": 41.96828,
		"longitude": -87.69674,
		"address1": "2711 W Lawrence Ave",
		"address2": "",
		"address3": "",
		"city": "Chicago",
		"state": "IL",
		"zip_code": "60686"
	}
]