[
	{
		"venue_id": "yelpOwzWNpSCjiUo9UJWm1-dKg",
		"venue_name": "Delphina - Psychic Medium",
		"latitude": 41.9540276686553,
		"longitude": -87.710991238594,
		"address1": "3311 W Irving Park",
		"address2": "",
		"address3": "",
		"city": "Chicago",
		"state": "IL",
		"zip_code": "60618"
	},
	{
		"venue_id": "yelp8FQVp4f5WYv0RabCxYfxfw",
		"venue_name": "Amara Sophia Munoz - Spirit Dreamer Healing Studio",
		"latitude": 42.0026401430368,
		"longitude": -87.6724534481764,
		"address1": "1656 W Wallen Ave",
		"address2": "",
		"address3": "",
		"city": "Chicago",
		"state": "IL",
		"zip_code": "60640"
	},
	{
		"venue_id": "yelpTPVYrcFuetZmJDd9VxLAHw",
		"venue_name": "Psychic Spiritual Gallery",
		"latitude": 41.9302712,
		"longitude": -87.6489604,
		"address1": "2632 N Halsted St",
		"address2": null,
		"address3": "",
		"city": "Chicago",
		"state": "IL",
		"zip_code": "60614"
	},
	{
		"venue_id": "yelpiB0D6Y6CgAgHPdr1wSAEQw",
		"venue_name": "The Chakra Shoppe",
		"latitude": 41.972557,
		"longitude": -87.6912962,
		"address1": "5034 N Lincoln Ave",
		"address2": "",
		"address3": "",
		"city": "Chicago",
		"state": "IL",
		"zip_code": "60625"
	},
	{
		"venue_id": "yelpW1m3G5tlpqpw2SvMYxM-WA",
		"venue_name": "Augustine's Spirtual Boutique",
		"latitude": 41.8335571289062,
		"longitude": -87.6458206176758,
		"address1": "3327 S Halsted St",
		"address2": "",
		"address3": "",
		"city": "Chicago",
		"state": "IL",
		"zip_code": "60608"
	},
	{
		"venue_id": "yelpHy28aVLb_cvwYzwViVl6yQ",
		"venue_name": "Aria Norman Psychic Evolution",
		"latitude": 42.0063591003418,
		"longitude": -87.6673965454102,
		"address1": "",
		"address2": "",
		"address3": "",
		"city": "Chicago",
		"state": "IL",
		"zip_code": "60626"
	},
	{
		"venue_id": "yelp39KXXZbSxw8quCsc8dUFAA",
		"venue_name": "Laughing Eye Weeping Eye Tarot",
		"latitude": 41.9317966,
		"longitude": -87.711006,
		"address1": "3323 W Diversey Ave",
		"address2": "",
		"address3": "",
		"city": "Chicago",
		"state": "IL",
		"zip_code": "60647"
	},
	{
		"venue_id": "yelptStBbusptUPxoq9ZGqLITg",
		"venue_name": "Luminous Healer Shaman",
		"latitude": 41.95233,
		"longitude": -87.73438,
		"address1": "3916 N Tripp Ave",
		"address2": "",
		"address3": "",
		"city": "Chicago",
		"state": "IL",
		"zip_code": "60641"
	},
	{
		"venue_id": "yelpATUFYiaPFbG1sXL3LpoJ_w",
		"venue_name": "InVision",
		"latitude": 41.8894661,
		"longitude": -87.6288622,
		"address1": "20 W Kinzie St",
		"address2": "Fl 17",
		"address3": "",
		"city": "Chicago",
		"state": "IL",
		"zip_code": "60654"
	},
	{
		"venue_id": "yelpU8gyisJ3aCcG9vVySUhKrA",
		"venue_name": "World Tree Healing",
		"latitude": 41.963996887207,
		"longitude": -87.7079849243164,
		"address1": "4533 N Kedzie Ave",
		"address2": null,
		"address3": "",
		"city": "Chicago",
		"state": "IL",
		"zip_code": "60625"
	},
	{
		"venue_id": "yelpU0koj3xkIEVBeEtvsOEAzQ",
		"venue_name": "Jerry Mikutis",
		"latitude": 41.9396781921387,
		"longitude": -87.656982421875,
		"address1": "",
		"address2": "",
		"address3": "",
		"city": "Chicago",
		"state": "IL",
		"zip_code": "60657"
	},
	{
		"venue_id": "yelpEh26Muq0_GDAg1PSEApJCQ",
		"venue_name": "Mystic Tarot",
		"latitude": 41.9098,
		"longitude": -87.67706,
		"address1": "1566 N Milwaukee Ave",
		"address2": "",
		"address3": "",
		"city": "Chicago",
		"state": "IL",
		"zip_code": "60622"
	},
	{
		"venue_id": "yelp8yhq12IMg-1g9HKkguYw5A",
		"venue_name": "Botanica Orisha Ile Ifa",
		"latitude": 41.9247737,
		"longitude": -87.7139829,
		"address1": "3440 W Fullerton Ave",
		"address2": null,
		"address3": "",
		"city": "Chicago",
		"state": "IL",
		"zip_code": "60647"
	},
	{
		"venue_id": "yelpyPGE_EVaQVUIi5u-FO1X-w",
		"venue_name": "Psychic Readings By Mrs. Lynn",
		"latitude": 41.892556,
		"longitude": -87.634356,
		"address1": "200 W Ohio St",
		"address2": "Fl First",
		"address3": "",
		"city": "Chicago",
		"state": "IL",
		"zip_code": "60654"
	},
	{
		"venue_id": "yelptO4-3p2xB53Nfjw5TBbEJw",
		"venue_name": "Readings by Kathryn",
		"latitude": 41.969389,
		"longitude": -87.655825,
		"address1": "1020 Lawrence House",
		"address2": "",
		"address3": "",
		"city": "Chicago",
		"state": "IL",
		"zip_code": "60640"
	},
	{
		"venue_id": "yelprn2sd9LOO8c2w9xrhUQDNw",
		"venue_name": "Principe Palmistry",
		"latitude": 41.9318996655927,
		"longitude": -87.7111138030887,
		"address1": "3323 W Diversey Ave",
		"address2": "Door C",
		"address3": "",
		"city": "Chicago",
		"state": "IL",
		"zip_code": "60647"
	},
	{
		"venue_id": "yelptvLLUHaag71jGMEJaOQQDg",
		"venue_name": "Xuntas - let's gather",
		"latitude": 41.8907661452292,
		"longitude": -87.6840963,
		"address1": "",
		"address2": null,
		"address3": "",
		"city": "Chicago",
		"state": "IL",
		"zip_code": "60612"
	},
	{
		"venue_id": "yelp8siwk0zWE0Sbm-9PbuvhAQ",
		"venue_name": "Chicago Spiritual Boutique",
		"latitude": 41.86766,
		"longitude": -87.62621,
		"address1": "30 E Roosevelt",
		"address2": "Unit 206",
		"address3": "",
		"city": "Chicago",
		"state": "IL",
		"zip_code": "60605"
	},
	{
		"venue_id": "yelp_9rQQrfc5k-BbQUJ9kZx0w",
		"venue_name": "Barbara G. Meyer",
		"latitude": 41.9534645080566,
		"longitude": -87.7324600219727,
		"address1": "",
		"address2": "",
		"address3": "",
		"city": "Chicago",
		"state": "IL",
		"zip_code": "60641"
	},
	{
		"venue_id": "yelplU9rudtrp8SREcIUL2_Pvg",
		"venue_name": "Psychic Old Town Chakra Boutique",
		"latitude": 41.91198,
		"longitude": -87.63507,
		"address1": "1628 N Wells St",
		"address2": "",
		"address3": "",
		"city": "Chicago",
		"state": "IL",
		"zip_code": "60614"
	},
	{
		"venue_id": "yelp-I8MDxVP5qaDllphcYeXXQ",
		"venue_name": "CRD Healing Therapies",
		"latitude": 41.9007103,
		"longitude": -87.677454,
		"address1": "1038 N Damen Ave",
		"address2": "Fl 2",
		"address3": "",
		"city": "Chicago",
		"state": "IL",
		"zip_code": "60622"
	},
	{
		"venue_id": "yelpx4_kmBsOhc9BCujIKnpYIw",
		"venue_name": "Spiritual Vibes and the Soul Sisters",
		"latitude": 41.95236,
		"longitude": -87.81359,
		"address1": "7433B W Irving Park Rd",
		"address2": null,
		"address3": null,
		"city": "Chicago",
		"state": "IL",
		"zip_code": "60634"
	},
	{
		"venue_id": "yelpsgNPghboAXhPek3nfkFkYQ",
		"venue_name": "Astrology Boutique",
		"latitude": 41.90302,
		"longitude": -87.66974,
		"address1": "1657 W Division St",
		"address2": "",
		"address3": "",
		"city": "Chicago",
		"state": "IL",
		"zip_code": "60622"
	},
	{
		"venue_id": "yelpZ7BOZKz_d2nRf5NT2VNu3A",
		"venue_name": "Psychic Angelina",
		"latitude": 41.8968449,
		"longitude": -87.626505,
		"address1": "46 E Chicago Ave",
		"address2": "",
		"address3": "",
		"city": "Chicago",
		"state": "IL",
		"zip_code": "60611"
	},
	{
		"venue_id": "yelpGKBCcwqQw0pmA9FZEQgpTQ",
		"venue_name": "Psychic Medium Susan Rowlen",
		"latitude": 41.8441335,
		"longitude": -87.9846326,
		"address1": "2625 Butterfield Rd",
		"address2": "Ste 138S",
		"address3": "",
		"city": "Oakbrook",
		"state": "IL",
		"zip_code": "60523"
	},
	{
		"venue_id": "yelpkFlCg7Gi6bC7KGQpe-DXNg",
		"venue_name": "Chicago Psychic & Tarot Cards",
		"latitude": 41.954513,
		"longitude": -87.672805,
		"address1": "1736 West Irving Park Rd",
		"address2": "",
		"address3": null,
		"city": "Chicago",
		"state": "IL",
		"zip_code": "60613"
	},
	{
		"venue_id": "yelpui2zWHBUJmjev1AT2InKNA",
		"venue_name": "The Modern Astrologer",
		"latitude": 41.90412,
		"longitude": -87.63142,
		"address1": "",
		"address2": null,
		"address3": "",
		"city": "Chicago",
		"state": "IL",
		"zip_code": "60610"
	},
	{
		"venue_id": "yelpUA3KsMmpDur8mQbwznwwDQ",
		"venue_name": "Evon's Psychic Gallery",
		"latitude": 41.9347548,
		"longitude": -87.6462183,
		"address1": "2875 N Clark St",
		"address2": null,
		"address3": "",
		"city": "Chicago",
		"state": "IL",
		"zip_code": "60657"
	},
	{
		"venue_id": "yelpLgjlezfQEXioKvEKdUOVJQ",
		"venue_name": "Leslie Kay The High Priestess",
		"latitude": 41.8851636636484,
		"longitude": -87.8023836069069,
		"address1": "",
		"address2": "",
		"address3": "",
		"city": "Oak Park",
		"state": "IL",
		"zip_code": "60302"
	},
	{
		"venue_id": "yelpCWYj1bzUokLO3IqMU-W6JA",
		"venue_name": "Mel Doerr",
		"latitude": 42.07023,
		"longitude": -87.92264,
		"address1": "832 E Rand Rd",
		"address2": "",
		"address3": "",
		"city": "Mount Prospect",
		"state": "IL",
		"zip_code": "60056"
	},
	{
		"venue_id": "yelpKnFXoA9vJknqRMjS3VtIWg",
		"venue_name": "Astrology & Crystals",
		"latitude": 41.9329093307781,
		"longitude": -87.6403105258942,
		"address1": "430 W Diversey Pkwy",
		"address2": null,
		"address3": "",
		"city": "Chicago",
		"state": "IL",
		"zip_code": "60614"
	},
	{
		"venue_id": "yelpArVSacwZSKr6IeyxIuGiFQ",
		"venue_name": "Christine Psychic Readings",
		"latitude": 41.896977,
		"longitude": -87.632404,
		"address1": "805 N LaSalle",
		"address2": null,
		"address3": "",
		"city": "Chicago",
		"state": "IL",
		"zip_code": "60610"
	},
	{
		"venue_id": "yelp17Ml2BrLldax-Dzuyo9n2Q",
		"venue_name": "Lincoln Spiritual Advisor",
		"latitude": 41.9382705688477,
		"longitude": -87.666389465332,
		"address1": "3101 N Lincoln Ave",
		"address2": null,
		"address3": "",
		"city": "Chicago",
		"state": "IL",
		"zip_code": "60657"
	},
	{
		"venue_id": "yelpGye1OwXcVlILf1OdqlzA_g",
		"venue_name": "Psychic Reader Grace",
		"latitude": 41.9687148928642,
		"longitude": -87.6787633448839,
		"address1": "1963 W Lawrence Ave",
		"address2": "",
		"address3": "",
		"city": "Chicago",
		"state": "IL",
		"zip_code": "60640"
	},
	{
		"venue_id": "yelpzPl543MzFhr5CaAIlvtQhw",
		"venue_name": "Psychic Readings By Kitty",
		"latitude": 41.88621,
		"longitude": -87.61819,
		"address1": "",
		"address2": "",
		"address3": "",
		"city": "Chicago",
		"state": "IL",
		"zip_code": "60601"
	},
	{
		"venue_id": "yelpVM4p0Jh9lwrVZzwAymP_bA",
		"venue_name": "Infinity Psychic Shop",
		"latitude": 41.9573453,
		"longitude": -87.6808471,
		"address1": "4153 N Lincoln Ave",
		"address2": "",
		"address3": "",
		"city": "Chicago",
		"state": "IL",
		"zip_code": "60618"
	},
	{
		"venue_id": "yelpDArjVJelct883CKb0KsQ7A",
		"venue_name": "Sacha Psychic Reader",
		"latitude": 41.85736,
		"longitude": -87.67861,
		"address1": "2101 W 18th St",
		"address2": "",
		"address3": "",
		"city": "Chicago",
		"state": "IL",
		"zip_code": "60608"
	},
	{
		"venue_id": "yelpLRY_rpVFf8OZS_A1l8BIuQ",
		"venue_name": "Spiritual Center",
		"latitude": 41.93911,
		"longitude": -87.70202,
		"address1": "2943 W Belmont Ave",
		"address2": "Fl 1",
		"address3": null,
		"city": "Chicago",
		"state": "IL",
		"zip_code": "60618"
	},
	{
		"venue_id": "yelpxrapWo9C7h6CacJYT9FoAw",
		"venue_name": "For Your Higher Good",
		"latitude": 41.9093267,
		"longitude": -87.9395694,
		"address1": "381 N York St",
		"address2": "",
		"address3": null,
		"city": "Elmhurst",
		"state": "IL",
		"zip_code": "60126"
	},
	{
		"venue_id": "yelpVXwAli51n5i_P3uWL3zNug",
		"venue_name": "Arbor Vitae Consulting",
		"latitude": 41.87794,
		"longitude": -87.62936,
		"address1": "",
		"address2": null,
		"address3": "",
		"city": "Chicago",
		"state": "IL",
		"zip_code": "60604"
	},
	{
		"venue_id": "yelpH3OoB688ze9VaQLmGQaXAw",
		"venue_name": "Chakra Spiritual Spa",
		"latitude": 41.8808912794584,
		"longitude": -87.6523483589867,
		"address1": "332 N Michigan Ave",
		"address2": "3rd Fl",
		"address3": "",
		"city": "Chicago",
		"state": "IL",
		"zip_code": "60601"
	},
	{
		"venue_id": "yelpBJBWMIHwMniIZ5th6kdxJg",
		"venue_name": "My Secret Tarot",
		"latitude": 41.9554176330566,
		"longitude": -87.6998519897461,
		"address1": "4046 N Mozart",
		"address2": null,
		"address3": "",
		"city": "Chicago",
		"state": "IL",
		"zip_code": "60618"
	},
	{
		"venue_id": "yelpX31kCL4SA7a7KDjgSku-2w",
		"venue_name": "Mystic Boutique",
		"latitude": 41.9618082018972,
		"longitude": -87.6539240826229,
		"address1": "950 W Montrose Ave",
		"address2": "",
		"address3": "",
		"city": "Chicago",
		"state": "IL",
		"zip_code": "60613"
	},
	{
		"venue_id": "yelpgf3MDpUiysUfApwTw7UDSQ",
		"venue_name": "Deanne M. Lozano",
		"latitude": 41.9858513,
		"longitude": -87.6689224,
		"address1": "5709 N Clark St",
		"address2": "",
		"address3": "",
		"city": "Chicago",
		"state": "IL",
		"zip_code": "60660"
	},
	{
		"venue_id": "yelpAqWcL-vTNmxDWqBPzUNQWg",
		"venue_name": "Psychic Medium Michael Gourley",
		"latitude": 41.712532,
		"longitude": -88.383949,
		"address1": "2438 Mayfield Dr",
		"address2": "",
		"address3": "",
		"city": "Montgomery",
		"state": "IL",
		"zip_code": "60538"
	},
	{
		"venue_id": "yelp-bANHBrfuI8ee6k6gZX7Dw",
		"venue_name": "Psychic Energy",
		"latitude": 41.9101902,
		"longitude": -87.6487584,
		"address1": "1580 N Clybourn Ave",
		"address2": "Unit 3",
		"address3": "",
		"city": "Chicago",
		"state": "IL",
		"zip_code": "60642"
	},
	{
		"venue_id": "yelpnzCu7Da0ojgFZZ97RVQNYw",
		"venue_name": "Readings By Diana",
		"latitude": 41.88464,
		"longitude": -87.65025,
		"address1": "908 W Randolph St",
		"address2": "",
		"address3": "",
		"city": "Chicago",
		"state": "IL",
		"zip_code": "60607"
	},
	{
		"venue_id": "yelpl9-QipPExXNzpl58_QhhOA",
		"venue_name": "Enchanted Mystic Shop",
		"latitude": 41.9833831,
		"longitude": -87.6598808,
		"address1": "5553 N Broadway St",
		"address2": "",
		"address3": "",
		"city": "Chicago",
		"state": "IL",
		"zip_code": "60640"
	},
	{
		"venue_id": "yelpyL3Sxooj4sQmlj8VUyk42w",
		"venue_name": "Bot\u00e1nica Secreto Azteca",
		"latitude": 41.84766,
		"longitude": -87.70475,
		"address1": "2415 S Kedzie Ave",
		"address2": "",
		"address3": "",
		"city": "Chicago",
		"state": "IL",
		"zip_code": "60623"
	},
	{
		"venue_id": "yelp_jJNx75cqLIRP8Hr42rPRA",
		"venue_name": "Tea Leaf Readings By Mary",
		"latitude": 41.8487091064453,
		"longitude": -87.6709365844727,
		"address1": "",
		"address2": null,
		"address3": "",
		"city": "Chicago",
		"state": "IL",
		"zip_code": "60608"
	},
	{
		"venue_id": "yelpMkLU_ZphLxbBEkpkSRMWQQ",
		"venue_name": "The Rad Diviner",
		"latitude": 41.87718,
		"longitude": -87.62514,
		"address1": "332 S Michigan Ave",
		"address2": "Fl 9",
		"address3": "",
		"city": "Chicago",
		"state": "IL",
		"zip_code": "60604"
	},
	{
		"venue_id": "yelpUYQvcYjeyjIaHpyFnaZiBw",
		"venue_name": "Psychic Readings by Sara",
		"latitude": 41.80998,
		"longitude": -87.59581,
		"address1": "1222 E 47th St",
		"address2": null,
		"address3": "",
		"city": "Chicago",
		"state": "IL",
		"zip_code": "60615"
	},
	{
		"venue_id": "yelpR6osvBnDN3YypFbeRuvf6w",
		"venue_name": "Mystic Visions Spiritual Gallery",
		"latitude": 41.9619249,
		"longitude": -87.654192,
		"address1": "950 W Montrose Ave",
		"address2": null,
		"address3": "",
		"city": "Chicago",
		"state": "IL",
		"zip_code": "60613"
	},
	{
		"venue_id": "yelpRw0h-i-NoZj8zzB1iPdPZg",
		"venue_name": "Botanica San Lazaro",
		"latitude": 41.8144242,
		"longitude": -87.7039267,
		"address1": "4348 S Archer Ave",
		"address2": null,
		"address3": null,
		"city": "Chicago",
		"state": "IL",
		"zip_code": "60632"
	},
	{
		"venue_id": "yelpgISNJNrt2E0hA_FSTRgpYg",
		"venue_name": "Witchy Wearables",
		"latitude": 41.6092987,
		"longitude": -87.7373962,
		"address1": "15530 S Cicero Ave",
		"address2": "",
		"address3": "",
		"city": "Oak Forest",
		"state": "IL",
		"zip_code": "60452"
	},
	{
		"venue_id": "yelpXuoG6nbtYE96KyFesgFx4A",
		"venue_name": "Readings by Maria",
		"latitude": 41.931713104248,
		"longitude": -87.8061828613281,
		"address1": "2831 N Harlem Ave",
		"address2": "",
		"address3": "",
		"city": "Chicago",
		"state": "IL",
		"zip_code": "60707"
	},
	{
		"venue_id": "yelpws3zezAzmdJWVjHWjCNQdg",
		"venue_name": "Psychic Reading By Natalie",
		"latitude": 41.892345,
		"longitude": -87.623283,
		"address1": "157 E Ohio St",
		"address2": "Ste 3",
		"address3": "",
		"city": "Chicago",
		"state": "IL",
		"zip_code": "60611"
	},
	{
		"venue_id": "yelpHQoKSg_V2EzolPgKV2wVhw",
		"venue_name": "Psychic Intervisions",
		"latitude": 41.9535141,
		"longitude": -87.7502289,
		"address1": "4904 W Irving Park Rd",
		"address2": null,
		"address3": "",
		"city": "Chicago",
		"state": "IL",
		"zip_code": "60641"
	},
	{
		"venue_id": "yelpxypJuYtG6iwNUzT7PtLFzQ",
		"venue_name": "Structure Constructor",
		"latitude": 41.88253,
		"longitude": -87.63751,
		"address1": "",
		"address2": null,
		"address3": "",
		"city": "Chicago",
		"state": "IL",
		"zip_code": "60606"
	},
	{
		"venue_id": "yelpFRgNf5QmeaTuquW4El4Q3A",
		"venue_name": "Snowflake Healing",
		"latitude": 41.7336332624679,
		"longitude": -87.876808270812,
		"address1": "153 Market St",
		"address2": "",
		"address3": null,
		"city": "Willow Springs",
		"state": "IL",
		"zip_code": "60480"
	},
	{
		"venue_id": "yelpFJ9c2VoTn6CoQP4rYRT8lA",
		"venue_name": "Spiritual Rejuvenation Boutique",
		"latitude": 41.88141,
		"longitude": -87.65308,
		"address1": "1025 W Madison St",
		"address2": "",
		"address3": null,
		"city": "Chicago",
		"state": "IL",
		"zip_code": "60607"
	},
	{
		"venue_id": "yelpob08AWqGZD50rK70qCQZ1A",
		"venue_name": "The Glowing Chakra",
		"latitude": 41.89025,
		"longitude": -87.63194,
		"address1": "116 W Hubbard St",
		"address2": "Ste 510",
		"address3": "",
		"city": "Chicago",
		"state": "IL",
		"zip_code": "60654"
	},
	{
		"venue_id": "yelpwr14UYtXHXySjwdNrwHG3w",
		"venue_name": "Astrology Readings by Natalie",
		"latitude": 41.94446,
		"longitude": -87.64527,
		"address1": "3441 N Broadway",
		"address2": "",
		"address3": null,
		"city": "Chicago",
		"state": "IL",
		"zip_code": "60657"
	},
	{
		"venue_id": "yelpLw7Cb2RsQDn4HSLCgPxUmQ",
		"venue_name": "Psychic Reader Life Coach & Spiritual Consulting",
		"latitude": 41.89059,
		"longitude": -87.67728,
		"address1": "2009 West Grand Ave",
		"address2": "Fl 2",
		"address3": "",
		"city": "Chicago",
		"state": "IL",
		"zip_code": "60612"
	},
	{
		"venue_id": "yelpoiHmOc3aBdAt8TK5RBWBrw",
		"venue_name": "New Age Psychic Connection",
		"latitude": 41.9677295,
		"longitude": -87.6886796,
		"address1": "4743 N Western Ave",
		"address2": null,
		"address3": "",
		"city": "Chicago",
		"state": "IL",
		"zip_code": "60625"
	},
	{
		"venue_id": "yelpKW5Tux-liXV7XdzBHu8JDg",
		"venue_name": "European Astrology",
		"latitude": 41.92413,
		"longitude": -87.73148,
		"address1": "4159 West Fullerton Ave",
		"address2": null,
		"address3": "",
		"city": "Chicago",
		"state": "IL",
		"zip_code": "60639"
	},
	{
		"venue_id": "yelpQ_AwW3cZnxqJnzYYkD2PZg",
		"venue_name": "Global Psychic",
		"latitude": 41.91901,
		"longitude": -87.65304,
		"address1": "2029 N Sheffield Ave",
		"address2": "",
		"address3": "",
		"city": "Chicago",
		"state": "IL",
		"zip_code": "60614"
	},
	{
		"venue_id": "yelpjmQGWiQ-rwusUtDbNnh_GQ",
		"venue_name": "Psychic Readings by Nadia",
		"latitude": 41.922,
		"longitude": -87.652885,
		"address1": "946 West Webster Ave",
		"address2": "",
		"address3": "",
		"city": "Chicago",
		"state": "IL",
		"zip_code": "60614"
	},
	{
		"venue_id": "yelpPXw6HCOKnYbz6nqbT4rqZw",
		"venue_name": "Psychic Readings by Dorina",
		"latitude": 41.9943084,
		"longitude": -87.6698589,
		"address1": "6334 N Clark St",
		"address2": "",
		"address3": "",
		"city": "Chicago",
		"state": "IL",
		"zip_code": "60660"
	},
	{
		"venue_id": "yelpifQNUFk5NTJhjIWpr2uF1g",
		"venue_name": "Christine Psychic Consulting",
		"latitude": 41.8925085,
		"longitude": -87.6161696,
		"address1": "535 N McClurg Ct",
		"address2": null,
		"address3": "",
		"city": "Chicago",
		"state": "IL",
		"zip_code": "60611"
	},
	{
		"venue_id": "yelpQQbbuYhF6FhpLoCpr8zt0g",
		"venue_name": "Psychics of Chicago",
		"latitude": 41.9389749,
		"longitude": -87.7457985,
		"address1": "4764 W Belmont Ave",
		"address2": null,
		"address3": "",
		"city": "Chicago",
		"state": "IL",
		"zip_code": "60641"
	},
	{
		"venue_id": "yelp5mXhxYW4_KFQBsl3SmbymA",
		"venue_name": "Psychic Reader",
		"latitude": 41.9390151,
		"longitude": -87.724096,
		"address1": "3903 W Belmont Ave",
		"address2": "",
		"address3": null,
		"city": "Chicago",
		"state": "IL",
		"zip_code": "60618"
	},
	{
		"venue_id": "yelp2Iqao5c7xLL5H5IMW_Ufhg",
		"venue_name": "Chicago Psychic Venna",
		"latitude": 41.95452,
		"longitude": -87.67279,
		"address1": "1736 W Irving Park Rd",
		"address2": "",
		"address3": null,
		"city": "Chicago",
		"state": "IL",
		"zip_code": "60640"
	},
	{
		"venue_id": "yelpUWyphYJupmudcaIvuEcSRw",
		"venue_name": "Spiritual Journey Advisor",
		"latitude": 41.9677295,
		"longitude": -87.6886796,
		"address1": "4743 N Western Ave",
		"address2": null,
		"address3": "",
		"city": "Chicago",
		"state": "IL",
		"zip_code": "60625"
	},
	{
		"venue_id": "yelpAmFtO9_0ZrtbmH8FOdSEPQ",
		"venue_name": "Psychic Readings By Cline",
		"latitude": 41.953987121582,
		"longitude": -87.6599960327148,
		"address1": "",
		"address2": "",
		"address3": "",
		"city": "Chicago",
		"state": "IL",
		"zip_code": "60613"
	},
	{
		"venue_id": "yelp66OqPGfMHrUEPCvj0Km3Hg",
		"venue_name": "Psychic Serenity Tarot Card Readings",
		"latitude": 41.9526051,
		"longitude": -87.7984674,
		"address1": "6857 W Irving Park Rd",
		"address2": null,
		"address3": "",
		"city": "Chicago",
		"state": "IL",
		"zip_code": "60634"
	},
	{
		"venue_id": "yelpGHFDNGm_a0cW4cxf1KuzGQ",
		"venue_name": "Chicago Psychic Reader",
		"latitude": 41.969319,
		"longitude": -87.668998,
		"address1": "4811 N Ashland Ave",
		"address2": null,
		"address3": "",
		"city": "Chicago",
		"state": "IL",
		"zip_code": "60640"
	},
	{
		"venue_id": "yelp7BvaEuHq24yONy_mtq_vDQ",
		"venue_name": "Psychic Serenity Botanica",
		"latitude": 41.9581718,
		"longitude": -87.7476196,
		"address1": "4236 N Cicero Ave",
		"address2": null,
		"address3": "",
		"city": "Chicago",
		"state": "IL",
		"zip_code": "60641"
	},
	{
		"venue_id": "yelpl7OSR27J6RIRb1fIw7hjDA",
		"venue_name": "The Astrology Boutique",
		"latitude": 41.89599,
		"longitude": -87.62647,
		"address1": "44 E Superior St",
		"address2": "",
		"address3": null,
		"city": "Chicago",
		"state": "IL",
		"zip_code": "60611"
	},
	{
		"venue_id": "yelpOVxUchBrvFO1jYbMhiiGBw",
		"venue_name": "Serene Energy Healing",
		"latitude": 42.0001268,
		"longitude": -87.6662713,
		"address1": "1412 W Arthur Ave",
		"address2": null,
		"address3": "",
		"city": "Chicago",
		"state": "IL",
		"zip_code": "60626"
	},
	{
		"venue_id": "yelpzBmLiy6Xj4s2eU3g2p6dsQ",
		"venue_name": "Life Coach & Spiritual Consulting",
		"latitude": 41.88146,
		"longitude": -87.67427,
		"address1": "",
		"address2": "",
		"address3": "",
		"city": "Chicago",
		"state": "IL",
		"zip_code": "60612"
	},
	{
		"venue_id": "yelpPKibldsC7lF_d2OJ8-Z0dw",
		"venue_name": "Psychic Reading by Anna",
		"latitude": 41.939607,
		"longitude": -87.657042,
		"address1": "1111 W Belmont Ave",
		"address2": "",
		"address3": null,
		"city": "Chicago",
		"state": "IL",
		"zip_code": "60657"
	},
	{
		"venue_id": "yelpaClTH3SwEtSiS9tRYSMDbg",
		"venue_name": "Psychic Tarot Card Palm Readings & Crystals by Cora",
		"latitude": 41.8743,
		"longitude": -87.65017,
		"address1": "",
		"address2": "",
		"address3": "",
		"city": "Chicago",
		"state": "IL",
		"zip_code": "60607"
	},
	{
		"venue_id": "yelpIy-8VVeX-qzeoCK0ssyADA",
		"venue_name": "Psychic Reading",
		"latitude": 41.89231,
		"longitude": -87.62322,
		"address1": "157 E Ohio St",
		"address2": "Fl 3",
		"address3": "",
		"city": "Chicago",
		"state": "IL",
		"zip_code": "60611"
	},
	{
		"venue_id": "yelpziTx7IVUdFIDrP_G3nYdGw",
		"venue_name": "Psychic Victoria",
		"latitude": 41.9253197,
		"longitude": -87.9712601,
		"address1": "3N265 Mcnair Ave",
		"address2": "Ste1",
		"address3": "",
		"city": "Addison",
		"state": "IL",
		"zip_code": "60101"
	},
	{
		"venue_id": "yelppeCfgM9nCrYqpwkeL9QbVA",
		"venue_name": "Laurie Wynne Weber",
		"latitude": 42.16046,
		"longitude": -87.96051,
		"address1": "",
		"address2": "",
		"address3": "",
		"city": "Buffalo Grove",
		"state": "IL",
		"zip_code": "60089"
	},
	{
		"venue_id": "yelpKCu8Dyv0z6wFc2-Sbm98Mg",
		"venue_name": "Psychic Studios",
		"latitude": 41.9447485,
		"longitude": -87.6547439,
		"address1": "3454 N Clark St",
		"address2": "",
		"address3": "",
		"city": "Chicago",
		"state": "IL",
		"zip_code": "60686"
	},
	{
		"venue_id": "yelppTMzBbAM2SUbleAGMpcpgQ",
		"venue_name": "Psychic Readings by Valerie",
		"latitude": 41.80024,
		"longitude": -87.58949,
		"address1": "5220 S Harper Ave",
		"address2": "",
		"address3": null,
		"city": "Chicago",
		"state": "IL",
		"zip_code": "60615"
	},
	{
		"venue_id": "yelp00cdpmqafiXgGHiF3joxog",
		"venue_name": "Psychic And Tarot Card Readings",
		"latitude": 41.8330167,
		"longitude": -87.8031941,
		"address1": "3240 Harlem Ave",
		"address2": "",
		"address3": "",
		"city": "Riverside",
		"state": "IL",
		"zip_code": "60546"
	},
	{
		"venue_id": "yelpPBUDOycfKWB45JhSuU3ayg",
		"venue_name": "Sixth Sense Guide",
		"latitude": 41.665456018871,
		"longitude": -87.9318008238694,
		"address1": "",
		"address2": "",
		"address3": "",
		"city": "Lemont",
		"state": "IL",
		"zip_code": ""
	},
	{
		"venue_id": "yelpIhHNm4wHbaAghe_9H_HjWA",
		"venue_name": "Psychic on Oak St",
		"latitude": 41.90102,
		"longitude": -87.62679,
		"address1": "40 E Oak",
		"address2": "Ste 1906",
		"address3": "",
		"city": "Chicago",
		"state": "IL",
		"zip_code": "60611"
	},
	{
		"venue_id": "yelpjXtO6ZUQ4JlBZZtkghRSMQ",
		"venue_name": "Psychic Readings & Chakra Balancing by Lucy Pryce",
		"latitude": 41.83287,
		"longitude": -87.80321,
		"address1": "3240 S Harlem Ave",
		"address2": "",
		"address3": null,
		"city": "Riverside",
		"state": "IL",
		"zip_code": "60546"
	},
	{
		"venue_id": "yelpbtPESySz85CUeJQq60ELgQ",
		"venue_name": "Spiritual Psychic Gallery",
		"latitude": 41.5649565,
		"longitude": -87.5092301,
		"address1": "8144 Calumet Ave",
		"address2": null,
		"address3": null,
		"city": "Munster",
		"state": "IN",
		"zip_code": "46321"
	},
	{
		"venue_id": "yelp65P9YapsnRpec-l-IO6g_A",
		"venue_name": "Vedic Indian Astrologer Kamlesh Patel",
		"latitude": 42.053091,
		"longitude": -87.752044,
		"address1": "9448 Lavergne Ave",
		"address2": null,
		"address3": "",
		"city": "Skokie",
		"state": "IL",
		"zip_code": "60077"
	},
	{
		"venue_id": "yelpvbIB0pePBg6Onn9ESn6ZGw",
		"venue_name": "Tinley Park Psychic",
		"latitude": 41.601425,
		"longitude": -87.811852,
		"address1": "7951 W 159th St",
		"address2": null,
		"address3": "",
		"city": "Tinley Park",
		"state": "IL",
		"zip_code": "60477"
	},
	{
		"venue_id": "yelpHcn9BweKAavFg2yt4rGcCw",
		"venue_name": "Healing Arts Metaphysical Center",
		"latitude": 41.8499294799702,
		"longitude": -88.3066365515552,
		"address1": "4 E Wilson St",
		"address2": null,
		"address3": null,
		"city": "Batavia",
		"state": "IL",
		"zip_code": "60510"
	},
	{
		"venue_id": "yelpruXV5Z-oIhRlzLICSqec8g",
		"venue_name": "Psychic Readings by Judy",
		"latitude": 41.9445849,
		"longitude": -87.6537419,
		"address1": "950 W Newport Ave",
		"address2": "Ste 206",
		"address3": "",
		"city": "Wrigleyville",
		"state": "IL",
		"zip_code": "60657"
	},
	{
		"venue_id": "yelp9op_0SP4IFH36ZlB56LuMA",
		"venue_name": "Orland Park Psychic",
		"latitude": 41.6293387781208,
		"longitude": -87.8540253644883,
		"address1": "14344 S Lagrange Rd",
		"address2": null,
		"address3": "",
		"city": "Orland Park",
		"state": "IL",
		"zip_code": "60462"
	},
	{
		"venue_id": "yelptrDjtxT_K6gFcL6oVgvzrA",
		"venue_name": "Dominique's Astrology Studio",
		"latitude": 41.908715,
		"longitude": -87.794579,
		"address1": "6739 W North Ave",
		"address2": "",
		"address3": "",
		"city": "Oak Park",
		"state": "IL",
		"zip_code": "60302"
	},
	{
		"venue_id": "yelpJx3S1LzpJGjpaR2nN7Rbww",
		"venue_name": "Anna's Psychic Visions",
		"latitude": 42.0017455900852,
		"longitude": -88.1769266441803,
		"address1": "375 E Lake St",
		"address2": "",
		"address3": "",
		"city": "Bartlett",
		"state": "IL",
		"zip_code": "60103"
	},
	{
		"venue_id": "yelpazYKQ5NQsJTfexzc8HO2Qw",
		"venue_name": "Psychic Krystie Lynn",
		"latitude": 41.7199634,
		"longitude": -87.7586408,
		"address1": "5516 W 95th St",
		"address2": null,
		"address3": "",
		"city": "Oak Lawn",
		"state": "IL",
		"zip_code": "60453"
	},
	{
		"venue_id": "yelpTbxp1OPDMFx7Qjm1weQsLA",
		"venue_name": "Dinah's Psychic &Tarot Card Boutique",
		"latitude": 41.73218,
		"longitude": -87.8761,
		"address1": "8695 S Archer Ave",
		"address2": "Second Fl unit H",
		"address3": "",
		"city": "Willow Springs",
		"state": "IL",
		"zip_code": "60480"
	},
	{
		"venue_id": "yelpcvYCie5zTqgGZuyTh3-LSA",
		"venue_name": "Psychic and Spiritual Readings",
		"latitude": 42.1269264221191,
		"longitude": -87.8449783325195,
		"address1": "",
		"address2": "",
		"address3": "",
		"city": "Northbrook",
		"state": "IL",
		"zip_code": "60062"
	},
	{
		"venue_id": "yelp6MXoJ2cRT9ArKagIoRM5Sg",
		"venue_name": "Psychic Life Coach",
		"latitude": 41.932018,
		"longitude": -88.03156,
		"address1": "3 N 711 N Rohwing Rd",
		"address2": null,
		"address3": "",
		"city": "Addison",
		"state": "IL",
		"zip_code": "60101"
	},
	{
		"venue_id": "yelpRKEGkR_59youpd16Sz_uiw",
		"venue_name": "Psychic Gallery",
		"latitude": 41.9805726,
		"longitude": -88.0650796,
		"address1": "24W445 Lake St",
		"address2": "Unit F",
		"address3": "",
		"city": "Roselle",
		"state": "IL",
		"zip_code": "60172"
	},
	{
		"venue_id": "yelpP4c-GUAlDRjAaHTzQ7DLmw",
		"venue_name": "Babee's Spiritual Supply",
		"latitude": 43.0542058,
		"longitude": -88.2169027,
		"address1": "",
		"address2": "",
		"address3": "",
		"city": "Pewaukee",
		"state": "WI",
		"zip_code": "53072"
	},
	{
		"venue_id": "yelpqxH35-ZocJpSjqNXQ_udeQ",
		"venue_name": "Psychic of Elk Grove Village by Natalie Page",
		"latitude": 41.9961820793324,
		"longitude": -88.0358280846557,
		"address1": "1426 Kathleen Way",
		"address2": null,
		"address3": null,
		"city": "Elk Grove Village",
		"state": "IL",
		"zip_code": "60007"
	},
	{
		"venue_id": "yelpEZS1B3q-kXMnhO7uUnmKRg",
		"venue_name": "Psychic City",
		"latitude": 42.0601611345959,
		"longitude": -88.2414791644324,
		"address1": "6037 Canterbury Ln",
		"address2": null,
		"address3": "",
		"city": "Hoffman states",
		"state": "IL",
		"zip_code": "60192"
	},
	{
		"venue_id": "yelpK_reff5u01uN8qRmpha7Kg",
		"venue_name": "Sacred Alignments",
		"latitude": 42.9712071,
		"longitude": -87.9040571,
		"address1": "",
		"address2": null,
		"address3": "",
		"city": "Milwaukee",
		"state": "WI",
		"zip_code": "53207"
	},
	{
		"venue_id": "yelp4p6hys17ofM1jYhvDD9mdw",
		"venue_name": "Quiet Mystic",
		"latitude": 43.059823,
		"longitude": -87.883338,
		"address1": "2266 N Prospect Ave",
		"address2": "Ste 412",
		"address3": "",
		"city": "Milwaukee",
		"state": "WI",
		"zip_code": "53202"
	}
]