[
	{
		"venue_id": "yelppVPyt3TugMd8FW5LGznkQQ",
		"venue_name": "Kuma's Corner - Belmont",
		"latitude": 41.939640045166,
		"longitude": -87.7004470825195,
		"address1": "2900 W Belmont Ave",
		"address2": null,
		"address3": "",
		"city": "Chicago",
		"state": "IL",
		"zip_code": "60618"
	},
	{
		"venue_id": "yelptQoQbc3vAo3qdTDiNgSekA",
		"venue_name": "Pleasant House Pub",
		"latitude": 41.85357,
		"longitude": -87.64621,
		"address1": "2119 S Halsted St",
		"address2": "",
		"address3": null,
		"city": "Chicago",
		"state": "IL",
		"zip_code": "60608"
	},
	{
		"venue_id": "yelpV3_UIvTZGIOMFM93LZF9TA",
		"venue_name": "Laschet's Inn",
		"latitude": 41.95381,
		"longitude": -87.68198,
		"address1": "2119 W Irving Park Rd",
		"address2": "",
		"address3": "",
		"city": "Chicago",
		"state": "IL",
		"zip_code": "60618"
	},
	{
		"venue_id": "yelp-W8rtYk_mBsgoQHYVxAh2g",
		"venue_name": "Cheesie's Pub and Grub",
		"latitude": 41.9400049,
		"longitude": -87.6538139,
		"address1": "958 W Belmont Ave",
		"address2": "",
		"address3": "",
		"city": "Chicago",
		"state": "IL",
		"zip_code": "60657"
	},
	{
		"venue_id": "yelp2tErhaqgdXstrilg3I0Jgw",
		"venue_name": "The Map Room",
		"latitude": 41.9176,
		"longitude": -87.67979,
		"address1": "1949 N Hoyne Ave",
		"address2": "",
		"address3": "",
		"city": "Chicago",
		"state": "IL",
		"zip_code": "60647"
	},
	{
		"venue_id": "yelph-CNRJ-bqSZvz75J4A9cFg",
		"venue_name": "Wilde Bar & Restaurant",
		"latitude": 41.938785532425,
		"longitude": -87.6445316181281,
		"address1": "3130 N Broadway St",
		"address2": "",
		"address3": "",
		"city": "Chicago",
		"state": "IL",
		"zip_code": "60657"
	},
	{
		"venue_id": "yelpEnsfSFa422IkWwFvR1hJMQ",
		"venue_name": "Duke Of Perth",
		"latitude": 41.93525,
		"longitude": -87.64648,
		"address1": "2913 N Clark St",
		"address2": "",
		"address3": "",
		"city": "Chicago",
		"state": "IL",
		"zip_code": "60657"
	},
	{
		"venue_id": "yelpz8G5AfXYbJD2jQpSEF633g",
		"venue_name": "Michael's Pizzeria & Tavern",
		"latitude": 41.9568480328734,
		"longitude": -87.6518151894969,
		"address1": "4091 N Broadway St",
		"address2": "",
		"address3": "",
		"city": "Chicago",
		"state": "IL",
		"zip_code": "60613"
	},
	{
		"venue_id": "yelpSZynkhN-6s6JJeH5KNVI3g",
		"venue_name": "Miller's Pub",
		"latitude": 41.8802765,
		"longitude": -87.6262965,
		"address1": "134 S Wabash Ave",
		"address2": "",
		"address3": "",
		"city": "Chicago",
		"state": "IL",
		"zip_code": "60603"
	},
	{
		"venue_id": "yelpAKOxQTqo_t8V0LwsXXw-xA",
		"venue_name": "Pub Royale",
		"latitude": 41.90286,
		"longitude": -87.67916,
		"address1": "2049 W Division",
		"address2": null,
		"address3": "",
		"city": "Chicago",
		"state": "IL",
		"zip_code": "60622"
	},
	{
		"venue_id": "yelpfLwNhXatcSoQEI8XeFbrtg",
		"venue_name": "Bangers & Lace",
		"latitude": 41.90357,
		"longitude": -87.67023,
		"address1": "1670 W Division St",
		"address2": "",
		"address3": "",
		"city": "Chicago",
		"state": "IL",
		"zip_code": "60622"
	},
	{
		"venue_id": "yelp6QT-YirAXDUyQL0ikTPywQ",
		"venue_name": "Rossi's Liquors",
		"latitude": 41.88974,
		"longitude": -87.62819,
		"address1": "412 N State St",
		"address2": "",
		"address3": "",
		"city": "Chicago",
		"state": "IL",
		"zip_code": "60654"
	},
	{
		"venue_id": "yelp4FCKIS7PWqw9-diFbtr-gg",
		"venue_name": "Mrs. Murphy & Sons Irish Bistro",
		"latitude": 41.9526899,
		"longitude": -87.67732,
		"address1": "3905 N Lincoln Ave",
		"address2": null,
		"address3": "",
		"city": "Chicago",
		"state": "IL",
		"zip_code": "60613"
	},
	{
		"venue_id": "yelpMPfcgPwCcm3-imbg_BUNcA",
		"venue_name": "Bar on Buena",
		"latitude": 41.9585637,
		"longitude": -87.653337,
		"address1": "910 W Buena Ave",
		"address2": null,
		"address3": "",
		"city": "Chicago",
		"state": "IL",
		"zip_code": "60613"
	},
	{
		"venue_id": "yelp8oKRLk54AhYwEaBe7onYog",
		"venue_name": "Green Door Tavern",
		"latitude": 41.8946215100706,
		"longitude": -87.6373652708838,
		"address1": "678 N Orleans St",
		"address2": "",
		"address3": "",
		"city": "Chicago",
		"state": "IL",
		"zip_code": "60654"
	},
	{
		"venue_id": "yelprUV1d6NhrT6wgYmAlJVk7g",
		"venue_name": "The Garage Bar & Sandwiches",
		"latitude": 41.99337,
		"longitude": -87.78454,
		"address1": "6154 N Milwaukee Ave",
		"address2": "",
		"address3": "",
		"city": "Chicago",
		"state": "IL",
		"zip_code": "60646"
	},
	{
		"venue_id": "yelpJVPraLjYtcNRzcfhHHNOhQ",
		"venue_name": "The Grafton",
		"latitude": 41.96393,
		"longitude": -87.68587,
		"address1": "4530 N Lincoln Ave",
		"address2": "",
		"address3": "",
		"city": "Chicago",
		"state": "IL",
		"zip_code": "60625"
	},
	{
		"venue_id": "yelplFuxZf4-nCThJd8fV_EwBw",
		"venue_name": "Paddy Long's",
		"latitude": 41.93287,
		"longitude": -87.65504,
		"address1": "1028 W Diversey Pkwy",
		"address2": "",
		"address3": "",
		"city": "Chicago",
		"state": "IL",
		"zip_code": "60614"
	},
	{
		"venue_id": "yelpq9AUsrYTakTMIHJkKA_EIQ",
		"venue_name": "Exchequer Restaurant & Pub",
		"latitude": 41.8787384660152,
		"longitude": -87.6263198788816,
		"address1": "226 S Wabash Ave",
		"address2": "",
		"address3": "",
		"city": "Chicago",
		"state": "IL",
		"zip_code": "60604"
	},
	{
		"venue_id": "yelpF3kfPxdaTIrv49-kItDvBA",
		"venue_name": "Fountainhead",
		"latitude": 41.9615629218619,
		"longitude": -87.678840151738,
		"address1": "1970 W Montrose Ave",
		"address2": "",
		"address3": "",
		"city": "Chicago",
		"state": "IL",
		"zip_code": "60613"
	},
	{
		"venue_id": "yelpUcsEEL6JaSXInc9kr0ACxw",
		"venue_name": "Rocking Horse",
		"latitude": 41.9275588989258,
		"longitude": -87.7044525146484,
		"address1": "2535 N Milwaukee Ave",
		"address2": "",
		"address3": "",
		"city": "Chicago",
		"state": "IL",
		"zip_code": "60647"
	},
	{
		"venue_id": "yelpzwEvkkliEdhDcRZtnHO2JA",
		"venue_name": "Centennial Crafted Beer & Eatery",
		"latitude": 41.8958299,
		"longitude": -87.63235,
		"address1": "733 N LaSalle Dr",
		"address2": null,
		"address3": "",
		"city": "Chicago",
		"state": "IL",
		"zip_code": "60654"
	},
	{
		"venue_id": "yelpdGUjOqWlsitxWGivmd58pw",
		"venue_name": "Old Town Ale House",
		"latitude": 41.910923,
		"longitude": -87.635551,
		"address1": "219 W North Ave",
		"address2": "",
		"address3": "",
		"city": "Chicago",
		"state": "IL",
		"zip_code": "60610"
	},
	{
		"venue_id": "yelpid3TDF8s7BMYQCLm4HMCng",
		"venue_name": "Club Lago",
		"latitude": 41.89533,
		"longitude": -87.63691,
		"address1": "331 W Superior St",
		"address2": "",
		"address3": "",
		"city": "Chicago",
		"state": "IL",
		"zip_code": "60654"
	},
	{
		"venue_id": "yelpUTm_Icm3EZHeTKMzEBjIEw",
		"venue_name": "George Street Pub",
		"latitude": 41.9339917750287,
		"longitude": -87.6490953700204,
		"address1": "2858 N Halsted St",
		"address2": "",
		"address3": "",
		"city": "Chicago",
		"state": "IL",
		"zip_code": "60657"
	},
	{
		"venue_id": "yelp0CN_2tV_loCinmpHBdeocA",
		"venue_name": "Moody's Pub",
		"latitude": 41.9893473,
		"longitude": -87.6603849,
		"address1": "5910 N Broadway St",
		"address2": "",
		"address3": "",
		"city": "Chicago",
		"state": "IL",
		"zip_code": "60660"
	},
	{
		"venue_id": "yelp5QSxzXNfLU-y0MQ-WqViYQ",
		"venue_name": "Monk's Pub",
		"latitude": 41.885467,
		"longitude": -87.634284,
		"address1": "205 W Lake St",
		"address2": "",
		"address3": "",
		"city": "Chicago",
		"state": "IL",
		"zip_code": "60606"
	},
	{
		"venue_id": "yelpCtTgpVKIE7dzdalZyFxgCQ",
		"venue_name": "Innertown Pub",
		"latitude": 41.90115,
		"longitude": -87.67613,
		"address1": "1935 W Thomas St",
		"address2": "",
		"address3": "",
		"city": "Chicago",
		"state": "IL",
		"zip_code": "60622"
	},
	{
		"venue_id": "yelpR50c3h3efIq7V8j2hZsE_A",
		"venue_name": "Fat Cat",
		"latitude": 41.9701070447662,
		"longitude": -87.6599332164817,
		"address1": "4840 N Broadway St",
		"address2": "",
		"address3": "",
		"city": "Chicago",
		"state": "IL",
		"zip_code": "60640"
	},
	{
		"venue_id": "yelp1Km-oO8bX43gNFeAbGiYTQ",
		"venue_name": "Kasey's Tavern",
		"latitude": 41.87325,
		"longitude": -87.62893,
		"address1": "701 S Dearborn St",
		"address2": "",
		"address3": "",
		"city": "Chicago",
		"state": "IL",
		"zip_code": "60605"
	},
	{
		"venue_id": "yelpT1962iGPSkR1zuvbxp2-Wg",
		"venue_name": "The Kerryman",
		"latitude": 41.8941723460691,
		"longitude": -87.631025205607,
		"address1": "661 N Clark St",
		"address2": null,
		"address3": "",
		"city": "Chicago",
		"state": "IL",
		"zip_code": "60654"
	},
	{
		"venue_id": "yelpKj3D8EB8_H7_gOFhM96AMQ",
		"venue_name": "Patsy's Place",
		"latitude": 41.933349609375,
		"longitude": -87.6594009399414,
		"address1": "2825 N Lincoln Ave",
		"address2": "",
		"address3": "",
		"city": "Chicago",
		"state": "IL",
		"zip_code": "60657"
	},
	{
		"venue_id": "yelpBmc0wjoqFH1kSBMPSrj0xw",
		"venue_name": "The Red Lion Pub",
		"latitude": 41.9262503,
		"longitude": -87.6502686,
		"address1": "2446 N Lincoln Ave",
		"address2": "",
		"address3": "",
		"city": "Chicago",
		"state": "IL",
		"zip_code": "60614"
	},
	{
		"venue_id": "yelpPcHu860tK_AZFkKsw8Gitg",
		"venue_name": "H\u00fcettenbar",
		"latitude": 41.9674126,
		"longitude": -87.6875566,
		"address1": "4721 N Lincoln Ave",
		"address2": "",
		"address3": "",
		"city": "Chicago",
		"state": "IL",
		"zip_code": "60625"
	},
	{
		"venue_id": "yelpA9AQrBOJYK77iTOZBCbAQQ",
		"venue_name": "Templestowe Pub",
		"latitude": 41.9609565734863,
		"longitude": -87.7072219848633,
		"address1": "3135 W Montrose",
		"address2": "",
		"address3": "",
		"city": "Chicago",
		"state": "IL",
		"zip_code": "60618"
	},
	{
		"venue_id": "yelp4Mt8gqKi4RVABy2EYREdSg",
		"venue_name": "O'Donovan's",
		"latitude": 41.95442,
		"longitude": -87.68135,
		"address1": "2100 W Irving Park Rd",
		"address2": "",
		"address3": "",
		"city": "Chicago",
		"state": "IL",
		"zip_code": "60618"
	},
	{
		"venue_id": "yelpXXtEsipH3iqhpycYoIanGw",
		"venue_name": "O'Shaughnessy's Public House",
		"latitude": 41.965038275057,
		"longitude": -87.673861454871,
		"address1": "4557 N Ravenswood Ave",
		"address2": "",
		"address3": "",
		"city": "Chicago",
		"state": "IL",
		"zip_code": "60640"
	},
	{
		"venue_id": "yelp3jfeh2a7tf4YHeyLQuGjyQ",
		"venue_name": "Charleston",
		"latitude": 41.9198670200347,
		"longitude": -87.6803989999877,
		"address1": "2076 N Hoyne Ave",
		"address2": "",
		"address3": null,
		"city": "Chicago",
		"state": "IL",
		"zip_code": "60647"
	},
	{
		"venue_id": "yelpXGqbxoFN6SyuZqEoqB0HJA",
		"venue_name": "Elephant & Castle",
		"latitude": 41.879309125108,
		"longitude": -87.631175724772,
		"address1": "111 West Adams St",
		"address2": "",
		"address3": "",
		"city": "Chicago",
		"state": "IL",
		"zip_code": "60603"
	},
	{
		"venue_id": "yelpfGiQ5IqkiC_XnSJMCuq3ew",
		"venue_name": "High Dive",
		"latitude": 41.8962,
		"longitude": -87.67617,
		"address1": "1938 W Chicago Ave",
		"address2": null,
		"address3": "",
		"city": "Chicago",
		"state": "IL",
		"zip_code": "60622"
	},
	{
		"venue_id": "yelpLih5VgEGoXbohqVlIP_bVg",
		"venue_name": "Elephant & Castle",
		"latitude": 41.8855099,
		"longitude": -87.62603,
		"address1": "185 N Wabash Ave",
		"address2": "",
		"address3": "",
		"city": "Chicago",
		"state": "IL",
		"zip_code": "60601"
	},
	{
		"venue_id": "yelpJ-jDDJYyPPsLg84jbJntfA",
		"venue_name": "Village Tap",
		"latitude": 41.94292,
		"longitude": -87.68061,
		"address1": "2055 W Roscoe St",
		"address2": "",
		"address3": "",
		"city": "Chicago",
		"state": "IL",
		"zip_code": "60618"
	},
	{
		"venue_id": "yelphM3aWPKr9-q8IIboOTC-Vw",
		"venue_name": "McNamara's",
		"latitude": 41.9536649,
		"longitude": -87.7366026,
		"address1": "4328 W Irving Park Rd",
		"address2": "",
		"address3": "",
		"city": "Chicago",
		"state": "IL",
		"zip_code": "60641"
	},
	{
		"venue_id": "yelpviFGd1WmuObof_x-qup7HQ",
		"venue_name": "Tuman's Tap and Grill",
		"latitude": 41.8957413,
		"longitude": -87.6817991,
		"address1": "2159 W Chicago Ave",
		"address2": "",
		"address3": "",
		"city": "Chicago",
		"state": "IL",
		"zip_code": "60622"
	},
	{
		"venue_id": "yelpTr2b8s55GDgx7cz2VbWC8w",
		"venue_name": "The Harding Tavern",
		"latitude": 41.9308003,
		"longitude": -87.7102403,
		"address1": "2732 N Milwaukee Ave",
		"address2": "",
		"address3": "",
		"city": "Chicago",
		"state": "IL",
		"zip_code": "60647"
	},
	{
		"venue_id": "yelpYYU8K9juzBTg1v4rj-3W-w",
		"venue_name": "The Chipp Inn",
		"latitude": 41.8970872610043,
		"longitude": -87.6651575567128,
		"address1": "832 N Greenview Ave",
		"address2": null,
		"address3": "",
		"city": "Chicago",
		"state": "IL",
		"zip_code": "60622"
	},
	{
		"venue_id": "yelpVvFxS5AjoEK9A0nBNYUl-Q",
		"venue_name": "Dark Horse Tap & Grille",
		"latitude": 41.9448623657227,
		"longitude": -87.6539077758789,
		"address1": "3443 N Sheffield Ave",
		"address2": "",
		"address3": "",
		"city": "Chicago",
		"state": "IL",
		"zip_code": "60657"
	},
	{
		"venue_id": "yelpADvyx_tqnESKuKEfowgzyg",
		"venue_name": "Weather Mark Tavern",
		"latitude": 41.861839,
		"longitude": -87.623558,
		"address1": "1503 S Michigan Ave",
		"address2": "",
		"address3": "",
		"city": "Chicago",
		"state": "IL",
		"zip_code": "60605"
	},
	{
		"venue_id": "yelp4x-JbY_XAybRGM6WQHF7HQ",
		"venue_name": "Lark",
		"latitude": 41.944925023994,
		"longitude": -87.6492559999702,
		"address1": "3441 N Halsted St",
		"address2": "",
		"address3": null,
		"city": "Chicago",
		"state": "IL",
		"zip_code": "60657"
	},
	{
		"venue_id": "yelpmyTqip1m4-JGu2HJ68l5mw",
		"venue_name": "Bucktown Pub",
		"latitude": 41.916297,
		"longitude": -87.67012,
		"address1": "1658 W Cortland St",
		"address2": "",
		"address3": "",
		"city": "Chicago",
		"state": "IL",
		"zip_code": "60622"
	},
	{
		"venue_id": "yelp3O77guG2H6mEWh-7Bh7riA",
		"venue_name": "Jake's Pub",
		"latitude": 41.9356890231799,
		"longitude": -87.647369532118,
		"address1": "2932 N Clark St",
		"address2": null,
		"address3": "",
		"city": "Chicago",
		"state": "IL",
		"zip_code": "60657"
	},
	{
		"venue_id": "yelpZ-IgZxP6b0OUak2zKVKbxg",
		"venue_name": "Dublin Bar & Grill",
		"latitude": 41.901926,
		"longitude": -87.628158,
		"address1": "1050 N State St",
		"address2": null,
		"address3": null,
		"city": "Chicago",
		"state": "IL",
		"zip_code": "60610"
	},
	{
		"venue_id": "yelpdju6KZJzLWPHkP_b-V8uyw",
		"venue_name": "The Red Lion Lincoln Square",
		"latitude": 41.9679049150299,
		"longitude": -87.6937158119112,
		"address1": "4749 N Rockwell St",
		"address2": "",
		"address3": "",
		"city": "Chicago",
		"state": "IL",
		"zip_code": "60625"
	},
	{
		"venue_id": "yelpdd93pzdlrrusLMl2_VtQXQ",
		"venue_name": "Gannon's Pub",
		"latitude": 41.9593905389,
		"longitude": -87.6829448906,
		"address1": "4264 N Lincoln Ave",
		"address2": "",
		"address3": "",
		"city": "Chicago",
		"state": "IL",
		"zip_code": "60618"
	},
	{
		"venue_id": "yelpLKMk7qm9quGgDezfqU-M_w",
		"venue_name": "Bridget McNeill's",
		"latitude": 41.94021,
		"longitude": -87.64054,
		"address1": "420 W Belmont Ave",
		"address2": "",
		"address3": "",
		"city": "Chicago",
		"state": "IL",
		"zip_code": "60657"
	},
	{
		"venue_id": "yelpVxZlwQDxGUGxwc_dLvXdmw",
		"venue_name": "Jerry's",
		"latitude": 41.980476,
		"longitude": -87.667969,
		"address1": "5419 N Clark St",
		"address2": "",
		"address3": "",
		"city": "Chicago",
		"state": "IL",
		"zip_code": "60640"
	},
	{
		"venue_id": "yelpUzFBm9hEru_WwXg6pERbVQ",
		"venue_name": "HopCat",
		"latitude": 41.9297742,
		"longitude": -87.6428134,
		"address1": "2577 N Clark St",
		"address2": "",
		"address3": null,
		"city": "Chicago",
		"state": "IL",
		"zip_code": "60614"
	},
	{
		"venue_id": "yelpwaTuGD9ANQXtTuibPQFQBg",
		"venue_name": "Floyd's Pub",
		"latitude": 41.917487,
		"longitude": -87.685266,
		"address1": "1944 N Oakley Ave",
		"address2": null,
		"address3": "",
		"city": "Chicago",
		"state": "IL",
		"zip_code": "60647"
	},
	{
		"venue_id": "yelpNGOd3wHTeYoUGo91Zve3hg",
		"venue_name": "The Arrogant Frog Bar",
		"latitude": 41.9249687194824,
		"longitude": -87.6630249023438,
		"address1": "1365 W Fullerton Ave",
		"address2": null,
		"address3": "",
		"city": "Chicago",
		"state": "IL",
		"zip_code": "60614"
	},
	{
		"venue_id": "yelpS2aOr-6wLjrEJWzVIcTFEw",
		"venue_name": "Lottie's Pub",
		"latitude": 41.9157,
		"longitude": -87.67618,
		"address1": "1925 W Cortland St",
		"address2": null,
		"address3": "",
		"city": "Chicago",
		"state": "IL",
		"zip_code": "60622"
	},
	{
		"venue_id": "yelpsMxP77mcTlMR3qpEMkcQcA",
		"venue_name": "Mother Hubbard's",
		"latitude": 41.88984,
		"longitude": -87.62835,
		"address1": "5 W Hubbard St",
		"address2": "",
		"address3": "",
		"city": "Chicago",
		"state": "IL",
		"zip_code": "60654"
	},
	{
		"venue_id": "yelpHaVHlgdAUN9V4Ghg6WrqdA",
		"venue_name": "O'Callaghan's",
		"latitude": 41.88982,
		"longitude": -87.6292,
		"address1": "29 W Hubbard St",
		"address2": "",
		"address3": "",
		"city": "Chicago",
		"state": "IL",
		"zip_code": "60654"
	},
	{
		"venue_id": "yelpAU3ywP9QtJdcuvpskJ_-Zg",
		"venue_name": "Iron Horse Ale House",
		"latitude": 41.99336,
		"longitude": -87.80131,
		"address1": "6158 N Northwest Hwy",
		"address2": null,
		"address3": "",
		"city": "Chicago",
		"state": "IL",
		"zip_code": "60631"
	},
	{
		"venue_id": "yelpG-5CSazmgLqUa06R781uLw",
		"venue_name": "Lincoln Station",
		"latitude": 41.9260844,
		"longitude": -87.6499007,
		"address1": "2432 N Lincoln Ave",
		"address2": "Ste 1",
		"address3": "",
		"city": "Chicago",
		"state": "IL",
		"zip_code": "60614"
	},
	{
		"venue_id": "yelpfRELE91ax8adxi9W83qLNg",
		"venue_name": "Goldie's Pub",
		"latitude": 41.95163,
		"longitude": -87.67661,
		"address1": "3839 N Lincoln Ave",
		"address2": "",
		"address3": "",
		"city": "Chicago",
		"state": "IL",
		"zip_code": "60613"
	},
	{
		"venue_id": "yelpGkW4K_g-wtNCHuF0w8LMYA",
		"venue_name": "Ca Phe Da Vietnamese Cafe",
		"latitude": 41.85787,
		"longitude": -87.6535,
		"address1": "1800 1/2 S Carpenter St",
		"address2": null,
		"address3": null,
		"city": "Chicago",
		"state": "IL",
		"zip_code": "60608"
	},
	{
		"venue_id": "yelpPNVshX58m5A6hNAjUIe3AQ",
		"venue_name": "PitchFork",
		"latitude": 41.9542694091797,
		"longitude": -87.7016983032227,
		"address1": "2922 W Irving Park Rd",
		"address2": "",
		"address3": "",
		"city": "Chicago",
		"state": "IL",
		"zip_code": "60618"
	},
	{
		"venue_id": "yelp0oRLHqRMfHC5l4eJDVpMyg",
		"venue_name": "The Lodge Tavern",
		"latitude": 41.903986,
		"longitude": -87.629573,
		"address1": "21 W Division St",
		"address2": "",
		"address3": "",
		"city": "Chicago",
		"state": "IL",
		"zip_code": "60610"
	},
	{
		"venue_id": "yelpKDYF8B9cVz7tkkNmBe1-RQ",
		"venue_name": "Drum And Monkey",
		"latitude": 41.8690795898438,
		"longitude": -87.6630172729492,
		"address1": "1435 W Taylor St",
		"address2": null,
		"address3": "",
		"city": "Chicago",
		"state": "IL",
		"zip_code": "60607"
	},
	{
		"venue_id": "yelpWwwLeItKFssp7a9_9OnAPQ",
		"venue_name": "The Pony Inn",
		"latitude": 41.93994,
		"longitude": -87.67019,
		"address1": "1638 W Belmont Ave",
		"address2": "",
		"address3": "",
		"city": "Chicago",
		"state": "IL",
		"zip_code": "60657"
	},
	{
		"venue_id": "yelp95oNMOsOFmyj3ThGuv4uNw",
		"venue_name": "Paddy Mac's",
		"latitude": 41.9571351,
		"longitude": -87.7276725,
		"address1": "4157 N Pulaski Rd",
		"address2": "",
		"address3": "",
		"city": "Chicago",
		"state": "IL",
		"zip_code": "60641"
	},
	{
		"venue_id": "yelpuNc4MGOG82eYctxiKn2GnQ",
		"venue_name": "Celtic Crown Public House",
		"latitude": 41.9596406,
		"longitude": -87.6883012,
		"address1": "4301 N Western Ave",
		"address2": "",
		"address3": "",
		"city": "Chicago",
		"state": "IL",
		"zip_code": "60618"
	},
	{
		"venue_id": "yelpDiI2kvTrI_wH3XB6WKFx5A",
		"venue_name": "The Windsor Tavern",
		"latitude": 41.9631,
		"longitude": -87.75703,
		"address1": "4530 N Milwaukee Ave",
		"address2": "",
		"address3": "",
		"city": "Chicago",
		"state": "IL",
		"zip_code": "60630"
	},
	{
		"venue_id": "yelpA4zcu63lllakDazTVJxE7A",
		"venue_name": "Davenport's",
		"latitude": 41.90714,
		"longitude": -87.67192,
		"address1": "1383 N Milwaukee Ave",
		"address2": "",
		"address3": "",
		"city": "Chicago",
		"state": "IL",
		"zip_code": "60622"
	},
	{
		"venue_id": "yelpWQnSMX4oUQ1_NvABR8TQ-g",
		"venue_name": "Dram Shop",
		"latitude": 41.9376339,
		"longitude": -87.644481,
		"address1": "3040 N Broadway",
		"address2": "",
		"address3": "",
		"city": "Chicago",
		"state": "IL",
		"zip_code": "60657"
	},
	{
		"venue_id": "yelpEsB33iF0_DQqQdGdAluo3g",
		"venue_name": "Lion Head Pub",
		"latitude": 41.92317,
		"longitude": -87.64516,
		"address1": "2251 N Lincoln Ave",
		"address2": "",
		"address3": "",
		"city": "Chicago",
		"state": "IL",
		"zip_code": "60614"
	},
	{
		"venue_id": "yelpgYOYkdyUSbFnXNgfyXl2FQ",
		"venue_name": "Harrigan's",
		"latitude": 41.933235168457,
		"longitude": -87.6493911743164,
		"address1": "2816 N Halsted St",
		"address2": "",
		"address3": "",
		"city": "Chicago",
		"state": "IL",
		"zip_code": "60657"
	},
	{
		"venue_id": "yelpOOKlwuoJq9AjdExdnXj2fg",
		"venue_name": "Pepper Canister",
		"latitude": 41.891153,
		"longitude": -87.63376,
		"address1": "509 N Wells St",
		"address2": "",
		"address3": "",
		"city": "Chicago",
		"state": "IL",
		"zip_code": "60654"
	},
	{
		"venue_id": "yelpqSq0DMpWgfVUIyPI8lag_Q",
		"venue_name": "Louie's Pub",
		"latitude": 41.910472053545,
		"longitude": -87.669959032822,
		"address1": "1659 W North Ave",
		"address2": "",
		"address3": "",
		"city": "Chicago",
		"state": "IL",
		"zip_code": "60622"
	},
	{
		"venue_id": "yelpcetB-8M5tg3asCn06ixDdw",
		"venue_name": "Glascott's",
		"latitude": 41.9211043417454,
		"longitude": -87.6486803591251,
		"address1": "2158 N Halsted St",
		"address2": "",
		"address3": "",
		"city": "Chicago",
		"state": "IL",
		"zip_code": "60614"
	},
	{
		"venue_id": "yelpLiZLJ4qRq1IeBav5DVXoYA",
		"venue_name": "D'Agostino's Pizza and Pub",
		"latitude": 41.8956733891647,
		"longitude": -87.6553115937669,
		"address1": "752 N Ogden Ave",
		"address2": "",
		"address3": "",
		"city": "Chicago",
		"state": "IL",
		"zip_code": "60642"
	},
	{
		"venue_id": "yelpeCS8KvLhKzF8iCB0H_lNZQ",
		"venue_name": "Gaslight Bar",
		"latitude": 41.9267913,
		"longitude": -87.6416677,
		"address1": "2450 N Clark",
		"address2": "",
		"address3": "",
		"city": "Chicago",
		"state": "IL",
		"zip_code": "60614"
	},
	{
		"venue_id": "yelpE9fWBJlEAZfHfDk8h_BQIQ",
		"venue_name": "Marge's Still",
		"latitude": 41.91458,
		"longitude": -87.63895,
		"address1": "1758 N Sedgwick St",
		"address2": "",
		"address3": "",
		"city": "Chicago",
		"state": "IL",
		"zip_code": "60614"
	},
	{
		"venue_id": "yelp_z-b1-3AmIOEunQ5-ORkJw",
		"venue_name": "Avondale Tap",
		"latitude": 41.9394599,
		"longitude": -87.71879,
		"address1": "3634 W Belmont Ave",
		"address2": "",
		"address3": null,
		"city": "Chicago",
		"state": "IL",
		"zip_code": "60618"
	},
	{
		"venue_id": "yelpDUhNqMWK7svsVf70fGUxHQ",
		"venue_name": "Ph.D Pub",
		"latitude": 41.86555,
		"longitude": -87.64659,
		"address1": "1257 S Halsted St",
		"address2": null,
		"address3": "",
		"city": "Chicago",
		"state": "IL",
		"zip_code": "60607"
	},
	{
		"venue_id": "yelpRMy6pWT0dLvBWm2RhDaHlw",
		"venue_name": "Kelly's Pub",
		"latitude": 41.92149,
		"longitude": -87.65295,
		"address1": "949 W Webster Ave",
		"address2": "",
		"address3": "",
		"city": "Chicago",
		"state": "IL",
		"zip_code": "60614"
	},
	{
		"venue_id": "yelpYTRN2cPIWacoMEWLNch6kQ",
		"venue_name": "Clover",
		"latitude": 41.8913501,
		"longitude": -87.6471826,
		"address1": "722 W Grand Ave",
		"address2": null,
		"address3": "",
		"city": "Chicago",
		"state": "IL",
		"zip_code": "60654"
	},
	{
		"venue_id": "yelpKgAf-wDVFEb1tT1HV-EqIA",
		"venue_name": "Whiskey Business & Fry Bar",
		"latitude": 41.9068374633789,
		"longitude": -87.6714477539062,
		"address1": "1367 N Milwaukee Ave",
		"address2": "",
		"address3": "",
		"city": "Chicago",
		"state": "IL",
		"zip_code": "60622"
	},
	{
		"venue_id": "yelpOa5BEWfJveyzjL_efFhFFw",
		"venue_name": "Galvin's Public House",
		"latitude": 41.96742,
		"longitude": -87.77501,
		"address1": "5901 W Lawrence Ave",
		"address2": "",
		"address3": "",
		"city": "Chicago",
		"state": "IL",
		"zip_code": "60630"
	},
	{
		"venue_id": "yelp8qZyXQDIavElB-UTnLnPUw",
		"venue_name": "Randolph Tavern",
		"latitude": 41.8846111655354,
		"longitude": -87.6337068903127,
		"address1": "188 W Randolph St",
		"address2": "",
		"address3": "",
		"city": "Chicago",
		"state": "IL",
		"zip_code": "60601"
	},
	{
		"venue_id": "yelpNMfvUzRbNu5bUt4E_psKfg",
		"venue_name": "Mac's American Pub",
		"latitude": 41.9031375,
		"longitude": -87.6725591,
		"address1": "1801 W Division St",
		"address2": "",
		"address3": "",
		"city": "Chicago",
		"state": "IL",
		"zip_code": "60622"
	},
	{
		"venue_id": "yelp1KorQQrPwu-KhC_Bv6iDqw",
		"venue_name": "Brehon Pub",
		"latitude": 41.8957633,
		"longitude": -87.6339584,
		"address1": "731 N Wells St",
		"address2": "",
		"address3": "",
		"city": "Chicago",
		"state": "IL",
		"zip_code": "60654"
	},
	{
		"venue_id": "yelpnIKYACMOwqlXkg3aaylrrQ",
		"venue_name": "Cunneen's",
		"latitude": 41.998289333254,
		"longitude": -87.666572232938,
		"address1": "1424 W Devon Ave",
		"address2": "",
		"address3": "",
		"city": "Chicago",
		"state": "IL",
		"zip_code": "60626"
	},
	{
		"venue_id": "yelpt724mtf1uhc2uiwueNkNnw",
		"venue_name": "A.J. Hudson's Public House",
		"latitude": 41.950901,
		"longitude": -87.668608,
		"address1": "3801 N Ashland Ave",
		"address2": "",
		"address3": "",
		"city": "Chicago",
		"state": "IL",
		"zip_code": "60613"
	},
	{
		"venue_id": "yelpdVU0iKDOoH4QVkcCE7hdww",
		"venue_name": "Tilted Kilt Pub & Eatery",
		"latitude": 41.88268,
		"longitude": -87.62573,
		"address1": "17 N Wabash",
		"address2": "2nd Fl",
		"address3": "",
		"city": "Chicago",
		"state": "IL",
		"zip_code": "60602"
	},
	{
		"venue_id": "yelpMefDJsSO9W5y6668t1nNug",
		"venue_name": "Old Town Pub",
		"latitude": 41.906909942627,
		"longitude": -87.6341323852539,
		"address1": "1339 N Wells St",
		"address2": null,
		"address3": "",
		"city": "Chicago",
		"state": "IL",
		"zip_code": "60610"
	},
	{
		"venue_id": "yelpS_-rMmEkWkHQzrM1Bljzqw",
		"venue_name": "Crawford's Food and Spirits",
		"latitude": 41.941256,
		"longitude": -87.726485,
		"address1": "3938 W School St",
		"address2": "",
		"address3": null,
		"city": "Chicago",
		"state": "IL",
		"zip_code": "60618"
	},
	{
		"venue_id": "yelp6proo8lOCTN93cW2GssoGw",
		"venue_name": "Dugan's",
		"latitude": 41.8796043395996,
		"longitude": -87.6476516723633,
		"address1": "128 S Halsted St",
		"address2": "",
		"address3": "",
		"city": "Chicago",
		"state": "IL",
		"zip_code": "60661"
	},
	{
		"venue_id": "yelpC-NO4mQXovCu7m1xcfjQaQ",
		"venue_name": "Grace and Leavitt Tavern",
		"latitude": 41.95019,
		"longitude": -87.68332,
		"address1": "2157 W Grace Ave",
		"address2": null,
		"address3": "",
		"city": "Chicago",
		"state": "IL",
		"zip_code": "60618"
	},
	{
		"venue_id": "yelpo7u56uocdcXLiK-d3yh3AA",
		"venue_name": "Fischman Public House",
		"latitude": 41.9543594,
		"longitude": -87.7492876,
		"address1": "4058 N Milwaukee Ave",
		"address2": null,
		"address3": "",
		"city": "Chicago",
		"state": "IL",
		"zip_code": "60641"
	},
	{
		"venue_id": "yelpPPZg2l7W8oZDLETk5oGuhw",
		"venue_name": "Larry's",
		"latitude": 41.96939,
		"longitude": -87.65582,
		"address1": "1020 W Lawrence Ave",
		"address2": "",
		"address3": "",
		"city": "Chicago",
		"state": "IL",
		"zip_code": "60640"
	},
	{
		"venue_id": "yelpuwL-HDUzjA-SegW45d5Xcw",
		"venue_name": "Four Treys Tavern",
		"latitude": 41.9424781826283,
		"longitude": -87.678237194754,
		"address1": "3333 N Damen St",
		"address2": "",
		"address3": "",
		"city": "Chicago",
		"state": "IL",
		"zip_code": "60618"
	},
	{
		"venue_id": "yelpWDp33ynmDxn4hTekP3LZGA",
		"venue_name": "Spyners Pub",
		"latitude": 41.9656181335449,
		"longitude": -87.6884307861328,
		"address1": "4623 N Western Ave",
		"address2": "",
		"address3": "",
		"city": "Chicago",
		"state": "IL",
		"zip_code": "60625"
	},
	{
		"venue_id": "yelpx7fs4pwnwLNsj4ZKfgR8xQ",
		"venue_name": "Vaughan's Pub & Grill",
		"latitude": 41.9806,
		"longitude": -87.77751,
		"address1": "5485 N Northwest Hwy",
		"address2": "",
		"address3": "",
		"city": "Chicago",
		"state": "IL",
		"zip_code": "60630"
	},
	{
		"venue_id": "yelpJXjS0SxtCGcF4_NAqYB-BQ",
		"venue_name": "Roscoe Village Pub",
		"latitude": 41.9465996,
		"longitude": -87.6832292,
		"address1": "2159 W Addison St",
		"address2": "",
		"address3": "",
		"city": "Chicago",
		"state": "IL",
		"zip_code": "60618"
	},
	{
		"venue_id": "yelpNU2o-RXmrLWJXOQAQ-VCBA",
		"venue_name": "Rex Tavern",
		"latitude": 41.97059,
		"longitude": -87.76286,
		"address1": "4933 N Milwaukee Ave",
		"address2": "",
		"address3": "",
		"city": "Chicago",
		"state": "IL",
		"zip_code": "60630"
	},
	{
		"venue_id": "yelpkPmHNNOy-dsUxWLsdEE59w",
		"venue_name": "Big Hill Bar & Grill",
		"latitude": 41.98278,
		"longitude": -87.71165,
		"address1": "3307 W Bryn Mawr Ave",
		"address2": "",
		"address3": null,
		"city": "Chicago",
		"state": "IL",
		"zip_code": "60659"
	},
	{
		"venue_id": "yelpSgiVGrIn68ohI8VSuX4jwQ",
		"venue_name": "Farraguts",
		"latitude": 41.9773666,
		"longitude": -87.6685551,
		"address1": "5240 N Clark St",
		"address2": "",
		"address3": "",
		"city": "Chicago",
		"state": "IL",
		"zip_code": "60640"
	},
	{
		"venue_id": "yelpOKOVLXdOznqn2e9lt0ODqQ",
		"venue_name": "O'Leary's Public House",
		"latitude": 41.89202,
		"longitude": -87.63377,
		"address1": "541 N Wells St",
		"address2": "",
		"address3": "",
		"city": "Chicago",
		"state": "IL",
		"zip_code": "60610"
	},
	{
		"venue_id": "yelpfa2gue4t2Eniyzcip5DkSQ",
		"venue_name": "Mahoney's Pub & Grille",
		"latitude": 41.8920434,
		"longitude": -87.6580985,
		"address1": "551 N Ogden Ave",
		"address2": "",
		"address3": "",
		"city": "Chicago",
		"state": "IL",
		"zip_code": "60642"
	},
	{
		"venue_id": "yelpOo2Holtl9i4Z1mUH3xkuQg",
		"venue_name": "The Cabin At Old Irving",
		"latitude": 41.9556967,
		"longitude": -87.7278363,
		"address1": "4104 N Pulaski Rd",
		"address2": "",
		"address3": "",
		"city": "Chicago",
		"state": "IL",
		"zip_code": "60641"
	},
	{
		"venue_id": "yelpIyzWoAy_2x43_-5fZ2V65w",
		"venue_name": "Shakers On Clark",
		"latitude": 41.9393005,
		"longitude": -87.6508179,
		"address1": "3160 N Clark St",
		"address2": "",
		"address3": "",
		"city": "Chicago",
		"state": "IL",
		"zip_code": "60657"
	},
	{
		"venue_id": "yelpQTc7nss1i6SaIyBjpqLuTg",
		"venue_name": "Black Lion Lounge",
		"latitude": 41.9254493857363,
		"longitude": -87.7017624370737,
		"address1": "2434 N Milwaukee",
		"address2": "Fl 2",
		"address3": "",
		"city": "Chicago",
		"state": "IL",
		"zip_code": "60647"
	},
	{
		"venue_id": "yelpfsTtvLoyatUk4TORr5wlsg",
		"venue_name": "Eight Bar and Patio",
		"latitude": 41.90216,
		"longitude": -87.62871,
		"address1": "8 W Maple St",
		"address2": null,
		"address3": "",
		"city": "Chicago",
		"state": "IL",
		"zip_code": "60610"
	},
	{
		"venue_id": "yelpbkdHdke4K6kjg66HhK5RKQ",
		"venue_name": "Distilled Chicago",
		"latitude": 41.92181,
		"longitude": -87.66624,
		"address1": "1480 W Webster Ave",
		"address2": "",
		"address3": "",
		"city": "Chicago",
		"state": "IL",
		"zip_code": "60614"
	},
	{
		"venue_id": "yelp5IlYYcZ5Klt8uAFEW5xNsA",
		"venue_name": "MCM Pub and Eatery",
		"latitude": 41.9517888,
		"longitude": -87.7475649,
		"address1": "3906 N Cicero Ave",
		"address2": "",
		"address3": "",
		"city": "Chicago",
		"state": "IL",
		"zip_code": "60641"
	},
	{
		"venue_id": "yelpEsBZdYKI2zfe6c6RWvWWjA",
		"venue_name": "Cardozo's Pub",
		"latitude": 41.8834571838379,
		"longitude": -87.6332015991211,
		"address1": "170 W Washington St",
		"address2": "",
		"address3": "",
		"city": "Chicago",
		"state": "IL",
		"zip_code": "60602"
	},
	{
		"venue_id": "yelpo_N4l0-qSxnuEwL0IrXlxw",
		"venue_name": "The Bureau Bar",
		"latitude": 41.8599655842271,
		"longitude": -87.625438682735,
		"address1": "75 E 16th St",
		"address2": "",
		"address3": "",
		"city": "Chicago",
		"state": "IL",
		"zip_code": "60616"
	},
	{
		"venue_id": "yelptAs9TW6QqD63yprVnw8PcQ",
		"venue_name": "HVAC Pub",
		"latitude": 41.9463427743684,
		"longitude": -87.6559810697766,
		"address1": "3530 N Clark St",
		"address2": "",
		"address3": "",
		"city": "Chicago",
		"state": "IL",
		"zip_code": "60657"
	},
	{
		"venue_id": "yelp0Jw6VRaz_Cib1l6_WB55SQ",
		"venue_name": "FatDuck Tavern & Grill",
		"latitude": 41.8793287,
		"longitude": -87.8056663,
		"address1": "7218 Madison St",
		"address2": "",
		"address3": "",
		"city": "Forest Park",
		"state": "IL",
		"zip_code": "60130"
	},
	{
		"venue_id": "yelp-XZBa3OugiXRAQGrrl-kCg",
		"venue_name": "The BallPark Pub",
		"latitude": 41.82381,
		"longitude": -87.63932,
		"address1": "514 W Pershing Rd",
		"address2": null,
		"address3": "",
		"city": "Chicago",
		"state": "IL",
		"zip_code": "60609"
	},
	{
		"venue_id": "yelpKbrgiiS_ug1bPvAOJgCWbA",
		"venue_name": "Mom's Place",
		"latitude": 41.8938357,
		"longitude": -87.6298449,
		"address1": "650 N Dearborn St",
		"address2": "",
		"address3": null,
		"city": "Chicago",
		"state": "IL",
		"zip_code": "60654"
	},
	{
		"venue_id": "yelp_8QOyOl3hfqfVHAE1g2I5w",
		"venue_name": "Beck's Chicago",
		"latitude": 41.92184,
		"longitude": -87.66422,
		"address1": "2201 N Clybourn Ave",
		"address2": null,
		"address3": "",
		"city": "Chicago",
		"state": "IL",
		"zip_code": "60614"
	},
	{
		"venue_id": "yelpv5VI_gD2lggFinrMtq3p6w",
		"venue_name": "Six Penny Bit",
		"latitude": 41.96069,
		"longitude": -87.77234,
		"address1": "5800 W Montrose Ave",
		"address2": null,
		"address3": "",
		"city": "Chicago",
		"state": "IL",
		"zip_code": "60634"
	},
	{
		"venue_id": "yelpgM7ivjYgJJm4gAkwZ5lPmA",
		"venue_name": "Taylor Street Tap",
		"latitude": 41.8694832,
		"longitude": -87.6612656,
		"address1": "1358 W Taylor",
		"address2": null,
		"address3": "",
		"city": "Chicago",
		"state": "IL",
		"zip_code": "60607"
	},
	{
		"venue_id": "yelp6BmyxmuD8_jkwVIaOd1iCA",
		"venue_name": "Drink and Ink",
		"latitude": 41.9629208,
		"longitude": -87.6557101,
		"address1": "4443 N Broadway",
		"address2": null,
		"address3": "",
		"city": "Chicago",
		"state": "IL",
		"zip_code": "60640"
	},
	{
		"venue_id": "yelpDDEoScKg2pKVlhIyl5B_uQ",
		"venue_name": "Billy Goat Tavern Merchandise Mart",
		"latitude": 41.88837,
		"longitude": -87.63536,
		"address1": "222 W Merchandise Mart Plz",
		"address2": "Ste Fc-2",
		"address3": "",
		"city": "Chicago",
		"state": "IL",
		"zip_code": "60654"
	},
	{
		"venue_id": "yelpLwcijx17Vzy7x7rmMYoU2g",
		"venue_name": "Teasers Pub",
		"latitude": 41.9805564880371,
		"longitude": -87.8056182861328,
		"address1": "7123 W Higgins Ave",
		"address2": "",
		"address3": "",
		"city": "Chicago",
		"state": "IL",
		"zip_code": "60656"
	},
	{
		"venue_id": "yelpb1N7BZullwHWXWKcFsVuPg",
		"venue_name": "The Land on Lincoln",
		"latitude": 41.93671,
		"longitude": -87.66504,
		"address1": "3032 N Lincoln Ave",
		"address2": "",
		"address3": null,
		"city": "Chicago",
		"state": "IL",
		"zip_code": "60657"
	},
	{
		"venue_id": "yelpbhGj5htuiQDTt1hqdkNNnQ",
		"venue_name": "The James Joyce Irish Pub",
		"latitude": 41.8310243226926,
		"longitude": -87.8023910522461,
		"address1": "7138 Windsor Ave",
		"address2": "",
		"address3": "",
		"city": "Berwyn",
		"state": "IL",
		"zip_code": "60402"
	},
	{
		"venue_id": "yelpS4C4jZ_XRDYcBsrcU0BMuw",
		"venue_name": "Three Counties Irish Pub",
		"latitude": 41.987983,
		"longitude": -87.779459,
		"address1": "5856 N Milwaukee Ave",
		"address2": "",
		"address3": "",
		"city": "Chicago",
		"state": "IL",
		"zip_code": "60646"
	},
	{
		"venue_id": "yelpwpL1-xg7OKjjtkgMwk53IA",
		"venue_name": "Tapster Lincoln Park",
		"latitude": 41.92871,
		"longitude": -87.65593,
		"address1": "1059 W Wrightwood Ave",
		"address2": "",
		"address3": null,
		"city": "Chicago",
		"state": "IL",
		"zip_code": "60614"
	},
	{
		"venue_id": "yelpXjpxXcW9wtIZVdrTL7zWCw",
		"venue_name": "Bobbie's Runaway",
		"latitude": 41.9780354,
		"longitude": -87.6792612,
		"address1": "5305 N Damen Ave",
		"address2": "",
		"address3": "",
		"city": "Chicago",
		"state": "IL",
		"zip_code": "60625"
	},
	{
		"venue_id": "yelp_IUC-dmUlFXwNPjMvrDXPg",
		"venue_name": "The Booze Hound",
		"latitude": 41.9486122131348,
		"longitude": -87.739875793457,
		"address1": "3734 N Milwaukee Ave",
		"address2": "",
		"address3": null,
		"city": "Chicago",
		"state": "IL",
		"zip_code": "60641"
	},
	{
		"venue_id": "yelpHSJpazD3IH2addX0iZljog",
		"venue_name": "The Kedzie Inn",
		"latitude": 41.9558443353591,
		"longitude": -87.7082164159386,
		"address1": "4100 N Kedzie Ave",
		"address2": null,
		"address3": "",
		"city": "Chicago",
		"state": "IL",
		"zip_code": "60618"
	},
	{
		"venue_id": "yelpExjIwUIlPKoHsp0E1UPkOA",
		"venue_name": "Healy's Westside",
		"latitude": 41.87986,
		"longitude": -87.80824,
		"address1": "7321 Madison St",
		"address2": "",
		"address3": "",
		"city": "Forest Park",
		"state": "IL",
		"zip_code": "60130"
	},
	{
		"venue_id": "yelppWky9CMQ9kmn_yvx-aV69g",
		"venue_name": "Granero",
		"latitude": 41.92744,
		"longitude": -87.70424,
		"address1": "2529 N Milwaukee",
		"address2": "",
		"address3": null,
		"city": "Chicago",
		"state": "IL",
		"zip_code": "60647"
	},
	{
		"venue_id": "yelpFdEvAknfJjvzb8IylrbIaQ",
		"venue_name": "Filonek's",
		"latitude": 41.9942741394043,
		"longitude": -87.7844924926758,
		"address1": "6213 N Milwaukee Ave",
		"address2": "",
		"address3": "",
		"city": "Chicago",
		"state": "IL",
		"zip_code": "60646"
	},
	{
		"venue_id": "yelpmNi1nY-BbEXDZLbJDgu2OA",
		"venue_name": "Angelo O'Leary's",
		"latitude": 41.8793453,
		"longitude": -87.8130692,
		"address1": "7522 W Madison St",
		"address2": "",
		"address3": "",
		"city": "Forest Park",
		"state": "IL",
		"zip_code": "60130"
	},
	{
		"venue_id": "yelptN_8LPpQ_Wv_w9CtrQ_RAg",
		"venue_name": "Gino's Brew Pub",
		"latitude": 41.89099,
		"longitude": -87.63298,
		"address1": "500 N LaSalle St",
		"address2": null,
		"address3": "",
		"city": "Chicago",
		"state": "IL",
		"zip_code": "60654"
	},
	{
		"venue_id": "yelpl3r1PL_LHcqpjLGmKi6pLQ",
		"venue_name": "Jack's Place",
		"latitude": 41.8578491210938,
		"longitude": -87.6427383422852,
		"address1": "618 W 18th St",
		"address2": "",
		"address3": "",
		"city": "Chicago",
		"state": "IL",
		"zip_code": "60616"
	},
	{
		"venue_id": "yelpPu9dOPn7sCV0S2yq57OjTA",
		"venue_name": "Zachary's",
		"latitude": 41.97827,
		"longitude": -87.77058,
		"address1": "5368 N Milwaukee Ave",
		"address2": "",
		"address3": "",
		"city": "Chicago",
		"state": "IL",
		"zip_code": "60630"
	},
	{
		"venue_id": "yelpU1JoD9GWi14tmXcV7EvXyQ",
		"venue_name": "Rocks River North",
		"latitude": 41.89633,
		"longitude": -87.63092,
		"address1": "751 N Clark St",
		"address2": null,
		"address3": "",
		"city": "Chicago",
		"state": "IL",
		"zip_code": "60654"
	},
	{
		"venue_id": "yelp_VZn2o7EFzHktHaDbzXpjA",
		"venue_name": "The Red Star Bar",
		"latitude": 41.8826787834858,
		"longitude": -87.6470384629022,
		"address1": "31-99 N Halsted St Inside Whole Foods",
		"address2": "",
		"address3": "",
		"city": "Chicago",
		"state": "IL",
		"zip_code": ""
	},
	{
		"venue_id": "yelpHmE8MtU34xrmaXCkaoQBPQ",
		"venue_name": "Lu's Old Fashioned Deli & Pub",
		"latitude": 41.8976598,
		"longitude": -87.6271194,
		"address1": "26 E Pearson",
		"address2": "",
		"address3": "",
		"city": "Chicago",
		"state": "IL",
		"zip_code": "60611"
	},
	{
		"venue_id": "yelpMyKWRC1XqmFDByJiWEpIwQ",
		"venue_name": "Budweiser Select Brew Pub & Carvery, Levy Restaurants",
		"latitude": 41.8811951,
		"longitude": -87.6744087,
		"address1": "1901 W Madison St",
		"address2": "",
		"address3": "United Center",
		"city": "Chicago",
		"state": "IL",
		"zip_code": "60612"
	},
	{
		"venue_id": "yelpYbiBf1mFNMyD1xdbDEDnBQ",
		"venue_name": "Kelly's Tavern",
		"latitude": 41.8142509460449,
		"longitude": -87.6404571533203,
		"address1": "4403 S Wallace St",
		"address2": "",
		"address3": "",
		"city": "Chicago",
		"state": "IL",
		"zip_code": "60609"
	},
	{
		"venue_id": "yelp3bfSczFKYh3_GEH2axAdbA",
		"venue_name": "Fred & Adolph's Pub",
		"latitude": 41.878387,
		"longitude": -87.637252,
		"address1": "250 S Wacker Dr 16th Fl",
		"address2": "",
		"address3": "",
		"city": "Chicago",
		"state": "IL",
		"zip_code": "60606"
	},
	{
		"venue_id": "yelpffIoOJNyvb7VSSphCuki2g",
		"venue_name": "Jacqueline Lounge",
		"latitude": 41.930549621582,
		"longitude": -87.8012084960938,
		"address1": "7001 W Diversey",
		"address2": "",
		"address3": "",
		"city": "Chicago",
		"state": "IL",
		"zip_code": "60707"
	},
	{
		"venue_id": "yelpt9pLdtIs8DxHrNzz3XyrFA",
		"venue_name": "Godson's",
		"latitude": 41.83231,
		"longitude": -87.795769,
		"address1": "6910 Winsor Ave",
		"address2": "",
		"address3": "",
		"city": "Berwyn",
		"state": "IL",
		"zip_code": "60402"
	},
	{
		"venue_id": "yelpzeX12JsC6bX1xU4EwBrsJA",
		"venue_name": "Dante's Tavern",
		"latitude": 41.8990578810014,
		"longitude": -87.6966342329979,
		"address1": "2759 W Augusta Blvd",
		"address2": "",
		"address3": null,
		"city": "Chicago",
		"state": "IL",
		"zip_code": "60622"
	},
	{
		"venue_id": "yelpDRoGzznGPj4Rg4rLhgfHLg",
		"venue_name": "Birreria",
		"latitude": 41.8921,
		"longitude": -87.62605,
		"address1": "43 E Ohio St",
		"address2": "",
		"address3": null,
		"city": "Chicago",
		"state": "IL",
		"zip_code": "60611"
	},
	{
		"venue_id": "yelp_O-GA123oG92Liq6rLseNg",
		"venue_name": "Carole's",
		"latitude": 41.8652299,
		"longitude": -87.80701,
		"address1": "7307 W Roosevelt Rd",
		"address2": "",
		"address3": "",
		"city": "Forest Park",
		"state": "IL",
		"zip_code": "60130"
	},
	{
		"venue_id": "yelpWlE45yFeDE5gHWYVchzjXQ",
		"venue_name": "Slainte Irish Pub",
		"latitude": 41.8797799,
		"longitude": -87.81238,
		"address1": "7505 Madison St",
		"address2": "",
		"address3": "",
		"city": "Forest Park",
		"state": "IL",
		"zip_code": "60130"
	},
	{
		"venue_id": "yelpc37BUD-StYBxpY6AhA_cnQ",
		"venue_name": "Red Nose Tavern and Stoop Social Club",
		"latitude": 41.9232802838087,
		"longitude": -87.6979599148035,
		"address1": "Milwaukee Ave And Belden Ave",
		"address2": "",
		"address3": "",
		"city": "Chicago",
		"state": "IL",
		"zip_code": "60647"
	},
	{
		"venue_id": "yelpY4Q8NueuXJvha6HDIoCRXQ",
		"venue_name": "Toby Carvery Rhoose",
		"latitude": 51.4170303344727,
		"longitude": -3.28729009628296,
		"address1": "Port Rd W",
		"address2": "",
		"address3": null,
		"city": "Barry",
		"state": "VGL",
		"zip_code": "CF62 8PP"
	},
	{
		"venue_id": "yelpwL_zYf-1OXfeL8SNuufmTQ",
		"venue_name": "Lodge Management Group",
		"latitude": 41.9040849,
		"longitude": -87.62903,
		"address1": "8 W Division St",
		"address2": "Ste 200",
		"address3": "",
		"city": "Chicago",
		"state": "IL",
		"zip_code": "60610"
	},
	{
		"venue_id": "yelpuCTGLrl1puyWcybZq8Q5Fw",
		"venue_name": "The 5800 Corp",
		"latitude": 41.8437281023168,
		"longitude": -87.7687935226602,
		"address1": "5800 West 26th St",
		"address2": "",
		"address3": null,
		"city": "Cicero",
		"state": "IL",
		"zip_code": "60804"
	},
	{
		"venue_id": "yelpDH4M052RtYhPGbQ1iTvgwQ",
		"venue_name": "The Dugout Bar",
		"latitude": 41.9306764751673,
		"longitude": -87.8133854269981,
		"address1": "7463 W Diversey Ave",
		"address2": null,
		"address3": null,
		"city": "Elmwood Park",
		"state": "IL",
		"zip_code": "60707"
	},
	{
		"venue_id": "yelp7hrzts-qmvBzhaM0C9Lezg",
		"venue_name": "Mr. Dees 12th Street Rag",
		"latitude": 41.86477,
		"longitude": -87.80008,
		"address1": "7023 W Roosevelt Rd",
		"address2": "",
		"address3": "",
		"city": "Berwyn",
		"state": "IL",
		"zip_code": "60402"
	},
	{
		"venue_id": "yelpeXYWWi0-5NY6IwnLHHk9UA",
		"venue_name": "39th Street Pub",
		"latitude": 41.8211135864258,
		"longitude": -87.7882232666016,
		"address1": "6611 Pershing Rd",
		"address2": "",
		"address3": "",
		"city": "Stickney",
		"state": "IL",
		"zip_code": "60402"
	}
]