[
	{
		"venue_id": "yelplgjRFg3M-1N416W41DHsTQ",
		"venue_name": "Ramen Wasabi",
		"latitude": 41.9195063,
		"longitude": -87.6915015,
		"address1": "2101 N Milwaukee Ave",
		"address2": "",
		"address3": "",
		"city": "Chicago",
		"state": "IL",
		"zip_code": "60647"
	},
	{
		"venue_id": "yelpU9D0vqEP4QrJfJYs8mr3DA",
		"venue_name": "Oiistar",
		"latitude": 41.9070880100627,
		"longitude": -87.6720839738846,
		"address1": "1385 N Milwaukee Ave",
		"address2": "",
		"address3": "",
		"city": "Chicago",
		"state": "IL",
		"zip_code": "60622"
	},
	{
		"venue_id": "yelpzIXZtgiir9CVF-iZeeAvaQ",
		"venue_name": "Ramen-san",
		"latitude": 41.889798,
		"longitude": -87.630293,
		"address1": "59 W Hubbard St",
		"address2": "",
		"address3": "",
		"city": "Chicago",
		"state": "IL",
		"zip_code": "60654"
	},
	{
		"venue_id": "yelpuKKnvy50eMJVicTRc_lm4g",
		"venue_name": "Furious Spoon - Wicker Park",
		"latitude": 41.9100336,
		"longitude": -87.6766114,
		"address1": "1571 N Milwaukee Ave",
		"address2": "",
		"address3": "",
		"city": "Chicago",
		"state": "IL",
		"zip_code": "60622"
	},
	{
		"venue_id": "yelpFMoNA-t4uxss2JA37ZNEJg",
		"venue_name": "High Five Ramen",
		"latitude": 41.883651,
		"longitude": -87.648968,
		"address1": "112 N Green St",
		"address2": "",
		"address3": "",
		"city": "Chicago",
		"state": "IL",
		"zip_code": "60607"
	},
	{
		"venue_id": "yelpo5y9To9kqcgzUGRt3AzrBg",
		"venue_name": "Ramen Takeya",
		"latitude": 41.8865399,
		"longitude": -87.64833,
		"address1": "819 W Fulton Market",
		"address2": "",
		"address3": "",
		"city": "Chicago",
		"state": "IL",
		"zip_code": "60607"
	},
	{
		"venue_id": "yelpF95agIcsD5g1bykGVTVWZQ",
		"venue_name": "Kizuki Ramen & Izakaya",
		"latitude": 41.9086527897632,
		"longitude": -87.6750511915684,
		"address1": "1482 N Milwaukee Ave",
		"address2": null,
		"address3": "",
		"city": "Chicago",
		"state": "IL",
		"zip_code": "60622"
	},
	{
		"venue_id": "yelp2R7ipjEkeQo821P9AnpJGA",
		"venue_name": "Enso Sushi & Bar",
		"latitude": 41.9107586,
		"longitude": -87.6773651,
		"address1": "1613 N Damen Ave",
		"address2": "",
		"address3": "",
		"city": "Chicago",
		"state": "IL",
		"zip_code": "60647"
	},
	{
		"venue_id": "yelpO0FvTDK9c93qJ6Lfc53dLQ",
		"venue_name": "Strings Ramen Shop",
		"latitude": 41.853414,
		"longitude": -87.633175,
		"address1": "2141 S Archer Ave",
		"address2": "",
		"address3": "",
		"city": "Chicago",
		"state": "IL",
		"zip_code": "60616"
	},
	{
		"venue_id": "yelp48BPQ2YVWr8PkNJSekh5pA",
		"venue_name": "Sushi + Rotary Sushi Bar",
		"latitude": 41.9403536,
		"longitude": -87.6442751,
		"address1": "3219 North Broadway",
		"address2": "",
		"address3": null,
		"city": "Chicago",
		"state": "IL",
		"zip_code": "60657"
	},
	{
		"venue_id": "yelpxTu2kHPjSHKvyQNos6E1qw",
		"venue_name": "Blowfish Contemporary Sushi",
		"latitude": 41.9836004823446,
		"longitude": -87.6593112945557,
		"address1": "1131 W Bryn Mawr Ave",
		"address2": null,
		"address3": "",
		"city": "Chicago",
		"state": "IL",
		"zip_code": "60660"
	},
	{
		"venue_id": "yelpwW5kd9bxJ4VJHtUYBbo7cQ",
		"venue_name": "Urbanbelly",
		"latitude": 41.88448,
		"longitude": -87.6626,
		"address1": "1400 W. Randolph St.",
		"address2": "",
		"address3": "",
		"city": "Chicago",
		"state": "IL",
		"zip_code": "60607"
	},
	{
		"venue_id": "yelpc3DGLqz31UbLapOYoRJJiw",
		"venue_name": "Asian Outpost",
		"latitude": 41.865437,
		"longitude": -87.6255416320581,
		"address1": "1315 S Wabash Ave",
		"address2": "",
		"address3": "",
		"city": "Chicago",
		"state": "IL",
		"zip_code": "60605"
	},
	{
		"venue_id": "yelpLAhLCarbN4hX0X8BBgzmsg",
		"venue_name": "Furious Spoon - Logan Square",
		"latitude": 41.9249801635742,
		"longitude": -87.7010879516602,
		"address1": "2410 N Milwaukee Ave",
		"address2": null,
		"address3": "",
		"city": "Chicago",
		"state": "IL",
		"zip_code": "60647"
	},
	{
		"venue_id": "yelpS3OOYJ4JWeOJjAeROrE5cw",
		"venue_name": "Matsuya Restaurant",
		"latitude": 41.94089,
		"longitude": -87.65189,
		"address1": "3242 N Clark St",
		"address2": "",
		"address3": "",
		"city": "Chicago",
		"state": "IL",
		"zip_code": "60657"
	},
	{
		"venue_id": "yelpfA2H14Jj4j2YB4uXGsnVag",
		"venue_name": "Yellowtail Sushi Bar and Asian Kitchen",
		"latitude": 41.9388197,
		"longitude": -87.6444487,
		"address1": "3136 N Broadway St",
		"address2": "",
		"address3": "",
		"city": "Chicago",
		"state": "IL",
		"zip_code": "60657"
	},
	{
		"venue_id": "yelpRhBrHIjmCD6B0Yvw7MxhMA",
		"venue_name": "Strings Ramen - Lakeview",
		"latitude": 41.93977,
		"longitude": -87.65227,
		"address1": "919 W Belmont Ave",
		"address2": null,
		"address3": "",
		"city": "Chicago",
		"state": "IL",
		"zip_code": "60657"
	},
	{
		"venue_id": "yelpJg37rNs7b3G0R5ZGg9Z7rQ",
		"venue_name": "Izakaya Mita",
		"latitude": 41.91763,
		"longitude": -87.67792,
		"address1": "1960 N Damen Ave",
		"address2": null,
		"address3": "",
		"city": "Chicago",
		"state": "IL",
		"zip_code": "60647"
	},
	{
		"venue_id": "yelpdtcq-GcOvmY6SfZoO-cVhg",
		"venue_name": "Niu B",
		"latitude": 41.870627153595,
		"longitude": -87.6243124902248,
		"address1": "888 S Michigan Ave",
		"address2": "",
		"address3": "",
		"city": "Chicago",
		"state": "IL",
		"zip_code": "60605"
	},
	{
		"venue_id": "yelpbisRsdEh-VlV0RFoe__XiQ",
		"venue_name": "Wabi Sabi",
		"latitude": 41.967286,
		"longitude": -87.708665,
		"address1": "4720 N Kedzie Ave",
		"address2": null,
		"address3": "",
		"city": "Chicago",
		"state": "IL",
		"zip_code": "60625"
	},
	{
		"venue_id": "yelpXR847KX_gNoWOiD85Updow",
		"venue_name": "Bon Bon Sandwiches",
		"latitude": 41.91007,
		"longitude": -87.68621,
		"address1": "2333 W North Ave",
		"address2": "",
		"address3": "",
		"city": "Chicago",
		"state": "IL",
		"zip_code": "60647"
	},
	{
		"venue_id": "yelpSmq3QclTbATrJLOwULiADw",
		"venue_name": "Four Belly",
		"latitude": 41.9406275584628,
		"longitude": -87.6510916202377,
		"address1": "3227 N Clark St",
		"address2": "",
		"address3": "",
		"city": "Chicago",
		"state": "IL",
		"zip_code": "60657"
	},
	{
		"venue_id": "yelpZ3PxdB1ZBm4tAX_7gnpnyQ",
		"venue_name": "Wabi Sabi Rotary",
		"latitude": 41.9642886,
		"longitude": -87.6546151,
		"address1": "4521 N Sheridan",
		"address2": null,
		"address3": "",
		"city": "Chicago",
		"state": "IL",
		"zip_code": "60640"
	},
	{
		"venue_id": "yelpPtPmdTlN2uiXi8ih3axclA",
		"venue_name": "Friends Ramen",
		"latitude": 41.89692,
		"longitude": -87.6284713,
		"address1": "808 N State St",
		"address2": "Ste B",
		"address3": "",
		"city": "Chicago",
		"state": "IL",
		"zip_code": "60610"
	},
	{
		"venue_id": "yelpuU7OQj1Hnwh3CvJGLycxfA",
		"venue_name": "Ajida",
		"latitude": 41.8858606186613,
		"longitude": -87.6337524679298,
		"address1": "201 N Wells St",
		"address2": "",
		"address3": "",
		"city": "Chicago",
		"state": "IL",
		"zip_code": "60606"
	},
	{
		"venue_id": "yelps9CsFdNxcmF0jx8T94D3FQ",
		"venue_name": "Ramen Misoya",
		"latitude": 41.892516046345,
		"longitude": -87.6214601966708,
		"address1": "213 E Ohio St",
		"address2": "",
		"address3": "",
		"city": "Chicago",
		"state": "IL",
		"zip_code": "60611"
	},
	{
		"venue_id": "yelpAVcyeXDCjzVASjZlT_93Ww",
		"venue_name": "Sushi Pink",
		"latitude": 41.882829,
		"longitude": -87.650353,
		"address1": "913 W Washington Blvd",
		"address2": "",
		"address3": "",
		"city": "Chicago",
		"state": "IL",
		"zip_code": "60607"
	},
	{
		"venue_id": "yelpHAP9EILUvSh1J7iEd3QGFw",
		"venue_name": "Futatsuki Ramen",
		"latitude": 41.966079,
		"longitude": -87.657562,
		"address1": "4621 N Broadway",
		"address2": null,
		"address3": "",
		"city": "Chicago",
		"state": "IL",
		"zip_code": "60640"
	},
	{
		"venue_id": "yelp1fPmO6kFXGr3PqacFnvu7g",
		"venue_name": "Furious Spoon Lakeview",
		"latitude": 41.9401779,
		"longitude": -87.6494958,
		"address1": "800 W Belmont",
		"address2": null,
		"address3": "",
		"city": "Chicago",
		"state": "IL",
		"zip_code": "60657"
	},
	{
		"venue_id": "yelp0wjsaNjinNu2rcKz1JpnKQ",
		"venue_name": "Furious Spoon - Revival Food Hall",
		"latitude": 41.8799369,
		"longitude": -87.6306651,
		"address1": "125 S Clark St",
		"address2": null,
		"address3": "",
		"city": "Chicago",
		"state": "IL",
		"zip_code": "60603"
	},
	{
		"venue_id": "yelpUxhGNpDrPgymVfO9MjsnZA",
		"venue_name": "Nano Sushi",
		"latitude": 41.953778,
		"longitude": -87.6500115,
		"address1": "3955 N Broadway Ave",
		"address2": "",
		"address3": "",
		"city": "Chicago",
		"state": "IL",
		"zip_code": "60613"
	},
	{
		"venue_id": "yelpCLY3AAneJpVXwnobhlTwdw",
		"venue_name": "Tanaka Ramen",
		"latitude": 41.9328773819745,
		"longitude": -87.6430871977416,
		"address1": "553 W Diversey Pkwy",
		"address2": "",
		"address3": null,
		"city": "Chicago",
		"state": "IL",
		"zip_code": "60614"
	},
	{
		"venue_id": "yelpxtO4wPqXmmJ4w0YF792AcQ",
		"venue_name": "Furious Spoon Pilsen",
		"latitude": 41.85815,
		"longitude": -87.65964,
		"address1": "1316 W 18th St",
		"address2": null,
		"address3": "",
		"city": "Chicago",
		"state": "IL",
		"zip_code": "60608"
	},
	{
		"venue_id": "yelp7ZbSwqysOty98mElb37nGw",
		"venue_name": "Kameya Ramen",
		"latitude": 41.9401749,
		"longitude": -87.644734,
		"address1": "604 W Belmont Ave",
		"address2": "",
		"address3": null,
		"city": "Chicago",
		"state": "IL",
		"zip_code": "60657"
	},
	{
		"venue_id": "yelpkd2jdFTVbWH2eovIuwKq8Q",
		"venue_name": "Ramen-san",
		"latitude": 41.88613,
		"longitude": -87.6485051,
		"address1": "219 N Green St",
		"address2": null,
		"address3": "",
		"city": "Chicago",
		"state": "IL",
		"zip_code": "60607"
	},
	{
		"venue_id": "yelpi5WCWAO2Uao2pivpnKbttA",
		"venue_name": "Furious Spoon Andersonville",
		"latitude": 41.9802888,
		"longitude": -87.6685125,
		"address1": "5406 North Clark St",
		"address2": null,
		"address3": "",
		"city": "Chicago",
		"state": "IL",
		"zip_code": "60640"
	},
	{
		"venue_id": "yelpa6RV0dOOQpWYQW_1kP2GgA",
		"venue_name": "Tabo Sushi & Noodles by Takashi",
		"latitude": 41.88421,
		"longitude": -87.62738,
		"address1": "111 N State St",
		"address2": "Fl 7",
		"address3": "",
		"city": "Chicago",
		"state": "IL",
		"zip_code": "60686"
	},
	{
		"venue_id": "yelpAaJYcw3EBYRenLMvhHrGqw",
		"venue_name": "Kimura Sushi",
		"latitude": 41.86959,
		"longitude": -87.66261,
		"address1": "1422 W Taylor St",
		"address2": "",
		"address3": null,
		"city": "Chicago",
		"state": "IL",
		"zip_code": "60607"
	},
	{
		"venue_id": "yelpJ2k5JinpSnwiwD0Q_q5taw",
		"venue_name": "Shinya Ramen House",
		"latitude": 41.8352,
		"longitude": -87.64657,
		"address1": "3240 S Halsted St",
		"address2": "",
		"address3": null,
		"city": "Chicago",
		"state": "IL",
		"zip_code": "60608"
	},
	{
		"venue_id": "yelpx8SZMlNEIGIij5v9iRsIQg",
		"venue_name": "Sublime Sushi",
		"latitude": 41.9226200905846,
		"longitude": -87.6450405334532,
		"address1": "2235 N Lincoln Ave",
		"address2": "",
		"address3": "",
		"city": "Chicago",
		"state": "IL",
		"zip_code": "60614"
	},
	{
		"venue_id": "yelpvG4YP8EOmlzpC_8cYoe98A",
		"venue_name": "Ramen Works",
		"latitude": 41.9227913,
		"longitude": -87.6448017,
		"address1": "2235 N Lincoln Ave",
		"address2": null,
		"address3": null,
		"city": "Chicago",
		"state": "IL",
		"zip_code": "60614"
	},
	{
		"venue_id": "yelpQyTTbhDNarSL6EqWKG0igw",
		"venue_name": "Sixes & Eights",
		"latitude": 41.8522464,
		"longitude": -87.6188102,
		"address1": "2233 S Martin Luther King Jr Dr",
		"address2": "",
		"address3": "",
		"city": "Chicago",
		"state": "IL",
		"zip_code": "60616"
	},
	{
		"venue_id": "yelpmpCR2UiwhwvVg-mG0ufcaQ",
		"venue_name": "Akahoshi Ramen",
		"latitude": 41.92589,
		"longitude": -87.70168,
		"address1": "2451 N Milwaukee Ave",
		"address2": "",
		"address3": null,
		"city": "Chicago",
		"state": "IL",
		"zip_code": "60647"
	},
	{
		"venue_id": "yelpnyRl4XD4W3NmnG2GUDzHHA",
		"venue_name": "Shan Shaan Taste \u5c71\u9655\u540d\u5403",
		"latitude": 41.85505,
		"longitude": -87.63219,
		"address1": "2002 S Wentworth Ave B10",
		"address2": null,
		"address3": "",
		"city": "Chicago",
		"state": "IL",
		"zip_code": "60616"
	}
]