[
	{
		"venue_id": "yelp7GYatTFQXmWVpJXPqwHEUA",
		"venue_name": "Adagio Teas",
		"latitude": 41.8928619739405,
		"longitude": -87.6278979714836,
		"address1": "617 N State St",
		"address2": "",
		"address3": "",
		"city": "Chicago",
		"state": "IL",
		"zip_code": "60654"
	},
	{
		"venue_id": "yelpLHv1tTXfeJYXq8gN3lAgjA",
		"venue_name": "Tea Gschwendner",
		"latitude": 41.9034734,
		"longitude": -87.6288729,
		"address1": "1160 N State St",
		"address2": "",
		"address3": "",
		"city": "Chicago",
		"state": "IL",
		"zip_code": "60610"
	},
	{
		"venue_id": "yelpk2CE-oHurqz2tuQZnk-2ug",
		"venue_name": "Tea'se Tea Shoppe",
		"latitude": 41.9531238,
		"longitude": -87.7708315,
		"address1": "5755 W Irving Park Rd",
		"address2": "",
		"address3": "",
		"city": "Chicago",
		"state": "IL",
		"zip_code": "60634"
	},
	{
		"venue_id": "yelpWgb4IF66cIoVBbVA7nOXMA",
		"venue_name": "Coffee Tree & Tea Leaves",
		"latitude": 41.9503766298294,
		"longitude": -87.6491262763739,
		"address1": "3752 N Broadway St",
		"address2": "",
		"address3": "",
		"city": "Chicago",
		"state": "IL",
		"zip_code": "60613"
	},
	{
		"venue_id": "yelplEL38ikGaHT2H8Rxy3tfLA",
		"venue_name": "Palm Court",
		"latitude": 41.9003877381505,
		"longitude": -87.6234149560332,
		"address1": "140 E Walton Pl",
		"address2": "",
		"address3": "The Drake Hotel",
		"city": "Chicago",
		"state": "IL",
		"zip_code": "60611"
	},
	{
		"venue_id": "yelpXbAsS4BiD9s-VzvJugcNPQ",
		"venue_name": "Easthill Tea Co",
		"latitude": 41.9144042348055,
		"longitude": -87.6837795522906,
		"address1": "1816 N Milwaukee Ave",
		"address2": null,
		"address3": "",
		"city": "Chicago",
		"state": "IL",
		"zip_code": "60647"
	},
	{
		"venue_id": "yelpdkKKa22En5tT1jLeeplSBQ",
		"venue_name": "David's Tea",
		"latitude": 41.884746,
		"longitude": -87.624139,
		"address1": "151 N Michigan",
		"address2": null,
		"address3": "",
		"city": "Chicago",
		"state": "IL",
		"zip_code": "60601"
	},
	{
		"venue_id": "yelpk3OWbtjKzlwCRSq2EGprag",
		"venue_name": "Pavilion",
		"latitude": 41.88906,
		"longitude": -87.62757,
		"address1": "330 N Wabash Ave",
		"address2": "",
		"address3": "The Langham",
		"city": "Chicago",
		"state": "IL",
		"zip_code": "60611"
	},
	{
		"venue_id": "yelpKrSFuL1A9k2F_FaEMaS1-Q",
		"venue_name": "Todd & Holland Tea Merchants",
		"latitude": 41.87977,
		"longitude": -87.80759,
		"address1": "7311 W Madison St",
		"address2": null,
		"address3": "",
		"city": "Forest Park",
		"state": "IL",
		"zip_code": "60130"
	},
	{
		"venue_id": "yelpJuhFxLnDQIECGg42kQLOdA",
		"venue_name": "Serenitea Tea Cafe & Boutique",
		"latitude": 41.8858405965873,
		"longitude": -87.8020483307801,
		"address1": "1046 Pleasant St",
		"address2": null,
		"address3": "",
		"city": "Oak Park",
		"state": "IL",
		"zip_code": "60302"
	},
	{
		"venue_id": "yelpATlXGZTMhSheo_9zB3hfbQ",
		"venue_name": "Te'amo Boba Bar",
		"latitude": 41.8914408,
		"longitude": -87.6243185,
		"address1": "520 N Michigan Ave",
		"address2": "Ste 420",
		"address3": "",
		"city": "Chicago",
		"state": "IL",
		"zip_code": "60611"
	},
	{
		"venue_id": "yelptTdY86Xl_VMEkwzBmxIS2A",
		"venue_name": "Argo Tea",
		"latitude": 41.8726132,
		"longitude": -87.6472649,
		"address1": "750 S Halsted St",
		"address2": "",
		"address3": "",
		"city": "Chicago",
		"state": "IL",
		"zip_code": "60607"
	},
	{
		"venue_id": "yelpHHne0EPHp3bF4kgtCMtfFw",
		"venue_name": "Teavana",
		"latitude": 41.8914408,
		"longitude": -87.6243185,
		"address1": "520 N Michigan Ave",
		"address2": "Fl 2",
		"address3": "",
		"city": "Chicago",
		"state": "IL",
		"zip_code": "60611"
	}
]