[
	{
		"venue_id": "yelpxoi7Cw7FoknAx5p880RtWQ",
		"venue_name": "Au Cheval",
		"latitude": 41.88466,
		"longitude": -87.647668,
		"address1": "800 W Randolph St",
		"address2": "",
		"address3": "",
		"city": "Chicago",
		"state": "IL",
		"zip_code": "60607"
	},
	{
		"venue_id": "yelp9mhqcimD0CYvqxzfj_VXnQ",
		"venue_name": "Little Bad Wolf",
		"latitude": 41.9833823855364,
		"longitude": -87.6690510144549,
		"address1": "1541 W Bryn Mawr Ave",
		"address2": "",
		"address3": "",
		"city": "Chicago",
		"state": "IL",
		"zip_code": "60660"
	},
	{
		"venue_id": "yelpJR5TOTAgxBj4YLfNQ3Dljw",
		"venue_name": "Mindy's Hot Chocolate",
		"latitude": 41.91367,
		"longitude": -87.67718,
		"address1": "1747 N Damen Ave",
		"address2": "",
		"address3": "",
		"city": "Chicago",
		"state": "IL",
		"zip_code": "60647"
	},
	{
		"venue_id": "yelp_wtMT97gelNAyfI82FPFvA",
		"venue_name": "3 Arts Club Cafe",
		"latitude": 41.9058,
		"longitude": -87.63047,
		"address1": "1300 N Dearborn Pkwy",
		"address2": "",
		"address3": "",
		"city": "Chicago",
		"state": "IL",
		"zip_code": "60610"
	},
	{
		"venue_id": "yelpeuO3-H92LCivH2B0CQPlnw",
		"venue_name": "Chicago q",
		"latitude": 41.903617442969,
		"longitude": -87.63023965658,
		"address1": "1160 N Dearborn St",
		"address2": null,
		"address3": "",
		"city": "Chicago",
		"state": "IL",
		"zip_code": "60610"
	},
	{
		"venue_id": "yelpGEpXn9rtTMtIj5NsGFiNQw",
		"venue_name": "The Bad Apple",
		"latitude": 41.959767,
		"longitude": -87.682822,
		"address1": "4300 N Lincoln Ave",
		"address2": "",
		"address3": "",
		"city": "Chicago",
		"state": "IL",
		"zip_code": "60618"
	},
	{
		"venue_id": "yelpCwPi6NVuJIZZx4IBcTekFQ",
		"venue_name": "Yolk South - Loop",
		"latitude": 41.8687801,
		"longitude": -87.6242249,
		"address1": "1120 S Michigan Ave",
		"address2": null,
		"address3": "",
		"city": "Chicago",
		"state": "IL",
		"zip_code": "60605"
	},
	{
		"venue_id": "yelpo4MU9gK7epWUMv2WVW1qrA",
		"venue_name": "Yolk - Streeterville",
		"latitude": 41.8924891,
		"longitude": -87.618153,
		"address1": "355 E Ohio St",
		"address2": "",
		"address3": "",
		"city": "Chicago",
		"state": "IL",
		"zip_code": "60611"
	},
	{
		"venue_id": "yelp5D5GiHm67V4thed30Etzhg",
		"venue_name": "Summer House Santa Monica",
		"latitude": 41.9174315,
		"longitude": -87.6486675,
		"address1": "1954 N Halsted St",
		"address2": "",
		"address3": "",
		"city": "Chicago",
		"state": "IL",
		"zip_code": "60614"
	},
	{
		"venue_id": "yelpPZe0q_153VHUnaR-8dOTJg",
		"venue_name": "The Dearborn",
		"latitude": 41.8842528,
		"longitude": -87.6293151,
		"address1": "145 N Dearborn St",
		"address2": "",
		"address3": null,
		"city": "Chicago",
		"state": "IL",
		"zip_code": "60602"
	},
	{
		"venue_id": "yelp0hfDRVaGSydijN5du1HCzg",
		"venue_name": "Bar Siena",
		"latitude": 41.8845841437224,
		"longitude": -87.6489488181068,
		"address1": "832 W Randolph St",
		"address2": "",
		"address3": "",
		"city": "Chicago",
		"state": "IL",
		"zip_code": "60607"
	},
	{
		"venue_id": "yelp7Es7EbTy_s1btAdowLeiPQ",
		"venue_name": "Small Cheval",
		"latitude": 41.91282,
		"longitude": -87.6815699,
		"address1": "1732 N Milwaukee Ave",
		"address2": null,
		"address3": "",
		"city": "Chicago",
		"state": "IL",
		"zip_code": "60647"
	},
	{
		"venue_id": "yelp3Q_N0K28SRJbPy2sz0QqVw",
		"venue_name": "Prime & Provisions",
		"latitude": 41.8866316388428,
		"longitude": -87.6328291859281,
		"address1": "222 N La Salle St",
		"address2": null,
		"address3": "",
		"city": "Chicago",
		"state": "IL",
		"zip_code": "60601"
	},
	{
		"venue_id": "yelpe9aAISx0navH8qMr33X4TA",
		"venue_name": "Mother Cluckers Kitchen",
		"latitude": 41.9752685744915,
		"longitude": -87.7522482539673,
		"address1": "5200 N Elston Ave",
		"address2": "",
		"address3": "",
		"city": "Chicago",
		"state": "IL",
		"zip_code": "60630"
	},
	{
		"venue_id": "yelpp_H2BANrAWEZbSyqmnviSQ",
		"venue_name": "Uncle Mike's Place",
		"latitude": 41.89117,
		"longitude": -87.66986,
		"address1": "1700 W Grand Ave",
		"address2": "",
		"address3": "",
		"city": "Chicago",
		"state": "IL",
		"zip_code": "60622"
	},
	{
		"venue_id": "yelpoCTlReyKjJxKPFYfCurxxQ",
		"venue_name": "Lockdown Bar & Grill",
		"latitude": 41.90017,
		"longitude": -87.687275,
		"address1": "1024 N Western Ave",
		"address2": null,
		"address3": "",
		"city": "Chicago",
		"state": "IL",
		"zip_code": "60622"
	},
	{
		"venue_id": "yelp4wreIFjaPMppyEnzKHbozg",
		"venue_name": "Grand Lux Cafe",
		"latitude": 41.8931488346022,
		"longitude": -87.6245293330658,
		"address1": "600 N Michigan Ave",
		"address2": "",
		"address3": "",
		"city": "Chicago",
		"state": "IL",
		"zip_code": "60611"
	},
	{
		"venue_id": "yelpCQ75CQSyrsmb-S3UAwCHpw",
		"venue_name": "Wildfire",
		"latitude": 41.8938172904842,
		"longitude": -87.6333183422685,
		"address1": "159 W Erie St",
		"address2": "",
		"address3": "",
		"city": "Chicago",
		"state": "IL",
		"zip_code": "60654"
	},
	{
		"venue_id": "yelpOGGtHsXsCUHaLkyUNZVXNg",
		"venue_name": "The Dawson",
		"latitude": 41.8913174932487,
		"longitude": -87.6471944883606,
		"address1": "730 W Grand Ave",
		"address2": null,
		"address3": "",
		"city": "Chicago",
		"state": "IL",
		"zip_code": "60654"
	},
	{
		"venue_id": "yelped3NV3_-A8B1_w0_oCFpWQ",
		"venue_name": "Bite Caf\u00e9",
		"latitude": 41.90047,
		"longitude": -87.68663,
		"address1": "1035 N Western Ave",
		"address2": "",
		"address3": "",
		"city": "Chicago",
		"state": "IL",
		"zip_code": "60622"
	},
	{
		"venue_id": "yelpYbLA3uRpvBzIf4oJ352ZVQ",
		"venue_name": "Ada Street",
		"latitude": 41.9124416,
		"longitude": -87.6620728,
		"address1": "1664 N Ada St",
		"address2": "",
		"address3": "",
		"city": "Chicago",
		"state": "IL",
		"zip_code": "60642"
	},
	{
		"venue_id": "yelpal530TnimkgqmPU6q-2hQw",
		"venue_name": "Tiztal Cafe",
		"latitude": 41.96621,
		"longitude": -87.66657,
		"address1": "4631 N Clark St",
		"address2": "",
		"address3": "",
		"city": "Chicago",
		"state": "IL",
		"zip_code": "60640"
	},
	{
		"venue_id": "yelpcuGkFLdPWfFX9hm2bcBHkQ",
		"venue_name": "Twin Anchors Restaurant & Tavern",
		"latitude": 41.91268,
		"longitude": -87.63832,
		"address1": "1655 N Sedgwick St",
		"address2": "",
		"address3": "",
		"city": "Chicago",
		"state": "IL",
		"zip_code": "60614"
	},
	{
		"venue_id": "yelp1hRGm-jTHB-KKBwS8GNxrw",
		"venue_name": "Sweet Maple Cafe",
		"latitude": 41.869123,
		"longitude": -87.660678,
		"address1": "1339 W Taylor St",
		"address2": null,
		"address3": "",
		"city": "Chicago",
		"state": "IL",
		"zip_code": "60607"
	},
	{
		"venue_id": "yelp8oVuCgY36DBA78kz6YcvMg",
		"venue_name": "The Franklin Room",
		"latitude": 41.8944245,
		"longitude": -87.6354674,
		"address1": "675 N Franklin St",
		"address2": null,
		"address3": "",
		"city": "Chicago",
		"state": "IL",
		"zip_code": "60654"
	},
	{
		"venue_id": "yelpTC8tG6To87DUzC365njvXw",
		"venue_name": "River Roast",
		"latitude": 41.887957929885,
		"longitude": -87.6321899243637,
		"address1": "315 N La Salle Dr",
		"address2": "",
		"address3": "",
		"city": "Chicago",
		"state": "IL",
		"zip_code": "60654"
	},
	{
		"venue_id": "yelpp9TVco6JdcBxt_c_TtPcgw",
		"venue_name": "Swift & Sons",
		"latitude": 41.8869073066802,
		"longitude": -87.6525044962951,
		"address1": "1000 W Fulton Market",
		"address2": "",
		"address3": "",
		"city": "Chicago",
		"state": "IL",
		"zip_code": "60607"
	},
	{
		"venue_id": "yelpptRZlXxngjFj5gghwPNNHA",
		"venue_name": "RJ Grunts",
		"latitude": 41.920024442085,
		"longitude": -87.636636114155,
		"address1": "2056 N Lincoln Park W",
		"address2": "",
		"address3": "",
		"city": "Chicago",
		"state": "IL",
		"zip_code": "60614"
	},
	{
		"venue_id": "yelpKwFp1p0t0L1CLCm4HSizsQ",
		"venue_name": "Stella's Diner",
		"latitude": 41.9377628713846,
		"longitude": -87.6443700492382,
		"address1": "3042 N Broadway St",
		"address2": "",
		"address3": "",
		"city": "Chicago",
		"state": "IL",
		"zip_code": "60657"
	},
	{
		"venue_id": "yelpIgiFxgUFR9BDnQ9PeGHaEA",
		"venue_name": "Crosby's Kitchen",
		"latitude": 41.94508,
		"longitude": -87.66357,
		"address1": "3455 N Southport Ave",
		"address2": "",
		"address3": "",
		"city": "Chicago",
		"state": "IL",
		"zip_code": "60657"
	},
	{
		"venue_id": "yelpqrN8yUCVY5oYOxna_o_iXg",
		"venue_name": "Kingston Mines",
		"latitude": 41.92869,
		"longitude": -87.64922,
		"address1": "2548 N Halsted St",
		"address2": "",
		"address3": "",
		"city": "Chicago",
		"state": "IL",
		"zip_code": "60614"
	},
	{
		"venue_id": "yelpmMnW530e_S5_7oV2HJWDpw",
		"venue_name": "Lawry's The Prime Rib",
		"latitude": 41.893461,
		"longitude": -87.625029,
		"address1": "100 E Ontario St",
		"address2": "",
		"address3": "",
		"city": "Chicago",
		"state": "IL",
		"zip_code": "60611"
	},
	{
		"venue_id": "yelpkJjbElns3_GTNIklRVbHPQ",
		"venue_name": "Remington's",
		"latitude": 41.88266,
		"longitude": -87.62499,
		"address1": "20 N Michigan Ave",
		"address2": "",
		"address3": "",
		"city": "Chicago",
		"state": "IL",
		"zip_code": "60602"
	},
	{
		"venue_id": "yelpOt1sgtVfvjtBYSaQS82Png",
		"venue_name": "Nookies",
		"latitude": 41.91427,
		"longitude": -87.63508,
		"address1": "1746 N Wells St",
		"address2": "",
		"address3": "",
		"city": "Chicago",
		"state": "IL",
		"zip_code": "60614"
	},
	{
		"venue_id": "yelpJ1e-SGNCiU02aFQ4T-u2DQ",
		"venue_name": "The Bongo Room",
		"latitude": 41.973183,
		"longitude": -87.668348,
		"address1": "5022 N Clark St",
		"address2": "",
		"address3": "",
		"city": "Chicago",
		"state": "IL",
		"zip_code": "60640"
	},
	{
		"venue_id": "yelpB5CpZsEZJqRsKVYU7nWDDg",
		"venue_name": "The Aberdeen Tap",
		"latitude": 41.890171,
		"longitude": -87.654885,
		"address1": "440 N Aberdeen St",
		"address2": "",
		"address3": "",
		"city": "Chicago",
		"state": "IL",
		"zip_code": "60642"
	},
	{
		"venue_id": "yelpn-mj6IJkWyCu4BuD2dvm0A",
		"venue_name": "Ruth's Chris Steak House",
		"latitude": 41.8901981146158,
		"longitude": -87.6294261217117,
		"address1": "431 N Dearborn St",
		"address2": "",
		"address3": "",
		"city": "Chicago",
		"state": "IL",
		"zip_code": "60654"
	},
	{
		"venue_id": "yelpz8G5AfXYbJD2jQpSEF633g",
		"venue_name": "Michael's Pizzeria & Tavern",
		"latitude": 41.9568480328734,
		"longitude": -87.6518151894969,
		"address1": "4091 N Broadway St",
		"address2": "",
		"address3": "",
		"city": "Chicago",
		"state": "IL",
		"zip_code": "60613"
	},
	{
		"venue_id": "yelpbkTJD2pDMw7iAE-hQtpmPg",
		"venue_name": "Blue Line Lounge & Grill",
		"latitude": 41.9095818,
		"longitude": -87.6777204,
		"address1": "1548 N Damen Ave",
		"address2": "",
		"address3": "",
		"city": "Chicago",
		"state": "IL",
		"zip_code": "60622"
	},
	{
		"venue_id": "yelpMJ9uU_vI6dyfHyMAgLMUOg",
		"venue_name": "Timothy O'Toole's Pub - Chicago",
		"latitude": 41.8931909,
		"longitude": -87.6204274,
		"address1": "622 N Fairbanks Ct",
		"address2": "",
		"address3": "",
		"city": "Chicago",
		"state": "IL",
		"zip_code": "60611"
	},
	{
		"venue_id": "yelpmNIDlhf4jsrUPghV6HH4sQ",
		"venue_name": "Rockit Bar & Grill",
		"latitude": 41.890284,
		"longitude": -87.62895,
		"address1": "22 W Hubbard",
		"address2": "",
		"address3": "",
		"city": "Chicago",
		"state": "IL",
		"zip_code": "60654"
	},
	{
		"venue_id": "yelpmWTucUb_YNZNGyt6QSKZmg",
		"venue_name": "SideDoor",
		"latitude": 41.893543,
		"longitude": -87.625046,
		"address1": "100 E Ontario St",
		"address2": null,
		"address3": "",
		"city": "Chicago",
		"state": "IL",
		"zip_code": "60611"
	},
	{
		"venue_id": "yelpahp1F4QC_8nqrbw5jAvGPA",
		"venue_name": "Cozy Corner Restaurant & Pancake House",
		"latitude": 41.92244,
		"longitude": -87.69707,
		"address1": "2294 N Milwaukee Ave",
		"address2": "",
		"address3": "",
		"city": "Chicago",
		"state": "IL",
		"zip_code": "60647"
	},
	{
		"venue_id": "yelpSZynkhN-6s6JJeH5KNVI3g",
		"venue_name": "Miller's Pub",
		"latitude": 41.8802765,
		"longitude": -87.6262965,
		"address1": "134 S Wabash Ave",
		"address2": "",
		"address3": "",
		"city": "Chicago",
		"state": "IL",
		"zip_code": "60603"
	},
	{
		"venue_id": "yelpSy8ZjqYOE62tnpf0b1qa1g",
		"venue_name": "Gale Street Inn",
		"latitude": 41.9699747728431,
		"longitude": -87.762835174799,
		"address1": "4914 N Milwaukee Ave",
		"address2": "",
		"address3": "",
		"city": "Chicago",
		"state": "IL",
		"zip_code": "60630"
	},
	{
		"venue_id": "yelp9sbVk5WywZTOIFDJfpksNg",
		"venue_name": "Eggsperience Caf\u00e8",
		"latitude": 41.893092,
		"longitude": -87.629536,
		"address1": "35 West Ontario",
		"address2": "",
		"address3": "",
		"city": "Chicago",
		"state": "IL",
		"zip_code": "60654"
	},
	{
		"venue_id": "yelpmGnNer7raiilgF0JWCpGtw",
		"venue_name": "The Office",
		"latitude": 41.8866214,
		"longitude": -87.6514653,
		"address1": "955 W Fulton Market",
		"address2": "",
		"address3": "",
		"city": "Chicago",
		"state": "IL",
		"zip_code": "60607"
	},
	{
		"venue_id": "yelpXdw3MKpWyEfED9Ba5uiAmQ",
		"venue_name": "Sam & George's",
		"latitude": 41.93624,
		"longitude": -87.66418,
		"address1": "3000 N Lincoln Ave",
		"address2": "",
		"address3": "",
		"city": "Chicago",
		"state": "IL",
		"zip_code": "60657"
	},
	{
		"venue_id": "yelpPzPyHLmRSH2ofemXEShkbw",
		"venue_name": "LuxBar",
		"latitude": 41.90177,
		"longitude": -87.62763,
		"address1": "18 E Bellevue",
		"address2": null,
		"address3": "",
		"city": "Chicago",
		"state": "IL",
		"zip_code": "60611"
	},
	{
		"venue_id": "yelpzN8zvLiGGiTGNDqDaRWp_Q",
		"venue_name": "Fahlstrom's Fresh Fish Market",
		"latitude": 41.94009,
		"longitude": -87.66114,
		"address1": "1258 W Belmont Ave",
		"address2": "",
		"address3": "",
		"city": "Chicago",
		"state": "IL",
		"zip_code": "60657"
	},
	{
		"venue_id": "yelp8P3vFRfVyvn1LGAlkJOWaQ",
		"venue_name": "Oyster Bah",
		"latitude": 41.91777,
		"longitude": -87.64887,
		"address1": "1962 N Halsted",
		"address2": "Fl 1",
		"address3": "",
		"city": "Chicago",
		"state": "IL",
		"zip_code": "60614"
	},
	{
		"venue_id": "yelpllGjSz6hFoEv4xiOWgvJ8g",
		"venue_name": "The Barrelhouse Flat",
		"latitude": 41.92945,
		"longitude": -87.65478,
		"address1": "2624 N Lincoln Ave",
		"address2": "",
		"address3": "",
		"city": "Chicago",
		"state": "IL",
		"zip_code": "60614"
	},
	{
		"venue_id": "yelpxFBQ1md6PDm7YEpJARoxAA",
		"venue_name": "The VIG Chicago",
		"latitude": 41.9099251,
		"longitude": -87.6345035,
		"address1": "1527 N Wells St",
		"address2": null,
		"address3": null,
		"city": "Chicago",
		"state": "IL",
		"zip_code": "60610"
	},
	{
		"venue_id": "yelpPidZ26sboIS3-6CtUpNskA",
		"venue_name": "Chicago Raw",
		"latitude": 41.8841694251783,
		"longitude": -87.6408842460633,
		"address1": "131 N Clinton St",
		"address2": "Ste 7",
		"address3": "",
		"city": "Chicago",
		"state": "IL",
		"zip_code": "60661"
	},
	{
		"venue_id": "yelpVZRNSAoPrg_CNiCtMNSlyw",
		"venue_name": "The Lobby",
		"latitude": 41.896,
		"longitude": -87.625076,
		"address1": "108 E Superior St",
		"address2": "",
		"address3": "",
		"city": "Chicago",
		"state": "IL",
		"zip_code": "60611"
	},
	{
		"venue_id": "yelpIfk2tTefkmj9apIZOYyuBw",
		"venue_name": "Will's Northwoods Inn",
		"latitude": 41.9369219988585,
		"longitude": -87.6589170098305,
		"address1": "3030 N Racine Ave",
		"address2": "",
		"address3": "",
		"city": "Chicago",
		"state": "IL",
		"zip_code": "60657"
	},
	{
		"venue_id": "yelp_CzK0ssaWnDzmKIqJS54DA",
		"venue_name": "Goose Island Brewhouse",
		"latitude": 41.9134218987771,
		"longitude": -87.6542950746777,
		"address1": "1800 N Clybourn Ave",
		"address2": "",
		"address3": "",
		"city": "Chicago",
		"state": "IL",
		"zip_code": "60614"
	},
	{
		"venue_id": "yelpVCLQpc78prtGTxJAKjz-Ow",
		"venue_name": "First Draft",
		"latitude": 41.873437,
		"longitude": -87.630308,
		"address1": "649 S Clark St",
		"address2": "",
		"address3": "",
		"city": "Chicago",
		"state": "IL",
		"zip_code": "60605"
	},
	{
		"venue_id": "yelpKGMxtvX0191P1teCk1Yt6w",
		"venue_name": "Untitled Supper Club",
		"latitude": 41.8889649,
		"longitude": -87.6316229,
		"address1": "111 W Kinzie St",
		"address2": null,
		"address3": "",
		"city": "Chicago",
		"state": "IL",
		"zip_code": "60654"
	},
	{
		"venue_id": "yelpGw8BSjJ6FFppeghWUv-DGA",
		"venue_name": "The Wiener's Circle",
		"latitude": 41.930108,
		"longitude": -87.643951,
		"address1": "2622 N Clark St",
		"address2": "",
		"address3": "",
		"city": "Chicago",
		"state": "IL",
		"zip_code": "60614"
	},
	{
		"venue_id": "yelpMrWETKbSyG-FBq6ttK8SiQ",
		"venue_name": "Eggy's Diner",
		"latitude": 41.8851851,
		"longitude": -87.6185829,
		"address1": "333 E Benton Pl",
		"address2": "Ste 103",
		"address3": "",
		"city": "Chicago",
		"state": "IL",
		"zip_code": "60601"
	},
	{
		"venue_id": "yelpBnuVd40aBq0Z61P3wSSNlw",
		"venue_name": "Twisted Spoke",
		"latitude": 41.8912954404938,
		"longitude": -87.6585463125038,
		"address1": "501 N Ogden Ave",
		"address2": "",
		"address3": "",
		"city": "Chicago",
		"state": "IL",
		"zip_code": "60642"
	},
	{
		"venue_id": "yelp48LgtDgqtzQpF8KYUb1pJg",
		"venue_name": "Reno",
		"latitude": 41.929155,
		"longitude": -87.707174,
		"address1": "2607 N Milwaukee Ave",
		"address2": "",
		"address3": "",
		"city": "Chicago",
		"state": "IL",
		"zip_code": "60647"
	},
	{
		"venue_id": "yelpcVULFhP_qRHskfIWNysR_w",
		"venue_name": "Meli Cafe",
		"latitude": 41.8918462775328,
		"longitude": -87.6342765335556,
		"address1": "540 N Wells St",
		"address2": "",
		"address3": null,
		"city": "Chicago",
		"state": "IL",
		"zip_code": "60654"
	},
	{
		"venue_id": "yelpIoJoWPp7dQOjeCfT2ki3cA",
		"venue_name": "Ricano's Restaurant",
		"latitude": 41.87793,
		"longitude": -87.66707,
		"address1": "230 S Ashland Ave",
		"address2": "",
		"address3": "",
		"city": "Chicago",
		"state": "IL",
		"zip_code": "60607"
	},
	{
		"venue_id": "yelpOcMQUx_fyrUQdWwtnfuofw",
		"venue_name": "The Matchbox",
		"latitude": 41.8955764770508,
		"longitude": -87.6549072265625,
		"address1": "768 N Milwaukee Ave",
		"address2": "",
		"address3": "",
		"city": "Chicago",
		"state": "IL",
		"zip_code": "60642"
	},
	{
		"venue_id": "yelp60qudKwZHT6-UijNbGVNWw",
		"venue_name": "Southern Cut Barbeque",
		"latitude": 41.8994131791425,
		"longitude": -87.6220517233197,
		"address1": "198 E Delaware Pl",
		"address2": "",
		"address3": "",
		"city": "Chicago",
		"state": "IL",
		"zip_code": "60611"
	},
	{
		"venue_id": "yelpQPr7dxBlnNipJ0R5-GMd-w",
		"venue_name": "Slim's",
		"latitude": 41.9615868227063,
		"longitude": -87.6799042895436,
		"address1": "2020 W Montrose Ave",
		"address2": "",
		"address3": "",
		"city": "Chicago",
		"state": "IL",
		"zip_code": "60618"
	},
	{
		"venue_id": "yelpoT7oYmyGKFdBk0IkuNZG0A",
		"venue_name": "Mity Nice",
		"latitude": 41.8981170141684,
		"longitude": -87.6232167949677,
		"address1": "835 N Michigan Ave",
		"address2": "",
		"address3": "",
		"city": "Chicago",
		"state": "IL",
		"zip_code": "60611"
	},
	{
		"venue_id": "yelpMPfcgPwCcm3-imbg_BUNcA",
		"venue_name": "Bar on Buena",
		"latitude": 41.9585637,
		"longitude": -87.653337,
		"address1": "910 W Buena Ave",
		"address2": null,
		"address3": "",
		"city": "Chicago",
		"state": "IL",
		"zip_code": "60613"
	},
	{
		"venue_id": "yelpTP8zxYve1T4_xq7mLAT-1g",
		"venue_name": "Ceres Cafe",
		"latitude": 41.8780574,
		"longitude": -87.6322115,
		"address1": "141 W Jackson Blvd",
		"address2": "",
		"address3": "",
		"city": "Chicago",
		"state": "IL",
		"zip_code": "60604"
	},
	{
		"venue_id": "yelpFZuVE8sm9To2mPUGwpRBeQ",
		"venue_name": "Windy City Cafe",
		"latitude": 41.8964341368,
		"longitude": -87.6550369757684,
		"address1": "1062 W Chicago Ave",
		"address2": "",
		"address3": "",
		"city": "Chicago",
		"state": "IL",
		"zip_code": "60642"
	},
	{
		"venue_id": "yelp-C_O2sunRZD_sgWtCIpuAQ",
		"venue_name": "Cellars Bar and Grill",
		"latitude": 41.98922,
		"longitude": -87.66065,
		"address1": "5900 N Broadway",
		"address2": null,
		"address3": "",
		"city": "Chicago",
		"state": "IL",
		"zip_code": "60660"
	},
	{
		"venue_id": "yelplD3qc5CidZj1yRi1p0xl6g",
		"venue_name": "The Fat Shallot Food Truck",
		"latitude": 41.8797006295987,
		"longitude": -87.6302485220684,
		"address1": "150 S Wacker Dr",
		"address2": null,
		"address3": "",
		"city": "Chicago",
		"state": "IL",
		"zip_code": "60606"
	},
	{
		"venue_id": "yelp8oKRLk54AhYwEaBe7onYog",
		"venue_name": "Green Door Tavern",
		"latitude": 41.8946215100706,
		"longitude": -87.6373652708838,
		"address1": "678 N Orleans St",
		"address2": "",
		"address3": "",
		"city": "Chicago",
		"state": "IL",
		"zip_code": "60654"
	},
	{
		"venue_id": "yelpd_8fXdA3E0IW44NYqt6haw",
		"venue_name": "Petterino's",
		"latitude": 41.8846425,
		"longitude": -87.6296888,
		"address1": "150 N Dearborn St",
		"address2": "",
		"address3": "",
		"city": "Chicago",
		"state": "IL",
		"zip_code": "60601"
	},
	{
		"venue_id": "yelpfM7wQZVC1DRxU6OXgaAmhw",
		"venue_name": "Four Moon Tavern",
		"latitude": 41.943149,
		"longitude": -87.675881,
		"address1": "1847 W Roscoe St",
		"address2": "",
		"address3": "",
		"city": "Chicago",
		"state": "IL",
		"zip_code": "60657"
	},
	{
		"venue_id": "yelpARfeNUuLOleeewI1mgCPmQ",
		"venue_name": "Simone's",
		"latitude": 41.8581707126579,
		"longitude": -87.6510884753762,
		"address1": "960 W 18th St",
		"address2": "",
		"address3": "",
		"city": "Chicago",
		"state": "IL",
		"zip_code": "60608"
	},
	{
		"venue_id": "yelpUQJ6tKY4Uz6P-7d7oych2w",
		"venue_name": "Rock Bottom Restaurant & Brewery",
		"latitude": 41.8915042,
		"longitude": -87.6283644490738,
		"address1": "1 W Grand Ave",
		"address2": "",
		"address3": "",
		"city": "Chicago",
		"state": "IL",
		"zip_code": "60610"
	},
	{
		"venue_id": "yelpyB7JF4Sr0CgBmymnL1KwRw",
		"venue_name": "Nookies Too",
		"latitude": 41.9205353,
		"longitude": -87.6487681,
		"address1": "2114 N Halsted St",
		"address2": "",
		"address3": "",
		"city": "Chicago",
		"state": "IL",
		"zip_code": "60614"
	},
	{
		"venue_id": "yelpq8H-w31ZLgwXVk2yDMSF0A",
		"venue_name": "Cleos",
		"latitude": 41.89563,
		"longitude": -87.67599,
		"address1": "1935 W Chicago Ave",
		"address2": "",
		"address3": "",
		"city": "Chicago",
		"state": "IL",
		"zip_code": "60622"
	},
	{
		"venue_id": "yelp_mvEpTQ7IuUs51cWXfzGKA",
		"venue_name": "Tavern On Rush",
		"latitude": 41.9018219998443,
		"longitude": -87.6279733472541,
		"address1": "1031 N Rush St",
		"address2": "",
		"address3": "",
		"city": "Chicago",
		"state": "IL",
		"zip_code": "60611"
	},
	{
		"venue_id": "yelphiJMiKoyP24G-0oILI8d3w",
		"venue_name": "Tavern at the Park",
		"latitude": 41.884633450002,
		"longitude": -87.6236779994751,
		"address1": "130 E Randolph St",
		"address2": "",
		"address3": "",
		"city": "Chicago",
		"state": "IL",
		"zip_code": "60601"
	},
	{
		"venue_id": "yelpRYw_no9ohtCg09aKorVffg",
		"venue_name": "Wishbone",
		"latitude": 41.941674636742,
		"longitude": -87.67028176426,
		"address1": "3300 N Lincoln Ave",
		"address2": "",
		"address3": "",
		"city": "Chicago",
		"state": "IL",
		"zip_code": "60657"
	},
	{
		"venue_id": "yelpQ6_BGOsbvm2qr5aDDM4stg",
		"venue_name": "Somerset",
		"latitude": 41.90241,
		"longitude": -87.6289,
		"address1": "1112 N State St",
		"address2": "",
		"address3": null,
		"city": "Chicago",
		"state": "IL",
		"zip_code": "60610"
	},
	{
		"venue_id": "yelpcnDJOvf7kErlCj1LgDTe6A",
		"venue_name": "Chicken & Farm Shop",
		"latitude": 41.883746,
		"longitude": -87.648281,
		"address1": "113-125 N Green St",
		"address2": "",
		"address3": "",
		"city": "Chicago",
		"state": "IL",
		"zip_code": "60607"
	},
	{
		"venue_id": "yelp-oQpuRWBkoC2OLKe__7F7g",
		"venue_name": "Hutch American Bistro",
		"latitude": 41.9419518,
		"longitude": -87.6521806,
		"address1": "3301 N Clark St",
		"address2": "",
		"address3": "",
		"city": "Chicago",
		"state": "IL",
		"zip_code": "60657"
	},
	{
		"venue_id": "yelpijtyBBrKmxVkmmMzcVqOMQ",
		"venue_name": "The Globe Pub",
		"latitude": 41.954487,
		"longitude": -87.677776,
		"address1": "1934 W Irving Park Rd",
		"address2": "",
		"address3": "",
		"city": "Chicago",
		"state": "IL",
		"zip_code": "60613"
	},
	{
		"venue_id": "yelpi0DvXKkPTHQC4HOnp8Z2Zg",
		"venue_name": "Shake Shack",
		"latitude": 41.881664,
		"longitude": -87.624969,
		"address1": "12 S Michigan Ave",
		"address2": "",
		"address3": "",
		"city": "Chicago",
		"state": "IL",
		"zip_code": "60603"
	},
	{
		"venue_id": "yelpRs2n1VDDD6pkQqexBAJJ0w",
		"venue_name": "Hamburger Mary's",
		"latitude": 41.97997,
		"longitude": -87.66851,
		"address1": "5400 N Clark St",
		"address2": null,
		"address3": "",
		"city": "Chicago",
		"state": "IL",
		"zip_code": "60640"
	},
	{
		"venue_id": "yelpq9AUsrYTakTMIHJkKA_EIQ",
		"venue_name": "Exchequer Restaurant & Pub",
		"latitude": 41.8787384660152,
		"longitude": -87.6263198788816,
		"address1": "226 S Wabash Ave",
		"address2": "",
		"address3": "",
		"city": "Chicago",
		"state": "IL",
		"zip_code": "60604"
	},
	{
		"venue_id": "yelpxsXMevIKJijVq2uNN6vILw",
		"venue_name": "Nookies Tree Restaurant",
		"latitude": 41.94277,
		"longitude": -87.6495009,
		"address1": "3334 N Halsted St",
		"address2": "",
		"address3": "",
		"city": "Chicago",
		"state": "IL",
		"zip_code": "60657"
	},
	{
		"venue_id": "yelpuKek_qN5dpJjnGB_aUkbQg",
		"venue_name": "Foodlife",
		"latitude": 41.898204,
		"longitude": -87.623811,
		"address1": "835 N Michigan Ave",
		"address2": "",
		"address3": "Water Tower Pl",
		"city": "Chicago",
		"state": "IL",
		"zip_code": "60611"
	},
	{
		"venue_id": "yelp1pPJ0QRipdFEx-qeu6CNKA",
		"venue_name": "The Budlong Hot Chicken",
		"latitude": 41.9182862,
		"longitude": -87.6539105,
		"address1": "1008 W Armitage",
		"address2": "",
		"address3": "",
		"city": "Chicago",
		"state": "IL",
		"zip_code": "60614"
	},
	{
		"venue_id": "yelp3ZM20Dzkfj7rhFE9aPU3Tw",
		"venue_name": "Drew's on Halsted",
		"latitude": 41.9403396556238,
		"longitude": -87.6491832733154,
		"address1": "3201 N Halsted St",
		"address2": "",
		"address3": "",
		"city": "Chicago",
		"state": "IL",
		"zip_code": "60657"
	},
	{
		"venue_id": "yelp1kySpL0s7cdFRHD8XbsonA",
		"venue_name": "Chicken Works & Salad Company",
		"latitude": 41.9538906,
		"longitude": -87.719712,
		"address1": "3658 W Irving Park Rd",
		"address2": "",
		"address3": "",
		"city": "Chicago",
		"state": "IL",
		"zip_code": "60618"
	},
	{
		"venue_id": "yelpdMEr_XitO-5S_ezNC6EYZQ",
		"venue_name": "Morton's The Steakhouse",
		"latitude": 41.8866557925648,
		"longitude": -87.625533703067,
		"address1": "65 E Wacker Pl",
		"address2": "",
		"address3": "",
		"city": "Chicago",
		"state": "IL",
		"zip_code": "60601"
	},
	{
		"venue_id": "yelphca2uWTIspeoW9r3FHZ1hA",
		"venue_name": "Bijan's Bistro",
		"latitude": 41.8940736918469,
		"longitude": -87.627911625864,
		"address1": "663 N State St",
		"address2": "",
		"address3": "",
		"city": "Chicago",
		"state": "IL",
		"zip_code": "60654"
	},
	{
		"venue_id": "yelpMPWQAGiEqvnI8uxzJFND8w",
		"venue_name": "The Monkey's Paw",
		"latitude": 41.927818,
		"longitude": -87.663743,
		"address1": "2524 N Southport Ave",
		"address2": "",
		"address3": "",
		"city": "Chicago",
		"state": "IL",
		"zip_code": "60614"
	},
	{
		"venue_id": "yelp0CN_2tV_loCinmpHBdeocA",
		"venue_name": "Moody's Pub",
		"latitude": 41.9893473,
		"longitude": -87.6603849,
		"address1": "5910 N Broadway St",
		"address2": "",
		"address3": "",
		"city": "Chicago",
		"state": "IL",
		"zip_code": "60660"
	},
	{
		"venue_id": "yelpFT0INMzZgvPsWUfEvI5wKA",
		"venue_name": "Saint Lou's Assembly",
		"latitude": 41.886,
		"longitude": -87.64522,
		"address1": "664 W Lake St",
		"address2": "",
		"address3": "",
		"city": "Chicago",
		"state": "IL",
		"zip_code": "60661"
	},
	{
		"venue_id": "yelpueYjBXauf5_qWULut9sqCQ",
		"venue_name": "6 Degrees",
		"latitude": 41.9169883728027,
		"longitude": -87.6772537231445,
		"address1": "1935 N Damen",
		"address2": "",
		"address3": "",
		"city": "Chicago",
		"state": "IL",
		"zip_code": "60647"
	},
	{
		"venue_id": "yelpZn-x7BKyOqh6vcVUZp-dGQ",
		"venue_name": "Orange",
		"latitude": 41.9429299,
		"longitude": -87.67896,
		"address1": "2011 W Roscoe St",
		"address2": "",
		"address3": "",
		"city": "Chicago",
		"state": "IL",
		"zip_code": "60618"
	},
	{
		"venue_id": "yelpqjD9L53B_pcgqVFw5z_GzA",
		"venue_name": "Prost",
		"latitude": 41.9284362792969,
		"longitude": -87.6533889770508,
		"address1": "2566 N Lincoln Ave",
		"address2": "",
		"address3": "",
		"city": "Chicago",
		"state": "IL",
		"zip_code": "60614"
	},
	{
		"venue_id": "yelpd9ORDdlxUS63gRAQuJg1VQ",
		"venue_name": "Rocks Lakeview",
		"latitude": 41.945222,
		"longitude": -87.6457269,
		"address1": "3463 N Broadway St",
		"address2": "",
		"address3": "",
		"city": "Chicago",
		"state": "IL",
		"zip_code": "60657"
	},
	{
		"venue_id": "yelp2K4oXmzdRhw1XNQ2WMviOw",
		"venue_name": "Edgebrook Coffee Shop",
		"latitude": 41.996961,
		"longitude": -87.764186,
		"address1": "6322 N Central Ave",
		"address2": "",
		"address3": "",
		"city": "Chicago",
		"state": "IL",
		"zip_code": "60646"
	},
	{
		"venue_id": "yelpT1962iGPSkR1zuvbxp2-Wg",
		"venue_name": "The Kerryman",
		"latitude": 41.8941723460691,
		"longitude": -87.631025205607,
		"address1": "661 N Clark St",
		"address2": null,
		"address3": "",
		"city": "Chicago",
		"state": "IL",
		"zip_code": "60654"
	},
	{
		"venue_id": "yelp47r1P7uKb1pTAyQXnKWVPg",
		"venue_name": "Blue Door Kitchen & Garden",
		"latitude": 41.9032749,
		"longitude": -87.6304693,
		"address1": "52 W Elm St",
		"address2": "",
		"address3": "",
		"city": "Chicago",
		"state": "IL",
		"zip_code": "60610"
	},
	{
		"venue_id": "yelpKj3D8EB8_H7_gOFhM96AMQ",
		"venue_name": "Patsy's Place",
		"latitude": 41.933349609375,
		"longitude": -87.6594009399414,
		"address1": "2825 N Lincoln Ave",
		"address2": "",
		"address3": "",
		"city": "Chicago",
		"state": "IL",
		"zip_code": "60657"
	},
	{
		"venue_id": "yelpN1cpx4ITHR0yuTFM6NfVOg",
		"venue_name": "Fifolet",
		"latitude": 41.90351,
		"longitude": -87.67653,
		"address1": "1942 W Division St",
		"address2": null,
		"address3": "",
		"city": "Chicago",
		"state": "IL",
		"zip_code": "60622"
	},
	{
		"venue_id": "yelpuM0bo8IaXddPZlIYfDSHhQ",
		"venue_name": "Miss Ricky's",
		"latitude": 41.8860646,
		"longitude": -87.6258528,
		"address1": "203 N Wabash Ave",
		"address2": "Virgin Hotels Chicago",
		"address3": "",
		"city": "Chicago",
		"state": "IL",
		"zip_code": "60601"
	},
	{
		"venue_id": "yelpVLWOyf29p5DXfXYcdkkGGw",
		"venue_name": "Blackwood BBQ",
		"latitude": 41.881133,
		"longitude": -87.6411791,
		"address1": "28 S Clinton St",
		"address2": "",
		"address3": "",
		"city": "Chicago",
		"state": "IL",
		"zip_code": "60661"
	},
	{
		"venue_id": "yelphVylIkf-04tJ2XWp5CF37A",
		"venue_name": "The Breakfast Club and Grill",
		"latitude": 41.8897408,
		"longitude": -87.6620571,
		"address1": "1381 W Hubbard St",
		"address2": "",
		"address3": "",
		"city": "Chicago",
		"state": "IL",
		"zip_code": "60642"
	},
	{
		"venue_id": "yelpElwgaHJp8wWawZwB3KYMcg",
		"venue_name": "Kirkwood Bar & Grill",
		"latitude": 41.93548,
		"longitude": -87.65431,
		"address1": "2934 N Sheffield Ave",
		"address2": "",
		"address3": "",
		"city": "Chicago",
		"state": "IL",
		"zip_code": "60657"
	},
	{
		"venue_id": "yelpnVFHTcIAhi5psUnRy3bCZQ",
		"venue_name": "Bagel Restaurant & Deli",
		"latitude": 41.9378348,
		"longitude": -87.6441564,
		"address1": "3107 N Broadway St",
		"address2": "",
		"address3": "",
		"city": "Chicago",
		"state": "IL",
		"zip_code": "60657"
	},
	{
		"venue_id": "yelpQtdN1l7srggbmpyEMa-UDg",
		"venue_name": "The Windsor",
		"latitude": 41.89524,
		"longitude": -87.6232,
		"address1": "160 E Huron St",
		"address2": "",
		"address3": "",
		"city": "Chicago",
		"state": "IL",
		"zip_code": "60611"
	},
	{
		"venue_id": "yelpit70fG4Ke0ZfnBjKt8zBLA",
		"venue_name": "Cozy Corner Restaurant & Pancake House",
		"latitude": 41.9318149,
		"longitude": -87.7360878,
		"address1": "4356 W Diversey Ave",
		"address2": null,
		"address3": "",
		"city": "Chicago",
		"state": "IL",
		"zip_code": "60639"
	},
	{
		"venue_id": "yelp4Mt8gqKi4RVABy2EYREdSg",
		"venue_name": "O'Donovan's",
		"latitude": 41.95442,
		"longitude": -87.68135,
		"address1": "2100 W Irving Park Rd",
		"address2": "",
		"address3": "",
		"city": "Chicago",
		"state": "IL",
		"zip_code": "60618"
	},
	{
		"venue_id": "yelpPCfWAWgdt3iDiTaUNUkygQ",
		"venue_name": "White Oak Tavern & Inn",
		"latitude": 41.92187,
		"longitude": -87.65869,
		"address1": "1200 W Webster Ave",
		"address2": "",
		"address3": "",
		"city": "Chicago",
		"state": "IL",
		"zip_code": "60614"
	},
	{
		"venue_id": "yelpedYoPJg10jfN_UFQiwtMpA",
		"venue_name": "Yolk West Loop",
		"latitude": 41.882068,
		"longitude": -87.640873,
		"address1": "500 W Madison St",
		"address2": "",
		"address3": "",
		"city": "Chicago",
		"state": "IL",
		"zip_code": "60661"
	},
	{
		"venue_id": "yelpVicO4_3Omx0CZ9B-SN4BEg",
		"venue_name": "Logan Bar and Grill",
		"latitude": 41.9225997924805,
		"longitude": -87.6976165771484,
		"address1": "2230 N California Ave",
		"address2": "",
		"address3": "",
		"city": "Chicago",
		"state": "IL",
		"zip_code": "60647"
	},
	{
		"venue_id": "yelpV4dvGAc0FEnT4dw6MEWyDA",
		"venue_name": "Old Town Pour House",
		"latitude": 41.908405,
		"longitude": -87.634502,
		"address1": "1419 N Wells St",
		"address2": "",
		"address3": "",
		"city": "Chicago",
		"state": "IL",
		"zip_code": "60610"
	},
	{
		"venue_id": "yelpPGs68MV_KCDG_hHNsLf2hg",
		"venue_name": "Kuma's Corner",
		"latitude": 41.886938,
		"longitude": -87.649608,
		"address1": "852 W Fulton Market",
		"address2": "",
		"address3": null,
		"city": "Chicago",
		"state": "IL",
		"zip_code": "60607"
	},
	{
		"venue_id": "yelp3HEJDAYnVmXrP0b5eMxGEQ",
		"venue_name": "Holiday Club",
		"latitude": 41.9546795826896,
		"longitude": -87.6547380163889,
		"address1": "4000 N Sheridan Rd",
		"address2": "",
		"address3": "",
		"city": "Chicago",
		"state": "IL",
		"zip_code": "60613"
	},
	{
		"venue_id": "yelpRBL0LuaABDWmurNOxUUejA",
		"venue_name": "White Palace Grill",
		"latitude": 41.8675498962402,
		"longitude": -87.6389694213867,
		"address1": "1159 S Canal St",
		"address2": "",
		"address3": "",
		"city": "Chicago",
		"state": "IL",
		"zip_code": "60607"
	},
	{
		"venue_id": "yelpm4tf0OEtJZCmeh2UadbnHQ",
		"venue_name": "Christina's Place",
		"latitude": 41.950182,
		"longitude": -87.707814,
		"address1": "3759 N Kedzie Ave",
		"address2": null,
		"address3": "",
		"city": "Chicago",
		"state": "IL",
		"zip_code": "60618"
	},
	{
		"venue_id": "yelpZjnqJ0K8hJBECUA5sVSUzg",
		"venue_name": "Jay's Beef",
		"latitude": 41.91014,
		"longitude": -87.68452,
		"address1": "2255 W North Ave",
		"address2": "",
		"address3": "",
		"city": "Chicago",
		"state": "IL",
		"zip_code": "60647"
	},
	{
		"venue_id": "yelpfEKUE_hIzur3XoHAzGOcvg",
		"venue_name": "Highline Bar + Lounge",
		"latitude": 41.88899,
		"longitude": -87.63376,
		"address1": "169 W Kinzie St",
		"address2": "",
		"address3": "",
		"city": "Chicago",
		"state": "IL",
		"zip_code": "60654"
	},
	{
		"venue_id": "yelp46pMibx7GjXvmn3_NY4vBw",
		"venue_name": "Peach's Restaurant",
		"latitude": 41.8095192033352,
		"longitude": -87.6169375968778,
		"address1": "4652 S King Dr",
		"address2": "",
		"address3": "",
		"city": "Chicago",
		"state": "IL",
		"zip_code": "60653"
	},
	{
		"venue_id": "yelpmajGt6w0H0i-9TtVwvu2Qg",
		"venue_name": "Kubo Chicago",
		"latitude": 41.94008,
		"longitude": -87.66026,
		"address1": "1232 W Belmont Ave",
		"address2": "",
		"address3": null,
		"city": "Chicago",
		"state": "IL",
		"zip_code": "60657"
	},
	{
		"venue_id": "yelpdGfNWW68dOxs6MnDrOoprQ",
		"venue_name": "Beat Kitchen",
		"latitude": 41.9398,
		"longitude": -87.68094,
		"address1": "2100 W Belmont Ave",
		"address2": "",
		"address3": "",
		"city": "Chicago",
		"state": "IL",
		"zip_code": "60618"
	},
	{
		"venue_id": "yelpeb6IET4rA1A0uqO5j7gb4g",
		"venue_name": "Jefferson Tap & Grille",
		"latitude": 41.88759,
		"longitude": -87.64264,
		"address1": "325 N Jefferson St",
		"address2": "",
		"address3": "",
		"city": "Chicago",
		"state": "IL",
		"zip_code": "60661"
	},
	{
		"venue_id": "yelpwKALRxtQGYY6n6ZCdvOfYw",
		"venue_name": "Cozy Corner Restaurant & Pancake House",
		"latitude": 41.9978140900357,
		"longitude": -87.6701842993498,
		"address1": "6349 N Clark St",
		"address2": "",
		"address3": null,
		"city": "Chicago",
		"state": "IL",
		"zip_code": "60660"
	},
	{
		"venue_id": "yelpfGiQ5IqkiC_XnSJMCuq3ew",
		"venue_name": "High Dive",
		"latitude": 41.8962,
		"longitude": -87.67617,
		"address1": "1938 W Chicago Ave",
		"address2": null,
		"address3": "",
		"city": "Chicago",
		"state": "IL",
		"zip_code": "60622"
	},
	{
		"venue_id": "yelp9y30CRO7Asv8nO25gLlKMA",
		"venue_name": "Byron's Hot Dog Haus",
		"latitude": 41.9544224086347,
		"longitude": -87.6555032216082,
		"address1": "1017 W Irving Park Rd",
		"address2": "",
		"address3": "",
		"city": "Chicago",
		"state": "IL",
		"zip_code": "60613"
	},
	{
		"venue_id": "yelpImhpnauVGmb8XmW2LYAcGg",
		"venue_name": "Pete's Pizza & Restaurant",
		"latitude": 41.94968,
		"longitude": -87.68794,
		"address1": "3737 N Western Ave",
		"address2": "",
		"address3": "",
		"city": "Chicago",
		"state": "IL",
		"zip_code": "60618"
	},
	{
		"venue_id": "yelpUrZ3VPmKz_qqcAJL188-hA",
		"venue_name": "Streeter's Tavern",
		"latitude": 41.8968133010677,
		"longitude": -87.6259952814984,
		"address1": "50 E Chicago Ave",
		"address2": "",
		"address3": "",
		"city": "Chicago",
		"state": "IL",
		"zip_code": "60611"
	},
	{
		"venue_id": "yelpafmAYNXgvG5Te9bsvzJPXA",
		"venue_name": "Johnnie's Snack Shop",
		"latitude": 41.8849019,
		"longitude": -87.6475595,
		"address1": "160 N Halsted St",
		"address2": "",
		"address3": "",
		"city": "Chicago",
		"state": "IL",
		"zip_code": "60661"
	},
	{
		"venue_id": "yelpHdX3XN6qHPWR9qOHfBuyDw",
		"venue_name": "Bottom Lounge",
		"latitude": 41.88505,
		"longitude": -87.66177,
		"address1": "1375 W Lake St",
		"address2": "",
		"address3": "",
		"city": "Chicago",
		"state": "IL",
		"zip_code": "60607"
	},
	{
		"venue_id": "yelpH5KmGWVvfWt7eOVJNnSyTQ",
		"venue_name": "Sully's House",
		"latitude": 41.9086799,
		"longitude": -87.64907,
		"address1": "1501 N Dayton St",
		"address2": "",
		"address3": "",
		"city": "Chicago",
		"state": "IL",
		"zip_code": "60642"
	},
	{
		"venue_id": "yelp7MWJNoH1UI7XTdAQEeJieA",
		"venue_name": "Daily Bar & Grill",
		"latitude": 41.9647911,
		"longitude": -87.6861706,
		"address1": "4560 N Lincoln Ave",
		"address2": "",
		"address3": "",
		"city": "Chicago",
		"state": "IL",
		"zip_code": "60625"
	},
	{
		"venue_id": "yelpJ-jDDJYyPPsLg84jbJntfA",
		"venue_name": "Village Tap",
		"latitude": 41.94292,
		"longitude": -87.68061,
		"address1": "2055 W Roscoe St",
		"address2": "",
		"address3": "",
		"city": "Chicago",
		"state": "IL",
		"zip_code": "60618"
	},
	{
		"venue_id": "yelpWRlmjigCVnxdzJpVggqdNg",
		"venue_name": "Good Stuff Eatery",
		"latitude": 41.881381,
		"longitude": -87.626695,
		"address1": "22 S Wabash Ave",
		"address2": "",
		"address3": "",
		"city": "Chicago",
		"state": "IL",
		"zip_code": "60603"
	},
	{
		"venue_id": "yelpIAzDMGiX85Mng3dQu4JVOQ",
		"venue_name": "The Chicago Teachers' Lounge & Eatery",
		"latitude": 41.90267,
		"longitude": -87.69048,
		"address1": "2525 W Division St",
		"address2": "",
		"address3": null,
		"city": "Chicago",
		"state": "IL",
		"zip_code": "60622"
	},
	{
		"venue_id": "yelp9cNk-GPn0D_ZalDjGR9vGg",
		"venue_name": "Fireside Restaurant",
		"latitude": 41.9861937390532,
		"longitude": -87.6745010637543,
		"address1": "5739 N Ravenswood Ave",
		"address2": "",
		"address3": "",
		"city": "Chicago",
		"state": "IL",
		"zip_code": "60660"
	},
	{
		"venue_id": "yelpH_253MJ9O_3QFInYPVWA6g",
		"venue_name": "Chicago Waffles",
		"latitude": 41.8636916138122,
		"longitude": -87.6242473934512,
		"address1": "1400 S Michigan Ave",
		"address2": "",
		"address3": "",
		"city": "Chicago",
		"state": "IL",
		"zip_code": "60605"
	},
	{
		"venue_id": "yelpr7Ur-1qv5zj98oT7-5RzoA",
		"venue_name": "Replay - Andersonville",
		"latitude": 41.97969,
		"longitude": -87.66861,
		"address1": "5358 N Clark St",
		"address2": "",
		"address3": "",
		"city": "Chicago",
		"state": "IL",
		"zip_code": "60640"
	},
	{
		"venue_id": "yelpD_z82lpxA7NHz6haG6tFCA",
		"venue_name": "Joey G's Mac & Cheese",
		"latitude": 41.8992818235698,
		"longitude": -87.6864664523301,
		"address1": "2351 W Augusta",
		"address2": null,
		"address3": "",
		"city": "Chicago",
		"state": "IL",
		"zip_code": "60622"
	},
	{
		"venue_id": "yelpUjoGRqKMSI1V0f3BsOyPhQ",
		"venue_name": "John's Place",
		"latitude": 41.9433864,
		"longitude": -87.6822529,
		"address1": "2132 W Roscoe St",
		"address2": "",
		"address3": "",
		"city": "Chicago",
		"state": "IL",
		"zip_code": "60618"
	},
	{
		"venue_id": "yelpT2Gcdw73pfSsVaK0hu9i6g",
		"venue_name": "Bodega Sur",
		"latitude": 41.9503739,
		"longitude": -87.6639039,
		"address1": "3755 N Southport",
		"address2": null,
		"address3": "",
		"city": "Chicago",
		"state": "IL",
		"zip_code": "60613"
	},
	{
		"venue_id": "yelpSHPAkvXU5gKDkhYGjlhVTw",
		"venue_name": "The Other Side Bar",
		"latitude": 41.9264914889361,
		"longitude": -87.6411862267855,
		"address1": "2436 N Clark St",
		"address2": null,
		"address3": "",
		"city": "Chicago",
		"state": "IL",
		"zip_code": "60614"
	},
	{
		"venue_id": "yelpZTn2YtEFijkqlrFwa9aBsw",
		"venue_name": "Estelle's",
		"latitude": 41.9105210720695,
		"longitude": -87.6782602371864,
		"address1": "2013 W North Ave",
		"address2": "",
		"address3": "",
		"city": "Chicago",
		"state": "IL",
		"zip_code": "60647"
	},
	{
		"venue_id": "yelpHFge4uLax4OGxDpJSgUdqQ",
		"venue_name": "Northside Bar & Grill",
		"latitude": 41.9115333557129,
		"longitude": -87.6771469116211,
		"address1": "1635 N Damen Ave",
		"address2": "",
		"address3": "",
		"city": "Chicago",
		"state": "IL",
		"zip_code": "60647"
	},
	{
		"venue_id": "yelpAaPS1hh83RZhC2mX7EwPpw",
		"venue_name": "Tommy Gun's Garage",
		"latitude": 41.853588,
		"longitude": -87.6256149,
		"address1": "2114 S Wabash Ave",
		"address2": "",
		"address3": "",
		"city": "Chicago",
		"state": "IL",
		"zip_code": "60616"
	},
	{
		"venue_id": "yelpKo8z8Oag0DOk2VlFOTt6Hw",
		"venue_name": "Flagship Tavern and Grill",
		"latitude": 41.9399299621582,
		"longitude": -87.6696166992188,
		"address1": "1622 W Belmont Ave",
		"address2": "",
		"address3": "",
		"city": "Chicago",
		"state": "IL",
		"zip_code": "60657"
	},
	{
		"venue_id": "yelpT-0bJBVbqrYn_9x1_5a0gA",
		"venue_name": "Schoolyard Tavern & Grill",
		"latitude": 41.94146,
		"longitude": -87.66418,
		"address1": "3258 N Southport Ave",
		"address2": "",
		"address3": "",
		"city": "Chicago",
		"state": "IL",
		"zip_code": "60657"
	},
	{
		"venue_id": "yelp4_r4JEyDjmE7U1-kp5tf8w",
		"venue_name": "The CrossRoads Bar & Grill",
		"latitude": 41.88188,
		"longitude": -87.65533,
		"address1": "1120 W Madison St",
		"address2": "",
		"address3": "",
		"city": "Chicago",
		"state": "IL",
		"zip_code": "60607"
	},
	{
		"venue_id": "yelpFyvouCiuAMJ_odeEAEQGxw",
		"venue_name": "Ranalli's",
		"latitude": 41.9172221208955,
		"longitude": -87.6368708980533,
		"address1": "1925 N Lincoln Ave",
		"address2": null,
		"address3": "",
		"city": "Chicago",
		"state": "IL",
		"zip_code": "60614"
	},
	{
		"venue_id": "yelpUH881XoEcglrE1NR7dhr9w",
		"venue_name": "Erie Cafe",
		"latitude": 41.894254,
		"longitude": -87.642657,
		"address1": "536 W Erie St",
		"address2": null,
		"address3": "",
		"city": "Chicago",
		"state": "IL",
		"zip_code": "60654"
	},
	{
		"venue_id": "yelpZDFETj5PzK5ADseNp0U7eQ",
		"venue_name": "Golden Apple Grill & Breakfast House",
		"latitude": 41.9359408869827,
		"longitude": -87.6631273417081,
		"address1": "2971 N Lincoln Ave",
		"address2": "",
		"address3": "",
		"city": "Chicago",
		"state": "IL",
		"zip_code": "60657"
	},
	{
		"venue_id": "yelp__Cyg8dz3HY6tKuOYk0X7w",
		"venue_name": "Original Alps Pancake House",
		"latitude": 41.95345,
		"longitude": -87.71927,
		"address1": "3637 W Irving Park Rd",
		"address2": "",
		"address3": "",
		"city": "Chicago",
		"state": "IL",
		"zip_code": "60618"
	},
	{
		"venue_id": "yelpVvFxS5AjoEK9A0nBNYUl-Q",
		"venue_name": "Dark Horse Tap & Grille",
		"latitude": 41.9448623657227,
		"longitude": -87.6539077758789,
		"address1": "3443 N Sheffield Ave",
		"address2": "",
		"address3": "",
		"city": "Chicago",
		"state": "IL",
		"zip_code": "60657"
	},
	{
		"venue_id": "yelp4Y89mlOgTwozQAmf453dMw",
		"venue_name": "Fort Willow",
		"latitude": 41.9138,
		"longitude": -87.66401,
		"address1": "1721 N Elston Ave",
		"address2": null,
		"address3": "",
		"city": "Chicago",
		"state": "IL",
		"zip_code": "60642"
	},
	{
		"venue_id": "yelpR14gVPD03T4KFTlmuhNZQQ",
		"venue_name": "Krolls South Loop",
		"latitude": 41.858036,
		"longitude": -87.62442,
		"address1": "1736 S Michigan Ave",
		"address2": "",
		"address3": "",
		"city": "Chicago",
		"state": "IL",
		"zip_code": "60616"
	},
	{
		"venue_id": "yelpADvyx_tqnESKuKEfowgzyg",
		"venue_name": "Weather Mark Tavern",
		"latitude": 41.861839,
		"longitude": -87.623558,
		"address1": "1503 S Michigan Ave",
		"address2": "",
		"address3": "",
		"city": "Chicago",
		"state": "IL",
		"zip_code": "60605"
	},
	{
		"venue_id": "yelp4x-JbY_XAybRGM6WQHF7HQ",
		"venue_name": "Lark",
		"latitude": 41.944925023994,
		"longitude": -87.6492559999702,
		"address1": "3441 N Halsted St",
		"address2": "",
		"address3": null,
		"city": "Chicago",
		"state": "IL",
		"zip_code": "60657"
	},
	{
		"venue_id": "yelpiYZZmQGHC28G-oZcIa4CUw",
		"venue_name": "Sidebar Grille",
		"latitude": 41.886501,
		"longitude": -87.63198,
		"address1": "221 N La Salle St",
		"address2": null,
		"address3": "",
		"city": "Chicago",
		"state": "IL",
		"zip_code": "60601"
	},
	{
		"venue_id": "yelpMCT54u_suCuc_2L8wotYgw",
		"venue_name": "Park View Diner",
		"latitude": 41.85608,
		"longitude": -87.6761,
		"address1": "2000 W 19th St",
		"address2": "",
		"address3": "",
		"city": "Chicago",
		"state": "IL",
		"zip_code": "60608"
	},
	{
		"venue_id": "yelp8BREfD__Pl20Uxr377oZrQ",
		"venue_name": "Burke's Public House",
		"latitude": 41.980294,
		"longitude": -87.659732,
		"address1": "5401 N Broadway St",
		"address2": "",
		"address3": "",
		"city": "Chicago",
		"state": "IL",
		"zip_code": "60640"
	},
	{
		"venue_id": "yelpdSuIjAJ6KwQfblBz4WtHmg",
		"venue_name": "Atlantic Bar & Grill",
		"latitude": 41.9733543395996,
		"longitude": -87.6920013427734,
		"address1": "5062 N Lincoln Ave",
		"address2": "",
		"address3": "",
		"city": "Chicago",
		"state": "IL",
		"zip_code": "60625"
	},
	{
		"venue_id": "yelpow4nbP42cVK5zQxiW4D86A",
		"venue_name": "Plymouth Rooftop Bar & Grill",
		"latitude": 41.877483,
		"longitude": -87.6284529,
		"address1": "327 S Plymouth Ct",
		"address2": null,
		"address3": "",
		"city": "Chicago",
		"state": "IL",
		"zip_code": "60604"
	},
	{
		"venue_id": "yelpZ5khNz2bKf8UC2d13z8diQ",
		"venue_name": "Reggies Music Joint",
		"latitude": 41.853969,
		"longitude": -87.626754,
		"address1": "2105 S State St",
		"address2": "",
		"address3": "",
		"city": "Chicago",
		"state": "IL",
		"zip_code": "60616"
	},
	{
		"venue_id": "yelpIls2x1abG_8kdno7U9mdXA",
		"venue_name": "Joe's On Weed St",
		"latitude": 41.9098573,
		"longitude": -87.6529298,
		"address1": "940 W Weed St",
		"address2": "",
		"address3": "",
		"city": "Chicago",
		"state": "IL",
		"zip_code": "60642"
	},
	{
		"venue_id": "yelpF73xWeDRwTl7HnyTt-4Ssw",
		"venue_name": "The Walnut Room",
		"latitude": 41.8838107238422,
		"longitude": -87.6270385870331,
		"address1": "111 N State St",
		"address2": "",
		"address3": null,
		"city": "Chicago",
		"state": "IL",
		"zip_code": "60602"
	},
	{
		"venue_id": "yelppi_ckl5GTJXsCAMB__Cogg",
		"venue_name": "Asada Mexican Grill",
		"latitude": 41.8852898915081,
		"longitude": -87.6340918936048,
		"address1": "180 N Wells St",
		"address2": "",
		"address3": "",
		"city": "Chicago",
		"state": "IL",
		"zip_code": "60606"
	},
	{
		"venue_id": "yelpTR5aMT-mE4SWGUySGb16Yg",
		"venue_name": "Hollywood Grill",
		"latitude": 41.910384224074,
		"longitude": -87.6680632177234,
		"address1": "1601 W North Ave",
		"address2": "",
		"address3": "",
		"city": "Chicago",
		"state": "IL",
		"zip_code": "60622"
	},
	{
		"venue_id": "yelp8ti8_VsFJsNZBbgtSAcjqg",
		"venue_name": "Yolk Lakeview",
		"latitude": 41.9326719,
		"longitude": -87.6416322,
		"address1": "501 W Diversey Pkwy",
		"address2": "",
		"address3": "",
		"city": "Chicago",
		"state": "IL",
		"zip_code": "60614"
	},
	{
		"venue_id": "yelpf1o7z7cDeVUkC_PgQFSTdQ",
		"venue_name": "Martyrs'",
		"latitude": 41.952075958252,
		"longitude": -87.6768493652344,
		"address1": "3855 N Lincoln Ave",
		"address2": "",
		"address3": "",
		"city": "Chicago",
		"state": "IL",
		"zip_code": "60613"
	},
	{
		"venue_id": "yelpZEMq3D_5g75MCiEjTmX2RQ",
		"venue_name": "Corcoran's Grill & Pub",
		"latitude": 41.911595933221,
		"longitude": -87.634563953161,
		"address1": "1615 N Wells St",
		"address2": "",
		"address3": "",
		"city": "Chicago",
		"state": "IL",
		"zip_code": "60614"
	},
	{
		"venue_id": "yelpOs85pJjWUMyOmnkcI3PjHQ",
		"venue_name": "Budweiser Brickhouse Tavern",
		"latitude": 41.9486470237526,
		"longitude": -87.6570959453276,
		"address1": "3647 N Clark St",
		"address2": "",
		"address3": null,
		"city": "Chicago",
		"state": "IL",
		"zip_code": "60613"
	},
	{
		"venue_id": "yelpLKMk7qm9quGgDezfqU-M_w",
		"venue_name": "Bridget McNeill's",
		"latitude": 41.94021,
		"longitude": -87.64054,
		"address1": "420 W Belmont Ave",
		"address2": "",
		"address3": "",
		"city": "Chicago",
		"state": "IL",
		"zip_code": "60657"
	},
	{
		"venue_id": "yelp3ROYyggfgyTUFvvJzc_gzg",
		"venue_name": "Bulldog Ale House",
		"latitude": 42.00284,
		"longitude": -87.66124,
		"address1": "6606 N Sherdian Rd",
		"address2": null,
		"address3": "",
		"city": "Chicago",
		"state": "IL",
		"zip_code": "60626"
	},
	{
		"venue_id": "yelp7qx9FzAOHxj5z3m5HBRJWw",
		"venue_name": "Maillard Tavern",
		"latitude": 41.89091,
		"longitude": -87.64744,
		"address1": "494 N Milwaukee Ave",
		"address2": "",
		"address3": null,
		"city": "Chicago",
		"state": "IL",
		"zip_code": "60654"
	},
	{
		"venue_id": "yelpHmZPTPbozz_IeCxWhVpy_w",
		"venue_name": "SPIN Chicago",
		"latitude": 41.8886647,
		"longitude": -87.6282297735412,
		"address1": "344 N State St",
		"address2": "",
		"address3": "",
		"city": "Chicago",
		"state": "IL",
		"zip_code": "60654"
	},
	{
		"venue_id": "yelpjbsk2BOyuTD_XjGlQQ_Nfw",
		"venue_name": "Devour 312",
		"latitude": 41.92175,
		"longitude": -87.66502,
		"address1": "1450 W Webster Ave",
		"address2": null,
		"address3": "",
		"city": "Chicago",
		"state": "IL",
		"zip_code": "60614"
	},
	{
		"venue_id": "yelpwCInY_j0yx4AwWyxQMPu8Q",
		"venue_name": "Wells On Wells",
		"latitude": 41.911678770959,
		"longitude": -87.634554035293,
		"address1": "1617 N Wells St",
		"address2": null,
		"address3": "",
		"city": "Chicago",
		"state": "IL",
		"zip_code": "60614"
	},
	{
		"venue_id": "yelp65mNgs-yworq88-NqlA5OQ",
		"venue_name": "IHOP",
		"latitude": 41.95092,
		"longitude": -87.64989,
		"address1": "3760 N Halsted St",
		"address2": "",
		"address3": "",
		"city": "Chicago",
		"state": "IL",
		"zip_code": "60613"
	},
	{
		"venue_id": "yelpvH-TiqOD-ZBQC1f7tBp_1w",
		"venue_name": "Stretch Bar & Grill",
		"latitude": 41.9456991,
		"longitude": -87.6552067,
		"address1": "3485 N Clark St",
		"address2": "",
		"address3": "",
		"city": "Chicago",
		"state": "IL",
		"zip_code": "60657"
	},
	{
		"venue_id": "yelpEHJgbrfqv0b8zGkk9SCA0A",
		"venue_name": "Golden Nugget Pancake House",
		"latitude": 41.9686615445569,
		"longitude": -87.6738961410109,
		"address1": "1765 W Lawrence Ave",
		"address2": "",
		"address3": "",
		"city": "Chicago",
		"state": "IL",
		"zip_code": "60640"
	},
	{
		"venue_id": "yelprYUYa1bZswTIv6mNFrDU2g",
		"venue_name": "Fernando's Tequila Bar & Restaurant",
		"latitude": 41.9445057,
		"longitude": -87.6722285,
		"address1": "3450 N Lincoln Ave",
		"address2": "",
		"address3": "",
		"city": "Chicago",
		"state": "IL",
		"zip_code": "60657"
	},
	{
		"venue_id": "yelpaioVFML-exUzW794nbtrJw",
		"venue_name": "L & L Tavern",
		"latitude": 41.9401871,
		"longitude": -87.6506474,
		"address1": "3207 N Clark St",
		"address2": null,
		"address3": "",
		"city": "Chicago",
		"state": "IL",
		"zip_code": "60657"
	},
	{
		"venue_id": "yelpRE-hUrq8ZstjW0kAplqlRg",
		"venue_name": "Seven On State",
		"latitude": 41.88421,
		"longitude": -87.62738,
		"address1": "111 N State St",
		"address2": "Fl 7",
		"address3": "",
		"city": "Chicago",
		"state": "IL",
		"zip_code": "60686"
	},
	{
		"venue_id": "yelph55Sp__WKhXMo6lR5shf_A",
		"venue_name": "Standard Bar & Grill",
		"latitude": 41.9058144436958,
		"longitude": -87.6706091132366,
		"address1": "1332 N Milwaukee Ave",
		"address2": "",
		"address3": "",
		"city": "Chicago",
		"state": "IL",
		"zip_code": "60622"
	},
	{
		"venue_id": "yelpRx7Ig5gBISFtGHrviH0cFg",
		"venue_name": "Hutch American Cafe River North",
		"latitude": 41.8933639526367,
		"longitude": -87.6389923095703,
		"address1": "416 W Ontario St",
		"address2": "",
		"address3": null,
		"city": "Chicago",
		"state": "IL",
		"zip_code": "60654"
	},
	{
		"venue_id": "yelpmBvq0FTzh5FY8aQ-xJ4R2Q",
		"venue_name": "Stocks and Blondes",
		"latitude": 41.88283885471,
		"longitude": -87.634022155078,
		"address1": "40 N Wells St",
		"address2": "",
		"address3": "",
		"city": "Chicago",
		"state": "IL",
		"zip_code": "60606"
	},
	{
		"venue_id": "yelp2NnsEs0Q55VzE43d1hfpWQ",
		"venue_name": "Home Run Inn Pizza - 31st Street in Chicago",
		"latitude": 41.83681,
		"longitude": -87.73133,
		"address1": "4254 W 31st St",
		"address2": "",
		"address3": "",
		"city": "Chicago",
		"state": "IL",
		"zip_code": "60623"
	},
	{
		"venue_id": "yelpZWo2QZMOl4J2peJBBmorGg",
		"venue_name": "Coq D'or Restaurant & Lounge",
		"latitude": 41.900424,
		"longitude": -87.623372,
		"address1": "140 E Walton St",
		"address2": "",
		"address3": "",
		"city": "Chicago",
		"state": "IL",
		"zip_code": "60611"
	},
	{
		"venue_id": "yelpnsbsMpbSB7bjQcqoYbKMyg",
		"venue_name": "The Beetle Bar and Grill",
		"latitude": 41.895972,
		"longitude": -87.69075,
		"address1": "2532 W Chicago Ave",
		"address2": "",
		"address3": "",
		"city": "Chicago",
		"state": "IL",
		"zip_code": "60622"
	},
	{
		"venue_id": "yelpjtZQ3994EPIkrd785rI7Lw",
		"venue_name": "Kings Dining & Entertainment - Chicago Lincoln Park",
		"latitude": 41.908376,
		"longitude": -87.646838,
		"address1": "1500 N Clybourn Ave",
		"address2": "Ste C102",
		"address3": "",
		"city": "Chicago",
		"state": "IL",
		"zip_code": "60610"
	},
	{
		"venue_id": "yelpcS29vlc_RbqF8vW0mYGR2A",
		"venue_name": "F. O'Mahony's",
		"latitude": 41.94941,
		"longitude": -87.64827,
		"address1": "3701 N Broadway St",
		"address2": "",
		"address3": "",
		"city": "Chicago",
		"state": "IL",
		"zip_code": "60613"
	},
	{
		"venue_id": "yelpceTrCRZ1Ah1xhzJkLPBYVw",
		"venue_name": "Select Cut Steak House",
		"latitude": 41.932973,
		"longitude": -87.649073,
		"address1": "2808 N Halsted St",
		"address2": "",
		"address3": "",
		"city": "Chicago",
		"state": "IL",
		"zip_code": "60657"
	},
	{
		"venue_id": "yelpJZNB3CsNgVCRHNDjC-jHkg",
		"venue_name": "Highway House",
		"latitude": 41.98424,
		"longitude": -87.78425,
		"address1": "5653 N Northwest Hwy",
		"address2": "",
		"address3": "",
		"city": "Chicago",
		"state": "IL",
		"zip_code": "60646"
	},
	{
		"venue_id": "yelp_2yLZPQzWwA7JdG9FyIyhw",
		"venue_name": "Hops & Barley's",
		"latitude": 41.9604221,
		"longitude": -87.7540821,
		"address1": "4359 N Milwaukee Ave",
		"address2": null,
		"address3": "",
		"city": "Chicago",
		"state": "IL",
		"zip_code": "60641"
	},
	{
		"venue_id": "yelpG-5CSazmgLqUa06R781uLw",
		"venue_name": "Lincoln Station",
		"latitude": 41.9260844,
		"longitude": -87.6499007,
		"address1": "2432 N Lincoln Ave",
		"address2": "Ste 1",
		"address3": "",
		"city": "Chicago",
		"state": "IL",
		"zip_code": "60614"
	},
	{
		"venue_id": "yelpjosFrCzka4SvhGzfHFCg9Q",
		"venue_name": "Patio Beef",
		"latitude": 41.991523,
		"longitude": -87.66057,
		"address1": "6022 N Broadway",
		"address2": "",
		"address3": "",
		"city": "Chicago",
		"state": "IL",
		"zip_code": "60660"
	},
	{
		"venue_id": "yelpg4keNU0pt9iFYPgaYfnczQ",
		"venue_name": "West On North",
		"latitude": 41.90998,
		"longitude": -87.6901199,
		"address1": "2509 W North Ave",
		"address2": "",
		"address3": "",
		"city": "Chicago",
		"state": "IL",
		"zip_code": "60622"
	},
	{
		"venue_id": "yelpvcaWSDxvol3Mlsq4VEhMUA",
		"venue_name": "Dickens Street Public House",
		"latitude": 41.9200216,
		"longitude": -87.6414115,
		"address1": "2060 N Cleveland Ave",
		"address2": "",
		"address3": "",
		"city": "Chicago",
		"state": "IL",
		"zip_code": "60614"
	},
	{
		"venue_id": "yelphEzNLNWkGvdJmPELDz_X_g",
		"venue_name": "Byron's Hot Dog",
		"latitude": 41.9687251,
		"longitude": -87.671074,
		"address1": "1701 W Lawrence Ave",
		"address2": "",
		"address3": "",
		"city": "Chicago",
		"state": "IL",
		"zip_code": "60640"
	},
	{
		"venue_id": "yelpO1wEEgUbCjl_g7GdleLAEg",
		"venue_name": "Standing Room Only",
		"latitude": 41.8740105,
		"longitude": -87.6293545,
		"address1": "610 S Dearborn St",
		"address2": "",
		"address3": "",
		"city": "Chicago",
		"state": "IL",
		"zip_code": "60605"
	},
	{
		"venue_id": "yelpNBhDx8iEnVmxO27oMHt5kg",
		"venue_name": "Avenue Tavern",
		"latitude": 41.935461,
		"longitude": -87.644454,
		"address1": "2916 N Broadway St",
		"address2": "",
		"address3": "",
		"city": "Chicago",
		"state": "IL",
		"zip_code": "60657"
	},
	{
		"venue_id": "yelpvJ05XyPJnzUyi4nGcA2NRA",
		"venue_name": "Blaze-N-Grill",
		"latitude": 41.9974930811907,
		"longitude": -87.7883696977334,
		"address1": "6400 N Milwaukee Ave",
		"address2": "",
		"address3": "",
		"city": "Chicago",
		"state": "IL",
		"zip_code": "60631"
	},
	{
		"venue_id": "yelpJCVyxVM_fLsjGlgHUXeR1w",
		"venue_name": "Commonwealth",
		"latitude": 41.94349,
		"longitude": -87.67862,
		"address1": "2000 Roscoe St",
		"address2": null,
		"address3": "",
		"city": "Chicago",
		"state": "IL",
		"zip_code": "60618"
	},
	{
		"venue_id": "yelpl6sShHJj-N6uCjImDm4hDQ",
		"venue_name": "Carson's",
		"latitude": 41.8909851,
		"longitude": -87.6149193,
		"address1": "465 E Illinois St",
		"address2": "",
		"address3": null,
		"city": "Chicago",
		"state": "IL",
		"zip_code": "60611"
	},
	{
		"venue_id": "yelprvKhV_bht0WAJ2V-C85Ugw",
		"venue_name": "Woodhaven Bar and Kitchen",
		"latitude": 41.8952699,
		"longitude": -87.63158,
		"address1": "712 N Clark St",
		"address2": null,
		"address3": "",
		"city": "Chicago",
		"state": "IL",
		"zip_code": "60654"
	},
	{
		"venue_id": "yelpI7wsZrUFrex9OSIHP-nwrw",
		"venue_name": "Commons Club",
		"latitude": 41.8860699,
		"longitude": -87.62603,
		"address1": "203 N Wabash Ave",
		"address2": "",
		"address3": "",
		"city": "Chicago",
		"state": "IL",
		"zip_code": "60601"
	},
	{
		"venue_id": "yelp8hioSQ9DWbtChDWRS_RglQ",
		"venue_name": "Gideon Welles",
		"latitude": 41.9633249818403,
		"longitude": -87.6853008940816,
		"address1": "4500 N Lincoln Ave",
		"address2": "",
		"address3": "",
		"city": "Chicago",
		"state": "IL",
		"zip_code": "60625"
	},
	{
		"venue_id": "yelpWbM25ulbhNDlHLXAeaO2qw",
		"venue_name": "The Anthem",
		"latitude": 41.902985,
		"longitude": -87.670929,
		"address1": "1725 W Division St",
		"address2": "",
		"address3": "",
		"city": "Chicago",
		"state": "IL",
		"zip_code": "60622"
	},
	{
		"venue_id": "yelpklPMlcLglNWbiO5NFlwUuQ",
		"venue_name": "Charcoal Delights",
		"latitude": 41.9754791259766,
		"longitude": -87.7078018188477,
		"address1": "3139 W Foster Ave",
		"address2": "",
		"address3": "",
		"city": "Chicago",
		"state": "IL",
		"zip_code": "60625"
	},
	{
		"venue_id": "yelp38gt6s_jrOlnjHhHAODXXA",
		"venue_name": "Cellars Market",
		"latitude": 41.878077,
		"longitude": -87.632192,
		"address1": "141 W Jackson Blvd",
		"address2": "",
		"address3": "",
		"city": "Chicago",
		"state": "IL",
		"zip_code": "60604"
	},
	{
		"venue_id": "yelpWwwLeItKFssp7a9_9OnAPQ",
		"venue_name": "The Pony Inn",
		"latitude": 41.93994,
		"longitude": -87.67019,
		"address1": "1638 W Belmont Ave",
		"address2": "",
		"address3": "",
		"city": "Chicago",
		"state": "IL",
		"zip_code": "60657"
	},
	{
		"venue_id": "yelprgCMC5WRAUnyCJtRn0xAJA",
		"venue_name": "D' Nuez",
		"latitude": 41.81845,
		"longitude": -87.69651,
		"address1": "4125 S Archer Ave",
		"address2": "Fl 1",
		"address3": "",
		"city": "Chicago",
		"state": "IL",
		"zip_code": "60632"
	},
	{
		"venue_id": "yelpwsja_vbLuRYTksE2TMMJUw",
		"venue_name": "Duffy's Tavern and Grille",
		"latitude": 41.9331855773926,
		"longitude": -87.640380859375,
		"address1": "420 W Diversey Pkwy",
		"address2": "",
		"address3": "",
		"city": "Chicago",
		"state": "IL",
		"zip_code": "60614"
	},
	{
		"venue_id": "yelpSWQxXlF7EnWDxz8I8pB6NQ",
		"venue_name": "The Hidden Shamrock",
		"latitude": 41.932285,
		"longitude": -87.648622,
		"address1": "2723 N Halsted St",
		"address2": "",
		"address3": "",
		"city": "Chicago",
		"state": "IL",
		"zip_code": "60614"
	},
	{
		"venue_id": "yelpEsB33iF0_DQqQdGdAluo3g",
		"venue_name": "Lion Head Pub",
		"latitude": 41.92317,
		"longitude": -87.64516,
		"address1": "2251 N Lincoln Ave",
		"address2": "",
		"address3": "",
		"city": "Chicago",
		"state": "IL",
		"zip_code": "60614"
	},
	{
		"venue_id": "yelp7tnzE7vTyXCVVcXXcqJOUw",
		"venue_name": "Huck Finn Restaurant",
		"latitude": 41.83191,
		"longitude": -87.67573,
		"address1": "3414 S Archer Ave",
		"address2": "",
		"address3": "",
		"city": "Chicago",
		"state": "IL",
		"zip_code": "60608"
	},
	{
		"venue_id": "yelpquRGe-Lj7WDKTOEV0RPZLg",
		"venue_name": "Castaways Bar & Grill",
		"latitude": 41.9135155873668,
		"longitude": -87.6241557031044,
		"address1": "1603 N Lake Shore Dr",
		"address2": "",
		"address3": "",
		"city": "Chicago",
		"state": "IL",
		"zip_code": "60614"
	},
	{
		"venue_id": "yelp8LYh8KtEPfqSN7mmzIZwrQ",
		"venue_name": "Harry Caray's 7th Inning Stretch",
		"latitude": 41.8980806217277,
		"longitude": -87.6220383122563,
		"address1": "835 N Michigan Ave",
		"address2": "Fl 7",
		"address3": "",
		"city": "Chicago",
		"state": "IL",
		"zip_code": "60611"
	},
	{
		"venue_id": "yelpeXdNb5B_XGp9tJeWjPhsKQ",
		"venue_name": "Jack and Ginger's",
		"latitude": 41.917952,
		"longitude": -87.679481,
		"address1": "2048 W Armitage Ave",
		"address2": "",
		"address3": "",
		"city": "Chicago",
		"state": "IL",
		"zip_code": "60647"
	},
	{
		"venue_id": "yelpSoZeRuczs4AECTVmTuHDRQ",
		"venue_name": "Kincade's",
		"latitude": 41.9183769226074,
		"longitude": -87.6529006958008,
		"address1": "950 W Armitage Ave",
		"address2": "",
		"address3": "",
		"city": "Chicago",
		"state": "IL",
		"zip_code": "60614"
	},
	{
		"venue_id": "yelpjhD3YftmGYeZtI1zbaohIQ",
		"venue_name": "The Tankard",
		"latitude": 41.9112526,
		"longitude": -87.6784449,
		"address1": "1635 N Milwaukee Ave",
		"address2": "",
		"address3": null,
		"city": "Chicago",
		"state": "IL",
		"zip_code": "60647"
	},
	{
		"venue_id": "yelpZb21dAdtz-Ufmddcal4fpA",
		"venue_name": "Zella",
		"latitude": 41.9175186157227,
		"longitude": -87.6584167480469,
		"address1": "1983 N Clybourn Ave",
		"address2": "",
		"address3": "",
		"city": "Chicago",
		"state": "IL",
		"zip_code": "60614"
	},
	{
		"venue_id": "yelpnjxGxEBvOz3KasdpYeB9RA",
		"venue_name": "Parrots Bar & Grill",
		"latitude": 41.9365104208507,
		"longitude": -87.6489125086175,
		"address1": "754 W Wellington Ave",
		"address2": "",
		"address3": "",
		"city": "Chicago",
		"state": "IL",
		"zip_code": "60657"
	},
	{
		"venue_id": "yelpjvU19JluvhvIsVyZMJdlXg",
		"venue_name": "Big Top Restaurant",
		"latitude": 41.9763718772576,
		"longitude": -87.7869019657373,
		"address1": "6348 W Higgins Ave",
		"address2": "",
		"address3": "",
		"city": "Chicago",
		"state": "IL",
		"zip_code": "60630"
	},
	{
		"venue_id": "yelp9Uf3_-RipRSKDmk405RsyQ",
		"venue_name": "Lucky Strike",
		"latitude": 41.8910981,
		"longitude": -87.6190833,
		"address1": "322 E Illinois St",
		"address2": "",
		"address3": "",
		"city": "Chicago",
		"state": "IL",
		"zip_code": "60611"
	},
	{
		"venue_id": "yelpPFf8Esfc-s1fmSSm-yxP5g",
		"venue_name": "McGee's",
		"latitude": 41.9218605,
		"longitude": -87.6531464,
		"address1": "950 W Webster Ave",
		"address2": "",
		"address3": "",
		"city": "Chicago",
		"state": "IL",
		"zip_code": "60614"
	},
	{
		"venue_id": "yelplsUscYyJWap-gnGyTmUSRA",
		"venue_name": "Yango's Grill",
		"latitude": 41.9339205,
		"longitude": -87.6442929,
		"address1": "2845 N Broadway St",
		"address2": "",
		"address3": "",
		"city": "Chicago",
		"state": "IL",
		"zip_code": "60657"
	},
	{
		"venue_id": "yelpVJem8NQ9bg5IRPH2ERl8nQ",
		"venue_name": "Borelli's",
		"latitude": 41.968992,
		"longitude": -87.682672,
		"address1": "2124 W Lawrence Ave",
		"address2": "",
		"address3": "",
		"city": "Chicago",
		"state": "IL",
		"zip_code": "60625"
	},
	{
		"venue_id": "yelppj2i7GnZV4Nm2zeZk3FBLw",
		"venue_name": "Dicks Last Resort",
		"latitude": 41.8879170470673,
		"longitude": -87.6292685421475,
		"address1": "315 N Dearborn St",
		"address2": "",
		"address3": "",
		"city": "Chicago",
		"state": "IL",
		"zip_code": "60654"
	},
	{
		"venue_id": "yelpcourijd3Rp6kX-lTxVpb5g",
		"venue_name": "Hub's Restaurant",
		"latitude": 41.98204,
		"longitude": -87.69387,
		"address1": "5540 N Lincoln Ave",
		"address2": "",
		"address3": "",
		"city": "Chicago",
		"state": "IL",
		"zip_code": "60625"
	},
	{
		"venue_id": "yelp1BkFacyzt_hz3qHeqWHtlg",
		"venue_name": "New Line Tavern",
		"latitude": 41.8857720899852,
		"longitude": -87.6412246658106,
		"address1": "201 N Clinton St",
		"address2": "",
		"address3": "",
		"city": "Chicago",
		"state": "IL",
		"zip_code": "60661"
	},
	{
		"venue_id": "yelp4A5FAbVOzdJxga7g3Xk36A",
		"venue_name": "B'el Bar + Kitchen",
		"latitude": 41.93904,
		"longitude": -87.69824,
		"address1": "3188 N Elston Ave",
		"address2": "",
		"address3": null,
		"city": "Chicago",
		"state": "IL",
		"zip_code": "60618"
	},
	{
		"venue_id": "yelprYSFgSxK_4lXZlQ3SC5JtQ",
		"venue_name": "Merkle's",
		"latitude": 41.9460180787756,
		"longitude": -87.6557589990927,
		"address1": "3516 N Clark St",
		"address2": "",
		"address3": "",
		"city": "Chicago",
		"state": "IL",
		"zip_code": "60686"
	},
	{
		"venue_id": "yelphuQtT68CZMp5ogQzhEVvrg",
		"venue_name": "Dappers East",
		"latitude": 41.946448,
		"longitude": -87.700724,
		"address1": "2901 W Addison St",
		"address2": "",
		"address3": "",
		"city": "Chicago",
		"state": "IL",
		"zip_code": "60618"
	},
	{
		"venue_id": "yelp_mHm429cxck-Z9b0omgDrA",
		"venue_name": "Ovie Bar & Grill",
		"latitude": 41.8837166,
		"longitude": -87.639953,
		"address1": "120 N Canal St",
		"address2": null,
		"address3": "",
		"city": "Chicago",
		"state": "IL",
		"zip_code": "60606"
	},
	{
		"venue_id": "yelptBuJCcKXuXw_1sWmTw10xw",
		"venue_name": "Snickers Bar & Grill",
		"latitude": 41.89075,
		"longitude": -87.62822,
		"address1": "448 N State St",
		"address2": "",
		"address3": "",
		"city": "Chicago",
		"state": "IL",
		"zip_code": "60610"
	},
	{
		"venue_id": "yelpJrEI27-703NstNBaRrlr3Q",
		"venue_name": "Steak 'n' Egger",
		"latitude": 41.8526449,
		"longitude": -87.65566,
		"address1": "1174 W Cermak Rd",
		"address2": "",
		"address3": "",
		"city": "Chicago",
		"state": "IL",
		"zip_code": "60608"
	},
	{
		"venue_id": "yelpeCS8KvLhKzF8iCB0H_lNZQ",
		"venue_name": "Gaslight Bar",
		"latitude": 41.9267913,
		"longitude": -87.6416677,
		"address1": "2450 N Clark",
		"address2": "",
		"address3": "",
		"city": "Chicago",
		"state": "IL",
		"zip_code": "60614"
	},
	{
		"venue_id": "yelpUX_GKrmRGnINgyJZ00waUQ",
		"venue_name": "LeaderBar Drafthouse & Eatery",
		"latitude": 41.954144013695,
		"longitude": -87.7033799886703,
		"address1": "3000 W Irving Park Rd",
		"address2": "",
		"address3": "",
		"city": "Chicago",
		"state": "IL",
		"zip_code": "60618"
	},
	{
		"venue_id": "yelpQm7XFyoRlFfptCKLiRzmXQ",
		"venue_name": "Boston Blackies",
		"latitude": 41.880242,
		"longitude": -87.639312,
		"address1": "120 S Riverside Plz",
		"address2": "",
		"address3": "",
		"city": "Chicago",
		"state": "IL",
		"zip_code": "60606"
	},
	{
		"venue_id": "yelpE9fWBJlEAZfHfDk8h_BQIQ",
		"venue_name": "Marge's Still",
		"latitude": 41.91458,
		"longitude": -87.63895,
		"address1": "1758 N Sedgwick St",
		"address2": "",
		"address3": "",
		"city": "Chicago",
		"state": "IL",
		"zip_code": "60614"
	},
	{
		"venue_id": "yelpNoCZrTt2bUaS--Y85YrGtQ",
		"venue_name": "Mister J's",
		"latitude": 41.897468008593,
		"longitude": -87.628399402016,
		"address1": "822 N State St",
		"address2": "",
		"address3": "",
		"city": "Chicago",
		"state": "IL",
		"zip_code": "60610"
	},
	{
		"venue_id": "yelpj_2JD8QSpbF-pzUGcIqzwA",
		"venue_name": "Fireplace Inn",
		"latitude": 41.9091339111328,
		"longitude": -87.6350021362305,
		"address1": "1448 N Wells St",
		"address2": "",
		"address3": "",
		"city": "Chicago",
		"state": "IL",
		"zip_code": "60610"
	},
	{
		"venue_id": "yelpu40C8To19pTL9rQ3f2thJg",
		"venue_name": "University Club of Chicago",
		"latitude": 41.88095,
		"longitude": -87.625,
		"address1": "76 E Monroe St",
		"address2": "",
		"address3": "",
		"city": "Chicago",
		"state": "IL",
		"zip_code": "60603"
	},
	{
		"venue_id": "yelpEa45FHgctNJPsV1e1ztbWg",
		"venue_name": "Veggie Grill",
		"latitude": 41.9329325,
		"longitude": -87.6443399,
		"address1": "614 W Diversey Pkwy",
		"address2": null,
		"address3": "",
		"city": "Chicago",
		"state": "IL",
		"zip_code": "60614"
	},
	{
		"venue_id": "yelpNuhY1d-Kiq8iRv5htEgiWg",
		"venue_name": "Rittergut Wine Bar",
		"latitude": 41.881218,
		"longitude": -87.637522,
		"address1": "10 S Wacker Dr",
		"address2": "",
		"address3": "",
		"city": "Chicago",
		"state": "IL",
		"zip_code": "60606"
	},
	{
		"venue_id": "yelpbuLuz5c6lI731-9_ViugpA",
		"venue_name": "The Sedgwick Stop",
		"latitude": 41.9114344698367,
		"longitude": -87.6388681691992,
		"address1": "1612 N Sedgwick St",
		"address2": "",
		"address3": "",
		"city": "Chicago",
		"state": "IL",
		"zip_code": "60614"
	},
	{
		"venue_id": "yelpRMy6pWT0dLvBWm2RhDaHlw",
		"venue_name": "Kelly's Pub",
		"latitude": 41.92149,
		"longitude": -87.65295,
		"address1": "949 W Webster Ave",
		"address2": "",
		"address3": "",
		"city": "Chicago",
		"state": "IL",
		"zip_code": "60614"
	},
	{
		"venue_id": "yelpD2etrACLyKAs4uxzVl2Ofw",
		"venue_name": "Shula's Steak House",
		"latitude": 41.8893721410436,
		"longitude": -87.6200652352127,
		"address1": "301 East N Water St",
		"address2": "Sheraton Chicago Hotel",
		"address3": "",
		"city": "Chicago",
		"state": "IL",
		"zip_code": "60611"
	},
	{
		"venue_id": "yelpoc9xm31lzAOoqv8CyIZVqA",
		"venue_name": "Golden Nugget",
		"latitude": 41.9323199,
		"longitude": -87.6882593,
		"address1": "2406 W Diversey Ave",
		"address2": "",
		"address3": "",
		"city": "Chicago",
		"state": "IL",
		"zip_code": "60647"
	},
	{
		"venue_id": "yelpLBfrLmm1jWYTeqWzsM_S4A",
		"venue_name": "Frida Room",
		"latitude": 41.8580549,
		"longitude": -87.6634286,
		"address1": "1454 W 18th St",
		"address2": "",
		"address3": "",
		"city": "Chicago",
		"state": "IL",
		"zip_code": "60608"
	},
	{
		"venue_id": "yelpfwhWPr5ev2Qrjc5MWXc85g",
		"venue_name": "House of Wings",
		"latitude": 41.926725,
		"longitude": -87.640985,
		"address1": "2447 N Clark St",
		"address2": "",
		"address3": "",
		"city": "Chicago",
		"state": "IL",
		"zip_code": "60614"
	},
	{
		"venue_id": "yelpHls7anAgdEs9y-Jv8vrz6Q",
		"venue_name": "Shake Shack",
		"latitude": 41.8853651,
		"longitude": -87.6519233,
		"address1": "185 N Morgan St",
		"address2": null,
		"address3": "",
		"city": "Chicago",
		"state": "IL",
		"zip_code": "60607"
	},
	{
		"venue_id": "yelpNMfvUzRbNu5bUt4E_psKfg",
		"venue_name": "Mac's American Pub",
		"latitude": 41.9031375,
		"longitude": -87.6725591,
		"address1": "1801 W Division St",
		"address2": "",
		"address3": "",
		"city": "Chicago",
		"state": "IL",
		"zip_code": "60622"
	},
	{
		"venue_id": "yelpZVzt6xox9mjcegvkcUxn4w",
		"venue_name": "Cafe Brauer",
		"latitude": 41.919116975692,
		"longitude": -87.6338875971283,
		"address1": "2021 N Stockton Dr",
		"address2": "",
		"address3": "",
		"city": "Chicago",
		"state": "IL",
		"zip_code": "60614"
	},
	{
		"venue_id": "yelpNG8EeTfOZIMBTcQ3JErqjw",
		"venue_name": "Margaritaville - Chicago",
		"latitude": 41.8919832,
		"longitude": -87.609144,
		"address1": "700 E Grand Ave",
		"address2": "Ste 118",
		"address3": "",
		"city": "Chicago",
		"state": "IL",
		"zip_code": "60611"
	},
	{
		"venue_id": "yelpwZrd1D_bIHpe1wM-JvbznQ",
		"venue_name": "Hawkeye's Bar & Grill",
		"latitude": 41.8694953918457,
		"longitude": -87.6639175415039,
		"address1": "1458 W Taylor St",
		"address2": "",
		"address3": "",
		"city": "Chicago",
		"state": "IL",
		"zip_code": "60607"
	},
	{
		"venue_id": "yelp-afME1W_cidAnRYqumW_jQ",
		"venue_name": "Soluri Brothers",
		"latitude": 41.81599,
		"longitude": -87.64097,
		"address1": "601 W 43rd St",
		"address2": "",
		"address3": null,
		"city": "Chicago",
		"state": "IL",
		"zip_code": "60609"
	},
	{
		"venue_id": "yelpJD4YjAyhZVvvQEcllpuiDA",
		"venue_name": "Redmond's Ale House",
		"latitude": 41.9427825276209,
		"longitude": -87.6542308993878,
		"address1": "3358 N Sheffield Ave",
		"address2": "",
		"address3": "",
		"city": "Chicago",
		"state": "IL",
		"zip_code": "60657"
	},
	{
		"venue_id": "yelpgm_2j5UhsfVAmF_HhZ7qJg",
		"venue_name": "Backyard Grill",
		"latitude": 41.997026238705,
		"longitude": -87.7285904809931,
		"address1": "6355 N Pulaski Ave",
		"address2": "",
		"address3": "",
		"city": "Chicago",
		"state": "IL",
		"zip_code": "60646"
	},
	{
		"venue_id": "yelpKlcKi7yOfwzQQWqoFI6Ypw",
		"venue_name": "1959 Kitchen & Bar",
		"latitude": 41.9112749,
		"longitude": -87.6359433,
		"address1": "230 W North Ave",
		"address2": "",
		"address3": "The Second City",
		"city": "Chicago",
		"state": "IL",
		"zip_code": "60610"
	},
	{
		"venue_id": "yelpDlLoZxUSHsKIJ1nKtfYiiw",
		"venue_name": "Mayfair Restaurant",
		"latitude": 41.967934,
		"longitude": -87.740293,
		"address1": "4461 W Lawrence Ave",
		"address2": "",
		"address3": "",
		"city": "Chicago",
		"state": "IL",
		"zip_code": "60630"
	},
	{
		"venue_id": "yelpA4hzD23304oWjazgLC_n2w",
		"venue_name": "Ferro's",
		"latitude": 41.83853,
		"longitude": -87.63193,
		"address1": "200 W 31st St",
		"address2": "",
		"address3": "",
		"city": "Chicago",
		"state": "IL",
		"zip_code": "60616"
	},
	{
		"venue_id": "yelpSmv3ws-MDcpgEqnjF0myAA",
		"venue_name": "Meatyballs Mobile",
		"latitude": 41.8842506408691,
		"longitude": -87.6324462890625,
		"address1": "",
		"address2": "",
		"address3": "",
		"city": "Chicago",
		"state": "IL",
		"zip_code": ""
	},
	{
		"venue_id": "yelps9e69kI8oaJf9B6TGzzHoA",
		"venue_name": "Bulldog Ale House-Chicago",
		"latitude": 41.8701293625529,
		"longitude": -87.6272985769645,
		"address1": "901 S State St",
		"address2": "",
		"address3": null,
		"city": "Chicago",
		"state": "IL",
		"zip_code": "60605"
	},
	{
		"venue_id": "yelptuV-k9hQvTnTyCUFnM8eiw",
		"venue_name": "Level Two Restaurant",
		"latitude": 41.893844,
		"longitude": -87.6226401,
		"address1": "633 N Saint Clair St",
		"address2": "Fl 2",
		"address3": "",
		"city": "Chicago",
		"state": "IL",
		"zip_code": "60611"
	},
	{
		"venue_id": "yelpdVU0iKDOoH4QVkcCE7hdww",
		"venue_name": "Tilted Kilt Pub & Eatery",
		"latitude": 41.88268,
		"longitude": -87.62573,
		"address1": "17 N Wabash",
		"address2": "2nd Fl",
		"address3": "",
		"city": "Chicago",
		"state": "IL",
		"zip_code": "60602"
	},
	{
		"venue_id": "yelpkHj16LLLfcUX5zUeie0l1g",
		"venue_name": "Rainforest Cafe",
		"latitude": 41.8926799714009,
		"longitude": -87.6307685673237,
		"address1": "605 N Clark St",
		"address2": "",
		"address3": "",
		"city": "Chicago",
		"state": "IL",
		"zip_code": "60654"
	},
	{
		"venue_id": "yelpR3R9cubI5CNw3Z6M4pR00g",
		"venue_name": "Nick Jr's Grill",
		"latitude": 41.909294,
		"longitude": -87.797035,
		"address1": "6856 W North Ave",
		"address2": "",
		"address3": "",
		"city": "Chicago",
		"state": "IL",
		"zip_code": "60707"
	},
	{
		"venue_id": "yelp0lpQxkQuKOBuV8pylAaQfQ",
		"venue_name": "Spectrum Bar and Grill",
		"latitude": 41.8782577514648,
		"longitude": -87.6470336914062,
		"address1": "233 S Halsted St",
		"address2": "",
		"address3": "",
		"city": "Chicago",
		"state": "IL",
		"zip_code": "60661"
	},
	{
		"venue_id": "yelpLHpygzroItKWRslDr-e4-g",
		"venue_name": "Hoyt's Chicago",
		"latitude": 41.8875160217285,
		"longitude": -87.6255569458008,
		"address1": "71 E Wacker Dr",
		"address2": "",
		"address3": "",
		"city": "Chicago",
		"state": "IL",
		"zip_code": "60601"
	},
	{
		"venue_id": "yelpTHsxH_gp5e3fcs4L8DAfJQ",
		"venue_name": "Bernie's Tap & Grill",
		"latitude": 41.9487709,
		"longitude": -87.6580909,
		"address1": "3664 N Clark St",
		"address2": "",
		"address3": "",
		"city": "Chicago",
		"state": "IL",
		"zip_code": "60613"
	},
	{
		"venue_id": "yelp0jGeeSgnQIGC09kdMAnV8w",
		"venue_name": "Marco's Beef",
		"latitude": 41.9241,
		"longitude": -87.77617,
		"address1": "6008 W Fullerton Ave",
		"address2": "",
		"address3": "",
		"city": "Chicago",
		"state": "IL",
		"zip_code": "60639"
	},
	{
		"venue_id": "yelp6qLxkamrwQpLt8AaIRloRA",
		"venue_name": "Dutch & Doc's",
		"latitude": 41.947281017767,
		"longitude": -87.6566306031308,
		"address1": "3600 N Clark St",
		"address2": "",
		"address3": null,
		"city": "Chicago",
		"state": "IL",
		"zip_code": "60613"
	},
	{
		"venue_id": "yelpxMGDVTsgZ2LYoi5aTDYeeA",
		"venue_name": "Makki Fast Food & Grill",
		"latitude": 41.9667479,
		"longitude": -87.7134823,
		"address1": "4702 N Kimball Ave",
		"address2": "",
		"address3": "",
		"city": "Chicago",
		"state": "IL",
		"zip_code": "60625"
	},
	{
		"venue_id": "yelpbtvVCM9JW_6l7TRMOunKbg",
		"venue_name": "Grassroots Grill Neighborhood Restaurant",
		"latitude": 41.9502011,
		"longitude": -87.6639223,
		"address1": "3747 N Southport Ave",
		"address2": "",
		"address3": "",
		"city": "Chicago",
		"state": "IL",
		"zip_code": "60613"
	},
	{
		"venue_id": "yelpZpsW_5I8zOyHRt5OtwH1og",
		"venue_name": "Konak Pizza and Grill",
		"latitude": 41.9759875,
		"longitude": -87.6685249,
		"address1": "5150 N Clark St",
		"address2": "",
		"address3": "",
		"city": "Chicago",
		"state": "IL",
		"zip_code": "60640"
	},
	{
		"venue_id": "yelpkvaot4Avs_7NKJN3RDuCIw",
		"venue_name": "Reverie",
		"latitude": 41.8896279,
		"longitude": -87.6371301030198,
		"address1": "414 N Orleans St",
		"address2": "",
		"address3": "",
		"city": "Chicago",
		"state": "IL",
		"zip_code": "60654"
	},
	{
		"venue_id": "yelp9FKN7X9TbhxSTn7niKvUxg",
		"venue_name": "Mystic Blue Cruises",
		"latitude": 41.891597,
		"longitude": -87.605248,
		"address1": "600 E Grand Ave",
		"address2": "",
		"address3": "Navy Pier",
		"city": "Chicago",
		"state": "IL",
		"zip_code": "60611"
	},
	{
		"venue_id": "yelpJntMBuVk3FmZGH7qPB5d4w",
		"venue_name": "The Franklin Tap",
		"latitude": 41.87746,
		"longitude": -87.63478,
		"address1": "325 S Franklin St",
		"address2": "",
		"address3": "",
		"city": "Chicago",
		"state": "IL",
		"zip_code": "60606"
	},
	{
		"venue_id": "yelppTa-X_ihyM6OblIFkhxL2g",
		"venue_name": "Vintage Bar",
		"latitude": 41.8691851,
		"longitude": -87.6635653,
		"address1": "1449 W Taylor St",
		"address2": "",
		"address3": "",
		"city": "Chicago",
		"state": "IL",
		"zip_code": "60607"
	},
	{
		"venue_id": "yelpf6tzDmIIJcgyPWEhXXmrNA",
		"venue_name": "Chicago Grilled Cheese & Mac Factory",
		"latitude": 41.9670475683662,
		"longitude": -87.6663344638483,
		"address1": "1465 W Leland Ave",
		"address2": "",
		"address3": null,
		"city": "Chicago",
		"state": "IL",
		"zip_code": "60640"
	},
	{
		"venue_id": "yelpM-F6KnDXBfzx926DAGy_aQ",
		"venue_name": "Billy Goat Tavern Lake Street",
		"latitude": 41.8858269270291,
		"longitude": -87.6255225017667,
		"address1": "60 E Lake St",
		"address2": "",
		"address3": "",
		"city": "Chicago",
		"state": "IL",
		"zip_code": "60601"
	},
	{
		"venue_id": "yelpaW7sY8DcTKfBFaXIH5vQxQ",
		"venue_name": "Lucy's",
		"latitude": 41.90055,
		"longitude": -87.69642,
		"address1": "1043 N California Ave",
		"address2": "",
		"address3": null,
		"city": "Chicago",
		"state": "IL",
		"zip_code": "60622"
	},
	{
		"venue_id": "yelpDMQw8VjAhyffQW9_iaWudw",
		"venue_name": "Mitchell's Tap",
		"latitude": 41.83315,
		"longitude": -87.64652,
		"address1": "3356 S Halsted St",
		"address2": "",
		"address3": "",
		"city": "Chicago",
		"state": "IL",
		"zip_code": "60608"
	},
	{
		"venue_id": "yelpndVrtzisx6t3dpK84Is_5g",
		"venue_name": "American Craft Kitchen & Bar",
		"latitude": 41.8876915,
		"longitude": -87.6228638,
		"address1": "151 E Wacker Dr",
		"address2": "",
		"address3": "",
		"city": "Chicago",
		"state": "IL",
		"zip_code": "60601"
	},
	{
		"venue_id": "yelpS5irm3mmBaCjDoObTm33Cg",
		"venue_name": "Dine",
		"latitude": 41.8808106938643,
		"longitude": -87.6467025563934,
		"address1": "733 W Madison St",
		"address2": null,
		"address3": "",
		"city": "Chicago",
		"state": "IL",
		"zip_code": "60661"
	},
	{
		"venue_id": "yelpPDHTAtbyRnqu6G_iqGSc2A",
		"venue_name": "Snix Snacks",
		"latitude": 41.9534416241446,
		"longitude": -87.724527195096,
		"address1": "3945 N Springfield Ave",
		"address2": "",
		"address3": "",
		"city": "Chicago",
		"state": "IL",
		"zip_code": "60618"
	},
	{
		"venue_id": "yelpPSwoN6eL5Y8nCDsFHa_-Cg",
		"venue_name": "Dave & Buster's",
		"latitude": 41.90134,
		"longitude": -87.6318,
		"address1": "1030 N Clark St",
		"address2": "",
		"address3": "",
		"city": "Chicago",
		"state": "IL",
		"zip_code": "60610"
	},
	{
		"venue_id": "yelpqRVY1VG0KBDsVGPdV9MkfA",
		"venue_name": "Twain",
		"latitude": 41.9257086393866,
		"longitude": -87.7018307041914,
		"address1": "2445 N Milwaukee Ave",
		"address2": "",
		"address3": null,
		"city": "Chicago",
		"state": "IL",
		"zip_code": "60647"
	},
	{
		"venue_id": "yelphEu9pwPnpd_gROztTiSZyw",
		"venue_name": "Cactus Bar & Grill",
		"latitude": 41.87664,
		"longitude": -87.634017,
		"address1": "404 S Wells St",
		"address2": "",
		"address3": "",
		"city": "Chicago",
		"state": "IL",
		"zip_code": "60607"
	},
	{
		"venue_id": "yelpdLMUfjtUF-wbBEjHJ_n6TA",
		"venue_name": "Sidekicks",
		"latitude": 41.9609489,
		"longitude": -87.7394937,
		"address1": "4424 W Montrose Ave",
		"address2": "",
		"address3": "",
		"city": "Chicago",
		"state": "IL",
		"zip_code": "60641"
	},
	{
		"venue_id": "yelp-KQhIwUrOzFINTtusScZ2g",
		"venue_name": "The Sports Corner Bar & Grill",
		"latitude": 41.9473722127298,
		"longitude": -87.6541649622844,
		"address1": "956 W Addison St",
		"address2": "",
		"address3": "",
		"city": "Chicago",
		"state": "IL",
		"zip_code": "60613"
	},
	{
		"venue_id": "yelpPBmmZ1KaZyPja-1aArfn3A",
		"venue_name": "New Archview Restaurant",
		"latitude": 41.83071,
		"longitude": -87.6775399,
		"address1": "3480 S Archer Ave",
		"address2": "",
		"address3": "",
		"city": "Chicago",
		"state": "IL",
		"zip_code": "60608"
	},
	{
		"venue_id": "yelpbK5-OQKaZLvL7QPuJgC7QA",
		"venue_name": "Corner Bakery Cafe",
		"latitude": 41.8947067260742,
		"longitude": -87.6231384277344,
		"address1": "676 N Saint Clair St",
		"address2": "",
		"address3": "",
		"city": "Chicago",
		"state": "IL",
		"zip_code": "60611"
	},
	{
		"venue_id": "yelp1T1HNTea0OxbvuI8vqB2UA",
		"venue_name": "Eden's the Original",
		"latitude": 41.9912261962891,
		"longitude": -87.7479476928711,
		"address1": "6045 N Cicero Ave",
		"address2": "",
		"address3": "",
		"city": "Chicago",
		"state": "IL",
		"zip_code": "60646"
	},
	{
		"venue_id": "yelpLpUsZDshqInFYPq4_0tb7g",
		"venue_name": "Martino's Italian Cuisine & Pizzeria",
		"latitude": 41.9901470671718,
		"longitude": -87.7153591021383,
		"address1": "3431 W Peterson Ave",
		"address2": "",
		"address3": "",
		"city": "Chicago",
		"state": "IL",
		"zip_code": "60659"
	},
	{
		"venue_id": "yelpQXIQcKpN7CZwIfsdA-ugHg",
		"venue_name": "Gourmet Chicken",
		"latitude": 41.85263,
		"longitude": -87.62533,
		"address1": "43 E Cermak Rd",
		"address2": "",
		"address3": "",
		"city": "Chicago",
		"state": "IL",
		"zip_code": "60616"
	},
	{
		"venue_id": "yelpWjXgKqTSbORZWHEBXUllRA",
		"venue_name": "Old Grounds Social",
		"latitude": 41.92928,
		"longitude": -87.65331,
		"address1": "950 W Wrightwood Ave",
		"address2": "",
		"address3": null,
		"city": "Chicago",
		"state": "IL",
		"zip_code": "60614"
	},
	{
		"venue_id": "yelp6oABmvUJWoUtmO2LtzzmRg",
		"venue_name": "Hooters",
		"latitude": 41.8941596275253,
		"longitude": -87.6343546044642,
		"address1": "660 N Wells St",
		"address2": "",
		"address3": "",
		"city": "Chicago",
		"state": "IL",
		"zip_code": "60610"
	},
	{
		"venue_id": "yelpgMdDII4Qa0ceS7tWjSYR4A",
		"venue_name": "Eggsperience",
		"latitude": 41.8695595786505,
		"longitude": -87.6580972597003,
		"address1": "1230 W Taylor St",
		"address2": "",
		"address3": null,
		"city": "Chicago",
		"state": "IL",
		"zip_code": "60607"
	},
	{
		"venue_id": "yelpKo9BnhGtF3k1u5ZlG7iNuA",
		"venue_name": "Burger Baron Restaurant",
		"latitude": 41.89073,
		"longitude": -87.66198,
		"address1": "1381 W Grand Ave",
		"address2": "",
		"address3": "",
		"city": "Chicago",
		"state": "IL",
		"zip_code": "60642"
	},
	{
		"venue_id": "yelpfa2gue4t2Eniyzcip5DkSQ",
		"venue_name": "Mahoney's Pub & Grille",
		"latitude": 41.8920434,
		"longitude": -87.6580985,
		"address1": "551 N Ogden Ave",
		"address2": "",
		"address3": "",
		"city": "Chicago",
		"state": "IL",
		"zip_code": "60642"
	},
	{
		"venue_id": "yelpY3cmO36CJg920ExoBeBnOQ",
		"venue_name": "City Pool Hall & Sports Bar",
		"latitude": 41.89032,
		"longitude": -87.64479,
		"address1": "640 W Hubbard St",
		"address2": null,
		"address3": "",
		"city": "Chicago",
		"state": "IL",
		"zip_code": "60654"
	},
	{
		"venue_id": "yelp24JpRRgJk0nutWyLFiVfVQ",
		"venue_name": "Morse Gyros & Chicken",
		"latitude": 42.0078027123219,
		"longitude": -87.6652430187031,
		"address1": "1335 W Morse Ave",
		"address2": "",
		"address3": "",
		"city": "Chicago",
		"state": "IL",
		"zip_code": "60626"
	},
	{
		"venue_id": "yelph0yedEsMWkbeavLRUhhS7g",
		"venue_name": "Lindy's Chili & Gertie's Ice Cream",
		"latitude": 41.8267757445574,
		"longitude": -87.6834746450186,
		"address1": "3685 S Archer Ave",
		"address2": "",
		"address3": "",
		"city": "Chicago",
		"state": "IL",
		"zip_code": "60609"
	},
	{
		"venue_id": "yelpJRX_r0nkiwgE2hM8eiib1Q",
		"venue_name": "M Burger",
		"latitude": 41.897829,
		"longitude": -87.622783,
		"address1": "835 N Michigan Ave",
		"address2": "",
		"address3": "The Water Pl",
		"city": "Chicago",
		"state": "IL",
		"zip_code": "60611"
	},
	{
		"venue_id": "yelpW4RHwO6zGOzIs_ozpkVaag",
		"venue_name": "Hutch American Kitchen + Bar",
		"latitude": 41.9732689408591,
		"longitude": -87.667649659066,
		"address1": "1477 W Winnemac Ave",
		"address2": null,
		"address3": "",
		"city": "Chicago",
		"state": "IL",
		"zip_code": "60640"
	},
	{
		"venue_id": "yelpdKrooQMq0gwDtrvAzfDlog",
		"venue_name": "The Zodiac Room",
		"latitude": 41.89583,
		"longitude": -87.62408,
		"address1": "737 N Michigan Ave",
		"address2": "Fl 4",
		"address3": "",
		"city": "Chicago",
		"state": "IL",
		"zip_code": "60601"
	},
	{
		"venue_id": "yelpqn3xtrTab0f7BiAgpB_xBg",
		"venue_name": "Columbus Tap",
		"latitude": 41.88615,
		"longitude": -87.62129,
		"address1": "200 North Columbus Dr",
		"address2": null,
		"address3": "",
		"city": "Chicago",
		"state": "IL",
		"zip_code": "60601"
	},
	{
		"venue_id": "yelp4lPzgBs6zLbxnrB5IGjSRA",
		"venue_name": "Infield's",
		"latitude": 41.883912,
		"longitude": -87.627566,
		"address1": "111 N State St",
		"address2": "",
		"address3": "",
		"city": "Chicago",
		"state": "IL",
		"zip_code": "60602"
	},
	{
		"venue_id": "yelpJbkjw67Gx4Ilwi92owtodg",
		"venue_name": "Yak-Zies Bar & Grill",
		"latitude": 41.94928,
		"longitude": -87.65851,
		"address1": "3710 N Clark St",
		"address2": "",
		"address3": "",
		"city": "Chicago",
		"state": "IL",
		"zip_code": "60613"
	},
	{
		"venue_id": "yelpbf82g9n2flGw2br2pjupWw",
		"venue_name": "Modern Grill",
		"latitude": 41.939876772321,
		"longitude": -87.6491048119531,
		"address1": "3171 N Halsted St",
		"address2": "",
		"address3": "",
		"city": "Chicago",
		"state": "IL",
		"zip_code": "60657"
	},
	{
		"venue_id": "yelpXtvo-ufJ6zxVhrzzIEZjpQ",
		"venue_name": "FARE",
		"latitude": 41.88658,
		"longitude": -87.63433,
		"address1": "205 W Wacker Dr",
		"address2": null,
		"address3": "",
		"city": "Chicago",
		"state": "IL",
		"zip_code": "60606"
	},
	{
		"venue_id": "yelpGwlPvLbvcF2Es3xYaEg0Zw",
		"venue_name": "Franksville",
		"latitude": 41.9449952,
		"longitude": -87.8071802,
		"address1": "3550 N Harlem Ave",
		"address2": "",
		"address3": "",
		"city": "Chicago",
		"state": "IL",
		"zip_code": "60634"
	},
	{
		"venue_id": "yelpLkOMxTMQrgWoEhH_K31DhQ",
		"venue_name": "TGI Fridays",
		"latitude": 41.8940051,
		"longitude": -87.6236809,
		"address1": "153 E Erie St",
		"address2": null,
		"address3": "",
		"city": "Chicago",
		"state": "IL",
		"zip_code": "60611"
	},
	{
		"venue_id": "yelpIJaGRZKIzvbSYCgxqkEU-Q",
		"venue_name": "Jerry's",
		"latitude": 41.9677499434666,
		"longitude": -87.6877990365028,
		"address1": "4739 N Lincoln Ave",
		"address2": "",
		"address3": "",
		"city": "Chicago",
		"state": "IL",
		"zip_code": "60625"
	},
	{
		"venue_id": "yelp1PwxbmMlCRH0RAIeRCaQeQ",
		"venue_name": "The Boss Bar",
		"latitude": 41.88989,
		"longitude": -87.63141,
		"address1": "420 N Clark St",
		"address2": "",
		"address3": "",
		"city": "Chicago",
		"state": "IL",
		"zip_code": "60654"
	},
	{
		"venue_id": "yelp_sozrbWfnru9sOhT5TkOMA",
		"venue_name": "South Loop Club",
		"latitude": 41.873003156757,
		"longitude": -87.627351834108,
		"address1": "701 S State St",
		"address2": "",
		"address3": "",
		"city": "Chicago",
		"state": "IL",
		"zip_code": "60605"
	},
	{
		"venue_id": "yelpfaZ43c81Qdsnkwpm7FZKvg",
		"venue_name": "4 Yolks",
		"latitude": 41.92883,
		"longitude": -87.80605,
		"address1": "2661 N Harlem Ave",
		"address2": null,
		"address3": "",
		"city": "Chicago",
		"state": "IL",
		"zip_code": "60707"
	},
	{
		"venue_id": "yelpprO8ybjIvcprYADCp4cgzw",
		"venue_name": "Delia's Kitchen",
		"latitude": 41.8887977515979,
		"longitude": -87.8019235576042,
		"address1": "1034 W Lake St",
		"address2": "",
		"address3": "",
		"city": "Oak Park",
		"state": "IL",
		"zip_code": "60301"
	},
	{
		"venue_id": "yelpzQH1szwJE7Rluw1qVe-UOg",
		"venue_name": "Brick House Cafe",
		"latitude": 41.95423,
		"longitude": -87.70775,
		"address1": "3152 W Irving Park Rd",
		"address2": "",
		"address3": "",
		"city": "Chicago",
		"state": "IL",
		"zip_code": "60618"
	},
	{
		"venue_id": "yelp324_scbyhjeo93vyN8xrkA",
		"venue_name": "Nick's Pit Stop",
		"latitude": 41.91847,
		"longitude": -87.67728,
		"address1": "2023 N Damen Ave",
		"address2": "",
		"address3": "",
		"city": "Chicago",
		"state": "IL",
		"zip_code": "60647"
	},
	{
		"venue_id": "yelpz_cmAQK-yPxFX-mAFzN-2w",
		"venue_name": "Yolk - Wicker Park",
		"latitude": 41.90291,
		"longitude": -87.67319,
		"address1": "1819 W Division St",
		"address2": "Ste 300",
		"address3": null,
		"city": "Chicago",
		"state": "IL",
		"zip_code": "60622"
	},
	{
		"venue_id": "yelpLqANdlh3wc4YuOxd0Bw9Ag",
		"venue_name": "Trace",
		"latitude": 41.949375,
		"longitude": -87.658574,
		"address1": "3714 N Clark St",
		"address2": "",
		"address3": "",
		"city": "Chicago",
		"state": "IL",
		"zip_code": "60613"
	},
	{
		"venue_id": "yelpfsTtvLoyatUk4TORr5wlsg",
		"venue_name": "Eight Bar and Patio",
		"latitude": 41.90216,
		"longitude": -87.62871,
		"address1": "8 W Maple St",
		"address2": null,
		"address3": "",
		"city": "Chicago",
		"state": "IL",
		"zip_code": "60610"
	},
	{
		"venue_id": "yelpH7un9P2x8ULrMFqgYCw6nA",
		"venue_name": "Gamekeepers Tavern & Grill",
		"latitude": 41.9182295396919,
		"longitude": -87.6383858370375,
		"address1": "345 W Armitage",
		"address2": "",
		"address3": "",
		"city": "Chicago",
		"state": "IL",
		"zip_code": "60614"
	},
	{
		"venue_id": "yelp4gim1lsytnX8oTb3ELmELQ",
		"venue_name": "Hangry's",
		"latitude": 41.92448,
		"longitude": -87.75144,
		"address1": "5000 W Fullerton",
		"address2": null,
		"address3": "",
		"city": "Chicago",
		"state": "IL",
		"zip_code": "60639"
	},
	{
		"venue_id": "yelpJxqAairiVoRjZ1hlWngHGg",
		"venue_name": "Mason",
		"latitude": 41.892832,
		"longitude": -87.6339551,
		"address1": "613 N Wells St",
		"address2": null,
		"address3": "",
		"city": "Chicago",
		"state": "IL",
		"zip_code": "60654"
	},
	{
		"venue_id": "yelpQ52hXGKgv6hRNxUxJNDDaQ",
		"venue_name": "Express Grill",
		"latitude": 41.85819,
		"longitude": -87.64695,
		"address1": "1730 S Halsted St",
		"address2": "",
		"address3": "",
		"city": "Chicago",
		"state": "IL",
		"zip_code": "60608"
	},
	{
		"venue_id": "yelpPKtU9LxlidVbp5fnqIqnNA",
		"venue_name": "Artist's Cafe",
		"latitude": 41.8767242,
		"longitude": -87.6245049,
		"address1": "412 S Michigan Ave",
		"address2": null,
		"address3": "",
		"city": "Chicago",
		"state": "IL",
		"zip_code": "60605"
	},
	{
		"venue_id": "yelpbG6HA6El2c6yamwIgMPs2Q",
		"venue_name": "John Barleycorn",
		"latitude": 41.9461133,
		"longitude": -87.6558265,
		"address1": "3524 N Clark St",
		"address2": "",
		"address3": "",
		"city": "Chicago",
		"state": "IL",
		"zip_code": "60657"
	},
	{
		"venue_id": "yelp_GQzy_0YUa-3ZOUbF6h_aQ",
		"venue_name": "Cafe #10 Bar & Grill",
		"latitude": 41.9279663584782,
		"longitude": -87.8059848770499,
		"address1": "2625 N Harlem Ave",
		"address2": "",
		"address3": null,
		"city": "Chicago",
		"state": "IL",
		"zip_code": "60707"
	},
	{
		"venue_id": "yelpbkdHdke4K6kjg66HhK5RKQ",
		"venue_name": "Distilled Chicago",
		"latitude": 41.92181,
		"longitude": -87.66624,
		"address1": "1480 W Webster Ave",
		"address2": "",
		"address3": "",
		"city": "Chicago",
		"state": "IL",
		"zip_code": "60614"
	},
	{
		"venue_id": "yelpuWKg0mUltynzwV65KvpriQ",
		"venue_name": "Marc Burger",
		"latitude": 41.88421,
		"longitude": -87.62738,
		"address1": "111 N State St",
		"address2": "Fl 7",
		"address3": "",
		"city": "Chicago",
		"state": "IL",
		"zip_code": "60602"
	},
	{
		"venue_id": "yelp5IlYYcZ5Klt8uAFEW5xNsA",
		"venue_name": "MCM Pub and Eatery",
		"latitude": 41.9517888,
		"longitude": -87.7475649,
		"address1": "3906 N Cicero Ave",
		"address2": "",
		"address3": "",
		"city": "Chicago",
		"state": "IL",
		"zip_code": "60641"
	},
	{
		"venue_id": "yelpUMMebBiph7BZnsZ4wois_w",
		"venue_name": "Stax Cafe",
		"latitude": 41.89167,
		"longitude": -87.64864,
		"address1": "522 N Milwaukee Ave",
		"address2": "",
		"address3": null,
		"city": "Chicago",
		"state": "IL",
		"zip_code": "60642"
	},
	{
		"venue_id": "yelpZ6hX5e3o3IXzDxG-ZiEzVg",
		"venue_name": "Dave's Red Hots",
		"latitude": 41.866568,
		"longitude": -87.711599,
		"address1": "3422 W Roosevelt Rd",
		"address2": "",
		"address3": "",
		"city": "Chicago",
		"state": "IL",
		"zip_code": "60624"
	},
	{
		"venue_id": "yelppTqB0TqAEBHzuXpdAnuAeg",
		"venue_name": "Hamburger Heaven Express",
		"latitude": 41.83975,
		"longitude": -87.66122,
		"address1": "3001 S Archer Ave",
		"address2": "",
		"address3": "",
		"city": "Chicago",
		"state": "IL",
		"zip_code": "60608"
	},
	{
		"venue_id": "yelpti4Q-kakzeL0bl6uY7yMnw",
		"venue_name": "Land & Lake Kitchen",
		"latitude": 41.8878298,
		"longitude": -87.6255338,
		"address1": "81 E Upper Wacker Dr",
		"address2": "",
		"address3": null,
		"city": "Chicago",
		"state": "IL",
		"zip_code": "60601"
	},
	{
		"venue_id": "yelparHmZy_ly8gm8p-WEClUTw",
		"venue_name": "The Boathouse Cafe",
		"latitude": 41.9055704126362,
		"longitude": -87.7007748163941,
		"address1": "1301 N Humboldt Blvd",
		"address2": null,
		"address3": "",
		"city": "Chicago",
		"state": "IL",
		"zip_code": "60622"
	},
	{
		"venue_id": "yelpatMTO3_0g85_lfP0GHG4NQ",
		"venue_name": "Cosi",
		"latitude": 41.880761,
		"longitude": -87.634798,
		"address1": "230 W Monroe St",
		"address2": "",
		"address3": "",
		"city": "Chicago",
		"state": "IL",
		"zip_code": "60606"
	},
	{
		"venue_id": "yelp9JMlIcZ5B5xsY4HT9q2kSQ",
		"venue_name": "Just Turkey",
		"latitude": 41.8156705,
		"longitude": -87.6065551,
		"address1": "4353 S Cottage Grove",
		"address2": "",
		"address3": "",
		"city": "Chicago",
		"state": "IL",
		"zip_code": "60653"
	},
	{
		"venue_id": "yelpC1MFKqTkF0CF-1mHGuziEw",
		"venue_name": "Bracket Room",
		"latitude": 41.8649722583068,
		"longitude": -87.6465699864043,
		"address1": "1315 S Halsted St",
		"address2": "",
		"address3": null,
		"city": "Chicago",
		"state": "IL",
		"zip_code": "60607"
	},
	{
		"venue_id": "yelpITBszFPPIlOiQ4pMewaXkw",
		"venue_name": "A's Restaurant & Pancake House",
		"latitude": 41.95318,
		"longitude": -87.78634,
		"address1": "6358 W Irving Park Rd",
		"address2": null,
		"address3": "",
		"city": "Chicago",
		"state": "IL",
		"zip_code": "60634"
	},
	{
		"venue_id": "yelpEVaFgH4_6u_vAYNUCYpVvw",
		"venue_name": "Jakes Pup In the Ruf",
		"latitude": 41.9619031,
		"longitude": -87.6546188,
		"address1": "4401 N Sheridan Rd",
		"address2": "",
		"address3": "",
		"city": "Chicago",
		"state": "IL",
		"zip_code": "60640"
	},
	{
		"venue_id": "yelp57LisPPfF2PH1USEuqFjaQ",
		"venue_name": "Veranda Inn",
		"latitude": 41.953456,
		"longitude": -87.769683,
		"address1": "5700 W Irving Park Rd",
		"address2": "",
		"address3": "",
		"city": "Chicago",
		"state": "IL",
		"zip_code": "60634"
	},
	{
		"venue_id": "yelp9mKgkm_OzzIkJMKX3vU9Bg",
		"venue_name": "Harold's Chicken Shack",
		"latitude": 41.831152230028,
		"longitude": -87.6221690699458,
		"address1": "124 E 35th St",
		"address2": "Ste C",
		"address3": "",
		"city": "Chicago",
		"state": "IL",
		"zip_code": "60616"
	},
	{
		"venue_id": "yelpiQ-cfOJWpmDhY4TUUElA0w",
		"venue_name": "My Buddy's",
		"latitude": 41.96222,
		"longitude": -87.66654,
		"address1": "4416 N Clark St",
		"address2": "",
		"address3": null,
		"city": "Chicago",
		"state": "IL",
		"zip_code": "60640"
	},
	{
		"venue_id": "yelpz2HVQbvUPQuniOazIb4eQQ",
		"venue_name": "Madison Tavern",
		"latitude": 41.88235,
		"longitude": -87.6404699,
		"address1": "500 W Madison St",
		"address2": "",
		"address3": "",
		"city": "Chicago",
		"state": "IL",
		"zip_code": "60661"
	},
	{
		"venue_id": "yelpvA0lQgMx_kTLnpj01sqNaA",
		"venue_name": "Madison Public House",
		"latitude": 41.920653,
		"longitude": -87.694156,
		"address1": "2200 N Milwaukee Ave",
		"address2": "",
		"address3": "",
		"city": "Chicago",
		"state": "IL",
		"zip_code": "60647"
	},
	{
		"venue_id": "yelpchr56IeqXZwtVqIgsI5aqg",
		"venue_name": "The Taste of Chicago",
		"latitude": 41.835754,
		"longitude": -87.66603,
		"address1": "3170 S Ashland Ave",
		"address2": "",
		"address3": "",
		"city": "Chicago",
		"state": "IL",
		"zip_code": "60608"
	},
	{
		"venue_id": "yelpQqSlRdsZ3E5TobxhS_Kd6Q",
		"venue_name": "Tim Tim's Express Grill",
		"latitude": 41.96107,
		"longitude": -87.73175,
		"address1": "4148 W Montrose Ave",
		"address2": null,
		"address3": "",
		"city": "Chicago",
		"state": "IL",
		"zip_code": "60641"
	},
	{
		"venue_id": "yelpDfeYtN_oGmeW0vwglmgRxw",
		"venue_name": "Urban Counter",
		"latitude": 41.86691,
		"longitude": -87.6253,
		"address1": "1221 S Wabash Ave",
		"address2": "",
		"address3": "",
		"city": "Chicago",
		"state": "IL",
		"zip_code": "60605"
	},
	{
		"venue_id": "yelpLo4Pci2so6wUb9ZNp224Mg",
		"venue_name": "Navy Pier Beer Garden",
		"latitude": 41.8916048731132,
		"longitude": -87.6008063408865,
		"address1": "600 E Grand Ave",
		"address2": "",
		"address3": "",
		"city": "Chicago",
		"state": "IL",
		"zip_code": "60611"
	},
	{
		"venue_id": "yelpGQO4bNj7UlQS14bZISAImw",
		"venue_name": "Buffalo Wild Wings",
		"latitude": 41.9143399,
		"longitude": -87.654485,
		"address1": "1832 N Clybourn Ave",
		"address2": "",
		"address3": "",
		"city": "Chicago",
		"state": "IL",
		"zip_code": "60614"
	},
	{
		"venue_id": "yelpMIYMUFfupoHQR5Mxvxo0nQ",
		"venue_name": "Captain Hook's Fish & Chicken",
		"latitude": 41.8652049,
		"longitude": -87.6665915,
		"address1": "1600 W 13th St",
		"address2": "",
		"address3": "",
		"city": "Chicago",
		"state": "IL",
		"zip_code": "60608"
	},
	{
		"venue_id": "yelpRf-2tXWIJnnLcAjTFc-Lhw",
		"venue_name": "Freshii",
		"latitude": 41.898247,
		"longitude": -87.622826,
		"address1": "835 N Michigan Ave",
		"address2": "",
		"address3": "",
		"city": "Chicago",
		"state": "IL",
		"zip_code": "60611"
	},
	{
		"venue_id": "yelpaJSV1VBnSBPBIW4EtAhEzg",
		"venue_name": "Chef Petros",
		"latitude": 41.8847347,
		"longitude": -87.6325949,
		"address1": "160 N La Salle St",
		"address2": null,
		"address3": "",
		"city": "Chicago",
		"state": "IL",
		"zip_code": "60601"
	},
	{
		"venue_id": "yelpYfSo_c0HsvULKKP71jwKiA",
		"venue_name": "Flamingo Bar & Grill",
		"latitude": 41.891995,
		"longitude": -87.616068,
		"address1": "440 E Grand Ave",
		"address2": "",
		"address3": "",
		"city": "Chicago",
		"state": "IL",
		"zip_code": "60611"
	},
	{
		"venue_id": "yelpavGMiwuYUWQP61NQEW6wrw",
		"venue_name": "The Big City Tap",
		"latitude": 41.9399949,
		"longitude": -87.6545199,
		"address1": "1010 W Belmont Ave",
		"address2": null,
		"address3": "",
		"city": "Chicago",
		"state": "IL",
		"zip_code": "60657"
	},
	{
		"venue_id": "yelpjMS0D9zD3XnFeR_neOEeEQ",
		"venue_name": "Stanley's Grill",
		"latitude": 41.9102224,
		"longitude": -87.6615309,
		"address1": "1543 N Elston Ave",
		"address2": "",
		"address3": "",
		"city": "Chicago",
		"state": "IL",
		"zip_code": "60642"
	},
	{
		"venue_id": "yelp9ZEU1-BCBO-fSBgwBbjZlA",
		"venue_name": "Louie's Grill",
		"latitude": 41.879154,
		"longitude": -87.810606,
		"address1": "7422 Madison St",
		"address2": "",
		"address3": "",
		"city": "Forest Park",
		"state": "IL",
		"zip_code": "60130"
	},
	{
		"venue_id": "yelpWhm6z5A8IbPQu2_KgnOWvw",
		"venue_name": "Boston Market",
		"latitude": 41.93679,
		"longitude": -87.6686849,
		"address1": "3020 N Ashland Ave",
		"address2": "",
		"address3": "",
		"city": "Chicago",
		"state": "IL",
		"zip_code": "60657"
	},
	{
		"venue_id": "yelp0Jw6VRaz_Cib1l6_WB55SQ",
		"venue_name": "FatDuck Tavern & Grill",
		"latitude": 41.8793287,
		"longitude": -87.8056663,
		"address1": "7218 Madison St",
		"address2": "",
		"address3": "",
		"city": "Forest Park",
		"state": "IL",
		"zip_code": "60130"
	},
	{
		"venue_id": "yelpIVmJahLjxzsw9Q6h6IJCDQ",
		"venue_name": "Bounmy",
		"latitude": 41.9402571067569,
		"longitude": -87.6490508392453,
		"address1": "3207 N Halsted St",
		"address2": "",
		"address3": "",
		"city": "Chicago",
		"state": "IL",
		"zip_code": "60657"
	},
	{
		"venue_id": "yelpy-pzOqhEpkthmS7xmDasww",
		"venue_name": "Sweet Virginia's Kitchen",
		"latitude": 41.9757173402054,
		"longitude": -87.6791458949447,
		"address1": "5131 N Damen Ave",
		"address2": "",
		"address3": null,
		"city": "Chicago",
		"state": "IL",
		"zip_code": "60625"
	},
	{
		"venue_id": "yelpwEJLvvg9s_nQwv86hm3sVQ",
		"venue_name": "Seven Bar and Restaurant",
		"latitude": 41.8849868774414,
		"longitude": -87.6166687011719,
		"address1": "400 E Randolph St",
		"address2": "Fl 7",
		"address3": "",
		"city": "Chicago",
		"state": "IL",
		"zip_code": "60601"
	},
	{
		"venue_id": "yelp_QirJIOM0U0VcxMvxRfAFQ",
		"venue_name": "United Grill",
		"latitude": 41.9168023,
		"longitude": -87.7463661,
		"address1": "4803 W Armitage Ave",
		"address2": "",
		"address3": "",
		"city": "Chicago",
		"state": "IL",
		"zip_code": "60639"
	},
	{
		"venue_id": "yelpxVxhUbwJf3rqmon5s1tdHw",
		"venue_name": "Stadium Club at US Cellular Field",
		"latitude": 41.830085,
		"longitude": -87.633779,
		"address1": "333 W 35th St",
		"address2": "",
		"address3": "",
		"city": "Chicago",
		"state": "IL",
		"zip_code": "60616"
	},
	{
		"venue_id": "yelpsK3sE_f8tpuFlpYc2IacNg",
		"venue_name": "Harvest",
		"latitude": 41.8921599,
		"longitude": -87.62466,
		"address1": "540 N Michigan Avenue",
		"address2": "",
		"address3": "",
		"city": "Chicago",
		"state": "IL",
		"zip_code": "60611"
	},
	{
		"venue_id": "yelptEeO3sbl59UUPem-9ilL9g",
		"venue_name": "Bakers Square",
		"latitude": 41.9467,
		"longitude": -87.80668,
		"address1": "3649 N Harlem Ave",
		"address2": "",
		"address3": "",
		"city": "Chicago",
		"state": "IL",
		"zip_code": "60634"
	},
	{
		"venue_id": "yelpl-iT0l45QHdbMx5CQEoWZw",
		"venue_name": "Carnitas La Michocana",
		"latitude": 41.85189,
		"longitude": -87.67773,
		"address1": "2049 W Cermak Rd",
		"address2": "",
		"address3": "",
		"city": "Chicago",
		"state": "IL",
		"zip_code": "60608"
	},
	{
		"venue_id": "yelp-XZBa3OugiXRAQGrrl-kCg",
		"venue_name": "The BallPark Pub",
		"latitude": 41.82381,
		"longitude": -87.63932,
		"address1": "514 W Pershing Rd",
		"address2": null,
		"address3": "",
		"city": "Chicago",
		"state": "IL",
		"zip_code": "60609"
	},
	{
		"venue_id": "yelpORJQAHqfpKgX4ElA7FeRnQ",
		"venue_name": "Poor Phil's Shell Bar",
		"latitude": 41.885669708252,
		"longitude": -87.8029479980469,
		"address1": "139 S Marion St",
		"address2": "",
		"address3": "",
		"city": "Oak Park",
		"state": "IL",
		"zip_code": "60302"
	},
	{
		"venue_id": "yelpWf2zmYhVYUB3AYSRcABZ4A",
		"venue_name": "OverTime Sports Bar and Grill",
		"latitude": 41.93844,
		"longitude": -87.7941,
		"address1": "6714 W Belmont Ave",
		"address2": "",
		"address3": null,
		"city": "Chicago",
		"state": "IL",
		"zip_code": "60634"
	},
	{
		"venue_id": "yelpRTUVUrWF5_PN1Bsugk8--g",
		"venue_name": "City Social",
		"latitude": 41.8837277,
		"longitude": -87.632593,
		"address1": "120 North LaSalle St",
		"address2": "",
		"address3": null,
		"city": "Chicago",
		"state": "IL",
		"zip_code": "60602"
	},
	{
		"venue_id": "yelp2MEI45ElmVIh7l1dFNozFw",
		"venue_name": "The Slide Bar",
		"latitude": 41.86912,
		"longitude": -87.68579,
		"address1": "939 S Western Ave",
		"address2": "",
		"address3": null,
		"city": "Chicago",
		"state": "IL",
		"zip_code": "60612"
	},
	{
		"venue_id": "yelpdvKDuapfQJl9AxPXy16kPQ",
		"venue_name": "Tradition",
		"latitude": 41.884909,
		"longitude": -87.635693,
		"address1": "160 N Franklin St",
		"address2": "",
		"address3": "",
		"city": "Chicago",
		"state": "IL",
		"zip_code": "60606"
	},
	{
		"venue_id": "yelps6tq3v3pUIS9-BXl15cOnw",
		"venue_name": "720 South Bar & Grill",
		"latitude": 41.87252,
		"longitude": -87.62478,
		"address1": "720 S Michigan Ave",
		"address2": "",
		"address3": "",
		"city": "Chicago",
		"state": "IL",
		"zip_code": "60605"
	},
	{
		"venue_id": "yelpeL5pg7zxPQKwj__nJ7yJrA",
		"venue_name": "George's Family Restaurant",
		"latitude": 41.8859762,
		"longitude": -87.7946051,
		"address1": "145 S Oak Park Ave",
		"address2": "",
		"address3": "",
		"city": "Oak Park",
		"state": "IL",
		"zip_code": "60302"
	},
	{
		"venue_id": "yelpDS8_c7lrmFNlyNijYBm9Mw",
		"venue_name": "Harvey's Family Restaurant",
		"latitude": 41.8377417072525,
		"longitude": -87.6433773639295,
		"address1": "657 W 31st St",
		"address2": "",
		"address3": "",
		"city": "Chicago",
		"state": "IL",
		"zip_code": "60616"
	},
	{
		"venue_id": "yelpYMSM63ZnGDW2hbb6rvr8kA",
		"venue_name": "O'Briens Riverwalk Cafe",
		"latitude": 41.887470556604,
		"longitude": -87.6264381408691,
		"address1": "45 E Riverwalk S",
		"address2": "",
		"address3": "",
		"city": "Chicago",
		"state": "IL",
		"zip_code": "60601"
	},
	{
		"venue_id": "yelpGQPk0MBZmZg1P_oehMsotQ",
		"venue_name": "Buzz Cafe",
		"latitude": 41.872403,
		"longitude": -87.779402,
		"address1": "905 S Lombard Ave",
		"address2": "",
		"address3": "",
		"city": "Oak Park",
		"state": "IL",
		"zip_code": "60304"
	},
	{
		"venue_id": "yelp2-MNbRnfha4fC3-amMVIpA",
		"venue_name": "Kevin's Hamburger Heaven",
		"latitude": 41.823861,
		"longitude": -87.64026,
		"address1": "554 W Pershing Rd",
		"address2": "",
		"address3": "",
		"city": "Chicago",
		"state": "IL",
		"zip_code": "60609"
	},
	{
		"venue_id": "yelp_6lbqxYr--EW-GaWnVppag",
		"venue_name": "Meatheads",
		"latitude": 42.0030394775867,
		"longitude": -87.7284127932479,
		"address1": "6734 N Lincoln Ave",
		"address2": "",
		"address3": "",
		"city": "Lincolnwood",
		"state": "IL",
		"zip_code": "60712"
	},
	{
		"venue_id": "yelpXRgQjx4uqTQCx9CE-NyD7w",
		"venue_name": "Stevo's Grill",
		"latitude": 41.9397202,
		"longitude": -87.6867065,
		"address1": "2326 W Belmont Ave",
		"address2": null,
		"address3": "",
		"city": "Chicago",
		"state": "IL",
		"zip_code": "60618"
	},
	{
		"venue_id": "yelp_8QOyOl3hfqfVHAE1g2I5w",
		"venue_name": "Beck's Chicago",
		"latitude": 41.92184,
		"longitude": -87.66422,
		"address1": "2201 N Clybourn Ave",
		"address2": null,
		"address3": "",
		"city": "Chicago",
		"state": "IL",
		"zip_code": "60614"
	},
	{
		"venue_id": "yelpwirALlXHxcpcy0aKBjYnKg",
		"venue_name": "Urban Market",
		"latitude": 41.8816126,
		"longitude": -87.629604,
		"address1": "10 S Dearborn St",
		"address2": null,
		"address3": "",
		"city": "Chicago",
		"state": "IL",
		"zip_code": "60603"
	},
	{
		"venue_id": "yelpQXwIEKrF-IqdNIoh6Yw4iw",
		"venue_name": "Northside Grill",
		"latitude": 41.95997,
		"longitude": -87.72795,
		"address1": "4351 N Elston Ave",
		"address2": null,
		"address3": "",
		"city": "Chicago",
		"state": "IL",
		"zip_code": "60641"
	},
	{
		"venue_id": "yelpdnuDGT_qAx_YZRwCJbM8rA",
		"venue_name": "Martin's Corner",
		"latitude": 41.851331,
		"longitude": -87.678048,
		"address1": "2058 W 22nd Pl",
		"address2": null,
		"address3": "",
		"city": "Chicago",
		"state": "IL",
		"zip_code": "60608"
	},
	{
		"venue_id": "yelpRrJ9WBtMffwR8WJ1UHMjrw",
		"venue_name": "Buffalo Wild Wings",
		"latitude": 41.8695833151809,
		"longitude": -87.6405102824615,
		"address1": "513 W Taylor St",
		"address2": null,
		"address3": null,
		"city": "Chicago",
		"state": "IL",
		"zip_code": "60607"
	},
	{
		"venue_id": "yelp9svHL00YzRlMeE-9hDdzAQ",
		"venue_name": "Hilltop",
		"latitude": 41.9758749661638,
		"longitude": -87.699085,
		"address1": "2800 W Foster Ave",
		"address2": "",
		"address3": "",
		"city": "Chicago",
		"state": "IL",
		"zip_code": "60625"
	},
	{
		"venue_id": "yelpKtGlx_5sbZ4AL_9vLJNm9A",
		"venue_name": "Bakers Square",
		"latitude": 41.9748385636691,
		"longitude": -87.8074909167486,
		"address1": "5220 North Harlem Ave",
		"address2": "",
		"address3": "",
		"city": "Chicago",
		"state": "IL",
		"zip_code": "60656"
	},
	{
		"venue_id": "yelpRryNbqbSLGWpO_hnTl-emg",
		"venue_name": "Lake Shore Cafe",
		"latitude": 41.8054327476682,
		"longitude": -87.5848873919957,
		"address1": "4900 S Lake Shore Dr",
		"address2": "",
		"address3": "",
		"city": "Chicago",
		"state": "IL",
		"zip_code": "60615"
	},
	{
		"venue_id": "yelpO60yG0XxMIuFJMTrX7csng",
		"venue_name": "Broadway Grill & Chicken",
		"latitude": 41.969147,
		"longitude": -87.659891,
		"address1": "4800 N Broadway St",
		"address2": "",
		"address3": null,
		"city": "Chicago",
		"state": "IL",
		"zip_code": "60640"
	},
	{
		"venue_id": "yelpcs2W1NS_z-66RykNCTor-g",
		"venue_name": "Eastgate Caf\u00e9",
		"latitude": 41.8727860567836,
		"longitude": -87.7770808777885,
		"address1": "102 Harrison St",
		"address2": "",
		"address3": "",
		"city": "Oak Park",
		"state": "IL",
		"zip_code": "60304"
	},
	{
		"venue_id": "yelp-BKSuORz6rwIcTSGAV_GwA",
		"venue_name": "Delmonico",
		"latitude": 41.8828544616699,
		"longitude": -87.6314239501953,
		"address1": "111 W Washington St",
		"address2": "",
		"address3": "",
		"city": "Chicago",
		"state": "IL",
		"zip_code": "60602"
	},
	{
		"venue_id": "yelp8BresVayd0h-L-JfimLp7w",
		"venue_name": "Star Grill",
		"latitude": 41.99797,
		"longitude": -87.6613,
		"address1": "1215 W Devon Ave",
		"address2": "",
		"address3": "",
		"city": "Chicago",
		"state": "IL",
		"zip_code": "60660"
	},
	{
		"venue_id": "yelp1oCnFbATjx0lMO2hmMJJaw",
		"venue_name": "Thorndale Cafe",
		"latitude": 41.9900069024902,
		"longitude": -87.6593852528555,
		"address1": "1124 W Thorndale",
		"address2": "",
		"address3": "",
		"city": "Chicago",
		"state": "IL",
		"zip_code": "60660"
	},
	{
		"venue_id": "yelpOQzeRiA2DbLjDASZtwXlnw",
		"venue_name": "Papas Philly",
		"latitude": 41.975858,
		"longitude": -87.7097282,
		"address1": "3224 W Foster Ave",
		"address2": "",
		"address3": "",
		"city": "Chicago",
		"state": "IL",
		"zip_code": "60625"
	},
	{
		"venue_id": "yelplgiGD74_ZM8pTvIyGslJ4A",
		"venue_name": "Park Cafe",
		"latitude": 41.8822662,
		"longitude": -87.6240451,
		"address1": "11 N Michigan Ave",
		"address2": "",
		"address3": "",
		"city": "Chicago",
		"state": "IL",
		"zip_code": "60602"
	},
	{
		"venue_id": "yelpL-LNF6Mz_bH_iTohxohrDw",
		"venue_name": "Al's Grill",
		"latitude": 41.880072,
		"longitude": -87.802575,
		"address1": "1100 W Madison St",
		"address2": "",
		"address3": "",
		"city": "Oak Park",
		"state": "IL",
		"zip_code": "60302"
	},
	{
		"venue_id": "yelp0tzsONdofXlQ-6POvRyKbg",
		"venue_name": "Michael's Beef House",
		"latitude": 41.908706,
		"longitude": -87.794761,
		"address1": "6747 West North Ave",
		"address2": "",
		"address3": null,
		"city": "Oak Park",
		"state": "IL",
		"zip_code": "60302"
	},
	{
		"venue_id": "yelpPpu2siTxsnYToZK4Nc4BcA",
		"venue_name": "The Terrace Grill",
		"latitude": 41.8035472824475,
		"longitude": -87.5844934844963,
		"address1": "5020 S Lake Shore Dr",
		"address2": "",
		"address3": "",
		"city": "Chicago",
		"state": "IL",
		"zip_code": "60615"
	},
	{
		"venue_id": "yelpDDEoScKg2pKVlhIyl5B_uQ",
		"venue_name": "Billy Goat Tavern Merchandise Mart",
		"latitude": 41.88837,
		"longitude": -87.63536,
		"address1": "222 W Merchandise Mart Plz",
		"address2": "Ste Fc-2",
		"address3": "",
		"city": "Chicago",
		"state": "IL",
		"zip_code": "60654"
	},
	{
		"venue_id": "yelp3tlVb-z-KGdaUghveyk2Iw",
		"venue_name": "Wild Onion Tied House",
		"latitude": 41.88653,
		"longitude": -87.80317,
		"address1": "1111 South Blvd",
		"address2": null,
		"address3": null,
		"city": "Oak Park",
		"state": "IL",
		"zip_code": "60302"
	},
	{
		"venue_id": "yelp9eUcWa16ax5MjHRsqnz8Mg",
		"venue_name": "Some Like it Black Creative Arts Bar",
		"latitude": 41.8169810951226,
		"longitude": -87.6064576821814,
		"address1": "4259 S Cottage Grove Ave",
		"address2": "Unit D",
		"address3": null,
		"city": "Chicago",
		"state": "IL",
		"zip_code": "60653"
	},
	{
		"venue_id": "yelpQbGSXfREU_bGIHg8EmNzEg",
		"venue_name": "Applebee's Grill + Bar",
		"latitude": 41.924036,
		"longitude": -87.792362,
		"address1": "6656 W Grand Ave",
		"address2": "",
		"address3": "",
		"city": "Chicago",
		"state": "IL",
		"zip_code": "60707"
	},
	{
		"venue_id": "yelpxcdcSShlwXplHqZRhqj5zQ",
		"venue_name": "The Dugout Bar",
		"latitude": 41.9475,
		"longitude": -87.65392,
		"address1": "950 W Addison St",
		"address2": "Ste B & 1",
		"address3": "",
		"city": "Chicago",
		"state": "IL",
		"zip_code": "60613"
	},
	{
		"venue_id": "yelpyMoYavwsj4nQIZQJosR85A",
		"venue_name": "Lucy's Cafe",
		"latitude": 41.94347,
		"longitude": -87.68105,
		"address1": "2100 W Roscoe St",
		"address2": "",
		"address3": null,
		"city": "Chicago",
		"state": "IL",
		"zip_code": "60618"
	},
	{
		"venue_id": "yelpHSvG0P-1Qt1G8avx7B3mCg",
		"venue_name": "Grand Lux Cafe",
		"latitude": 41.8931884,
		"longitude": -87.6249249,
		"address1": "111 E Ontario St",
		"address2": null,
		"address3": null,
		"city": "Chicago",
		"state": "IL",
		"zip_code": "60611"
	},
	{
		"venue_id": "yelp-aOONkNm9xqHXnrEi06e1Q",
		"venue_name": "Cafe Bonhomme",
		"latitude": 41.88531,
		"longitude": -87.63726,
		"address1": "180 N Upper Wacker Dr",
		"address2": "",
		"address3": null,
		"city": "Chicago",
		"state": "IL",
		"zip_code": "60606"
	},
	{
		"venue_id": "yelpTV0-rJ13D3k_nLyOAk2RBw",
		"venue_name": "Tapia's Pizza and Grill",
		"latitude": 42.00276,
		"longitude": -87.67256,
		"address1": "6632 N Clark St",
		"address2": "",
		"address3": "",
		"city": "Chicago",
		"state": "IL",
		"zip_code": "60626"
	},
	{
		"venue_id": "yelpqVTPmXS6OMhciuf3ZL41dA",
		"venue_name": "Paisans Pizzeria & Bar",
		"latitude": 41.8317431357644,
		"longitude": -87.7787421112491,
		"address1": "6226 W Ogden Ave",
		"address2": "",
		"address3": "",
		"city": "Berwyn",
		"state": "IL",
		"zip_code": "60402"
	},
	{
		"venue_id": "yelpQsswpw8ujfNG2U-pSVo48w",
		"venue_name": "LongHorn Steakhouse",
		"latitude": 41.9555099,
		"longitude": -87.80466,
		"address1": "7070 W Forest Preserve Dr",
		"address2": null,
		"address3": "",
		"city": "Norridge",
		"state": "IL",
		"zip_code": "60706"
	},
	{
		"venue_id": "yelpo2Pw1tqh3sxFvp-vFJIcwQ",
		"venue_name": "Lite House Whole Food Grill",
		"latitude": 41.8540150563663,
		"longitude": -87.6301291957498,
		"address1": "2026 S Clark St",
		"address2": "",
		"address3": null,
		"city": "Chicago",
		"state": "IL",
		"zip_code": "60616"
	},
	{
		"venue_id": "yelpMenBJvytZwlzKp32A7oUSA",
		"venue_name": "Johnna's Cafe",
		"latitude": 41.8743156,
		"longitude": -87.6866091,
		"address1": "520 S Western Ave",
		"address2": "",
		"address3": "",
		"city": "Chicago",
		"state": "IL",
		"zip_code": "60612"
	},
	{
		"venue_id": "yelp-kwXSPyiUMsP6FCzUEYJmA",
		"venue_name": "Mei's Kitchen",
		"latitude": 41.8691959411165,
		"longitude": -87.6243773571309,
		"address1": "1108 S Michigan Ave",
		"address2": "",
		"address3": "",
		"city": "Chicago",
		"state": "IL",
		"zip_code": "60605"
	},
	{
		"venue_id": "yelp-eDzoIBoVgDwjWh7KsjXfA",
		"venue_name": "Golden Nugget Pancake House",
		"latitude": 41.93513,
		"longitude": -87.76603,
		"address1": "3001 N Central Ave",
		"address2": "",
		"address3": "",
		"city": "Chicago",
		"state": "IL",
		"zip_code": "60634"
	},
	{
		"venue_id": "yelpuw-Ebmb4AfMjgIUozg8tPg",
		"venue_name": "Soundings Caf\u00e9",
		"latitude": 41.86811,
		"longitude": -87.613372,
		"address1": "1200 S Lake Shore Dr",
		"address2": "",
		"address3": "Shedd Aquarium",
		"city": "Chicago",
		"state": "IL",
		"zip_code": "60605"
	},
	{
		"venue_id": "yelp90UDmfa4G8Ya93-QxBn45A",
		"venue_name": "IHOP",
		"latitude": 41.93231,
		"longitude": -87.69826,
		"address1": "2818 W Diversey Ave",
		"address2": "",
		"address3": "",
		"city": "Chicago",
		"state": "IL",
		"zip_code": "60647"
	},
	{
		"venue_id": "yelpRKgnEdBHqqsL-J3c0d06Lg",
		"venue_name": "Grandma Sally's Family Restaurant",
		"latitude": 41.9085981005041,
		"longitude": -87.8076488524675,
		"address1": "7301 North Ave",
		"address2": "",
		"address3": "",
		"city": "River Forest",
		"state": "IL",
		"zip_code": "60305"
	},
	{
		"venue_id": "yelpsBuii1hMLpDWwTI7-XwTmA",
		"venue_name": "Windy City Ribs",
		"latitude": 41.85265,
		"longitude": -87.62438,
		"address1": "67 E Cermak Rd",
		"address2": null,
		"address3": "",
		"city": "Chicago",
		"state": "IL",
		"zip_code": "60616"
	},
	{
		"venue_id": "yelpWKhtmhzZ3CB2ojUujuKXMQ",
		"venue_name": "The Junction Diner",
		"latitude": 41.8796663,
		"longitude": -87.809676,
		"address1": "7401 W Madison St",
		"address2": null,
		"address3": "",
		"city": "Forest Park",
		"state": "IL",
		"zip_code": "60130"
	},
	{
		"venue_id": "yelp-vup-XFPYWbfdKqD0JFVtg",
		"venue_name": "Huddle House",
		"latitude": 41.968,
		"longitude": -87.71361,
		"address1": "4748 N Kimball Ave",
		"address2": "",
		"address3": "",
		"city": "Chicago",
		"state": "IL",
		"zip_code": "60625"
	},
	{
		"venue_id": "yelpNmt1-gykynKHydhny3PSmw",
		"venue_name": "Bottom Lounge Restaurant & Patio",
		"latitude": 41.885059,
		"longitude": -87.661773,
		"address1": "1375 W Lake St",
		"address2": "",
		"address3": "Upper Level",
		"city": "Chicago",
		"state": "IL",
		"zip_code": "60607"
	},
	{
		"venue_id": "yelpddq1JkZr9bXxBfRZlHLveg",
		"venue_name": "Avenue Ale House",
		"latitude": 41.873291015625,
		"longitude": -87.7943801879883,
		"address1": "825 S Oak Park Ave",
		"address2": "",
		"address3": "",
		"city": "Oak Park",
		"state": "IL",
		"zip_code": "60304"
	},
	{
		"venue_id": "yelpb1N7BZullwHWXWKcFsVuPg",
		"venue_name": "The Land on Lincoln",
		"latitude": 41.93671,
		"longitude": -87.66504,
		"address1": "3032 N Lincoln Ave",
		"address2": "",
		"address3": null,
		"city": "Chicago",
		"state": "IL",
		"zip_code": "60657"
	},
	{
		"venue_id": "yelpIBzejz6nfQ5WuAIFoMLQKg",
		"venue_name": "Terry's Place",
		"latitude": 41.8804550170898,
		"longitude": -87.7738037109375,
		"address1": "5950 W Madison St",
		"address2": "",
		"address3": "",
		"city": "Chicago",
		"state": "IL",
		"zip_code": "60644"
	},
	{
		"venue_id": "yelpcy6T26ll0pUT-3w718KbVw",
		"venue_name": "Hamburger Mary's",
		"latitude": 41.88588,
		"longitude": -87.7948,
		"address1": "155 S Oak Park Ave",
		"address2": "",
		"address3": "",
		"city": "Oak Park",
		"state": "IL",
		"zip_code": "60302"
	},
	{
		"venue_id": "yelpVBaRIaZ3-DnG5ty76J-duw",
		"venue_name": "Chicago Brewhouse",
		"latitude": 41.8882251,
		"longitude": -87.6212378,
		"address1": "31 E Riverwalk",
		"address2": "",
		"address3": null,
		"city": "Chicago",
		"state": "IL",
		"zip_code": "60601"
	},
	{
		"venue_id": "yelp465jzbxtdXXvCgl6yXBddQ",
		"venue_name": "Lake Street Kitchen + Bar",
		"latitude": 41.88839,
		"longitude": -87.80265,
		"address1": "1101 Lake St",
		"address2": "",
		"address3": "",
		"city": "Oak Park",
		"state": "IL",
		"zip_code": "60301"
	},
	{
		"venue_id": "yelpKV1MZzaPHhdxsUyCrt99aQ",
		"venue_name": "Famous Dave's Bar-B-Que",
		"latitude": 41.84606,
		"longitude": -87.80609,
		"address1": "7201 W 25th St",
		"address2": "",
		"address3": "",
		"city": "North Riverside",
		"state": "IL",
		"zip_code": "60546"
	},
	{
		"venue_id": "yelppFv8prrpUiZTdpYOJ8YOgw",
		"venue_name": "Yia Yia's Pancake House - North Riverside",
		"latitude": 41.8505102,
		"longitude": -87.8038449,
		"address1": "2250 S Harlem Ave",
		"address2": null,
		"address3": "",
		"city": "North Riverside",
		"state": "IL",
		"zip_code": "60546"
	},
	{
		"venue_id": "yelpQfe-CDlkoNgFpMLMt3cqCQ",
		"venue_name": "Tommy's Grill",
		"latitude": 41.89034,
		"longitude": -87.67719,
		"address1": "456 N Damen Ave",
		"address2": "",
		"address3": "",
		"city": "Chicago",
		"state": "IL",
		"zip_code": "60622"
	},
	{
		"venue_id": "yelp9xnFdBdnFG0m8CKFTBkmbQ",
		"venue_name": "Scratch On Lake",
		"latitude": 41.8884496129597,
		"longitude": -87.7942284883606,
		"address1": "733 Lake St",
		"address2": "",
		"address3": null,
		"city": "Oak Park",
		"state": "IL",
		"zip_code": "60301"
	},
	{
		"venue_id": "yelpWrXXFDGwlbMGKptC2UN4Rw",
		"venue_name": "Twins Gyros",
		"latitude": 41.9686784,
		"longitude": -87.8073149,
		"address1": "4870 N Harlem Ave",
		"address2": null,
		"address3": null,
		"city": "Harwood Heights",
		"state": "IL",
		"zip_code": "60706"
	},
	{
		"venue_id": "yelpzq2HkosxShIOEWygTduO6g",
		"venue_name": "Angie's Bar & Grill",
		"latitude": 41.9485699,
		"longitude": -87.70819,
		"address1": "3700 N Kedzie Ave",
		"address2": "",
		"address3": "",
		"city": "Chicago",
		"state": "IL",
		"zip_code": "60618"
	},
	{
		"venue_id": "yelpwxFX3v1Q5pk0wD5rb8M1Zw",
		"venue_name": "North Star",
		"latitude": 41.99547,
		"longitude": -87.69017,
		"address1": "6246 N Western",
		"address2": "",
		"address3": "",
		"city": "Chicago",
		"state": "IL",
		"zip_code": "60659"
	},
	{
		"venue_id": "yelp-9ZL6gkZUaWPDZqqCglfKw",
		"venue_name": "Old School Tavern & Grill",
		"latitude": 41.88295,
		"longitude": -87.81232,
		"address1": "201 Des Plaines Ave",
		"address2": "",
		"address3": "",
		"city": "Forest Park",
		"state": "IL",
		"zip_code": "60130"
	},
	{
		"venue_id": "yelpkwF-wO_TAMHcP--o2u39ow",
		"venue_name": "Black Sheep",
		"latitude": 41.9904512694384,
		"longitude": -87.6933817192912,
		"address1": "2535 W Peterson Ave",
		"address2": "",
		"address3": "",
		"city": "Chicago",
		"state": "IL",
		"zip_code": "60659"
	},
	{
		"venue_id": "yelpIXJr2Dwvg011djl9jZ4udQ",
		"venue_name": "Stella's Carry Out",
		"latitude": 41.9543800354004,
		"longitude": -87.6838150024414,
		"address1": "2200 W Irving Park Rd",
		"address2": "",
		"address3": "",
		"city": "Chicago",
		"state": "IL",
		"zip_code": "60618"
	},
	{
		"venue_id": "yelpKrMRUVFw3qmjVaNyqRiAhw",
		"venue_name": "Big Jim's",
		"latitude": 41.9457051826484,
		"longitude": -87.6492049862903,
		"address1": "3503 N Halsted St",
		"address2": "",
		"address3": null,
		"city": "Chicago",
		"state": "IL",
		"zip_code": "60613"
	},
	{
		"venue_id": "yelpZd_snkgqp8NJ4Sb0S5dtQg",
		"venue_name": "Burrito King",
		"latitude": 41.9389749,
		"longitude": -87.7457842,
		"address1": "4754 W Belmont Ave",
		"address2": "",
		"address3": "",
		"city": "Chicago",
		"state": "IL",
		"zip_code": "60641"
	},
	{
		"venue_id": "yelpa5jWre2CCaXMGqFquq-wqg",
		"venue_name": "Freshii",
		"latitude": 41.881824,
		"longitude": -87.65703,
		"address1": "1164 W Madison St",
		"address2": "",
		"address3": null,
		"city": "Chicago",
		"state": "IL",
		"zip_code": "60607"
	},
	{
		"venue_id": "yelpIR3ckF48IDgYOq_K1kyGoA",
		"venue_name": "Ravenswood Station",
		"latitude": 41.9673859,
		"longitude": -87.6789687,
		"address1": "4709 N Damen Ave",
		"address2": "",
		"address3": null,
		"city": "Chicago",
		"state": "IL",
		"zip_code": "60625"
	},
	{
		"venue_id": "yelpoz24g2Wm_m_fQRlgqqrS5w",
		"venue_name": "White Fence Farm",
		"latitude": 41.82455,
		"longitude": -87.8031,
		"address1": "3704 Harlem Ave",
		"address2": "",
		"address3": "",
		"city": "Riverside",
		"state": "IL",
		"zip_code": "60546"
	},
	{
		"venue_id": "yelpEc66eZTebgCBt0RFNrY2Dw",
		"venue_name": "Porkchop",
		"latitude": 41.8693247,
		"longitude": -87.6323807,
		"address1": "1017 S Delano Ct",
		"address2": "",
		"address3": null,
		"city": "Chicago",
		"state": "IL",
		"zip_code": "60605"
	},
	{
		"venue_id": "yelpKro8qnRcbhqcbDkEzqK5Eg",
		"venue_name": "IHOP",
		"latitude": 41.98912,
		"longitude": -87.704724,
		"address1": "5929 N Lincoln Ave",
		"address2": "",
		"address3": "",
		"city": "Chicago",
		"state": "IL",
		"zip_code": "60659"
	},
	{
		"venue_id": "yelpkXeWzOyzTGPj9Qj760sw4Q",
		"venue_name": "MaddAnthonys Bar & Grill",
		"latitude": 41.80833,
		"longitude": -87.70844,
		"address1": "3350 W 47th St",
		"address2": "",
		"address3": "",
		"city": "Chicago",
		"state": "IL",
		"zip_code": "60632"
	},
	{
		"venue_id": "yelpbVCbtFOWoU_nJdxWbyrXnw",
		"venue_name": "Buffalo Wild Wings",
		"latitude": 41.9288706476837,
		"longitude": -87.7861896567123,
		"address1": "2650 N Narragansett Ave",
		"address2": "",
		"address3": "C9 The Brickyard",
		"city": "Chicago",
		"state": "IL",
		"zip_code": "60639"
	},
	{
		"venue_id": "yelpljg572Nd5VlEZnD55QZY_w",
		"venue_name": "IHOP",
		"latitude": 41.95723,
		"longitude": -87.7477746,
		"address1": "4210 N Cicero Ave",
		"address2": "",
		"address3": "",
		"city": "Chicago",
		"state": "IL",
		"zip_code": "60641"
	},
	{
		"venue_id": "yelpnnww_i40GwnUxDaj6tALeA",
		"venue_name": "Buck's Four Star Grill",
		"latitude": 41.874817,
		"longitude": -87.618619,
		"address1": "301 S Columbus Dr",
		"address2": "",
		"address3": null,
		"city": "Chicago",
		"state": "IL",
		"zip_code": "60605"
	},
	{
		"venue_id": "yelpEeRmMdGZ9VHIvdyX9M8_Vw",
		"venue_name": "Novi's Beef",
		"latitude": 41.82709,
		"longitude": -87.79209,
		"address1": "6746 Ogden Ave",
		"address2": null,
		"address3": "",
		"city": "Berwyn",
		"state": "IL",
		"zip_code": "60402"
	},
	{
		"venue_id": "yelpcG_cV5P_9y0JKpa12R3t9Q",
		"venue_name": "J & N Grille",
		"latitude": 41.9648104329303,
		"longitude": -87.6571294483752,
		"address1": "4570 N Broadway St",
		"address2": "",
		"address3": null,
		"city": "Chicago",
		"state": "IL",
		"zip_code": "60640"
	},
	{
		"venue_id": "yelpiPkx_CCUKfOrTBYeyVCxPQ",
		"venue_name": "Goldyburgers",
		"latitude": 41.8859006,
		"longitude": -87.8078511,
		"address1": "7316 Circle Ave",
		"address2": "",
		"address3": "",
		"city": "Forest Park",
		"state": "IL",
		"zip_code": "60130"
	},
	{
		"venue_id": "yelpV5COdIL9KQrdnOKY8ChXBA",
		"venue_name": "The Brewery",
		"latitude": 41.95034,
		"longitude": -87.80751,
		"address1": "3848 N Harlem Ave",
		"address2": "",
		"address3": "",
		"city": "Chicago",
		"state": "IL",
		"zip_code": "60634"
	},
	{
		"venue_id": "yelp0RuS7pxi7O5pzPGDWMTUvA",
		"venue_name": "Wood Fire Counter",
		"latitude": 41.8839476,
		"longitude": -87.6410751,
		"address1": "131 N Clinton St",
		"address2": "",
		"address3": "",
		"city": "Chicago",
		"state": "IL",
		"zip_code": "60661"
	},
	{
		"venue_id": "yelpC9g-N9uXfbCzz7Ru6y3hsA",
		"venue_name": "Firehouse Grill",
		"latitude": 41.866155,
		"longitude": -87.765773,
		"address1": "5646 W Roosevelt Rd",
		"address2": null,
		"address3": null,
		"city": "Chicago",
		"state": "IL",
		"zip_code": "60644"
	},
	{
		"venue_id": "yelp1xZMpizn2jPAvJ34Ip_oQw",
		"venue_name": "Connie's Family Restaurant",
		"latitude": 41.8317085705052,
		"longitude": -87.8025859107989,
		"address1": "3271 S Harlem Ave",
		"address2": "",
		"address3": "",
		"city": "Berwyn",
		"state": "IL",
		"zip_code": "60402"
	},
	{
		"venue_id": "yelpfUVdFkDBm1OCrj0WmaEXlg",
		"venue_name": "LongHorn Steakhouse",
		"latitude": 41.849997,
		"longitude": -87.802389,
		"address1": "7115 Cermak Rd",
		"address2": "",
		"address3": "",
		"city": "Berwyn",
		"state": "IL",
		"zip_code": "60402"
	},
	{
		"venue_id": "yelpBsAVSCMwnW8zUvQlq5DcJg",
		"venue_name": "231 Cafe",
		"latitude": 41.878475,
		"longitude": -87.631759,
		"address1": "231 S La Salle St",
		"address2": "",
		"address3": "",
		"city": "Chicago",
		"state": "IL",
		"zip_code": "60606"
	},
	{
		"venue_id": "yelpCK5Vdu4uwSGPNWd7g2TbGw",
		"venue_name": "Steak Out",
		"latitude": 41.99511,
		"longitude": -87.6896551,
		"address1": "6237 N Western Ave",
		"address2": null,
		"address3": "",
		"city": "Chicago",
		"state": "IL",
		"zip_code": "60659"
	},
	{
		"venue_id": "yelpOypu_ObHN9VNKc2DevAAHg",
		"venue_name": "Wiley's Chicken and Ribs",
		"latitude": 41.8806343,
		"longitude": -87.7228775,
		"address1": "3853 W Madison St",
		"address2": "",
		"address3": "",
		"city": "Chicago",
		"state": "IL",
		"zip_code": "60624"
	},
	{
		"venue_id": "yelpslpIxL2vP92e8SGNKDhaEA",
		"venue_name": "Audi Club At Wrigley Field",
		"latitude": 41.9472397863865,
		"longitude": -87.6563742756844,
		"address1": "1060 W Addison",
		"address2": "",
		"address3": "",
		"city": "Chicago",
		"state": "IL",
		"zip_code": "60613"
	},
	{
		"venue_id": "yelpBY7FxrhH4AZAc2pbqrx7Lg",
		"venue_name": "Martini Club",
		"latitude": 41.9375343322754,
		"longitude": -87.7668151855469,
		"address1": "3124 N Central Ave",
		"address2": "",
		"address3": "",
		"city": "Chicago",
		"state": "IL",
		"zip_code": "60641"
	},
	{
		"venue_id": "yelp6rnHYnEx09zsL38aF4Q4vA",
		"venue_name": "Stelio's Bottles & Bites",
		"latitude": 41.881077,
		"longitude": -87.6518551,
		"address1": "19 S Morgan St",
		"address2": null,
		"address3": null,
		"city": "Chicago",
		"state": "IL",
		"zip_code": "60607"
	},
	{
		"venue_id": "yelpTqzTG0bP1afCvI4cyb9Liw",
		"venue_name": "LB's Bistro & Patisserie",
		"latitude": 41.88911,
		"longitude": -87.619438,
		"address1": "301 E North Water St",
		"address2": "",
		"address3": "",
		"city": "Chicago",
		"state": "IL",
		"zip_code": "60611"
	},
	{
		"venue_id": "yelpJGqLfyHoFzmAHeJentH3tA",
		"venue_name": "Barclay's American Grille",
		"latitude": 41.8855849,
		"longitude": -87.8035299,
		"address1": "1120 Pleasant St",
		"address2": "",
		"address3": "",
		"city": "Oak Park",
		"state": "IL",
		"zip_code": "60302"
	},
	{
		"venue_id": "yelp0Ld2OAvCWrg6I6i_GRZ5PQ",
		"venue_name": "Ella's Corner",
		"latitude": 41.8780097961426,
		"longitude": -87.659294128418,
		"address1": "1258 W Jackson Blvd",
		"address2": "",
		"address3": "",
		"city": "Chicago",
		"state": "IL",
		"zip_code": "60607"
	},
	{
		"venue_id": "yelpaw-ax2BySfh-Jn9F4gsBDg",
		"venue_name": "Oak Park Brewing Company",
		"latitude": 41.8858562,
		"longitude": -87.7948091,
		"address1": "155 S Oak Park Ave",
		"address2": "",
		"address3": null,
		"city": "Oak Park",
		"state": "IL",
		"zip_code": "60302"
	},
	{
		"venue_id": "yelpIpFqqjlkBHwPJhy2rsJP3Q",
		"venue_name": "Fresh Market at Fairbanks",
		"latitude": 41.8959006,
		"longitude": -87.6210377,
		"address1": "250 E Superior St",
		"address2": "",
		"address3": "Prentice Women's Hospital",
		"city": "Chicago",
		"state": "IL",
		"zip_code": "60611"
	},
	{
		"venue_id": "yelpmhfLifyOVfK8VbUwMNH7TQ",
		"venue_name": "Ketel One Club",
		"latitude": 41.8811951,
		"longitude": -87.6744087,
		"address1": "1901 W Madison St",
		"address2": "",
		"address3": "The United Center",
		"city": "Chicago",
		"state": "IL",
		"zip_code": "60612"
	},
	{
		"venue_id": "yelpAgkFTILWjf94l-Oty5ZBCA",
		"venue_name": "Skores Sports Bar & Grill",
		"latitude": 41.9593086242676,
		"longitude": -87.796745300293,
		"address1": "6764 W Forest Preserve Dr",
		"address2": "",
		"address3": "",
		"city": "Harwood Heights",
		"state": "IL",
		"zip_code": "60706"
	},
	{
		"venue_id": "yelpBO0Q4Ck_dlnSh5trakkmqw",
		"venue_name": "Raffaelo's Pizza",
		"latitude": 41.9159,
		"longitude": -87.6872251,
		"address1": "1901 N Western Ave",
		"address2": null,
		"address3": null,
		"city": "Chicago",
		"state": "IL",
		"zip_code": "60647"
	},
	{
		"venue_id": "yelpdEbB3iV6H5khPir1Z21ing",
		"venue_name": "Casino Club",
		"latitude": 41.8989791870117,
		"longitude": -87.6221694946289,
		"address1": "195 E Delaware Pl",
		"address2": "",
		"address3": "",
		"city": "Chicago",
		"state": "IL",
		"zip_code": "60611"
	},
	{
		"venue_id": "yelpKgzTJPGDFXAnSRu3b76hCQ",
		"venue_name": "Roanoke Restaurant",
		"latitude": 41.88169,
		"longitude": -87.63201,
		"address1": "11 South LaSalle Street",
		"address2": null,
		"address3": null,
		"city": "Chicago",
		"state": "IL",
		"zip_code": "60603"
	},
	{
		"venue_id": "yelpnVoOquJYQaHfMvZjQC97KA",
		"venue_name": "The Priory Bar & Kitchen",
		"latitude": 41.97506,
		"longitude": -87.68948,
		"address1": "5130 N Western Ave",
		"address2": "",
		"address3": null,
		"city": "Chicago",
		"state": "IL",
		"zip_code": "60625"
	},
	{
		"venue_id": "yelpn0FA2tNFJHahZlk94bI7pg",
		"venue_name": "O'Sullivan's Public House",
		"latitude": 41.87943,
		"longitude": -87.80681,
		"address1": "7244 Madison St",
		"address2": "",
		"address3": "",
		"city": "Forest Park",
		"state": "IL",
		"zip_code": "60130"
	},
	{
		"venue_id": "yelpf_OQPMtDEmF-_QnRljFWzA",
		"venue_name": "Shake Shack",
		"latitude": 41.9461758115158,
		"longitude": -87.6556068041753,
		"address1": "3519 North Clark St",
		"address2": "Ste C105",
		"address3": "",
		"city": "Chicago",
		"state": "IL",
		"zip_code": "60657"
	},
	{
		"venue_id": "yelpQq3L08mDh_Js3ot1v3Xlug",
		"venue_name": "Amy's Wine House",
		"latitude": 41.8651096283134,
		"longitude": -87.806052924098,
		"address1": "7235 W Roosevelt Rd",
		"address2": "",
		"address3": "",
		"city": "Forest Park",
		"state": "IL",
		"zip_code": "60130"
	},
	{
		"venue_id": "yelpk1-UbC2SpPNoJnq-ubj26A",
		"venue_name": "Family Palace",
		"latitude": 41.96755,
		"longitude": -87.80668,
		"address1": "4751 N Harlem Ave",
		"address2": "",
		"address3": "",
		"city": "Harwood Heights",
		"state": "IL",
		"zip_code": "60706"
	},
	{
		"venue_id": "yelp8glj2rDQWx17PLxNSol0Jw",
		"venue_name": "Steak \u2019n Shake",
		"latitude": 41.864915,
		"longitude": -87.6469749,
		"address1": "1322 S Halsted St",
		"address2": "The University of Illinois at Chicago",
		"address3": null,
		"city": "Chicago",
		"state": "IL",
		"zip_code": "60607"
	},
	{
		"venue_id": "yelpR-Zby0KCJrJ9mK9rXrtIjg",
		"venue_name": "Arc Bar",
		"latitude": 41.8522464,
		"longitude": -87.6188102,
		"address1": "2233 S Martin Luther King Jr Dr",
		"address2": "",
		"address3": "",
		"city": "Chicago",
		"state": "IL",
		"zip_code": "60616"
	},
	{
		"venue_id": "yelp6TqliyqGDMSt5Kfv0i6C-w",
		"venue_name": "Reyes Grill",
		"latitude": 41.822343,
		"longitude": -87.7043115,
		"address1": "3903 S Kedzie Ave",
		"address2": "",
		"address3": "",
		"city": "Chicago",
		"state": "IL",
		"zip_code": "60632"
	},
	{
		"venue_id": "yelp5V2GHsW7GeHxsZYbSaoIJw",
		"venue_name": "CC's",
		"latitude": 41.8850612,
		"longitude": -87.6319669,
		"address1": "100 W Randolph St",
		"address2": null,
		"address3": null,
		"city": "Chicago",
		"state": "IL",
		"zip_code": "60601"
	},
	{
		"venue_id": "yelpM6wRB5IapPX8oqAZ0YOpBQ",
		"venue_name": "Michael Anthony's Pizzeria & Bar",
		"latitude": 41.82981,
		"longitude": -87.784368,
		"address1": "6434 Ogden Ave",
		"address2": "",
		"address3": "",
		"city": "Berwyn",
		"state": "IL",
		"zip_code": "60402"
	},
	{
		"venue_id": "yelpl869pqpuys0wirscl7zVGA",
		"venue_name": "The Pumping Company Bar & Grill",
		"latitude": 41.9669551,
		"longitude": -87.6662999,
		"address1": "1463 W Leland Ave",
		"address2": "",
		"address3": null,
		"city": "Chicago",
		"state": "IL",
		"zip_code": "60640"
	},
	{
		"venue_id": "yelptUIYyjSMQipVZd9xdgRCvQ",
		"venue_name": "Press Kitchen",
		"latitude": 41.88612,
		"longitude": -87.62195,
		"address1": "211 N Stetson Ave",
		"address2": "",
		"address3": "",
		"city": "Chicago",
		"state": "IL",
		"zip_code": "60601"
	},
	{
		"venue_id": "yelpv9d1-W91yQXPRKSk-c44-A",
		"venue_name": "The BISTRO At 151",
		"latitude": 41.8775205,
		"longitude": -87.6136357592774,
		"address1": "151 E Wacker Dr",
		"address2": "",
		"address3": "Hyatt Regency Chicago",
		"city": "Chicago",
		"state": "IL",
		"zip_code": "60601"
	},
	{
		"venue_id": "yelp8EQ_Ms6npRVVwYkEmpiybQ",
		"venue_name": "Doc Ryan's",
		"latitude": 41.87921,
		"longitude": -87.81123,
		"address1": "7432 Madison St",
		"address2": "",
		"address3": "",
		"city": "Forest Park",
		"state": "IL",
		"zip_code": "60130"
	},
	{
		"venue_id": "yelpwgyCLdK-l3lt3j3RVBL-Vw",
		"venue_name": "Red Robin Gourmet Burgers",
		"latitude": 41.9569874416298,
		"longitude": -87.8085141062408,
		"address1": "4230 North Harlem Avenue",
		"address2": "",
		"address3": "",
		"city": "Norridge",
		"state": "IL",
		"zip_code": "60706"
	},
	{
		"venue_id": "yelp2mHZjNy85LFgM2goEj6xrw",
		"venue_name": "DRB's Pizzeria",
		"latitude": 41.9320751,
		"longitude": -87.6838757,
		"address1": "2211 W Diversey Ave",
		"address2": "",
		"address3": "",
		"city": "Chicago",
		"state": "IL",
		"zip_code": "60647"
	},
	{
		"venue_id": "yelpENtD-D9aWDb0vPDvTUCRog",
		"venue_name": "Sarno's Restaurant & Lounge",
		"latitude": 41.86533,
		"longitude": -87.76512,
		"address1": "5615 W Roosevelt Rd",
		"address2": "",
		"address3": "",
		"city": "Cicero",
		"state": "IL",
		"zip_code": "60804"
	},
	{
		"venue_id": "yelpdxC13SrZt9t1xYATkBh7uw",
		"venue_name": "Gold Coast Hotdogs",
		"latitude": 41.8785844412752,
		"longitude": -87.6385920657472,
		"address1": "Union Station",
		"address2": "",
		"address3": "",
		"city": "Chicago",
		"state": "IL",
		"zip_code": "60606"
	},
	{
		"venue_id": "yelpfzt-Ze3cHelRbTTMz5t7tQ",
		"venue_name": "Marlins",
		"latitude": 41.8214569091797,
		"longitude": -87.8045349121094,
		"address1": "7236 39th St",
		"address2": "",
		"address3": "",
		"city": "Lyons",
		"state": "IL",
		"zip_code": "60534"
	},
	{
		"venue_id": "yelpsbEcHK89zNFiyJGpaS6bmQ",
		"venue_name": "Dock Street Cafe",
		"latitude": 41.89169,
		"longitude": -87.60834,
		"address1": "600 E Grand Ave",
		"address2": "",
		"address3": "Navy Pier",
		"city": "Chicago",
		"state": "IL",
		"zip_code": "60611"
	},
	{
		"venue_id": "yelpf3JiZZLcVAEH6yC_kYIjIQ",
		"venue_name": "Taqueria El Milagro",
		"latitude": 41.847393,
		"longitude": -87.809502,
		"address1": "7501 W Cermak Rd",
		"address2": "Ste P1",
		"address3": "",
		"city": "North Riverside",
		"state": "IL",
		"zip_code": "60546"
	},
	{
		"venue_id": "yelpQalfJB40UHYbBAVua5NHkQ",
		"venue_name": "Red Robin Gourmet Burgers",
		"latitude": 41.8441922766437,
		"longitude": -87.8041104824098,
		"address1": "2500 S. Harlem Road",
		"address2": "",
		"address3": "",
		"city": "North Riverside",
		"state": "IL",
		"zip_code": "60546"
	},
	{
		"venue_id": "yelpNIJzV2Y5-oNzrMzdHTJ0yA",
		"venue_name": "Denny's",
		"latitude": 41.893430682078,
		"longitude": -87.804957853873,
		"address1": "711 N Harlem Ave",
		"address2": null,
		"address3": "",
		"city": "Oak Park",
		"state": "IL",
		"zip_code": "60302"
	},
	{
		"venue_id": "yelpl4r1ahur5ba7ksnFwA5aBQ",
		"venue_name": "Circa",
		"latitude": 41.8915376,
		"longitude": -87.6251716,
		"address1": "521 N Rush St",
		"address2": "Fl 5",
		"address3": "",
		"city": "Chicago",
		"state": "IL",
		"zip_code": "60611"
	},
	{
		"venue_id": "yelpEFHDU9lPWWogRuPA9pDRGg",
		"venue_name": "Buffalo Wild Wings",
		"latitude": 41.85068,
		"longitude": -87.80283,
		"address1": "7130 Cermak Rd",
		"address2": "",
		"address3": "",
		"city": "Berwyn",
		"state": "IL",
		"zip_code": "60402"
	},
	{
		"venue_id": "yelp2vdpYer6V7nYVCip9mnucg",
		"venue_name": "TGI Fridays",
		"latitude": 41.887263,
		"longitude": -87.804824,
		"address1": "401 N Harlem Ave",
		"address2": "",
		"address3": "",
		"city": "Oak Park",
		"state": "IL",
		"zip_code": "60301"
	},
	{
		"venue_id": "yelp86fkalIFBXEH9oqOinA7xg",
		"venue_name": "J & J Fish",
		"latitude": 41.87531,
		"longitude": -87.70507,
		"address1": "411 S Kedzie Ave",
		"address2": "",
		"address3": "",
		"city": "Chicago",
		"state": "IL",
		"zip_code": "60612"
	},
	{
		"venue_id": "yelpIl4H3sF1CzDz0BLPOUw4Jg",
		"venue_name": "Room 500",
		"latitude": 41.8737678527832,
		"longitude": -87.6700668334961,
		"address1": "1725 W Harrison St",
		"address2": "Ste 500",
		"address3": "",
		"city": "Chicago",
		"state": "IL",
		"zip_code": "60612"
	},
	{
		"venue_id": "yelppkabbb0AtFfWAnZBj3PYIA",
		"venue_name": "Power Trip",
		"latitude": 41.90498,
		"longitude": -87.7121,
		"address1": "1308 N Homan Ave",
		"address2": "Apt 3",
		"address3": "",
		"city": "Chicago",
		"state": "IL",
		"zip_code": "60651"
	},
	{
		"venue_id": "yelplSmkbiF4GYR9EsL2XSUZKA",
		"venue_name": "The Lobby Lounge-JW Marriott Chicago",
		"latitude": 41.87906,
		"longitude": -87.63302,
		"address1": "151 W Adams St",
		"address2": "",
		"address3": null,
		"city": "Chicago",
		"state": "IL",
		"zip_code": "60603"
	},
	{
		"venue_id": "yelp8l5ckkIxrMcKWYCxOCdVew",
		"venue_name": "Charlotte's Bar & Grill",
		"latitude": 41.96877,
		"longitude": -87.77848,
		"address1": "6000 W Gunnison St",
		"address2": "",
		"address3": "",
		"city": "Chicago",
		"state": "IL",
		"zip_code": "60630"
	},
	{
		"venue_id": "yelpGd6XxCaGlWMMdw8hj2nm6Q",
		"venue_name": "Lion's Den Eatery",
		"latitude": 41.8512551,
		"longitude": -87.7298733,
		"address1": "4203 W Cermak Rd",
		"address2": "",
		"address3": "",
		"city": "Chicago",
		"state": "IL",
		"zip_code": "60623"
	},
	{
		"venue_id": "yelpVRhArRynosV6XL4I0sPs5g",
		"venue_name": "Denny's",
		"latitude": 41.964331,
		"longitude": -87.806843,
		"address1": "4609 N Harlem Ave",
		"address2": "",
		"address3": "",
		"city": "Norridge",
		"state": "IL",
		"zip_code": "60706"
	},
	{
		"venue_id": "yelp5F458d-t5AYthMoN-mAB2g",
		"venue_name": "Oaza Restaurant",
		"latitude": 41.9685491183645,
		"longitude": -87.7059690806263,
		"address1": "3057 W Lawrence",
		"address2": "",
		"address3": "",
		"city": "Chicago",
		"state": "IL",
		"zip_code": "60625"
	},
	{
		"venue_id": "yelpbqUFwHxmqVQkUNs0NrliJw",
		"venue_name": "The Taste of Chicago",
		"latitude": 41.692398,
		"longitude": -87.620697,
		"address1": "11103 1/2 S Michigan Ave",
		"address2": "",
		"address3": "",
		"city": "Chicago",
		"state": "IL",
		"zip_code": "60628"
	},
	{
		"venue_id": "yelplrksCLhba_eKq_KU9Bmu0A",
		"venue_name": "Chili's",
		"latitude": 41.850056,
		"longitude": -87.804822,
		"address1": "7225 W Cermak Rd",
		"address2": "",
		"address3": "",
		"city": "North Riverside",
		"state": "IL",
		"zip_code": "60546"
	},
	{
		"venue_id": "yelpLxN8oFp3o0Yy0VgWM27jLQ",
		"venue_name": "IHOP",
		"latitude": 41.83824,
		"longitude": -87.74327,
		"address1": "3003 S Cicero Ave",
		"address2": null,
		"address3": null,
		"city": "Cicero",
		"state": "IL",
		"zip_code": "60804"
	},
	{
		"venue_id": "yelp2p7nUsqFEHC6ahJEw4l5Jg",
		"venue_name": "Boston Market",
		"latitude": 41.8884051,
		"longitude": -87.8058766,
		"address1": "7211 W Lake St",
		"address2": "",
		"address3": "",
		"city": "River Forest",
		"state": "IL",
		"zip_code": "60305"
	},
	{
		"venue_id": "yelpxD5UAXuhxe91cFFuc1Dadg",
		"venue_name": "El Tazon Latino Grill",
		"latitude": 41.9684028471552,
		"longitude": -87.7172610871421,
		"address1": "3536 W Lawrence Ave",
		"address2": "",
		"address3": null,
		"city": "Chicago",
		"state": "IL",
		"zip_code": "60625"
	},
	{
		"venue_id": "yelpsSZVojgGK3pgu-xC7yCqfg",
		"venue_name": "Cafe Cappucino",
		"latitude": 41.9475952,
		"longitude": -87.8069088,
		"address1": "3721 N Harlem Ave",
		"address2": "",
		"address3": "",
		"city": "Chicago",
		"state": "IL",
		"zip_code": "60634"
	},
	{
		"venue_id": "yelpFWygYxINnCdm-SyK00p3TA",
		"venue_name": "Grill N Chill",
		"latitude": 41.9969692826271,
		"longitude": -87.6898992061615,
		"address1": "6346 N Western Ave",
		"address2": "",
		"address3": "",
		"city": "Chicago",
		"state": "IL",
		"zip_code": "60659"
	},
	{
		"venue_id": "yelpTWmTm_ByQIAb0JdvA_NKqw",
		"venue_name": "DMK Burger Bar",
		"latitude": 41.8622767,
		"longitude": -87.6167401,
		"address1": "Soldier Field",
		"address2": "",
		"address3": "",
		"city": "Chicago",
		"state": "IL",
		"zip_code": "60605"
	},
	{
		"venue_id": "yelp1_jfPfqGLtlolfOeCQkG7g",
		"venue_name": "Chicago Bar and Grill",
		"latitude": 41.89709,
		"longitude": -87.6317,
		"address1": "810 N Clark St",
		"address2": "",
		"address3": "",
		"city": "Chicago",
		"state": "IL",
		"zip_code": "60654"
	},
	{
		"venue_id": "yelpyjpbxB0IzJKntkvlyuTyBg",
		"venue_name": "El Sabor Pizzeria",
		"latitude": 41.9319067,
		"longitude": -87.7255877,
		"address1": "3924 W Diversey Ave",
		"address2": "",
		"address3": "",
		"city": "Chicago",
		"state": "IL",
		"zip_code": "60647"
	},
	{
		"venue_id": "yelpBZMOr8NccKwm8SoOEKhuNQ",
		"venue_name": "Faycurr's Urban Kitchen & Cafe",
		"latitude": 41.880222,
		"longitude": -87.637489,
		"address1": "100 S Wacker Dr",
		"address2": "",
		"address3": "",
		"city": "Chicago",
		"state": "IL",
		"zip_code": "60606"
	},
	{
		"venue_id": "yelpnNzzFZksqtAgYMzexKckUQ",
		"venue_name": "IHOP",
		"latitude": 41.95662,
		"longitude": -87.805,
		"address1": "7056 W Forest Preserve Dr",
		"address2": "",
		"address3": "",
		"city": "Norridge",
		"state": "IL",
		"zip_code": "60706"
	},
	{
		"venue_id": "yelp_8S6qV6ypZ49iSjea4QcYg",
		"venue_name": "Okocim Bar & Grill",
		"latitude": 41.9452286,
		"longitude": -87.7961426,
		"address1": "6801 W Addison St",
		"address2": "",
		"address3": "",
		"city": "Chicago",
		"state": "IL",
		"zip_code": "60634"
	},
	{
		"venue_id": "yelp5H1vGztxZe8t_va9InKmOA",
		"venue_name": "Hody's Grill",
		"latitude": 41.86564,
		"longitude": -87.74382,
		"address1": "4747 West Roosevelt Rd",
		"address2": "",
		"address3": "",
		"city": "Cicero",
		"state": "IL",
		"zip_code": "60644"
	},
	{
		"venue_id": "yelpdfCq6xJbRaFfSTyjr2VQYQ",
		"venue_name": "Thorndale West Cafe",
		"latitude": 41.9900069024902,
		"longitude": -87.6593852528555,
		"address1": "1124 W Thorndale Ave",
		"address2": "",
		"address3": null,
		"city": "Chicago",
		"state": "IL",
		"zip_code": "60660"
	},
	{
		"venue_id": "yelp3M5ztgsdA-KadCmWUwVaRw",
		"venue_name": "CW Napkin",
		"latitude": 41.9543351,
		"longitude": -87.655155,
		"address1": "1011 W Irving Park",
		"address2": "",
		"address3": "",
		"city": "Chicago",
		"state": "IL",
		"zip_code": "60613"
	},
	{
		"venue_id": "yelpnAqOC-wIn5kF4n_4-IBMLA",
		"venue_name": "Levy Restaurants",
		"latitude": 41.9005089,
		"longitude": -87.6243149,
		"address1": "980 N Michigan Ave",
		"address2": "",
		"address3": "",
		"city": "Chicago",
		"state": "IL",
		"zip_code": "60611"
	},
	{
		"venue_id": "yelpt1XRFflCA4kPJXCOJJ64tQ",
		"venue_name": "Steak N Egger",
		"latitude": 41.8438249,
		"longitude": -87.7630857,
		"address1": "5556 W 26th St",
		"address2": "",
		"address3": "",
		"city": "Cicero",
		"state": "IL",
		"zip_code": "60804"
	},
	{
		"venue_id": "yelp_qe2vNg_A52ApFj75_pQfw",
		"venue_name": "Brothers Grill",
		"latitude": 41.939461,
		"longitude": -87.719505,
		"address1": "3650 W Belmont Ave",
		"address2": "",
		"address3": "",
		"city": "Chicago",
		"state": "IL",
		"zip_code": "60618"
	},
	{
		"venue_id": "yelpHcHEIIvBBAsuBAId4x4KUg",
		"venue_name": "The Grill",
		"latitude": 41.88976,
		"longitude": -87.63863,
		"address1": "500 N Kingsbury St",
		"address2": "",
		"address3": "",
		"city": "Chicago",
		"state": "IL",
		"zip_code": "60654"
	},
	{
		"venue_id": "yelpHVjgUltrMLAivfhLhcPHhA",
		"venue_name": "The Grille on Jackson",
		"latitude": 41.87841,
		"longitude": -87.6341,
		"address1": "200 W Jackson",
		"address2": "",
		"address3": "",
		"city": "Chicago",
		"state": "IL",
		"zip_code": "60606"
	},
	{
		"venue_id": "yelpyCg8wOW7Q7TxGlBVTXFWQQ",
		"venue_name": "Networks",
		"latitude": 41.87743,
		"longitude": -87.6355667,
		"address1": "311 S Wacker Dr",
		"address2": "",
		"address3": "",
		"city": "Chicago",
		"state": "IL",
		"zip_code": "60606"
	},
	{
		"venue_id": "yelpX7ym1MlJbKHiiq4_UHBcPA",
		"venue_name": "Grandma Maud's",
		"latitude": 41.8032760620117,
		"longitude": -87.5847625732422,
		"address1": "5020 S Lake Shore Dr",
		"address2": "Ste 307",
		"address3": "",
		"city": "Chicago",
		"state": "IL",
		"zip_code": "60615"
	},
	{
		"venue_id": "yelpqaksIh88PJQNkQk5hVq7tg",
		"venue_name": "Mannys Dog House",
		"latitude": 41.95365,
		"longitude": -87.70171,
		"address1": "2925 W Irving Park Rd",
		"address2": "",
		"address3": "",
		"city": "Chicago",
		"state": "IL",
		"zip_code": "60618"
	},
	{
		"venue_id": "yelpzBbFafIr1Y4dFl9UCNKnTA",
		"venue_name": "Pret a Manger",
		"latitude": 41.8813316661682,
		"longitude": -87.6397085069686,
		"address1": "211 W Adams St",
		"address2": "",
		"address3": null,
		"city": "Chicago",
		"state": "IL",
		"zip_code": "60606"
	},
	{
		"venue_id": "yelp9nvch88YwHNG5AQaEAqw_g",
		"venue_name": "Skylite Family Restaurant",
		"latitude": 41.8304977416992,
		"longitude": -87.7822494506836,
		"address1": "6334 Ogden Ave",
		"address2": "",
		"address3": "",
		"city": "Berwyn",
		"state": "IL",
		"zip_code": "60402"
	},
	{
		"venue_id": "yelphMo6R-w77ePCnU2ES6KxTg",
		"venue_name": "Terry Food Court",
		"latitude": 41.8975813686848,
		"longitude": -87.6272951066494,
		"address1": "26 E Pearson St",
		"address2": "Fl 2",
		"address3": "",
		"city": "Chicago",
		"state": "IL",
		"zip_code": "60611"
	},
	{
		"venue_id": "yelpTCeo9AuG1nMdO39sEW_hwg",
		"venue_name": "Broadcast Bar",
		"latitude": 41.8970222473145,
		"longitude": -87.6315383911133,
		"address1": "810 N Clark St",
		"address2": "",
		"address3": "",
		"city": "Chicago",
		"state": "IL",
		"zip_code": "60610"
	},
	{
		"venue_id": "yelplIEBX-outvIZ075bY3A2mQ",
		"venue_name": "Little John",
		"latitude": 41.997748,
		"longitude": -87.6998236,
		"address1": "6404 N California Ave",
		"address2": "",
		"address3": "",
		"city": "Chicago",
		"state": "IL",
		"zip_code": "60645"
	},
	{
		"venue_id": "yelpleEGnWTJCRd9YhaULu92gQ",
		"venue_name": "Skyview Resaturant & Banquets",
		"latitude": 41.830544,
		"longitude": -87.782051,
		"address1": "6334 W Ogden Ave",
		"address2": "",
		"address3": "",
		"city": "Berwyn",
		"state": "IL",
		"zip_code": "60402"
	},
	{
		"venue_id": "yelppJOwKBUohSFJh-6LDv-hUQ",
		"venue_name": "Grill Stop",
		"latitude": 41.86493,
		"longitude": -87.79111,
		"address1": "6623 Roosevelt Rd",
		"address2": null,
		"address3": "",
		"city": "Berwyn",
		"state": "IL",
		"zip_code": "60402"
	},
	{
		"venue_id": "yelpPUPU4zmbyAxkKpCY_X8YIA",
		"venue_name": "Layover Bar & Grill",
		"latitude": 41.8044230390148,
		"longitude": -87.7622015029192,
		"address1": "4839 S Central Ave",
		"address2": "",
		"address3": null,
		"city": "Stickney",
		"state": "IL",
		"zip_code": "60638"
	},
	{
		"venue_id": "yelpW5ZKFqkKXGgtdGXWqqWXWg",
		"venue_name": "West Kingston Jerk Grill",
		"latitude": 41.8800621032715,
		"longitude": -87.765998840332,
		"address1": "5627W Madison Ave",
		"address2": "",
		"address3": "",
		"city": "Chicago",
		"state": "IL",
		"zip_code": "60644"
	},
	{
		"venue_id": "yelpZ_rls2s4_wzZ_rd2fVWtoA",
		"venue_name": "Popeyes Louisiana Kitchen",
		"latitude": 41.8508716,
		"longitude": -87.7431532,
		"address1": "4773 W Cermak Rd",
		"address2": "",
		"address3": "",
		"city": "Cicero",
		"state": "IL",
		"zip_code": "60804"
	}
]