[
	{
		"venue_id": "yelpm5_GCJP2W4zEJnyVgxa3eA",
		"venue_name": "Longman & Eagle",
		"latitude": 41.930156679293,
		"longitude": -87.707222394898,
		"address1": "2657 N Kedzie Ave",
		"address2": "",
		"address3": "",
		"city": "Chicago",
		"state": "IL",
		"zip_code": "60647"
	},
	{
		"venue_id": "yelpDn23mAnWMquipOt4b76fOQ",
		"venue_name": "TWO Restaurant",
		"latitude": 41.89133,
		"longitude": -87.65613,
		"address1": "1132 W Grand Ave",
		"address2": "",
		"address3": "",
		"city": "Chicago",
		"state": "IL",
		"zip_code": "60642"
	},
	{
		"venue_id": "yelp8oVuCgY36DBA78kz6YcvMg",
		"venue_name": "The Franklin Room",
		"latitude": 41.8944245,
		"longitude": -87.6354674,
		"address1": "675 N Franklin St",
		"address2": null,
		"address3": "",
		"city": "Chicago",
		"state": "IL",
		"zip_code": "60654"
	},
	{
		"venue_id": "yelp2lfTEF7zALaPLx4qQwVXFw",
		"venue_name": "Bub City",
		"latitude": 41.8903402,
		"longitude": -87.6308922,
		"address1": "435 N Clark St",
		"address2": "",
		"address3": "",
		"city": "Chicago",
		"state": "IL",
		"zip_code": "60654"
	},
	{
		"venue_id": "yelp51hKiQfGwowwpmry84HcGw",
		"venue_name": "Hungry Brain",
		"latitude": 41.93921,
		"longitude": -87.68644,
		"address1": "2319 W Belmont Ave",
		"address2": "",
		"address3": "",
		"city": "Chicago",
		"state": "IL",
		"zip_code": "60618"
	},
	{
		"venue_id": "yelpMPWQAGiEqvnI8uxzJFND8w",
		"venue_name": "The Monkey's Paw",
		"latitude": 41.927818,
		"longitude": -87.663743,
		"address1": "2524 N Southport Ave",
		"address2": "",
		"address3": "",
		"city": "Chicago",
		"state": "IL",
		"zip_code": "60614"
	},
	{
		"venue_id": "yelpgpWE2-eFFw9xwueEMABCHQ",
		"venue_name": "Drawl Southern Cook House & Whiskey Room",
		"latitude": 41.92653,
		"longitude": -87.64044,
		"address1": "2423 N Clark St",
		"address2": "",
		"address3": null,
		"city": "Chicago",
		"state": "IL",
		"zip_code": "60614"
	},
	{
		"venue_id": "yelplCXZp0Shg8Mxty6v7xwZGg",
		"venue_name": "The Twisted Vine Chicago",
		"latitude": 41.94639,
		"longitude": -87.6498,
		"address1": "3530 N Halsted St",
		"address2": "",
		"address3": "",
		"city": "Chicago",
		"state": "IL",
		"zip_code": "60657"
	},
	{
		"venue_id": "yelpXmxZC51PUFiyOGD1IYuIfw",
		"venue_name": "Slightly Toasted",
		"latitude": 41.8824216386384,
		"longitude": -87.6414361298879,
		"address1": "22 N Clinton",
		"address2": "",
		"address3": null,
		"city": "Chicago",
		"state": "IL",
		"zip_code": "60661"
	},
	{
		"venue_id": "yelpKgAf-wDVFEb1tT1HV-EqIA",
		"venue_name": "Whiskey Business & Fry Bar",
		"latitude": 41.9068374633789,
		"longitude": -87.6714477539062,
		"address1": "1367 N Milwaukee Ave",
		"address2": "",
		"address3": "",
		"city": "Chicago",
		"state": "IL",
		"zip_code": "60622"
	},
	{
		"venue_id": "yelpJGJs1iA9sZXEvDbFEI_jWg",
		"venue_name": "Mordecai",
		"latitude": 41.94792,
		"longitude": -87.6575,
		"address1": "3632 N Clark St",
		"address2": "",
		"address3": null,
		"city": "Chicago",
		"state": "IL",
		"zip_code": "60613"
	},
	{
		"venue_id": "yelpIfQOHedYrGg9m9lXWE5NWw",
		"venue_name": "Little Toasted",
		"latitude": 41.87741,
		"longitude": -87.63876,
		"address1": "300 S Riverside",
		"address2": null,
		"address3": "",
		"city": "Chicago",
		"state": "IL",
		"zip_code": "60606"
	},
	{
		"venue_id": "yelpow9laYWbW35WcalSgihTQQ",
		"venue_name": "Bourbon On Division",
		"latitude": 41.90347,
		"longitude": -87.67923,
		"address1": "2050 W Division St",
		"address2": null,
		"address3": "",
		"city": "Chicago",
		"state": "IL",
		"zip_code": "60622"
	},
	{
		"venue_id": "yelpsBuii1hMLpDWwTI7-XwTmA",
		"venue_name": "Windy City Ribs",
		"latitude": 41.85265,
		"longitude": -87.62438,
		"address1": "67 E Cermak Rd",
		"address2": null,
		"address3": "",
		"city": "Chicago",
		"state": "IL",
		"zip_code": "60616"
	},
	{
		"venue_id": "yelpSZ8y39Dvd1LEkQPmWpyAsw",
		"venue_name": "Crown Royal Whisky Bar",
		"latitude": 41.8811951,
		"longitude": -87.6744087,
		"address1": "1901 W Madison St",
		"address2": "",
		"address3": "Section 118",
		"city": "Chicago",
		"state": "IL",
		"zip_code": "60612"
	}
]