[
	{
		"venue_id": "yelpk_QKyQNyvHEHLxVG_UVNnQ",
		"venue_name": "HunkOMania Male Strip Club",
		"latitude": 41.9218789,
		"longitude": -87.6695,
		"address1": "226 W Ontario St",
		"address2": "",
		"address3": "",
		"city": "Chicago",
		"state": "IL",
		"zip_code": "60654"
	},
	{
		"venue_id": "yelp_X9eB53s3MPBnmk-Bb9X7g",
		"venue_name": "Sinzation Male Revue",
		"latitude": 41.99842,
		"longitude": -87.67112,
		"address1": "6406 N Clark St",
		"address2": "",
		"address3": "",
		"city": "Chicago",
		"state": "IL",
		"zip_code": "60626"
	},
	{
		"venue_id": "yelpmy6JiO7PBaYXS9e8D7qmSA",
		"venue_name": "Admiral Theatre",
		"latitude": 41.96852,
		"longitude": -87.72713,
		"address1": "3940 W Lawrence Ave",
		"address2": "",
		"address3": "",
		"city": "Chicago",
		"state": "IL",
		"zip_code": "60625"
	},
	{
		"venue_id": "yelppcYKueQgk44VlAq6mmnPsw",
		"venue_name": "The Lucky Horseshoe Lounge",
		"latitude": 41.9396941373705,
		"longitude": -87.649169549493,
		"address1": "3169 N Halsted St",
		"address2": null,
		"address3": "",
		"city": "Chicago",
		"state": "IL",
		"zip_code": "60657"
	},
	{
		"venue_id": "yelpFoGX4K53IHqu9pP92C3LPA",
		"venue_name": "Pink Monkey",
		"latitude": 41.87213,
		"longitude": -87.641148,
		"address1": "750 S Clinton St",
		"address2": "",
		"address3": "",
		"city": "Chicago",
		"state": "IL",
		"zip_code": "60607"
	},
	{
		"venue_id": "yelp0Jgncp-ontuxAUseelKcdg",
		"venue_name": "Vip's A Gentlemen's Club",
		"latitude": 41.90923,
		"longitude": -87.65228,
		"address1": "1531 N Kingsbury St",
		"address2": "",
		"address3": "",
		"city": "Chicago",
		"state": "IL",
		"zip_code": "60642"
	},
	{
		"venue_id": "yelpxQpkwGn2MYhfp7NT_6vUSQ",
		"venue_name": "Hunkamania",
		"latitude": 41.9036,
		"longitude": -87.66763,
		"address1": "1600 W Division St",
		"address2": "",
		"address3": "",
		"city": "Chicago",
		"state": "IL",
		"zip_code": "60622"
	},
	{
		"venue_id": "yelpzVVuprMzLkVl_VQfps73YQ",
		"venue_name": "The Ram Book Store",
		"latitude": 41.945842,
		"longitude": -87.648857,
		"address1": "3511 N Halsted St",
		"address2": "",
		"address3": "",
		"city": "Chicago",
		"state": "IL",
		"zip_code": "60657"
	},
	{
		"venue_id": "yelpKesDl02UKzzyG_0UpgsrcQ",
		"venue_name": "Bare-Assets",
		"latitude": 41.8656578063965,
		"longitude": -87.7425003051758,
		"address1": "4701 W Roosevelt Rd",
		"address2": "",
		"address3": "",
		"city": "Cicero",
		"state": "IL",
		"zip_code": "60804"
	},
	{
		"venue_id": "yelpltv6iSeaFWZlXETObGqFVw",
		"venue_name": "Hunks and Babes Ent.",
		"latitude": 41.88837,
		"longitude": -87.62849,
		"address1": "300 N State St",
		"address2": "",
		"address3": "",
		"city": "Chicago",
		"state": "IL",
		"zip_code": "60686"
	},
	{
		"venue_id": "yelpgeqjDwRTkZWrFokaa8COBA",
		"venue_name": "Dreamboys Chicago",
		"latitude": 41.877132,
		"longitude": -87.629006,
		"address1": "343 S Dearbon St",
		"address2": null,
		"address3": "",
		"city": "Chicago",
		"state": "IL",
		"zip_code": "60604"
	},
	{
		"venue_id": "yelpuSa2Y-5DSLj8bmmNXvS7qw",
		"venue_name": "Better Boobie Bureau",
		"latitude": 41.92435,
		"longitude": -87.71298,
		"address1": "3421 W Fullerton Ave",
		"address2": "",
		"address3": "The Charnel House",
		"city": "Chicago",
		"state": "IL",
		"zip_code": "60647"
	},
	{
		"venue_id": "yelpzGCNsezOl1V0c2vo0Fw54A",
		"venue_name": "International Mr Leather",
		"latitude": 41.9729690551758,
		"longitude": -87.6675872802734,
		"address1": "5015 N Clark St",
		"address2": "",
		"address3": "",
		"city": "Chicago",
		"state": "IL",
		"zip_code": "60640"
	},
	{
		"venue_id": "yelpcQw_Trao2_WOVMr7Mp6UuA",
		"venue_name": "Banana Video",
		"latitude": 41.9724273681641,
		"longitude": -87.6675415039062,
		"address1": "4923 N Clark St",
		"address2": "",
		"address3": "",
		"city": "Chicago",
		"state": "IL",
		"zip_code": "60640"
	},
	{
		"venue_id": "yelpi4EGjJavyEiJffTXHchp6w",
		"venue_name": "Venus Dancers",
		"latitude": 41.8775,
		"longitude": -87.63274,
		"address1": "1 E Financial Pl",
		"address2": "",
		"address3": "",
		"city": "Chicago",
		"state": "IL",
		"zip_code": "60611"
	},
	{
		"venue_id": "yelpHgLwrBtCc_0Ujgney4kcFQ",
		"venue_name": "Next Plateau Chicago",
		"latitude": 41.88832,
		"longitude": -87.628472,
		"address1": "300 N State St",
		"address2": "",
		"address3": "",
		"city": "Chicago",
		"state": "IL",
		"zip_code": "60686"
	},
	{
		"venue_id": "yelpJXATvup_5Or3ss05E9dEXw",
		"venue_name": "B. D. Massage and Spa",
		"latitude": 41.99604,
		"longitude": -87.71716,
		"address1": "6320-B North Lincoln Ave",
		"address2": "",
		"address3": "",
		"city": "Chicago",
		"state": "IL",
		"zip_code": "60659"
	},
	{
		"venue_id": "yelpbtKafi69L4OqY3MbyHrZQg",
		"venue_name": "Under the Rose Entertainment",
		"latitude": 41.8993191,
		"longitude": -87.6251117,
		"address1": "120 E Delaware Pl",
		"address2": "",
		"address3": "",
		"city": "Chicago",
		"state": "IL",
		"zip_code": "60611"
	},
	{
		"venue_id": "yelprOICOh_s_F28QUKOFUKNlg",
		"venue_name": "Chicago Rose",
		"latitude": 42.0008011,
		"longitude": -87.6713381,
		"address1": "6525 N Clark St",
		"address2": "",
		"address3": null,
		"city": "Chicago",
		"state": "IL",
		"zip_code": "60626"
	},
	{
		"venue_id": "yelpqJkgEbl5qPsZxR30ZH7y7Q",
		"venue_name": "Bad Boys Live",
		"latitude": 41.89294,
		"longitude": -87.63483,
		"address1": "215 W Ontario St",
		"address2": null,
		"address3": "",
		"city": "Chicago",
		"state": "IL",
		"zip_code": "60654"
	},
	{
		"venue_id": "yelpDmkI1edD2Uw0hGz8s5StMQ",
		"venue_name": "Wet & Ready Chicago Strippers",
		"latitude": 41.946846,
		"longitude": -87.642853,
		"address1": "3500 N Lake Shore Dr",
		"address2": null,
		"address3": "",
		"city": "Chicago",
		"state": "IL",
		"zip_code": "60657"
	},
	{
		"venue_id": "yelpke17gUxQFs-58fxnlZVX1Q",
		"venue_name": "Wet & Ready Chicago Strippers",
		"latitude": 41.949047,
		"longitude": -87.644264,
		"address1": "3600 N Lake Shore Dr",
		"address2": null,
		"address3": "",
		"city": "Chicago",
		"state": "IL",
		"zip_code": "60613"
	},
	{
		"venue_id": "yelp3QsJZOr4b9BK-qTPCDU03w",
		"venue_name": "Fire Strippers",
		"latitude": 41.9360389709473,
		"longitude": -87.6332778930664,
		"address1": "35 N Lake Shore Dr",
		"address2": null,
		"address3": "",
		"city": "Chicago",
		"state": "IL",
		"zip_code": "60657"
	},
	{
		"venue_id": "yelpXMJFYOeyFMAoke2naZSjLg",
		"venue_name": "Doll House",
		"latitude": 40.76759,
		"longitude": -111.88858,
		"address1": "70 S State St",
		"address2": null,
		"address3": null,
		"city": "Salt Lake City",
		"state": "UT",
		"zip_code": "84111"
	}
]