[
	{
		"venue_id": "yelpvE42YFh_M30Uz4P4W-T5Qg",
		"venue_name": "Emporium Wicker Park",
		"latitude": 41.9066169104279,
		"longitude": -87.6716816425323,
		"address1": "1366 N Milwaukee Ave",
		"address2": "",
		"address3": "",
		"city": "Chicago",
		"state": "IL",
		"zip_code": "60622"
	},
	{
		"venue_id": "yelpMU5NxL5nQzRhuzSC0APmiA",
		"venue_name": "Headquarters Beercade River North",
		"latitude": 41.89718,
		"longitude": -87.6352,
		"address1": "213 W Institute Pl",
		"address2": "",
		"address3": "",
		"city": "Chicago",
		"state": "IL",
		"zip_code": "60610"
	},
	{
		"venue_id": "yelpZbCWJlBmZXFDcxOMsuK45w",
		"venue_name": "Logan Arcade",
		"latitude": 41.9250447,
		"longitude": -87.6881311,
		"address1": "2410 W Fullerton Ave",
		"address2": "",
		"address3": "",
		"city": "Chicago",
		"state": "IL",
		"zip_code": "60647"
	},
	{
		"venue_id": "yelptYSNVAxYcf98V-EfSk8aIw",
		"venue_name": "Ignite Gaming Lounge",
		"latitude": 41.9421231,
		"longitude": -87.7022545,
		"address1": "3341 N Elston Ave",
		"address2": "",
		"address3": "",
		"city": "Chicago",
		"state": "IL",
		"zip_code": "60618"
	},
	{
		"venue_id": "yelp7nX64qq6CM84olBgYuDP3w",
		"venue_name": "Emporium Logan Square",
		"latitude": 41.9241375,
		"longitude": -87.6993375,
		"address1": "2363 N Milwaukee Ave",
		"address2": "",
		"address3": "",
		"city": "Chicago",
		"state": "IL",
		"zip_code": "60647"
	},
	{
		"venue_id": "yelpfe6cfWk3e01Sjaqsgddo-w",
		"venue_name": "Replay Lincoln Park",
		"latitude": 41.9336651,
		"longitude": -87.6537194,
		"address1": "2833 N Sheffield Ave",
		"address2": "",
		"address3": null,
		"city": "Chicago",
		"state": "IL",
		"zip_code": "60657"
	},
	{
		"venue_id": "yelpk5f-N-Oh64tivQiti_pkDQ",
		"venue_name": "FTW Chicago",
		"latitude": 41.8914199,
		"longitude": -87.61894,
		"address1": "322 E Illinois St",
		"address2": "",
		"address3": "",
		"city": "Chicago",
		"state": "IL",
		"zip_code": "60611"
	},
	{
		"venue_id": "yelpPSwoN6eL5Y8nCDsFHa_-Cg",
		"venue_name": "Dave & Buster's",
		"latitude": 41.90134,
		"longitude": -87.6318,
		"address1": "1030 N Clark St",
		"address2": "",
		"address3": "",
		"city": "Chicago",
		"state": "IL",
		"zip_code": "60610"
	},
	{
		"venue_id": "yelpZ4MzFn7vZxxKGkBNh_vLvA",
		"venue_name": "Emporium Fulton Market",
		"latitude": 41.8867074077982,
		"longitude": -87.6488785683288,
		"address1": "839 W Fulton Market",
		"address2": "",
		"address3": null,
		"city": "Chicago",
		"state": "IL",
		"zip_code": "60607"
	},
	{
		"venue_id": "yelpXVemdtyUOQPG73oZo3g6tQ",
		"venue_name": "Emporium Popups",
		"latitude": 41.9242475019079,
		"longitude": -87.699443682915,
		"address1": "2367 N Milwaukee Ave",
		"address2": "",
		"address3": null,
		"city": "Chicago",
		"state": "IL",
		"zip_code": "60647"
	},
	{
		"venue_id": "yelpc7tmhGMgFpcgW5johbjeRw",
		"venue_name": "Meeting House Tavern",
		"latitude": 41.973231,
		"longitude": -87.667822,
		"address1": "5025 N Clark St",
		"address2": "",
		"address3": null,
		"city": "Chicago",
		"state": "IL",
		"zip_code": "60640"
	},
	{
		"venue_id": "yelpOw_pp5eNvBiJ8INprVr1fg",
		"venue_name": "Uptown Arcade",
		"latitude": 41.970031,
		"longitude": -87.660156,
		"address1": "4830 N Broadway",
		"address2": "",
		"address3": "",
		"city": "Chicago",
		"state": "IL",
		"zip_code": "60640"
	},
	{
		"venue_id": "yelpBrzCZiS8Ria0vnv5EXI34A",
		"venue_name": "Razzmatazz Chicago",
		"latitude": 41.8224,
		"longitude": -87.66632,
		"address1": "3900 S Ashland Ave",
		"address2": null,
		"address3": "",
		"city": "Chicago",
		"state": "IL",
		"zip_code": "60609"
	},
	{
		"venue_id": "yelpqpoy_dwofL3LaWma2mUDAA",
		"venue_name": "Novelty Golf & Games",
		"latitude": 41.99756,
		"longitude": -87.72096,
		"address1": "3650 W Devon Ave",
		"address2": "",
		"address3": "",
		"city": "Lincolnwood",
		"state": "IL",
		"zip_code": "60712"
	},
	{
		"venue_id": "yelpkf5UX2kqirROpH2_pncHew",
		"venue_name": "Amazing Chicago's Funhouse Maze",
		"latitude": 41.891391014096,
		"longitude": -87.6051836820312,
		"address1": "600 E Grand Ave",
		"address2": null,
		"address3": "",
		"city": "Chicago",
		"state": "IL",
		"zip_code": "60611"
	},
	{
		"venue_id": "yelpCu9FCMT96xSZEWz-tHIzrw",
		"venue_name": "Chuck E Cheese's",
		"latitude": 41.9251999,
		"longitude": -87.6739648,
		"address1": "1830 W Fullerton Ave",
		"address2": "",
		"address3": "",
		"city": "Chicago",
		"state": "IL",
		"zip_code": "60614"
	},
	{
		"venue_id": "yelpJzIYq1aCc0c9m5Vn-r_yMA",
		"venue_name": "Midwest Pinball Restoration",
		"latitude": 41.876,
		"longitude": -87.79132,
		"address1": "700 Wesley Ave",
		"address2": "",
		"address3": "",
		"city": "Oak Park",
		"state": "IL",
		"zip_code": "60304"
	},
	{
		"venue_id": "yelpX1c5ZLKUBn06TXd-yY5GLg",
		"venue_name": "Putting Edge",
		"latitude": 41.9547567,
		"longitude": -87.8071651,
		"address1": "4105 North Harlem Ave",
		"address2": null,
		"address3": "",
		"city": "Norridge",
		"state": "IL",
		"zip_code": "60706"
	},
	{
		"venue_id": "yelpTt5nN4UgEe_kabbmEA2BiA",
		"venue_name": "Mana Digital Dive",
		"latitude": 41.9606895446777,
		"longitude": -87.7307662963867,
		"address1": "4127 W Montrose Ave",
		"address2": null,
		"address3": "",
		"city": "Chicago",
		"state": "IL",
		"zip_code": "60641"
	},
	{
		"venue_id": "yelp7gyyvFo8xgPenz-OQ5FyDg",
		"venue_name": "Gamer's Hall",
		"latitude": 41.9099074997357,
		"longitude": -87.7171990851941,
		"address1": "3609 W North Ave",
		"address2": "",
		"address3": null,
		"city": "Chicago",
		"state": "IL",
		"zip_code": "60647"
	}
]