[
	{
		"venue_id": "yelpdPG6bJi38QZACM1I88zKaw",
		"venue_name": "Clark Street Ale House",
		"latitude": 41.89609,
		"longitude": -87.6316,
		"address1": "742 N Clark St",
		"address2": "",
		"address3": "",
		"city": "Chicago",
		"state": "IL",
		"zip_code": "60654"
	},
	{
		"venue_id": "yelpPodX69Zho5y2Nl1h0SeIlQ",
		"venue_name": "Happy Village",
		"latitude": 41.901296107314,
		"longitude": -87.6745942609487,
		"address1": "1059 N Wolcott Ave",
		"address2": "",
		"address3": "",
		"city": "Chicago",
		"state": "IL",
		"zip_code": "60622"
	},
	{
		"venue_id": "yelphJE3I8M9Fy7t_B8q4jHrVg",
		"venue_name": "Parlor Pizza Bar",
		"latitude": 41.8834176,
		"longitude": -87.6487185,
		"address1": "108 N Green St",
		"address2": "",
		"address3": "",
		"city": "Chicago",
		"state": "IL",
		"zip_code": "60607"
	},
	{
		"venue_id": "yelpv6STMYtfNak_vSiqvI3B3Q",
		"venue_name": "Dog Haus Biergarten",
		"latitude": 41.9267403,
		"longitude": -87.6509838,
		"address1": "2464 N Lincoln Ave",
		"address2": null,
		"address3": null,
		"city": "Chicago",
		"state": "IL",
		"zip_code": "60614"
	},
	{
		"venue_id": "yelp14KCjVvrAc5MtaID7LPPQQ",
		"venue_name": "Resi's Bierstube Restaurant",
		"latitude": 41.954304,
		"longitude": -87.680193,
		"address1": "2034 W Irving Park Rd",
		"address2": "",
		"address3": "",
		"city": "Chicago",
		"state": "IL",
		"zip_code": "60618"
	},
	{
		"venue_id": "yelpweNxGBwAOW_CVMBu02CUBQ",
		"venue_name": "Easy Street",
		"latitude": 41.94921,
		"longitude": -87.76721,
		"address1": "3750 N Central Ave",
		"address2": "",
		"address3": null,
		"city": "Chicago",
		"state": "IL",
		"zip_code": "60634"
	},
	{
		"venue_id": "yelpVvFxS5AjoEK9A0nBNYUl-Q",
		"venue_name": "Dark Horse Tap & Grille",
		"latitude": 41.9448623657227,
		"longitude": -87.6539077758789,
		"address1": "3443 N Sheffield Ave",
		"address2": "",
		"address3": "",
		"city": "Chicago",
		"state": "IL",
		"zip_code": "60657"
	},
	{
		"venue_id": "yelpaGbrvG-oxzsIFfA0QJHLaA",
		"venue_name": "The Spoke & Bird",
		"latitude": 41.8578733,
		"longitude": -87.6219721,
		"address1": "205 E 18th St",
		"address2": null,
		"address3": "",
		"city": "Chicago",
		"state": "IL",
		"zip_code": "60616"
	},
	{
		"venue_id": "yelpZEMq3D_5g75MCiEjTmX2RQ",
		"venue_name": "Corcoran's Grill & Pub",
		"latitude": 41.911595933221,
		"longitude": -87.634563953161,
		"address1": "1615 N Wells St",
		"address2": "",
		"address3": "",
		"city": "Chicago",
		"state": "IL",
		"zip_code": "60614"
	},
	{
		"venue_id": "yelpwCInY_j0yx4AwWyxQMPu8Q",
		"venue_name": "Wells On Wells",
		"latitude": 41.911678770959,
		"longitude": -87.634554035293,
		"address1": "1617 N Wells St",
		"address2": null,
		"address3": "",
		"city": "Chicago",
		"state": "IL",
		"zip_code": "60614"
	},
	{
		"venue_id": "yelpsGIDxOgA6E9shDXJlZjhxQ",
		"venue_name": "Nick's Beer Garden",
		"latitude": 41.9089949182455,
		"longitude": -87.6755743948896,
		"address1": "1516 N Milwaukee Ave",
		"address2": null,
		"address3": "",
		"city": "Chicago",
		"state": "IL",
		"zip_code": "60622"
	},
	{
		"venue_id": "yelp3vuxX7853nG0QWj-ljOyDA",
		"venue_name": "The Gringo",
		"latitude": 41.89134,
		"longitude": -87.65763,
		"address1": "1202 W Grand Ave",
		"address2": "",
		"address3": null,
		"city": "Chicago",
		"state": "IL",
		"zip_code": "60642"
	},
	{
		"venue_id": "yelpDUhNqMWK7svsVf70fGUxHQ",
		"venue_name": "Ph.D Pub",
		"latitude": 41.86555,
		"longitude": -87.64659,
		"address1": "1257 S Halsted St",
		"address2": null,
		"address3": "",
		"city": "Chicago",
		"state": "IL",
		"zip_code": "60607"
	},
	{
		"venue_id": "yelpbWHyJeZxqfa1OP-2gJ9sZQ",
		"venue_name": "Montrose Saloon",
		"latitude": 41.96097,
		"longitude": -87.70227,
		"address1": "2933 W Montrose Ave",
		"address2": null,
		"address3": "",
		"city": "Chicago",
		"state": "IL",
		"zip_code": "60618"
	},
	{
		"venue_id": "yelpEXmkYu2dhGQjydFv23b-_A",
		"venue_name": "Bottled Blonde Chicago",
		"latitude": 41.891031,
		"longitude": -87.6342254,
		"address1": "504 N Wells St",
		"address2": "",
		"address3": "",
		"city": "Chicago",
		"state": "IL",
		"zip_code": "60654"
	},
	{
		"venue_id": "yelpTzFOCmYsqVXS7ym0IkV__Q",
		"venue_name": "Fill Up Station",
		"latitude": 41.842389,
		"longitude": -87.7829749,
		"address1": "2627 Ridgeland Ave",
		"address2": null,
		"address3": null,
		"city": "Berwyn",
		"state": "IL",
		"zip_code": "60402"
	}
]