[
	{
		"venue_id": "yelp6stjHiOWQJZjzlGGZDGdUg",
		"venue_name": "Ruby's Fast Food",
		"latitude": 41.96126,
		"longitude": -87.72215,
		"address1": "3740 W Montrose Ave",
		"address2": "",
		"address3": "",
		"city": "Chicago",
		"state": "IL",
		"zip_code": "60618"
	},
	{
		"venue_id": "yelp9KhwG-nbDsBV3NNo5rFizQ",
		"venue_name": "Wasabi Cafe",
		"latitude": 41.9525207,
		"longitude": -87.6777953,
		"address1": "3908 N Lincoln Ave",
		"address2": "",
		"address3": "",
		"city": "Chicago",
		"state": "IL",
		"zip_code": "60613"
	},
	{
		"venue_id": "yelpgsyje5AadRRyCQKIYrR3_w",
		"venue_name": "Red Apple Buffet",
		"latitude": 41.93783,
		"longitude": -87.72119,
		"address1": "3121 N Milwaukee Ave",
		"address2": null,
		"address3": "",
		"city": "Chicago",
		"state": "IL",
		"zip_code": "60618"
	},
	{
		"venue_id": "yelpuR7SYWoUHSjUeT8DFp7ofw",
		"venue_name": "Pearl's Place",
		"latitude": 41.8235178493493,
		"longitude": -87.6227937306885,
		"address1": "3901 S Michigan Ave",
		"address2": "",
		"address3": "",
		"city": "Chicago",
		"state": "IL",
		"zip_code": "60653"
	},
	{
		"venue_id": "yelpoGYq7TFSrokJ_1V2qsrU7g",
		"venue_name": "Tiffin",
		"latitude": 41.9977664,
		"longitude": -87.6938693,
		"address1": "2536 W Devon Ave",
		"address2": "",
		"address3": "",
		"city": "Chicago",
		"state": "IL",
		"zip_code": "60659"
	},
	{
		"venue_id": "yelpmwa-ENpIKBn49QocfjL5QA",
		"venue_name": "Red Apple Restaurant",
		"latitude": 41.99889,
		"longitude": -87.78986,
		"address1": "6474 N Milwaukee Ave",
		"address2": "",
		"address3": "",
		"city": "Chicago",
		"state": "IL",
		"zip_code": "60631"
	},
	{
		"venue_id": "yelpS86vux1Eth5FgAkjqY8kfg",
		"venue_name": "Jolly Inn Restaurant & Banquet",
		"latitude": 41.9527351,
		"longitude": -87.78918,
		"address1": "6501 W Irving Park Rd",
		"address2": "",
		"address3": "",
		"city": "Chicago",
		"state": "IL",
		"zip_code": "60634"
	},
	{
		"venue_id": "yelpatfwvk8zK8geGVciK4-KRA",
		"venue_name": "Himmel's",
		"latitude": 41.96838,
		"longitude": -87.686096,
		"address1": "2251 W Lawrence Ave",
		"address2": "",
		"address3": "",
		"city": "Chicago",
		"state": "IL",
		"zip_code": "60625"
	},
	{
		"venue_id": "yelpgXqxpLJAPai9sEbuCbwhzA",
		"venue_name": "Song DO",
		"latitude": 41.9712699,
		"longitude": -87.6906,
		"address1": "4918 N Lincoln Ave",
		"address2": "",
		"address3": "",
		"city": "Chicago",
		"state": "IL",
		"zip_code": "60625"
	},
	{
		"venue_id": "yelpLNs1IWiBb71YnQOOvgDmQA",
		"venue_name": "China Buffet",
		"latitude": 41.936208,
		"longitude": -87.726586,
		"address1": "3029 N Pulaski Rd",
		"address2": "",
		"address3": "",
		"city": "Chicago",
		"state": "IL",
		"zip_code": "60641"
	},
	{
		"venue_id": "yelp8qcbOA0WMaMgPG42vTTdyA",
		"venue_name": "Little Quiapo Restaurant",
		"latitude": 41.995677,
		"longitude": -87.712272,
		"address1": "6259 N McCormick Rd",
		"address2": "",
		"address3": "",
		"city": "Chicago",
		"state": "IL",
		"zip_code": "60659"
	},
	{
		"venue_id": "yelpjdLhsIysBJozeTMa3x9WEg",
		"venue_name": "Punjabi Dhaba",
		"latitude": 41.99741,
		"longitude": -87.69324,
		"address1": "2525 W Devon Ave",
		"address2": "",
		"address3": "",
		"city": "Chicago",
		"state": "IL",
		"zip_code": "60659"
	},
	{
		"venue_id": "yelpCiFCHzLKI3eiUPbf_AkAiA",
		"venue_name": "Yummy Buffet Chicago",
		"latitude": 41.9681151,
		"longitude": -87.7265415,
		"address1": "3925 W Lawrence Ave",
		"address2": "",
		"address3": "",
		"city": "Chicago",
		"state": "IL",
		"zip_code": "60625"
	},
	{
		"venue_id": "yelpEPsvbR5v_2nPU6GRygm1Kw",
		"venue_name": "Siam Cafe",
		"latitude": 41.96766,
		"longitude": -87.65522,
		"address1": "4712 N Sheridan Rd",
		"address2": null,
		"address3": null,
		"city": "Chicago",
		"state": "IL",
		"zip_code": "60640"
	},
	{
		"venue_id": "yelp2v-uXX89tU8kBnBL9xhdLQ",
		"venue_name": "Chicago Stadium Club",
		"latitude": 41.8811951,
		"longitude": -87.6744087,
		"address1": "1901 W Madison St",
		"address2": "",
		"address3": "",
		"city": "Chicago",
		"state": "IL",
		"zip_code": "60612"
	},
	{
		"venue_id": "yelpCpUaEdMNAWCLMTE3xMnFvA",
		"venue_name": "Buffet Castle",
		"latitude": 41.9394430275816,
		"longitude": -87.7118772563097,
		"address1": "3326 W Belmont Ave",
		"address2": null,
		"address3": "",
		"city": "Chicago",
		"state": "IL",
		"zip_code": "60618"
	},
	{
		"venue_id": "yelp8wUSOJ6AVANd4lgR7Ga5hA",
		"venue_name": "Hong Kong Buffet",
		"latitude": 41.99519,
		"longitude": -87.71233,
		"address1": "6249 N McCormick Rd",
		"address2": "",
		"address3": "",
		"city": "Chicago",
		"state": "IL",
		"zip_code": "60659"
	},
	{
		"venue_id": "yelpnafQKuUH7oEBAEK9K6HaSw",
		"venue_name": "Old Country Buffet",
		"latitude": 41.9250180123377,
		"longitude": -87.7898547828339,
		"address1": "6560 W Fullerton Ave",
		"address2": "",
		"address3": "",
		"city": "Chicago",
		"state": "IL",
		"zip_code": "60707"
	},
	{
		"venue_id": "yelp3GxTvu6qBrmlKMDg0wQUWA",
		"venue_name": "All Style Buffet",
		"latitude": 41.8145988,
		"longitude": -87.7237151,
		"address1": "4305 S Pulaski Rd",
		"address2": "",
		"address3": "",
		"city": "Chicago",
		"state": "IL",
		"zip_code": "60632"
	},
	{
		"venue_id": "yelpElRCJ8FV6nmO1OvkqdWfFA",
		"venue_name": "Breaking Bread Lunch",
		"latitude": 41.8884267391537,
		"longitude": -87.6362236362457,
		"address1": "222 W Merchandise Mart Plz",
		"address2": "Fl 12",
		"address3": "1871 Kitchen",
		"city": "Chicago",
		"state": "IL",
		"zip_code": "60654"
	},
	{
		"venue_id": "yelpjaW2XhOcdqfy6tAbMztbsg",
		"venue_name": "Lime Leaf",
		"latitude": 41.8770892,
		"longitude": -87.6273126,
		"address1": "8 E Van Buren St",
		"address2": "",
		"address3": null,
		"city": "Chicago",
		"state": "IL",
		"zip_code": "60604"
	},
	{
		"venue_id": "yelpgWZ6PzjrbeDJyKrTpNK-CA",
		"venue_name": "Brickyard Super China Buffet",
		"latitude": 41.9282324,
		"longitude": -87.7858048,
		"address1": "2650 N Narragansett Ave",
		"address2": "",
		"address3": "",
		"city": "Chicago",
		"state": "IL",
		"zip_code": "60639"
	},
	{
		"venue_id": "yelpGlS0EjpsWHZ4AvgSTTDHkQ",
		"venue_name": "Super China Buffet",
		"latitude": 41.9551464,
		"longitude": -87.8071551,
		"address1": "4125 N Harlem Ave",
		"address2": "",
		"address3": "",
		"city": "Norridge",
		"state": "IL",
		"zip_code": "60706"
	},
	{
		"venue_id": "yelpvT-3hhjqV0Ao2oXibr0ZLw",
		"venue_name": "Home Plate Club",
		"latitude": 41.830715,
		"longitude": -87.633628,
		"address1": "241 W 35th St",
		"address2": "",
		"address3": "",
		"city": "Chicago",
		"state": "IL",
		"zip_code": "60616"
	},
	{
		"venue_id": "yelps-oMVqh7kZrCwk_ikHVFdA",
		"venue_name": "Harvest 365 Restaurant & Fresh Grill",
		"latitude": 41.8638111,
		"longitude": -87.8137633,
		"address1": "7610 W Roosevelt Rd",
		"address2": "Ste 120",
		"address3": "",
		"city": "Forest Park",
		"state": "IL",
		"zip_code": "60130"
	},
	{
		"venue_id": "yelpjYoieYj0zkII1ZeaZrG5_Q",
		"venue_name": "Mirage Restaurant",
		"latitude": 41.890686,
		"longitude": -87.624862,
		"address1": "444 N Michigan Ave",
		"address2": null,
		"address3": "",
		"city": "Chicago",
		"state": "IL",
		"zip_code": "60611"
	},
	{
		"venue_id": "yelpSomVqAFFD7KKSSk_aJArgQ",
		"venue_name": "270 Degrees",
		"latitude": 41.85194,
		"longitude": -87.61152,
		"address1": "McCormick Pl",
		"address2": "",
		"address3": "2301 S Lake Shore Dr, West Bldg",
		"city": "Chicago",
		"state": "IL",
		"zip_code": "60686"
	},
	{
		"venue_id": "yelpxdx92savIJixCdf5xvc6bQ",
		"venue_name": "Hibachi Sushi Buffet",
		"latitude": 41.83737,
		"longitude": -87.74309,
		"address1": "3035 S Cicero Ave",
		"address2": "",
		"address3": "",
		"city": "Cicero",
		"state": "IL",
		"zip_code": "60804"
	},
	{
		"venue_id": "yelpOzSGEoAUk3AkGwQROJAonw",
		"venue_name": "Great Buffet",
		"latitude": 41.8516620615654,
		"longitude": -87.6509857177734,
		"address1": "2531 W Cermak Rd",
		"address2": "",
		"address3": "",
		"city": "Chicago",
		"state": "IL",
		"zip_code": "60608"
	},
	{
		"venue_id": "yelpKEoOv7OMXkFRx5FJSkMpLQ",
		"venue_name": "Em Buffet",
		"latitude": 41.847381,
		"longitude": -87.809301,
		"address1": "7501 W Cermak Rd",
		"address2": "",
		"address3": "",
		"city": "Riverside",
		"state": "IL",
		"zip_code": "60546"
	},
	{
		"venue_id": "yelp5e9T89IqcCTcf6XY9Gvm0g",
		"venue_name": "Ogo Oluwa TBS Restaurant",
		"latitude": 41.9683189,
		"longitude": -87.6929092,
		"address1": "2541 W Lawrence Ave",
		"address2": "",
		"address3": "",
		"city": "Chicago",
		"state": "IL",
		"zip_code": "60625"
	}
]