[
	{
		"venue_id": "yelpjImBrAd65LeLWne9lfK2tg",
		"venue_name": "The Wormhole Coffee",
		"latitude": 41.90828,
		"longitude": -87.67471,
		"address1": "1462 N Milwaukee Ave",
		"address2": "",
		"address3": "",
		"city": "Chicago",
		"state": "IL",
		"zip_code": "60622"
	},
	{
		"venue_id": "yelp1hJYOI26FjCQ-Ce6iKAvug",
		"venue_name": "Cafecito",
		"latitude": 41.875725,
		"longitude": -87.626566,
		"address1": "26 E Congress Pkwy",
		"address2": "",
		"address3": "",
		"city": "Chicago",
		"state": "IL",
		"zip_code": "60605"
	},
	{
		"venue_id": "yelp0fYNLK7VpBUW4mgFyPCrWQ",
		"venue_name": "Over Easy Cafe",
		"latitude": 41.9717208,
		"longitude": -87.6790834,
		"address1": "4943 N Damen Ave",
		"address2": null,
		"address3": "",
		"city": "Chicago",
		"state": "IL",
		"zip_code": "60625"
	},
	{
		"venue_id": "yelpnd1KFxtZHXIMLqPtgubLpQ",
		"venue_name": "m.henry",
		"latitude": 41.9856948852539,
		"longitude": -87.6688842773438,
		"address1": "5707 N Clark St",
		"address2": null,
		"address3": "",
		"city": "Chicago",
		"state": "IL",
		"zip_code": "60660"
	},
	{
		"venue_id": "yelp_wtMT97gelNAyfI82FPFvA",
		"venue_name": "3 Arts Club Cafe",
		"latitude": 41.9058,
		"longitude": -87.63047,
		"address1": "1300 N Dearborn Pkwy",
		"address2": "",
		"address3": "",
		"city": "Chicago",
		"state": "IL",
		"zip_code": "60610"
	},
	{
		"venue_id": "yelpmCHto10PBQOKnefm7gholg",
		"venue_name": "90 Miles Cuban Caf\u00e9",
		"latitude": 41.9176864624023,
		"longitude": -87.6918029785156,
		"address1": "2540 W Armitage Ave",
		"address2": "",
		"address3": "",
		"city": "Chicago",
		"state": "IL",
		"zip_code": "60647"
	},
	{
		"venue_id": "yelphgE7M0H_iY4wIzFAgrOTCA",
		"venue_name": "Saucy Porka",
		"latitude": 41.8765020444174,
		"longitude": -87.6331966288361,
		"address1": "400 S Financial Pl",
		"address2": null,
		"address3": "",
		"city": "Chicago",
		"state": "IL",
		"zip_code": "60605"
	},
	{
		"venue_id": "yelpUQ3cGi3GdBljE3i2_qLcBQ",
		"venue_name": "Artopolis",
		"latitude": 41.87762,
		"longitude": -87.64758,
		"address1": "306 S Halsted St",
		"address2": "",
		"address3": "",
		"city": "Chicago",
		"state": "IL",
		"zip_code": "60661"
	},
	{
		"venue_id": "yelpfzSR7vIQTQP0cir0Dgi9Vw",
		"venue_name": "Cafe con Leche",
		"latitude": 41.9305879,
		"longitude": -87.710207,
		"address1": "2714 N Milwaukee Ave",
		"address2": "",
		"address3": "",
		"city": "Chicago",
		"state": "IL",
		"zip_code": "60647"
	},
	{
		"venue_id": "yelpKay0151fB9BoQ_AF57Zl2A",
		"venue_name": "Cafecito",
		"latitude": 41.8823605,
		"longitude": -87.6337765,
		"address1": "7 N Wells St",
		"address2": "",
		"address3": "",
		"city": "Chicago",
		"state": "IL",
		"zip_code": "60602"
	},
	{
		"venue_id": "yelpxjZ9eqYrzMrl2v6_1Kv6hA",
		"venue_name": "Alliance Bakery & Cafe",
		"latitude": 41.90355,
		"longitude": -87.67149,
		"address1": "1736 W Division St",
		"address2": "",
		"address3": "",
		"city": "Chicago",
		"state": "IL",
		"zip_code": "60622"
	},
	{
		"venue_id": "yelpom-vqH8GMpteU9xlSymPaQ",
		"venue_name": "Loving Heart",
		"latitude": 41.9619233,
		"longitude": -87.6515285,
		"address1": "838 W Montrose Ave",
		"address2": "",
		"address3": "",
		"city": "Chicago",
		"state": "IL",
		"zip_code": "60613"
	},
	{
		"venue_id": "yelp4i9LUrKeoMmUB_qZicuJnQ",
		"venue_name": "Cafe Selmarie",
		"latitude": 41.9674474,
		"longitude": -87.6875832,
		"address1": "4729 N Lincoln Ave",
		"address2": "",
		"address3": "",
		"city": "Chicago",
		"state": "IL",
		"zip_code": "60625"
	},
	{
		"venue_id": "yelp0rgC3hwvUKS3H07T84mbvQ",
		"venue_name": "Goddess And The Baker",
		"latitude": 41.881259,
		"longitude": -87.625846,
		"address1": "33 S Wabash Ave",
		"address2": "",
		"address3": "",
		"city": "Chicago",
		"state": "IL",
		"zip_code": "60603"
	},
	{
		"venue_id": "yelp3otFjkG6Ev2OWyX4giCjfA",
		"venue_name": "Bittersweet Pastry Shop",
		"latitude": 41.94013,
		"longitude": -87.65729,
		"address1": "1114 W Belmont Ave",
		"address2": "",
		"address3": "",
		"city": "Chicago",
		"state": "IL",
		"zip_code": "60657"
	},
	{
		"venue_id": "yelp0ZENqrACvQ4tiMvFEkgVPg",
		"venue_name": "Jimmy's Pizza Caf\u00e9",
		"latitude": 41.9757474517431,
		"longitude": -87.6921836227971,
		"address1": "5159 N Lincoln Ave",
		"address2": "",
		"address3": "",
		"city": "Chicago",
		"state": "IL",
		"zip_code": "60625"
	},
	{
		"venue_id": "yelpFsoEVqFK-W7gRu0hDH84sg",
		"venue_name": "Janik's Cafe",
		"latitude": 41.9030612,
		"longitude": -87.677777,
		"address1": "2011 W Division St",
		"address2": "",
		"address3": "",
		"city": "Chicago",
		"state": "IL",
		"zip_code": "60622"
	},
	{
		"venue_id": "yelprHCQkxQ5WZ5qbDg0XeKibA",
		"venue_name": "Scone City",
		"latitude": 41.9034349,
		"longitude": -87.66879,
		"address1": "1632 W Division St",
		"address2": "",
		"address3": "",
		"city": "Chicago",
		"state": "IL",
		"zip_code": "60622"
	},
	{
		"venue_id": "yelpVzs9WS3dV3liKH7u6vJ0Mg",
		"venue_name": "Toni Patisserie & Cafe",
		"latitude": 41.8831251,
		"longitude": -87.6257316,
		"address1": "65 E Washington St",
		"address2": "",
		"address3": "",
		"city": "Chicago",
		"state": "IL",
		"zip_code": "60602"
	},
	{
		"venue_id": "yelpZMmdSK4oObGNCv50tT1OOA",
		"venue_name": "Eva's Cafe",
		"latitude": 41.9089825,
		"longitude": -87.6384134,
		"address1": "1447 N Sedgwick",
		"address2": null,
		"address3": "",
		"city": "Chicago",
		"state": "IL",
		"zip_code": "60610"
	},
	{
		"venue_id": "yelpbsbkGaTbZPhm4dQ2RfLRbw",
		"venue_name": "Dinkel's Bakery",
		"latitude": 41.9424245735863,
		"longitude": -87.6704134610592,
		"address1": "3329 N Lincoln Ave",
		"address2": "",
		"address3": "",
		"city": "Chicago",
		"state": "IL",
		"zip_code": "60657"
	},
	{
		"venue_id": "yelp_P_lfN9VfzlmDjDKo2gXZQ",
		"venue_name": "Cafe Jumping Bean",
		"latitude": 41.85762,
		"longitude": -87.66278,
		"address1": "1439 W 18th St",
		"address2": "",
		"address3": "",
		"city": "Chicago",
		"state": "IL",
		"zip_code": "60608"
	},
	{
		"venue_id": "yelp2PDjNBgmUrE_h1G939RurA",
		"venue_name": "Floriole Cafe & Bakery",
		"latitude": 41.921956,
		"longitude": -87.659199,
		"address1": "1220 W Webster Ave",
		"address2": "",
		"address3": "",
		"city": "Chicago",
		"state": "IL",
		"zip_code": "60614"
	},
	{
		"venue_id": "yelpC9cB74_jNHfEEO1NPtMFMQ",
		"venue_name": "Somethin' Sweet Donuts",
		"latitude": 41.924464,
		"longitude": -87.754371,
		"address1": "5112 W Fullerton Ave",
		"address2": "",
		"address3": "",
		"city": "Chicago",
		"state": "IL",
		"zip_code": "60639"
	},
	{
		"venue_id": "yelpqqax04alS3UPx0Yp4jJNDQ",
		"venue_name": "Milk & Honey Cafe",
		"latitude": 41.90352,
		"longitude": -87.67573,
		"address1": "1920 W Division St",
		"address2": "Ste 1",
		"address3": "",
		"city": "Chicago",
		"state": "IL",
		"zip_code": "60622"
	},
	{
		"venue_id": "yelpOpe9rcoWasqIWBvtEmcfsQ",
		"venue_name": "First Slice Pie Cafe",
		"latitude": 41.9795889,
		"longitude": -87.6695256,
		"address1": "5357 N Ashland Ave",
		"address2": "",
		"address3": "",
		"city": "Chicago",
		"state": "IL",
		"zip_code": "60640"
	},
	{
		"venue_id": "yelpr2eRY7UymHkcopNgzjJv9g",
		"venue_name": "Esencia Urban Kitchen",
		"latitude": 41.9432065013836,
		"longitude": -87.6445358158359,
		"address1": "3351 N Broadway St",
		"address2": "",
		"address3": "",
		"city": "Chicago",
		"state": "IL",
		"zip_code": "60657"
	},
	{
		"venue_id": "yelpOPjXdkm5y_ARr6oyeEOMfg",
		"venue_name": "Fairgrounds Coffee and Tea",
		"latitude": 41.9106987115516,
		"longitude": -87.6780348762432,
		"address1": "1620 N Milwaukee Ave",
		"address2": null,
		"address3": "",
		"city": "Chicago",
		"state": "IL",
		"zip_code": "60647"
	},
	{
		"venue_id": "yelpSfaA8AXQVtPY1JtAuJrgaw",
		"venue_name": "La Catedral Cafe & Restaurant",
		"latitude": 41.846148,
		"longitude": -87.709083,
		"address1": "2500 S Christiana Ave",
		"address2": "",
		"address3": "",
		"city": "Chicago",
		"state": "IL",
		"zip_code": "60623"
	},
	{
		"venue_id": "yelpF-Ucb69aUN5UI1Dv3nngQw",
		"venue_name": "D4 Irish Pub & Cafe",
		"latitude": 41.892019224495,
		"longitude": -87.618911921119,
		"address1": "345 E Ohio St",
		"address2": "",
		"address3": "",
		"city": "Chicago",
		"state": "IL",
		"zip_code": "60611"
	},
	{
		"venue_id": "yelpj7kcbdUFjroGeta8ieN1gw",
		"venue_name": "Perkolator",
		"latitude": 41.9531543,
		"longitude": -87.7782196,
		"address1": "6032 W Irving Park Rd",
		"address2": "",
		"address3": "",
		"city": "Chicago",
		"state": "IL",
		"zip_code": "60634"
	},
	{
		"venue_id": "yelpz-XvS31G0aUZHU9eLdtQRA",
		"venue_name": "The Coffee Studio",
		"latitude": 41.984327090113,
		"longitude": -87.669086660493,
		"address1": "5628 N Clark St",
		"address2": "",
		"address3": "",
		"city": "Chicago",
		"state": "IL",
		"zip_code": "60660"
	},
	{
		"venue_id": "yelpTpRzi_TaFkaN2toazG72wg",
		"venue_name": "Scafuri Bakery",
		"latitude": 41.8692659,
		"longitude": -87.6606725,
		"address1": "1337 W Taylor St",
		"address2": null,
		"address3": "",
		"city": "Chicago",
		"state": "IL",
		"zip_code": "60607"
	},
	{
		"venue_id": "yelpdc0xhJKzWgHRPYjJk66ibw",
		"venue_name": "Letizia's Natural Bakery",
		"latitude": 41.9034199,
		"longitude": -87.68154,
		"address1": "2144 W Division St",
		"address2": "",
		"address3": "",
		"city": "Chicago",
		"state": "IL",
		"zip_code": "60622"
	},
	{
		"venue_id": "yelpPynQtVMw55Maam0ah-Zr-A",
		"venue_name": "Cafe Ballou",
		"latitude": 41.89873,
		"longitude": -87.68659,
		"address1": "939 N Western Ave",
		"address2": null,
		"address3": "",
		"city": "Chicago",
		"state": "IL",
		"zip_code": "60622"
	},
	{
		"venue_id": "yelpige3s8PkYAErLRVbSvqItQ",
		"venue_name": "Blue Door Farm Stand",
		"latitude": 41.9185554983396,
		"longitude": -87.648811124884,
		"address1": "2010 N Halsted St",
		"address2": "",
		"address3": "",
		"city": "Chicago",
		"state": "IL",
		"zip_code": "60614"
	},
	{
		"venue_id": "yelprYc8maCCT-zleaQdEBKweA",
		"venue_name": "Gaslight Coffee Roasters",
		"latitude": 41.92458,
		"longitude": -87.69972,
		"address1": "2385 N Milwaukee Ave",
		"address2": "",
		"address3": "",
		"city": "Chicago",
		"state": "IL",
		"zip_code": "60647"
	},
	{
		"venue_id": "yelpkmTa3vsoc9TskIJXUaq9Sg",
		"venue_name": "Smack Dab",
		"latitude": 42.0074472,
		"longitude": -87.6663739,
		"address1": "6920 N Glenwood Ave",
		"address2": null,
		"address3": "",
		"city": "Chicago",
		"state": "IL",
		"zip_code": "60626"
	},
	{
		"venue_id": "yelpkETAh5tmJry7Nf4Y2Y_3Yg",
		"venue_name": "Wheat's End Cafe",
		"latitude": 41.9346173107624,
		"longitude": -87.6441695541143,
		"address1": "2873 N Broadway St",
		"address2": "",
		"address3": "",
		"city": "Chicago",
		"state": "IL",
		"zip_code": "60657"
	},
	{
		"venue_id": "yelpn7ENmPWxhAXEONNMN393Jw",
		"venue_name": "Interurban Boathouse",
		"latitude": 41.91706,
		"longitude": -87.66494,
		"address1": "1438 W Cortland",
		"address2": "",
		"address3": "",
		"city": "Chicago",
		"state": "IL",
		"zip_code": "60614"
	},
	{
		"venue_id": "yelp5SLlXjQRWnLCaRAJtX5uhA",
		"venue_name": "Enolo Wine Cafe",
		"latitude": 41.8906945040373,
		"longitude": -87.6312950202378,
		"address1": "450 N Clark St",
		"address2": "",
		"address3": "",
		"city": "Chicago",
		"state": "IL",
		"zip_code": "60654"
	},
	{
		"venue_id": "yelpoD9mXf_-7ukKOEGRP0HWvg",
		"venue_name": "Cafe Spiaggia",
		"latitude": 41.9007042247792,
		"longitude": -87.624384276474,
		"address1": "980 N Michigan Ave",
		"address2": "Fl 2",
		"address3": "",
		"city": "Chicago",
		"state": "IL",
		"zip_code": "60611"
	},
	{
		"venue_id": "yelpIoBJyhmF5i7X06kprnfsWw",
		"venue_name": "Left Coast Food + Juice",
		"latitude": 41.93391824473,
		"longitude": -87.6607146496915,
		"address1": "2878 N Lincoln Ave",
		"address2": "",
		"address3": "",
		"city": "Chicago",
		"state": "IL",
		"zip_code": "60657"
	},
	{
		"venue_id": "yelpttDpEi84vz2ZP5H6n8xZAg",
		"venue_name": "Coffee Slasticarna Drina",
		"latitude": 41.96832,
		"longitude": -87.69167,
		"address1": "2501 W Lawrence Ave",
		"address2": "",
		"address3": "",
		"city": "Chicago",
		"state": "IL",
		"zip_code": "60625"
	},
	{
		"venue_id": "yelpxpWC-F1e4Qf4fAPjC701-g",
		"venue_name": "Healthy and Simple",
		"latitude": 41.89656,
		"longitude": -87.6669,
		"address1": "815 N Ashland Ave",
		"address2": null,
		"address3": "",
		"city": "Chicago",
		"state": "IL",
		"zip_code": "60622"
	},
	{
		"venue_id": "yelpPk-QzlSQfCt3bwght6MGtg",
		"venue_name": "Kristoffer's Cafe & Bakery",
		"latitude": 41.85815,
		"longitude": -87.64634,
		"address1": "1733 S Halsted St",
		"address2": "",
		"address3": null,
		"city": "Chicago",
		"state": "IL",
		"zip_code": "60608"
	},
	{
		"venue_id": "yelpfW5mNILkfD3-0cOqoPsRvA",
		"venue_name": "Labriola",
		"latitude": 41.8919830322266,
		"longitude": -87.6235427856445,
		"address1": "535 N Michigan Ave",
		"address2": "",
		"address3": "",
		"city": "Chicago",
		"state": "IL",
		"zip_code": "60611"
	},
	{
		"venue_id": "yelpeID8U-VLJrbF2zzlxeyldQ",
		"venue_name": "Oromo Cafe",
		"latitude": 41.9667937,
		"longitude": -87.6871507,
		"address1": "4703 N Lincoln Ave",
		"address2": "",
		"address3": "",
		"city": "Chicago",
		"state": "IL",
		"zip_code": "60625"
	},
	{
		"venue_id": "yelpPYmYzvpsXPv5oRg7IqZHOg",
		"venue_name": "7 Plates Cafe",
		"latitude": 41.92257,
		"longitude": -87.64436,
		"address1": "2221 N Lincoln Ave",
		"address2": null,
		"address3": "",
		"city": "Chicago",
		"state": "IL",
		"zip_code": "60614"
	},
	{
		"venue_id": "yelpVScrypD_qyg_Jzbz59BXmg",
		"venue_name": "Backlot Coffee",
		"latitude": 41.9533408903263,
		"longitude": -87.7319341152907,
		"address1": "3982 N Avondale Ave",
		"address2": "",
		"address3": null,
		"city": "Chicago",
		"state": "IL",
		"zip_code": "60641"
	},
	{
		"venue_id": "yelp6udJ7FWw6QQKQyGadZoIXg",
		"venue_name": "Groundswell Coffee Roasters",
		"latitude": 41.9698542026967,
		"longitude": -87.6790406080946,
		"address1": "4839 N Damen Ave",
		"address2": null,
		"address3": "",
		"city": "Chicago",
		"state": "IL",
		"zip_code": "60625"
	},
	{
		"venue_id": "yelpKB1xJ9uCj7FMLNDUxK2p_g",
		"venue_name": "Lakeview Rewired Cafe",
		"latitude": 41.9458,
		"longitude": -87.64666,
		"address1": "3508 N Broadway Ave",
		"address2": null,
		"address3": "",
		"city": "Chicago",
		"state": "IL",
		"zip_code": "60657"
	},
	{
		"venue_id": "yelpZNNBQN7F_wvNVqcRVoeOjw",
		"venue_name": "L.A. Burdick Handmade Chocolates",
		"latitude": 41.8926534,
		"longitude": -87.6279651,
		"address1": "609 N State St",
		"address2": null,
		"address3": "",
		"city": "Chicago",
		"state": "IL",
		"zip_code": "60654"
	},
	{
		"venue_id": "yelp0jxO2gCuNI6rTz9R1xHBig",
		"venue_name": "First Slice",
		"latitude": 41.9661744,
		"longitude": -87.7010771,
		"address1": "4664 N Manor Ave",
		"address2": "",
		"address3": "",
		"city": "Chicago",
		"state": "IL",
		"zip_code": "60625"
	},
	{
		"venue_id": "yelp4-ymYbhxthEMWQa2_404FQ",
		"venue_name": "Cafe Urbano",
		"latitude": 41.956659,
		"longitude": -87.723814,
		"address1": "4176 N Elston Ave",
		"address2": "",
		"address3": "",
		"city": "Chicago",
		"state": "IL",
		"zip_code": "60618"
	},
	{
		"venue_id": "yelpMYVne595zLd0WmyMqIVa7A",
		"venue_name": "Eli's Cheesecake World",
		"latitude": 41.9589799,
		"longitude": -87.79441,
		"address1": "6701 W Forest Preserve Dr",
		"address2": null,
		"address3": "",
		"city": "Chicago",
		"state": "IL",
		"zip_code": "60634"
	},
	{
		"venue_id": "yelptXgU0YTlPCFuK2YSy-IRLQ",
		"venue_name": "Caf\u00e9 Marie Jeanne",
		"latitude": 41.89942,
		"longitude": -87.6964,
		"address1": "1001 N California Ave",
		"address2": null,
		"address3": "",
		"city": "Chicago",
		"state": "IL",
		"zip_code": "60622"
	},
	{
		"venue_id": "yelpW8bvTzMxbeR928MYz-5QAA",
		"venue_name": "Green Tomato Cafe",
		"latitude": 41.85338,
		"longitude": -87.71941,
		"address1": "3750 W Ogden Ave",
		"address2": "",
		"address3": "",
		"city": "Chicago",
		"state": "IL",
		"zip_code": "60623"
	},
	{
		"venue_id": "yelpuyi_j8Lce7PMmOIKMKU8dw",
		"venue_name": "First Slice",
		"latitude": 41.96176,
		"longitude": -87.67353,
		"address1": "4401 N Ravenswood Ave",
		"address2": "",
		"address3": "",
		"city": "Chicago",
		"state": "IL",
		"zip_code": "60640"
	},
	{
		"venue_id": "yelpS96imo1X3KP-CPBd7rhjWw",
		"venue_name": "Smack Dab",
		"latitude": 42.0044,
		"longitude": -87.67314,
		"address1": "6730 N Clark St",
		"address2": null,
		"address3": "",
		"city": "Chicago",
		"state": "IL",
		"zip_code": "60626"
	},
	{
		"venue_id": "yelp4Wfyw_GRactKiDOOUGOboA",
		"venue_name": "Blue Sky Bakery & Cafe",
		"latitude": 41.9491806030273,
		"longitude": -87.6756896972656,
		"address1": "3720 N Lincoln Ave",
		"address2": "",
		"address3": "",
		"city": "Chicago",
		"state": "IL",
		"zip_code": "60613"
	},
	{
		"venue_id": "yelpJBjTfJBv1n40MXD_lNImbQ",
		"venue_name": "Elaine's Coffee Call",
		"latitude": 41.9153347,
		"longitude": -87.6345497,
		"address1": "1816 N Clark St",
		"address2": "",
		"address3": "",
		"city": "Chicago",
		"state": "IL",
		"zip_code": "60614"
	},
	{
		"venue_id": "yelpoC9poEdLckAO-f-89rxNEw",
		"venue_name": "Little Branch Cafe",
		"latitude": 41.866059,
		"longitude": -87.621492,
		"address1": "1251 S Prairie Ave",
		"address2": "",
		"address3": "",
		"city": "Chicago",
		"state": "IL",
		"zip_code": "60605"
	},
	{
		"venue_id": "yelpu6xe7al6lWQLZ8yTjkjhYw",
		"venue_name": "Specialty's Caf\u00e9 & Bakery",
		"latitude": 41.8852820363962,
		"longitude": -87.6366949081421,
		"address1": "191 N Wacker Dr",
		"address2": "",
		"address3": "",
		"city": "Chicago",
		"state": "IL",
		"zip_code": "60606"
	},
	{
		"venue_id": "yelp3Ngie-UAPPyEKK_yen7JBw",
		"venue_name": "TrueNorth",
		"latitude": 41.982,
		"longitude": -87.66811,
		"address1": "5507 N Clark St",
		"address2": null,
		"address3": "",
		"city": "Chicago",
		"state": "IL",
		"zip_code": "60640"
	},
	{
		"venue_id": "yelpsWaqKAhrbCkpO7iJQ9p7cA",
		"venue_name": "La Catrina Cafe",
		"latitude": 41.8579068793275,
		"longitude": -87.651961958531,
		"address1": "1011 W 18th St",
		"address2": null,
		"address3": "",
		"city": "Chicago",
		"state": "IL",
		"zip_code": "60608"
	},
	{
		"venue_id": "yelp28PBDFyDn-B1quGzIAUr-Q",
		"venue_name": "Cafeteria Marcelas",
		"latitude": 41.924519994451,
		"longitude": -87.7140250056982,
		"address1": "3503 W Fullerton Ave",
		"address2": "",
		"address3": "",
		"city": "Chicago",
		"state": "IL",
		"zip_code": "60647"
	},
	{
		"venue_id": "yelptUKY7bdrcjeRlfP1mWkyPg",
		"venue_name": "frunchroom",
		"latitude": 41.9541592233227,
		"longitude": -87.7487733587623,
		"address1": "4042 N Milwaukee Ave",
		"address2": "",
		"address3": null,
		"city": "Chicago",
		"state": "IL",
		"zip_code": "60641"
	},
	{
		"venue_id": "yelps1j47h7o3K0m9U7P1f_AAw",
		"venue_name": "DropShot Coffee & Snack Bar",
		"latitude": 41.89857,
		"longitude": -87.63641,
		"address1": "312 W Chestnut St",
		"address2": null,
		"address3": "",
		"city": "Chicago",
		"state": "IL",
		"zip_code": "60610"
	},
	{
		"venue_id": "yelppAHABLrE2cVSFPQvk_xu7Q",
		"venue_name": "Bia's Caf\u00e9 Marianao",
		"latitude": 41.946,
		"longitude": -87.73617,
		"address1": "4323 W Addison St",
		"address2": "",
		"address3": null,
		"city": "Chicago",
		"state": "IL",
		"zip_code": "60641"
	},
	{
		"venue_id": "yelpprBAEIFfbSlxmuZO2KnvEQ",
		"venue_name": "Red Eyes Coffee",
		"latitude": 41.95762,
		"longitude": -87.6814799,
		"address1": "4164 N Lincoln Ave",
		"address2": null,
		"address3": "",
		"city": "Chicago",
		"state": "IL",
		"zip_code": "60618"
	},
	{
		"venue_id": "yelpmjwKki4cUHpoGzW8a8m8lQ",
		"venue_name": "Bonus Round Game Cafe",
		"latitude": 41.94063,
		"longitude": -87.65168,
		"address1": "3230 N Clark St",
		"address2": null,
		"address3": "",
		"city": "Chicago",
		"state": "IL",
		"zip_code": "60657"
	},
	{
		"venue_id": "yelpBCGezgDw9erzNM29CCJSpw",
		"venue_name": "First Sip Cafe",
		"latitude": 41.97303,
		"longitude": -87.65733,
		"address1": "1057 W Argyle St",
		"address2": "",
		"address3": null,
		"city": "Chicago",
		"state": "IL",
		"zip_code": "60640"
	},
	{
		"venue_id": "yelpjQ07EXdqUJ3o8Gg020dstA",
		"venue_name": "Caff\u00e8 R\u014dM",
		"latitude": 41.8808728191302,
		"longitude": -87.6363945007324,
		"address1": "71 S Franklin St",
		"address2": "",
		"address3": "Hyatt Center",
		"city": "Chicago",
		"state": "IL",
		"zip_code": "60606"
	},
	{
		"venue_id": "yelp7HQy7afYxXg5pYUa9G_Hkw",
		"venue_name": "City Cafe",
		"latitude": 41.940112077615,
		"longitude": -87.727391242981,
		"address1": "3234 N Pulaski",
		"address2": "",
		"address3": "",
		"city": "Chicago",
		"state": "IL",
		"zip_code": "60618"
	},
	{
		"venue_id": "yelptMaWDAw59DpPJZO9GfRVRw",
		"venue_name": "HERO Coffee Bar",
		"latitude": 41.94291,
		"longitude": -87.6813899,
		"address1": "2111 W Roscoe St",
		"address2": "",
		"address3": "",
		"city": "Chicago",
		"state": "IL",
		"zip_code": "60618"
	},
	{
		"venue_id": "yelpBShJp9xl8EzP55v6Ix1yxw",
		"venue_name": "M2 Cafe",
		"latitude": 41.878154,
		"longitude": -87.649269,
		"address1": "850 W Jackson",
		"address2": "",
		"address3": "",
		"city": "Chicago",
		"state": "IL",
		"zip_code": "60607"
	},
	{
		"venue_id": "yelpf4fD6idENn2dfamJLxAYYA",
		"venue_name": "Francesca's Cafe",
		"latitude": 41.89754,
		"longitude": -87.67741,
		"address1": "852 N Damen Ave",
		"address2": "",
		"address3": "",
		"city": "Chicago",
		"state": "IL",
		"zip_code": "60622"
	},
	{
		"venue_id": "yelpepdAvPKt726YCe48gD6Ldw",
		"venue_name": "Kerelys Cuban Cafe & Pizzeria",
		"latitude": 41.9346478,
		"longitude": -87.7168702,
		"address1": "2934 N Milwaukee Ave",
		"address2": "",
		"address3": "",
		"city": "Chicago",
		"state": "IL",
		"zip_code": "60618"
	},
	{
		"venue_id": "yelp3nOO3B9xoASM9XLzJfbHDg",
		"venue_name": "ArePA George",
		"latitude": 41.9098848,
		"longitude": -87.7071149,
		"address1": "1552 N Kedzie Ave",
		"address2": null,
		"address3": "",
		"city": "Chicago",
		"state": "IL",
		"zip_code": "60651"
	},
	{
		"venue_id": "yelp1sMa5flhmM9UGQpBh4u5Iw",
		"venue_name": "Nutella Cafe",
		"latitude": 41.8855589,
		"longitude": -87.6243248,
		"address1": "189 N Michigan Ave",
		"address2": "",
		"address3": null,
		"city": "Chicago",
		"state": "IL",
		"zip_code": "60601"
	},
	{
		"venue_id": "yelprZDm1FVJm59mPHVrdcN9dQ",
		"venue_name": "L Cafecito Jumping Bean",
		"latitude": 41.8546848,
		"longitude": -87.6760973,
		"address1": "2010 S Damen Ave",
		"address2": "",
		"address3": null,
		"city": "Chicago",
		"state": "IL",
		"zip_code": "60608"
	},
	{
		"venue_id": "yelpUgDwjwn6HkExlbSeIGX0gw",
		"venue_name": "Steingold's",
		"latitude": 41.95451,
		"longitude": -87.67582,
		"address1": "1840 W Irving Park Rd",
		"address2": "",
		"address3": null,
		"city": "Chicago",
		"state": "IL",
		"zip_code": "60613"
	},
	{
		"venue_id": "yelpy8N-SjnICsian9g7yIhBnQ",
		"venue_name": "Phlour Bakery & Cafe",
		"latitude": 41.9837724,
		"longitude": -87.6594045,
		"address1": "1138 W Bryn Mawr Ave",
		"address2": null,
		"address3": "",
		"city": "Chicago",
		"state": "IL",
		"zip_code": "60660"
	},
	{
		"venue_id": "yelp1G0KYSJXvCxB-IZJOMTo2w",
		"venue_name": "Le Cafe",
		"latitude": 41.95991,
		"longitude": -87.64701,
		"address1": "4250 N Marine Dr",
		"address2": "",
		"address3": "",
		"city": "Chicago",
		"state": "IL",
		"zip_code": "60613"
	},
	{
		"venue_id": "yelpO-kqVTEMsvUxTFKxgIHemQ",
		"venue_name": "West Town Bakery",
		"latitude": 41.8922397,
		"longitude": -87.6275007,
		"address1": "15 E Ohio St",
		"address2": "Ste A",
		"address3": "",
		"city": "Chicago",
		"state": "IL",
		"zip_code": "60611"
	},
	{
		"venue_id": "yelpdHizHgEOtRxUG7_Fuog3DQ",
		"venue_name": "Westons Coffee & Tap",
		"latitude": 41.96952,
		"longitude": -87.76262,
		"address1": "4872 N Milwaukee Ave",
		"address2": "",
		"address3": null,
		"city": "Chicago",
		"state": "IL",
		"zip_code": "60630"
	},
	{
		"venue_id": "yelpqXnCv5VpyM0TTKmSb7dNnA",
		"venue_name": "Mojo Coffee",
		"latitude": 41.87901,
		"longitude": -87.63698,
		"address1": "200 S Wacker",
		"address2": null,
		"address3": "",
		"city": "Chicago",
		"state": "IL",
		"zip_code": "60606"
	},
	{
		"venue_id": "yelpGvU2TIDK0deL_xbPfIkezA",
		"venue_name": "Chicago Diplomat Cafe",
		"latitude": 41.9385,
		"longitude": -87.66752,
		"address1": "3134 N Lincoln Ave",
		"address2": "",
		"address3": "",
		"city": "Chicago",
		"state": "IL",
		"zip_code": "60657"
	},
	{
		"venue_id": "yelplbo89lpGFX1yuOUnpXIHoA",
		"venue_name": "Nespresso Boutique at Bloomingdales",
		"latitude": 41.89291,
		"longitude": -87.62715,
		"address1": "600 N. Wabash Avenue",
		"address2": "1st Floor",
		"address3": "",
		"city": "Chicago",
		"state": "IL",
		"zip_code": "60611"
	},
	{
		"venue_id": "yelpUatMmLeimiVw2B50samXhQ",
		"venue_name": "Corner Bakery Cafe",
		"latitude": 41.89073,
		"longitude": -87.62455,
		"address1": "444 N Michigan Ave",
		"address2": "",
		"address3": "",
		"city": "Chicago",
		"state": "IL",
		"zip_code": "60611"
	},
	{
		"venue_id": "yelpHbiLddjRD8fTv555kovpKA",
		"venue_name": "Bake For Me",
		"latitude": 41.81592,
		"longitude": -87.64535,
		"address1": "4305 S Halsted St",
		"address2": "",
		"address3": "",
		"city": "Chicago",
		"state": "IL",
		"zip_code": "60609"
	},
	{
		"venue_id": "yelpcqRRMjR_VsgUQtT7hxn0qg",
		"venue_name": "Groundswell Coffee Roasters",
		"latitude": 41.97209,
		"longitude": -87.69113,
		"address1": "5008 N Lincoln Ave",
		"address2": null,
		"address3": "",
		"city": "Chicago",
		"state": "IL",
		"zip_code": "60625"
	},
	{
		"venue_id": "yelpQ7WCegN7sRe9LZ5OaX45lg",
		"venue_name": "Tiny Tapp & Cafe",
		"latitude": 41.8870400000156,
		"longitude": -87.63094,
		"address1": "55 W Riverwalk S",
		"address2": null,
		"address3": "",
		"city": "Chicago",
		"state": "IL",
		"zip_code": "60602"
	},
	{
		"venue_id": "yelp8IwmGEwKYUbNnrTeT_h4fg",
		"venue_name": "Antojitos Colombianos",
		"latitude": 41.95723,
		"longitude": -87.75194,
		"address1": "4208 N Milwaukee Ave",
		"address2": null,
		"address3": "",
		"city": "Chicago",
		"state": "IL",
		"zip_code": "60641"
	},
	{
		"venue_id": "yelpN7izDmbDyLa96gT6yQDhHA",
		"venue_name": "Specialty's Caf\u00e9 & Bakery",
		"latitude": 41.8809246,
		"longitude": -87.6292451,
		"address1": "77 South Dearborn St",
		"address2": "",
		"address3": "",
		"city": "Chicago",
		"state": "IL",
		"zip_code": "60603"
	},
	{
		"venue_id": "yelpDgUhZRv8r9lzJK2lo60ogw",
		"venue_name": "Nilly Cafe",
		"latitude": 41.8796589,
		"longitude": -87.6256418,
		"address1": "60 East Adams St",
		"address2": null,
		"address3": "",
		"city": "Chicago",
		"state": "IL",
		"zip_code": "60603"
	},
	{
		"venue_id": "yelpMB0Ze8st6WjIxCbnx9r1SQ",
		"venue_name": "Specialty's Caf\u00e9 & Bakery",
		"latitude": 41.88024,
		"longitude": -87.6405,
		"address1": "525 W Monroe St",
		"address2": "",
		"address3": "",
		"city": "Chicago",
		"state": "IL",
		"zip_code": "60661"
	},
	{
		"venue_id": "yelpj8c1wgPJfFLZnPpvGlhnNw",
		"venue_name": "Astoria Caf\u00e9 & Bakery",
		"latitude": 41.95426,
		"longitude": -87.70278,
		"address1": "2954 W Irving Park Rd",
		"address2": null,
		"address3": "",
		"city": "Chicago",
		"state": "IL",
		"zip_code": "60618"
	},
	{
		"venue_id": "yelpZn-c1Pp--rta5oK25lh51Q",
		"venue_name": "Julius Meinl Coffee Bar & Patisserie",
		"latitude": 41.95661,
		"longitude": -87.67339,
		"address1": "4115 N Ravenswood Ave",
		"address2": "",
		"address3": "",
		"city": "Chicago",
		"state": "IL",
		"zip_code": "60613"
	},
	{
		"venue_id": "yelpblxd8khn-ykmgvGUxf-7tQ",
		"venue_name": "Cafe Corbel",
		"latitude": 41.92473,
		"longitude": -87.64033,
		"address1": "2342 N Clark St",
		"address2": null,
		"address3": "",
		"city": "Chicago",
		"state": "IL",
		"zip_code": "60614"
	},
	{
		"venue_id": "yelp9MpCCHuMP6ahp360Fwg1pg",
		"venue_name": "Espressamente illy",
		"latitude": 41.8897412274759,
		"longitude": -87.6214269728856,
		"address1": "Nbc Tower",
		"address2": "455 N Cityfront Plaza Dr",
		"address3": "",
		"city": "Chicago",
		"state": "IL",
		"zip_code": "60611"
	},
	{
		"venue_id": "yelpslfb4fP7cmM8xbI82f4nlw",
		"venue_name": "Lucky Charm Cafe",
		"latitude": 41.95408,
		"longitude": -87.71804,
		"address1": "3600 W Irving Park Rd",
		"address2": "",
		"address3": null,
		"city": "Chicago",
		"state": "IL",
		"zip_code": "60618"
	},
	{
		"venue_id": "yelpxaJ3WdKoTz7omLOkkPzd7Q",
		"venue_name": "Boar's Head Cafe",
		"latitude": 41.8858741112356,
		"longitude": -87.63435924124,
		"address1": "210 W Lake St",
		"address2": null,
		"address3": "",
		"city": "Chicago",
		"state": "IL",
		"zip_code": "60606"
	},
	{
		"venue_id": "yelpM7LBUaoPri-eponYP-AA_Q",
		"venue_name": "Red Square Cafe And Lounge",
		"latitude": 41.90352,
		"longitude": -87.67551,
		"address1": "1914 W Division St",
		"address2": "",
		"address3": "",
		"city": "Chicago",
		"state": "IL",
		"zip_code": "60622"
	},
	{
		"venue_id": "yelpXtvo-ufJ6zxVhrzzIEZjpQ",
		"venue_name": "FARE",
		"latitude": 41.88658,
		"longitude": -87.63433,
		"address1": "205 W Wacker Dr",
		"address2": null,
		"address3": "",
		"city": "Chicago",
		"state": "IL",
		"zip_code": "60606"
	},
	{
		"venue_id": "yelp7JN1RQNRypsdIwxORu2s9w",
		"venue_name": "Windy Kitty Cat Cafe",
		"latitude": 41.9106731574094,
		"longitude": -87.6720350483347,
		"address1": "1746 W North Ave",
		"address2": "",
		"address3": null,
		"city": "Chicago",
		"state": "IL",
		"zip_code": "60622"
	},
	{
		"venue_id": "yelpSHL8-QZexzu_L8zsB8CzOw",
		"venue_name": "Bridgeport Yogurt & Cafe",
		"latitude": 41.83784,
		"longitude": -87.6415249,
		"address1": "3108 S Wallace St",
		"address2": null,
		"address3": "",
		"city": "Chicago",
		"state": "IL",
		"zip_code": "60616"
	},
	{
		"venue_id": "yelp1UGCqhX4QsEZhTAimxHlnQ",
		"venue_name": "JOE & THE JUICE",
		"latitude": 41.89513,
		"longitude": -87.62777,
		"address1": "8 E Huron St",
		"address2": "",
		"address3": null,
		"city": "Chicago",
		"state": "IL",
		"zip_code": "60611"
	},
	{
		"venue_id": "yelpTAbh6bLDRYXfAwn7Kbk6cw",
		"venue_name": "Se\u00f1or Pan Caf\u00e9",
		"latitude": 41.9313151,
		"longitude": -87.7529374,
		"address1": "5059 W Diversey Ave",
		"address2": "",
		"address3": "",
		"city": "Chicago",
		"state": "IL",
		"zip_code": "60639"
	},
	{
		"venue_id": "yelph4e5YKJv4vdxU4iriYpbqg",
		"venue_name": "Lasalle Cafe Luna",
		"latitude": 41.8742747,
		"longitude": -87.6254547,
		"address1": "63 E Harrison St",
		"address2": null,
		"address3": "",
		"city": "Chicago",
		"state": "IL",
		"zip_code": "60605"
	},
	{
		"venue_id": "yelpTGy2x77AGbhvSbccw2pXaA",
		"venue_name": "Dim Dim",
		"latitude": 41.8421592712402,
		"longitude": -87.6321182250977,
		"address1": "2820 S Wentworth Ave",
		"address2": "",
		"address3": "",
		"city": "Chicago",
		"state": "IL",
		"zip_code": "60616"
	},
	{
		"venue_id": "yelp8S-ZArRn-2ppHxQUZtq_0w",
		"venue_name": "Caff\u00e8 Baci",
		"latitude": 41.886508,
		"longitude": -87.6349989,
		"address1": "225 W Wacker Dr",
		"address2": "",
		"address3": "",
		"city": "Chicago",
		"state": "IL",
		"zip_code": "60606"
	},
	{
		"venue_id": "yelpWA-uUSoCOc-nIcrjMjL5Qw",
		"venue_name": "Local Foods Cafe",
		"latitude": 41.914015,
		"longitude": -87.663125,
		"address1": "1427 W Willow",
		"address2": "",
		"address3": "",
		"city": "Chicago",
		"state": "IL",
		"zip_code": "60642"
	},
	{
		"venue_id": "yelparHmZy_ly8gm8p-WEClUTw",
		"venue_name": "The Boathouse Cafe",
		"latitude": 41.9055704126362,
		"longitude": -87.7007748163941,
		"address1": "1301 N Humboldt Blvd",
		"address2": null,
		"address3": "",
		"city": "Chicago",
		"state": "IL",
		"zip_code": "60622"
	},
	{
		"venue_id": "yelpG4StPEWj21D-V1QhSZ3KGg",
		"venue_name": "Princi",
		"latitude": 41.884635,
		"longitude": -87.652341,
		"address1": "1000 W Randolph St",
		"address2": "",
		"address3": null,
		"city": "Chicago",
		"state": "IL",
		"zip_code": "60607"
	},
	{
		"venue_id": "yelppwCgzNAQVGVk7V5xaXU_iA",
		"venue_name": "Joy Cafe",
		"latitude": 41.8383415,
		"longitude": -87.6339584,
		"address1": "258 W 31st St",
		"address2": "",
		"address3": null,
		"city": "Chicago",
		"state": "IL",
		"zip_code": "60616"
	},
	{
		"venue_id": "yelpVq-EtfJGBi5oP_DWZh8gkQ",
		"venue_name": "Corner Bakery Cafe",
		"latitude": 41.8847341458017,
		"longitude": -87.6300812512636,
		"address1": "56 W Randolph St",
		"address2": "",
		"address3": "Goodman Theatre",
		"city": "Chicago",
		"state": "IL",
		"zip_code": "60602"
	},
	{
		"venue_id": "yelpnNZcc4I5d6eMKcqtNaqk-g",
		"venue_name": "The Patio at Caf\u0081e Brauer",
		"latitude": 41.918651,
		"longitude": -87.634043,
		"address1": "2021 N Stockton Dr",
		"address2": null,
		"address3": "",
		"city": "Chicago",
		"state": "IL",
		"zip_code": "60614"
	},
	{
		"venue_id": "yelpzNvvqQSN_CKg4dCnNc_XRw",
		"venue_name": "Peach And Green",
		"latitude": 41.8811310397856,
		"longitude": -87.6260386631488,
		"address1": "33 S Wabash Ave",
		"address2": "",
		"address3": "",
		"city": "Chicago",
		"state": "IL",
		"zip_code": "60603"
	},
	{
		"venue_id": "yelpfNqWxl42o2L4MLMEeRid_Q",
		"venue_name": "PTCI",
		"latitude": 41.9091,
		"longitude": -87.76375,
		"address1": "5515 W North Ave",
		"address2": "",
		"address3": null,
		"city": "Chicago",
		"state": "IL",
		"zip_code": "60639"
	},
	{
		"venue_id": "yelpxotwkdMIxUzxxkcNG9m5Wg",
		"venue_name": "JOE & THE JUICE",
		"latitude": 41.8898451,
		"longitude": -87.634914,
		"address1": "215 W Hubbard St",
		"address2": "",
		"address3": null,
		"city": "Chicago",
		"state": "IL",
		"zip_code": "60654"
	},
	{
		"venue_id": "yelpwQSbwm3RJe3-ghm4J-qqGg",
		"venue_name": "Archie's cafe",
		"latitude": 42.0015727,
		"longitude": -87.6620306,
		"address1": "1228 W Loyola",
		"address2": null,
		"address3": "",
		"city": "Chicago",
		"state": "IL",
		"zip_code": "60626"
	},
	{
		"venue_id": "yelpHw4acL5IGcgQfyz6631IVA",
		"venue_name": "The Clocktower Cafe",
		"latitude": 41.9518863,
		"longitude": -87.6432926,
		"address1": "3600 N Recreation Dr",
		"address2": "",
		"address3": "",
		"city": "Chicago",
		"state": "IL",
		"zip_code": "60613"
	},
	{
		"venue_id": "yelpoH4xoEhpMRJwHQOQVSxCcA",
		"venue_name": "Cafe 300",
		"latitude": 41.8892756299904,
		"longitude": -87.6324462890625,
		"address1": "300 N LaSalle St",
		"address2": "",
		"address3": "",
		"city": "Chicago",
		"state": "IL",
		"zip_code": "60654"
	},
	{
		"venue_id": "yelpXR2FLHoNxserCRGhomRucg",
		"venue_name": "Albert's Place Turkish Cafe",
		"latitude": 41.968311,
		"longitude": -87.6947579,
		"address1": "2621 W Lawrence Ave",
		"address2": "",
		"address3": "",
		"city": "Chicago",
		"state": "IL",
		"zip_code": "60625"
	},
	{
		"venue_id": "yelpYMSM63ZnGDW2hbb6rvr8kA",
		"venue_name": "O'Briens Riverwalk Cafe",
		"latitude": 41.887470556604,
		"longitude": -87.6264381408691,
		"address1": "45 E Riverwalk S",
		"address2": "",
		"address3": "",
		"city": "Chicago",
		"state": "IL",
		"zip_code": "60601"
	},
	{
		"venue_id": "yelpN9YGhoo4yB1wgd-kPzfxNA",
		"venue_name": "Mather's More Than a Cafe",
		"latitude": 41.93975,
		"longitude": -87.76614,
		"address1": "3235 N Central Ave",
		"address2": "",
		"address3": "",
		"city": "Chicago",
		"state": "IL",
		"zip_code": "60634"
	},
	{
		"venue_id": "yelpFt9MenQN1aOq7Le8UMsjQQ",
		"venue_name": "Cafe Blue",
		"latitude": 41.8962651,
		"longitude": -87.6482104,
		"address1": "811 W Chicago Ave",
		"address2": null,
		"address3": "",
		"city": "Chicago",
		"state": "IL",
		"zip_code": "60642"
	},
	{
		"venue_id": "yelp1NYUfcHcRwDW6Rwq8-mwww",
		"venue_name": "Pret a Manger",
		"latitude": 41.88379,
		"longitude": -87.62826,
		"address1": "108 N State St",
		"address2": "",
		"address3": "Block 37",
		"city": "Chicago",
		"state": "IL",
		"zip_code": "60602"
	},
	{
		"venue_id": "yelpdIlaTqvzdONwzMqZtvVHZw",
		"venue_name": "KP's Sweets and Spirits",
		"latitude": 41.9593158,
		"longitude": -87.7279049,
		"address1": "4304 N Pulaski Rd",
		"address2": null,
		"address3": "",
		"city": "Chicago",
		"state": "IL",
		"zip_code": "60641"
	},
	{
		"venue_id": "yelpcs2W1NS_z-66RykNCTor-g",
		"venue_name": "Eastgate Caf\u00e9",
		"latitude": 41.8727860567836,
		"longitude": -87.7770808777885,
		"address1": "102 Harrison St",
		"address2": "",
		"address3": "",
		"city": "Oak Park",
		"state": "IL",
		"zip_code": "60304"
	},
	{
		"venue_id": "yelpN_t2JG-ppf6qILzTZKfYDw",
		"venue_name": "Corner Bakery Cafe",
		"latitude": 41.87867,
		"longitude": -87.63842,
		"address1": "222 S Riverside Plz",
		"address2": "",
		"address3": "",
		"city": "Chicago",
		"state": "IL",
		"zip_code": "60606"
	},
	{
		"venue_id": "yelpxlNLjn6cK_Bz1tgchAiYXA",
		"venue_name": "Electric Mud Coffee Bar",
		"latitude": 41.9155702,
		"longitude": -87.6877,
		"address1": "1856 N Western Ave",
		"address2": "",
		"address3": null,
		"city": "Chicago",
		"state": "IL",
		"zip_code": "60647"
	},
	{
		"venue_id": "yelpbTYAbu3bYJobWEAzgOKK4g",
		"venue_name": "Revive Club & Cafe",
		"latitude": 41.8293418884277,
		"longitude": -87.7640762329102,
		"address1": "5612 W 35th St",
		"address2": "",
		"address3": "",
		"city": "Cicero",
		"state": "IL",
		"zip_code": "60804"
	},
	{
		"venue_id": "yelpLxM-Bw8L8ukWo4LcieZpiw",
		"venue_name": "Oak Street Beach Food + Drink",
		"latitude": 41.90062,
		"longitude": -87.62005,
		"address1": "1001 N Lake Shore Dr",
		"address2": "",
		"address3": "",
		"city": "Chicago",
		"state": "IL",
		"zip_code": "60611"
	},
	{
		"venue_id": "yelp5wUQfG9gopy89RqfUPbAVw",
		"venue_name": "Caf\u00e9 Nordstrom",
		"latitude": 41.89524,
		"longitude": -87.6232,
		"address1": "Nordstrom",
		"address2": "",
		"address3": null,
		"city": "Chicago",
		"state": "IL",
		"zip_code": "60611"
	},
	{
		"venue_id": "yelplbRT4Kn5lty0VsTrgDdK9g",
		"venue_name": "Sebastian\u2019s Coffee & Bakery",
		"latitude": 42.00392,
		"longitude": -87.67296,
		"address1": "6712 N Clark St",
		"address2": "",
		"address3": null,
		"city": "Chicago",
		"state": "IL",
		"zip_code": "60626"
	},
	{
		"venue_id": "yelpPNXRz2Xb6ErOUJFlAYmuaA",
		"venue_name": "Corner Bakery Cafe",
		"latitude": 41.884105682373,
		"longitude": -87.636474609375,
		"address1": "123 N Wacker Dr",
		"address2": "",
		"address3": "",
		"city": "Chicago",
		"state": "IL",
		"zip_code": "60606"
	},
	{
		"venue_id": "yelp7nKa_g-y3VqoyuBP2bHahA",
		"venue_name": "Corner Bakery Cafe",
		"latitude": 41.880321,
		"longitude": -87.632797,
		"address1": "120 S La Salle St",
		"address2": "",
		"address3": "",
		"city": "Chicago",
		"state": "IL",
		"zip_code": "60603"
	},
	{
		"venue_id": "yelpJgZcUQ1kqA5AQDHX84fW0A",
		"venue_name": "Nespresso Boutique at Sur la table",
		"latitude": 41.895186,
		"longitude": -87.621863,
		"address1": "900 N. Michigan Ave",
		"address2": "3rd Floor",
		"address3": "",
		"city": "Chicago",
		"state": "IL",
		"zip_code": "60611"
	},
	{
		"venue_id": "yelpZkXkbRENJRfd8o_SMAYLFA",
		"venue_name": "Cafe Michelle",
		"latitude": 41.8862044908843,
		"longitude": -87.6129848744132,
		"address1": "200 North Lake Shore Dr",
		"address2": "",
		"address3": null,
		"city": "Chicago",
		"state": "IL",
		"zip_code": "60601"
	},
	{
		"venue_id": "yelpse1nR8pwmwRgNY67dl2zdQ",
		"venue_name": "Corner Bakery Cafe",
		"latitude": 41.8860473632812,
		"longitude": -87.6330032348633,
		"address1": "200 N La Salle St",
		"address2": "Ste 100",
		"address3": "",
		"city": "Chicago",
		"state": "IL",
		"zip_code": "60601"
	},
	{
		"venue_id": "yelpQ9dZvlQUoiMT0wrr2PnPlQ",
		"venue_name": "Red Ribbon",
		"latitude": 41.97284,
		"longitude": -87.745538,
		"address1": "5033 N Elston Ave",
		"address2": null,
		"address3": "",
		"city": "Chicago",
		"state": "IL",
		"zip_code": "60630"
	},
	{
		"venue_id": "yelpUB6XDuHepJ-ufzsBBcGXKQ",
		"venue_name": "The Field Bistro",
		"latitude": 41.8654462216207,
		"longitude": -87.6170827596939,
		"address1": "1400 S Lake Shore Dr",
		"address2": "",
		"address3": "",
		"city": "Chicago",
		"state": "IL",
		"zip_code": "60605"
	},
	{
		"venue_id": "yelpjsilq2M8dED3AGoXT3bApQ",
		"venue_name": "Pret A Manger",
		"latitude": 41.88235,
		"longitude": -87.6404699,
		"address1": "500 West Madison St",
		"address2": "",
		"address3": null,
		"city": "Chicago",
		"state": "IL",
		"zip_code": "60661"
	},
	{
		"venue_id": "yelpKhp4AwfKIal5I4mLicKMgg",
		"venue_name": "Live Cafe",
		"latitude": 41.8856749,
		"longitude": -87.7945988,
		"address1": "163 S Oak Park Ave",
		"address2": "",
		"address3": null,
		"city": "Oak Park",
		"state": "IL",
		"zip_code": "60302"
	},
	{
		"venue_id": "yelpzYgnJ8qF6WNIKYZKXOevPA",
		"venue_name": "Nature Yoga Sanctuary - Oak Park",
		"latitude": 41.872607,
		"longitude": -87.77968,
		"address1": "146 Harrison St",
		"address2": "",
		"address3": "",
		"city": "Oak Park",
		"state": "IL",
		"zip_code": "60304"
	},
	{
		"venue_id": "yelpbmGbKpwwxamhRe6nczgjvA",
		"venue_name": "Corner Bakery Cafe",
		"latitude": 41.8824497868412,
		"longitude": -87.6407613756905,
		"address1": "500 W Madison St",
		"address2": "",
		"address3": "",
		"city": "Chicago",
		"state": "IL",
		"zip_code": "60661"
	},
	{
		"venue_id": "yelpL_7MvXvKiM4FuOB7-NuWPA",
		"venue_name": "La Colombe Cafe at the Ritz Carlton",
		"latitude": 41.89773,
		"longitude": -87.6235,
		"address1": "160 E Pearson St",
		"address2": "",
		"address3": null,
		"city": "Chicago",
		"state": "IL",
		"zip_code": "60611"
	},
	{
		"venue_id": "yelpUKAMKpIRTu65qvqTY8-v6Q",
		"venue_name": "Caff\u00e8 ArrivaDolce",
		"latitude": 41.9997970122243,
		"longitude": -87.6604479391446,
		"address1": "6451 N Sheridan Rd",
		"address2": "",
		"address3": null,
		"city": "Chicago",
		"state": "IL",
		"zip_code": "60626"
	},
	{
		"venue_id": "yelpyM0kaLDi5e5l5QJCGrl9hg",
		"venue_name": "Tastee Corner Cafe",
		"latitude": 41.8338772,
		"longitude": -87.7926637,
		"address1": "3207 Oak Park Ave",
		"address2": "",
		"address3": "",
		"city": "Berwyn",
		"state": "IL",
		"zip_code": "60402"
	},
	{
		"venue_id": "yelpmf7hOrLYxfTmNNPc0QCx4Q",
		"venue_name": "SPACE 519 | The Lunchroom",
		"latitude": 41.89871,
		"longitude": -87.62142,
		"address1": "200 E Chestnut St",
		"address2": null,
		"address3": "SPACE 519",
		"city": "Chicago",
		"state": "IL",
		"zip_code": "60611"
	},
	{
		"venue_id": "yelp1f9Da343Kv4hjjGQoM-Fbw",
		"venue_name": "Blend Cafe",
		"latitude": 41.8894428862849,
		"longitude": -87.6877950260659,
		"address1": "2427 W Hubbard St",
		"address2": "",
		"address3": null,
		"city": "Chicago",
		"state": "IL",
		"zip_code": "60612"
	},
	{
		"venue_id": "yelp6enfbVg9wXepdf1W_6mBTA",
		"venue_name": "Rush University Medical Center Cafeteria",
		"latitude": 41.873283,
		"longitude": -87.6693633,
		"address1": "600 S Paulina St",
		"address2": "2nd Flr",
		"address3": "",
		"city": "Chicago",
		"state": "IL",
		"zip_code": "60612"
	},
	{
		"venue_id": "yelpn3zaMGGj9z0zRYlaZwrNgw",
		"venue_name": "Sunny's Bar & Grill",
		"latitude": 41.8744499981403,
		"longitude": -87.6399169117212,
		"address1": "506 W Harrison St",
		"address2": null,
		"address3": "",
		"city": "Chicago",
		"state": "IL",
		"zip_code": "60607"
	},
	{
		"venue_id": "yelpBsAVSCMwnW8zUvQlq5DcJg",
		"venue_name": "231 Cafe",
		"latitude": 41.878475,
		"longitude": -87.631759,
		"address1": "231 S La Salle St",
		"address2": "",
		"address3": "",
		"city": "Chicago",
		"state": "IL",
		"zip_code": "60606"
	},
	{
		"venue_id": "yelp0WnM1OWPIjPgGuHJpKScjg",
		"venue_name": "Mather's More Than a Cafe",
		"latitude": 41.9811749,
		"longitude": -87.8060225,
		"address1": "7134 W Higgins Ave",
		"address2": "",
		"address3": "",
		"city": "Chicago",
		"state": "IL",
		"zip_code": "60656"
	},
	{
		"venue_id": "yelpLT9F6sXfWrgBqdllxHb7Mg",
		"venue_name": "Cafe Fenix",
		"latitude": 41.9353399,
		"longitude": -87.72672,
		"address1": "2959 N Pulaski Rd",
		"address2": null,
		"address3": "",
		"city": "Chicago",
		"state": "IL",
		"zip_code": "60641"
	},
	{
		"venue_id": "yelpCZni08_IlLyOujHiChU3-A",
		"venue_name": "Carb Free Cafe",
		"latitude": 41.88837,
		"longitude": -87.63536,
		"address1": "222 Merchandise Mart Plz",
		"address2": "",
		"address3": "",
		"city": "Chicago",
		"state": "IL",
		"zip_code": "60654"
	},
	{
		"venue_id": "yelphBz6xP_kMfmY-yhT92m_KA",
		"venue_name": "St. Joseph's Hospital - Lake Shore Cafe",
		"latitude": 41.9348488,
		"longitude": -87.6369019,
		"address1": "2900 N Lake Shore Dr",
		"address2": "",
		"address3": "",
		"city": "Chicago",
		"state": "IL",
		"zip_code": "60657"
	},
	{
		"venue_id": "yelpnEnJKZXu4w9v63Ob84XodQ",
		"venue_name": "Le Cafe du Marche",
		"latitude": 41.883926,
		"longitude": -87.640552,
		"address1": "131 N Clinton St",
		"address2": "",
		"address3": "",
		"city": "Chicago",
		"state": "IL",
		"zip_code": "60661"
	},
	{
		"venue_id": "yelpY4K59W_YhrObxvdm4-mD7w",
		"venue_name": "Neveria De Colores",
		"latitude": 41.80449,
		"longitude": -87.72045,
		"address1": "3838 W 49th St",
		"address2": "",
		"address3": "",
		"city": "Chicago",
		"state": "IL",
		"zip_code": "60632"
	},
	{
		"venue_id": "yelpYse0r7-Ux-GU8tMKfPcbjw",
		"venue_name": "Haifa Cafe",
		"latitude": 41.8795495480299,
		"longitude": -87.6269289851189,
		"address1": "24 E Adams St",
		"address2": "",
		"address3": "",
		"city": "Chicago",
		"state": "IL",
		"zip_code": "60603"
	},
	{
		"venue_id": "yelpcLpByEsWiW2Dr_hPL9cCZQ",
		"venue_name": "Cafe Antigua",
		"latitude": 41.9823772080303,
		"longitude": -87.7635588397378,
		"address1": "5540 N Long Ave",
		"address2": "",
		"address3": null,
		"city": "Chicago",
		"state": "IL",
		"zip_code": "60630"
	},
	{
		"venue_id": "yelpATmRt08w6MoSCTFsz0b8CA",
		"venue_name": "Chromium",
		"latitude": 41.9258492,
		"longitude": -87.6788606,
		"address1": "2444 N Elston Ave",
		"address2": "",
		"address3": null,
		"city": "Chicago",
		"state": "IL",
		"zip_code": "60647"
	},
	{
		"venue_id": "yelpuL3phb2bDosPvpUk_qbnOw",
		"venue_name": "Bake For Me",
		"latitude": 41.8876902,
		"longitude": -87.6206535,
		"address1": "303 East Wacker Dr",
		"address2": null,
		"address3": "",
		"city": "Chicago",
		"state": "IL",
		"zip_code": "60601"
	},
	{
		"venue_id": "yelpoiJzxtipLQ8ZE08G7DaGpg",
		"venue_name": "American Girl Cafe",
		"latitude": 41.8979111883622,
		"longitude": -87.6240195890601,
		"address1": "835 N Michigan Ave",
		"address2": "",
		"address3": null,
		"city": "Chicago",
		"state": "IL",
		"zip_code": "60611"
	},
	{
		"venue_id": "yelpSevO_rGnkDo3Qya-wD2iUQ",
		"venue_name": "Cityfront Cafe",
		"latitude": 41.89001,
		"longitude": -87.6214651,
		"address1": "455 N Cityfront Plaza Dr",
		"address2": "",
		"address3": "Nbc Tower",
		"city": "Chicago",
		"state": "IL",
		"zip_code": "60611"
	},
	{
		"venue_id": "yelp2UcWLAQw8C9Q82upd7cJiw",
		"venue_name": "Red Rover Caf\u00e9",
		"latitude": 41.9978561401367,
		"longitude": -87.6692657470703,
		"address1": "1535 W Devon Ave",
		"address2": "",
		"address3": "",
		"city": "Chicago",
		"state": "IL",
		"zip_code": "60631"
	},
	{
		"venue_id": "yelp9CKgAL3Z3nKh3AhTM4Bfgg",
		"venue_name": "Au Bon Pain",
		"latitude": 41.9759639677146,
		"longitude": -87.6986871824533,
		"address1": "5145 N California Ave",
		"address2": "",
		"address3": "",
		"city": "Chicago",
		"state": "IL",
		"zip_code": "60625"
	},
	{
		"venue_id": "yelppRXnjy3YgMpI8ZFQFRpDFg",
		"venue_name": "Fountain Caf\u00e9",
		"latitude": 41.8767909137259,
		"longitude": -87.6186726435593,
		"address1": "Grant Park",
		"address2": "",
		"address3": "S Columbus Dr & E Congress Pkwy",
		"city": "Chicago",
		"state": "IL",
		"zip_code": "60605"
	},
	{
		"venue_id": "yelpswUhNXE31Y9n5-SIGjDY8g",
		"venue_name": "Corner Bakery Cafe",
		"latitude": 41.8881998718264,
		"longitude": -87.6254383976157,
		"address1": "360 N Michigan Ave",
		"address2": "",
		"address3": null,
		"city": "Chicago",
		"state": "IL",
		"zip_code": "60601"
	},
	{
		"venue_id": "yelphNYMH0xjQQzL-2y3bjZQWA",
		"venue_name": "HYATT Center",
		"latitude": 41.8809661865234,
		"longitude": -87.6367416381836,
		"address1": "71 South Wacker Dr",
		"address2": "",
		"address3": "",
		"city": "Chicago",
		"state": "IL",
		"zip_code": "60606"
	},
	{
		"venue_id": "yelpfxql-HzSMfCipDByxrjtEw",
		"venue_name": "UIC Student Center West Food Court",
		"latitude": 41.870742,
		"longitude": -87.674358,
		"address1": "828 S Wolcott",
		"address2": "",
		"address3": "",
		"city": "Chicago",
		"state": "IL",
		"zip_code": "60612"
	},
	{
		"venue_id": "yelpGuGKqC3q6gz8rZwNkEfL8Q",
		"venue_name": "Swedish Covenant Cafeteria",
		"latitude": 41.975683607721,
		"longitude": -87.6985020235195,
		"address1": "5145 N California Ave",
		"address2": "",
		"address3": "Swedish Covenant Hospital",
		"city": "Chicago",
		"state": "IL",
		"zip_code": "60625"
	},
	{
		"venue_id": "yelpjkE_7CC3dd_9X2NCZxEXNg",
		"venue_name": "Scratch Deli & Cafe",
		"latitude": 41.879207,
		"longitude": -87.811767,
		"address1": "7444 Madison St",
		"address2": null,
		"address3": "",
		"city": "Forest Park",
		"state": "IL",
		"zip_code": "60130"
	},
	{
		"venue_id": "yelpa3_IvddOfDIzePTgaiiNgg",
		"venue_name": "Field Bistro",
		"latitude": 41.8661733,
		"longitude": -87.6169862,
		"address1": "1400 S Lakeshore Dr",
		"address2": "",
		"address3": "",
		"city": "Chicago",
		"state": "IL",
		"zip_code": "60605"
	},
	{
		"venue_id": "yelpBKydQeDbwaDydG-uxJRc5Q",
		"venue_name": "Le Pain Quotedien",
		"latitude": 41.9182446895827,
		"longitude": -87.6535440004796,
		"address1": "2000 N Sheffield Ave",
		"address2": "",
		"address3": "",
		"city": "Chicago",
		"state": "IL",
		"zip_code": "60614"
	},
	{
		"venue_id": "yelpQhIZX2pZnx9kfBho6KtyYA",
		"venue_name": "Kids Island Play Cafe",
		"latitude": 41.921863,
		"longitude": -87.663034,
		"address1": "2205 N Southport Ave",
		"address2": null,
		"address3": "",
		"city": "Chicago",
		"state": "IL",
		"zip_code": "60614"
	},
	{
		"venue_id": "yelpqHQqbrMtweL0P9n_yxqnbw",
		"venue_name": "Southern Cut Cafe",
		"latitude": 41.88949,
		"longitude": -87.62893,
		"address1": "20 W Kinzie St",
		"address2": "",
		"address3": null,
		"city": "Chicago",
		"state": "IL",
		"zip_code": "60654"
	},
	{
		"venue_id": "yelpLYFvz6JulINFldhA-T8OXA",
		"venue_name": "Daily Grind Fresh Market",
		"latitude": 41.8512422,
		"longitude": -87.6189482,
		"address1": "Hyatt Regency McCormick Pl",
		"address2": "",
		"address3": "2233 S Martin Luther King",
		"city": "Chicago",
		"state": "IL",
		"zip_code": "60616"
	},
	{
		"venue_id": "yelpp1Fv9hD3sjyZcr1iaUqNtw",
		"venue_name": "The Clock Tower",
		"latitude": 41.9493619,
		"longitude": -87.6428642,
		"address1": "3600 N Recreation Dr",
		"address2": "",
		"address3": "Montrose/Lake Shore Drive",
		"city": "Chicago",
		"state": "IL",
		"zip_code": "60657"
	},
	{
		"venue_id": "yelpOIu0cu2wFjKk5kFdfYdYxg",
		"venue_name": "Cochon 555",
		"latitude": 41.8993187,
		"longitude": -87.6251144,
		"address1": "120 E Deleware",
		"address2": "",
		"address3": "",
		"city": "Chicago",
		"state": "IL",
		"zip_code": "60611"
	},
	{
		"venue_id": "yelpwK5JbTIdBc4EXOjLkWsjRw",
		"venue_name": "The Cafe At Burnham Harbor",
		"latitude": 41.8604000000574,
		"longitude": -87.613255,
		"address1": "600 East Waldron Dr",
		"address2": "",
		"address3": null,
		"city": "Chicago",
		"state": "IL",
		"zip_code": "60605"
	},
	{
		"venue_id": "yelpg-bWXy8XOL4RJ0PLkcBc6Q",
		"venue_name": "Kafecito",
		"latitude": 41.8444149,
		"longitude": -87.7238772,
		"address1": "3938 W 26th St",
		"address2": "",
		"address3": null,
		"city": "Chicago",
		"state": "IL",
		"zip_code": "60623"
	},
	{
		"venue_id": "yelpKRylUKfoW_wm3UFwRtImMw",
		"venue_name": "Caf\u00e9 San Francesco",
		"latitude": 41.9494438171387,
		"longitude": -87.8068008422852,
		"address1": "3815 N Harlem Ave",
		"address2": "",
		"address3": "",
		"city": "Chicago",
		"state": "IL",
		"zip_code": "60634"
	},
	{
		"venue_id": "yelpxZV9C6JyxIYLOqIzB5aI-Q",
		"venue_name": "Leaf and Bean Cafe",
		"latitude": 41.8717359046757,
		"longitude": -87.6709530875087,
		"address1": "700 S Hermitage Ave",
		"address2": "",
		"address3": null,
		"city": "Chicago",
		"state": "IL",
		"zip_code": "60612"
	},
	{
		"venue_id": "yelpyrBPHgFg8mEwSAbKt9n69A",
		"venue_name": "The Lunchroom",
		"latitude": 41.8823,
		"longitude": -87.63023,
		"address1": "70 W Madison St",
		"address2": "",
		"address3": "",
		"city": "Chicago",
		"state": "IL",
		"zip_code": "60602"
	},
	{
		"venue_id": "yelp7eUkL4_LbrnQyfnlLBspAg",
		"venue_name": "Erie Street Bistro",
		"latitude": 41.89384,
		"longitude": -87.62505,
		"address1": "101 E Erie St",
		"address2": "Fl 14",
		"address3": "",
		"city": "Chicago",
		"state": "IL",
		"zip_code": "60611"
	},
	{
		"venue_id": "yelpeeMlaaZELyAtK9uh1_Pc9A",
		"venue_name": "Jazzman's Cafe & Bakery",
		"latitude": 41.88494,
		"longitude": -87.63168,
		"address1": "100 W Randolph St",
		"address2": "",
		"address3": "",
		"city": "Chicago",
		"state": "IL",
		"zip_code": "60601"
	},
	{
		"venue_id": "yelpwVIhRjcZ8A8J_JwGoM4gIQ",
		"venue_name": "The Link@Sheraton Cafe",
		"latitude": 41.8891105651855,
		"longitude": -87.6194381713867,
		"address1": "301 East North Water St",
		"address2": "",
		"address3": "Sheraton Chicago Hotel & Towers",
		"city": "Chicago",
		"state": "IL",
		"zip_code": "60611"
	},
	{
		"venue_id": "yelpJ22i9xLCH30k3mY_XGrzPA",
		"venue_name": "Caf\u00e9 251",
		"latitude": 41.8951073,
		"longitude": -87.6211853,
		"address1": "234-240 E Huron St",
		"address2": "",
		"address3": "",
		"city": "Chicago",
		"state": "IL",
		"zip_code": "60611"
	},
	{
		"venue_id": "yelpg2MxXCYfO81SbUg2XR_6DA",
		"venue_name": "Shirley's Cafe",
		"latitude": 41.880488,
		"longitude": -87.7344673,
		"address1": "4335 Madison",
		"address2": null,
		"address3": null,
		"city": "Chicago",
		"state": "IL",
		"zip_code": "60624"
	},
	{
		"venue_id": "yelpRFMtLDfZrsrfgCMSitUxtg",
		"venue_name": "Left Coast",
		"latitude": 41.88452,
		"longitude": -87.63523,
		"address1": "151 N Franklin St",
		"address2": "",
		"address3": null,
		"city": "Chicago",
		"state": "IL",
		"zip_code": "60606"
	},
	{
		"venue_id": "yelpladEjkGQtPmIOjnznh6htw",
		"venue_name": "Cafe 353",
		"latitude": 41.8889409265122,
		"longitude": -87.6303078979254,
		"address1": "353 N Clark St",
		"address2": "",
		"address3": null,
		"city": "Chicago",
		"state": "IL",
		"zip_code": "60654"
	},
	{
		"venue_id": "yelp3XgHervkPXpwcIHVD4nlxA",
		"venue_name": "Ur Cafe",
		"latitude": 41.9687042236328,
		"longitude": -87.7094802856445,
		"address1": "3222 W Lawrence Ave",
		"address2": null,
		"address3": null,
		"city": "Chicago",
		"state": "IL",
		"zip_code": "60625"
	},
	{
		"venue_id": "yelpGJT25n-92oOTtP-HnYGyzA",
		"venue_name": "University Of Illinois Hospital Cafeteria And Coffee Shop",
		"latitude": 41.8693161,
		"longitude": -87.6704788,
		"address1": "1740 W Taylor St",
		"address2": "",
		"address3": "",
		"city": "Chicago",
		"state": "IL",
		"zip_code": "60612"
	},
	{
		"venue_id": "yelpnmR_0Gci_uz0TYzXuhLH9g",
		"venue_name": "Cafe Media Noche",
		"latitude": 41.83263,
		"longitude": -87.79437,
		"address1": "6836 Windsor Ave",
		"address2": "",
		"address3": null,
		"city": "Berwyn",
		"state": "IL",
		"zip_code": "60402"
	},
	{
		"venue_id": "yelpy2KjLWN0h0TcwDmN_TqUIw",
		"venue_name": "Sky Caf\u00e9",
		"latitude": 41.896252338096,
		"longitude": -87.6219521462917,
		"address1": "225 E Chicago Ave",
		"address2": "Fl 11",
		"address3": "",
		"city": "Chicago",
		"state": "IL",
		"zip_code": "60611"
	},
	{
		"venue_id": "yelps1XHmV4ByaV3_B652d1cvA",
		"venue_name": "Chicago Riverwalk Cafe",
		"latitude": 41.888229,
		"longitude": -87.621258,
		"address1": "117 W Riverwalk S",
		"address2": "",
		"address3": "",
		"city": "Chicago",
		"state": "IL",
		"zip_code": "60611"
	},
	{
		"venue_id": "yelpXnrORHkivVYQ3ASynYkHKg",
		"venue_name": "Shelby's",
		"latitude": 41.8576906,
		"longitude": -87.7443022,
		"address1": "1635 South Cicero Ave",
		"address2": "",
		"address3": null,
		"city": "Cicero",
		"state": "IL",
		"zip_code": "60804"
	},
	{
		"venue_id": "yelpSYrPk5PejQTqPUmJ8X_eDw",
		"venue_name": "New Waves Cafe & Deli",
		"latitude": 41.94549,
		"longitude": -87.7784,
		"address1": "6043 W Addison St",
		"address2": "",
		"address3": "",
		"city": "Chicago",
		"state": "IL",
		"zip_code": "60634"
	},
	{
		"venue_id": "yelpDIOhbE_J0muMBypYMmNieA",
		"venue_name": "Renowned Awakenings",
		"latitude": 41.87279195909,
		"longitude": -87.6742904260755,
		"address1": "1901 W Harrison St",
		"address2": "",
		"address3": null,
		"city": "Chicago",
		"state": "IL",
		"zip_code": "60612"
	},
	{
		"venue_id": "yelpvRCwJRobXJN2goizi7AvlQ",
		"venue_name": "Market By The Blackstone",
		"latitude": 41.8733204502112,
		"longitude": -87.6244470127767,
		"address1": "636 South Michigan Ave",
		"address2": "",
		"address3": null,
		"city": "Chicago",
		"state": "IL",
		"zip_code": "60605"
	},
	{
		"venue_id": "yelpOLtdR3SFRCy4ejc5BSbbiw",
		"venue_name": "Heritage Bikes and Coffee",
		"latitude": 41.89455,
		"longitude": -87.63308,
		"address1": "676 N LaSalle",
		"address2": "Lobby",
		"address3": "",
		"city": "Chicago",
		"state": "IL",
		"zip_code": "60654"
	},
	{
		"venue_id": "yelppS6P9LCkbdRAszB5-99BTg",
		"venue_name": "Anna's Gaming Cafe",
		"latitude": 41.8422660827637,
		"longitude": -87.7434616088867,
		"address1": "2625 S Cicero Ave",
		"address2": "",
		"address3": "",
		"city": "Cicero",
		"state": "IL",
		"zip_code": "60804"
	},
	{
		"venue_id": "yelp1SA4aNCVsDMSbUu6JGfm7w",
		"venue_name": "Stella's Place",
		"latitude": 41.9099837914337,
		"longitude": -87.8073613531688,
		"address1": "7230 W North Ave",
		"address2": "Ste 208",
		"address3": "",
		"city": "Elmwood Park",
		"state": "IL",
		"zip_code": "60707"
	},
	{
		"venue_id": "yelpYi9hRSRKttIx92sQap_ZgQ",
		"venue_name": "Sonny's Slots And Caf\u00e9",
		"latitude": 41.8433860215558,
		"longitude": -87.7917385612677,
		"address1": "6721 26th St",
		"address2": "",
		"address3": null,
		"city": "Berwyn",
		"state": "IL",
		"zip_code": "60402"
	},
	{
		"venue_id": "yelp4Jg__r-aFj8pPXWq2ojKmg",
		"venue_name": "Shelby's",
		"latitude": 41.8205983344095,
		"longitude": -87.8030830545151,
		"address1": "3916 Harlem Ave",
		"address2": "",
		"address3": null,
		"city": "Lyons",
		"state": "IL",
		"zip_code": "60534"
	},
	{
		"venue_id": "yelpl-oT5kxD4swi44M98j3m9g",
		"venue_name": "House of Slots",
		"latitude": 41.8335709296127,
		"longitude": -87.7942911162972,
		"address1": "6823 Stanley Ave",
		"address2": "",
		"address3": null,
		"city": "Berwyn",
		"state": "IL",
		"zip_code": "60402"
	},
	{
		"venue_id": "yelpR9oeddki79LzzaWDz8yg1A",
		"venue_name": "Shelby's",
		"latitude": 41.864971,
		"longitude": -87.789024,
		"address1": "6601 W Roosevelt Rd",
		"address2": null,
		"address3": "",
		"city": "Berwyn",
		"state": "IL",
		"zip_code": "60402"
	}
]