[
	{
		"venue_id": "yelp3HE0HPAOa4kS5y4OhzQfzg",
		"venue_name": "Monti's",
		"latitude": 41.968266340068,
		"longitude": -87.694936727407,
		"address1": "4757 N Talman Ave",
		"address2": "",
		"address3": "",
		"city": "Chicago",
		"state": "IL",
		"zip_code": "60625"
	},
	{
		"venue_id": "yelp-64Weew7ELLO8lEKExD38A",
		"venue_name": "Philly Bros",
		"latitude": 41.9255809136919,
		"longitude": -87.6477861776948,
		"address1": "734 W Fullerton Ave",
		"address2": null,
		"address3": "",
		"city": "Chicago",
		"state": "IL",
		"zip_code": "60614"
	},
	{
		"venue_id": "yelpiBndjwc6GDKJWShe5u3_CA",
		"venue_name": "Philly's Best",
		"latitude": 41.93966,
		"longitude": -87.65183,
		"address1": "907 W Belmont Ave",
		"address2": "",
		"address3": "",
		"city": "Chicago",
		"state": "IL",
		"zip_code": "60657"
	},
	{
		"venue_id": "yelpTupUBU0WaKhloP2GVIl5fw",
		"venue_name": "Philly's Best",
		"latitude": 41.8778151,
		"longitude": -87.6465597,
		"address1": "769 W Jackson Blvd",
		"address2": "",
		"address3": "",
		"city": "Chicago",
		"state": "IL",
		"zip_code": "60661"
	},
	{
		"venue_id": "yelpuYrQfp8bxRypaJDcb9LyOA",
		"venue_name": "Philly's Best",
		"latitude": 41.9254795,
		"longitude": -87.7016741,
		"address1": "2436 N Milwaukee Ave",
		"address2": "",
		"address3": "",
		"city": "Chicago",
		"state": "IL",
		"zip_code": "60647"
	},
	{
		"venue_id": "yelpOQzeRiA2DbLjDASZtwXlnw",
		"venue_name": "Papas Philly",
		"latitude": 41.975858,
		"longitude": -87.7097282,
		"address1": "3224 W Foster Ave",
		"address2": "",
		"address3": "",
		"city": "Chicago",
		"state": "IL",
		"zip_code": "60625"
	},
	{
		"venue_id": "yelpbYQbmSMGnf_mzAyG57AFpg",
		"venue_name": "Roger's Wing",
		"latitude": 42.00514,
		"longitude": -87.66132,
		"address1": "6752 N Sheridan Rd",
		"address2": "",
		"address3": null,
		"city": "Chicago",
		"state": "IL",
		"zip_code": "60626"
	},
	{
		"venue_id": "yelpyM_UvIAmwAjq_ovtr2J0sw",
		"venue_name": "Tastebuds",
		"latitude": 41.88035,
		"longitude": -87.72908,
		"address1": "4123 W Madison St",
		"address2": "",
		"address3": "",
		"city": "Chicago",
		"state": "IL",
		"zip_code": "60624"
	},
	{
		"venue_id": "yelpWg_46jMIhMv0Tk8uuPtNhA",
		"venue_name": "Great Steak",
		"latitude": 41.882899,
		"longitude": -87.64076,
		"address1": "500 W Madison St",
		"address2": "Spc F005",
		"address3": "Space F005",
		"city": "Chicago",
		"state": "IL",
		"zip_code": "60661"
	},
	{
		"venue_id": "yelpxujJaaStjbVpOWxm9s-fHQ",
		"venue_name": "King Beefy",
		"latitude": 41.9541585,
		"longitude": -87.6681005,
		"address1": "1513 W Irving Park",
		"address2": null,
		"address3": "",
		"city": "Chicago",
		"state": "IL",
		"zip_code": "60613"
	},
	{
		"venue_id": "yelpJwli2DAS05CIM4kcTEvzAg",
		"venue_name": "Chicago Cheese Steak",
		"latitude": 41.815647,
		"longitude": -87.6065551,
		"address1": "4355 S Cottage Grove",
		"address2": "",
		"address3": "",
		"city": "Chicago",
		"state": "IL",
		"zip_code": "60653"
	},
	{
		"venue_id": "yelps30Fk2abGULJEJfVn3HVZw",
		"venue_name": "Great Steak",
		"latitude": 41.84704,
		"longitude": -87.809732,
		"address1": "7501 W Cermak Rd",
		"address2": "Ste VC10",
		"address3": "Space VC-10",
		"city": "North Riverside",
		"state": "IL",
		"zip_code": "60546"
	},
	{
		"venue_id": "yelppJOwKBUohSFJh-6LDv-hUQ",
		"venue_name": "Grill Stop",
		"latitude": 41.86493,
		"longitude": -87.79111,
		"address1": "6623 Roosevelt Rd",
		"address2": null,
		"address3": "",
		"city": "Berwyn",
		"state": "IL",
		"zip_code": "60402"
	}
]