[
	{
		"venue_id": "yelpWBU0yq9J8qiYQfI_fh2P1Q",
		"venue_name": "Crisp",
		"latitude": 41.9361214592879,
		"longitude": -87.6444210345452,
		"address1": "2940 N Broadway Ave",
		"address2": "",
		"address3": "",
		"city": "Chicago",
		"state": "IL",
		"zip_code": "60657"
	},
	{
		"venue_id": "yelp3HE0HPAOa4kS5y4OhzQfzg",
		"venue_name": "Monti's",
		"latitude": 41.968266340068,
		"longitude": -87.694936727407,
		"address1": "4757 N Talman Ave",
		"address2": "",
		"address3": "",
		"city": "Chicago",
		"state": "IL",
		"zip_code": "60625"
	},
	{
		"venue_id": "yelpvofANrgotem6XRBBf5sc7A",
		"venue_name": "Jake Melnick's Corner Tap",
		"latitude": 41.8955265,
		"longitude": -87.626528,
		"address1": "41 E Superior St",
		"address2": "",
		"address3": "",
		"city": "Chicago",
		"state": "IL",
		"zip_code": "60611"
	},
	{
		"venue_id": "yelp4-uKJdGyT0iZmu3rbSDwBw",
		"venue_name": "Great Sea Chinese Restaurant",
		"latitude": 41.9687,
		"longitude": -87.71065,
		"address1": "3254 W Lawrence Ave",
		"address2": "",
		"address3": "",
		"city": "Chicago",
		"state": "IL",
		"zip_code": "60625"
	},
	{
		"venue_id": "yelptaKKA87TcYh2ewg-_N-qXg",
		"venue_name": "Dak",
		"latitude": 41.9946798,
		"longitude": -87.6586452,
		"address1": "1104 W Granville Ave",
		"address2": "",
		"address3": "",
		"city": "Chicago",
		"state": "IL",
		"zip_code": "60660"
	},
	{
		"venue_id": "yelp6gZTET0y7ARZMrbJRmI2mw",
		"venue_name": "The Fifty/50",
		"latitude": 41.90301427628,
		"longitude": -87.6788022511999,
		"address1": "2047 W Division St",
		"address2": "",
		"address3": "",
		"city": "Chicago",
		"state": "IL",
		"zip_code": "60622"
	},
	{
		"venue_id": "yelp8XNGM8f0QLSOqDEactfigA",
		"venue_name": "Split-Rail",
		"latitude": 41.8959276538074,
		"longitude": -87.6895823702216,
		"address1": "2500 W Chicago Ave",
		"address2": "",
		"address3": null,
		"city": "Chicago",
		"state": "IL",
		"zip_code": "60622"
	},
	{
		"venue_id": "yelp1g_U0Mh6HxYOSLK7REkFsg",
		"venue_name": "Chicken Hut",
		"latitude": 41.940298,
		"longitude": -87.644533,
		"address1": "3200 N Broadway",
		"address2": "",
		"address3": "",
		"city": "Chicago",
		"state": "IL",
		"zip_code": "60657"
	},
	{
		"venue_id": "yelp-64Weew7ELLO8lEKExD38A",
		"venue_name": "Philly Bros",
		"latitude": 41.9255809136919,
		"longitude": -87.6477861776948,
		"address1": "734 W Fullerton Ave",
		"address2": null,
		"address3": "",
		"city": "Chicago",
		"state": "IL",
		"zip_code": "60614"
	},
	{
		"venue_id": "yelpYxEM4PYI7f1mdhQwk4Du_g",
		"venue_name": "Bird's Nest",
		"latitude": 41.9271618,
		"longitude": -87.663571,
		"address1": "2500 N Southport Ave",
		"address2": "",
		"address3": "",
		"city": "Chicago",
		"state": "IL",
		"zip_code": "60614"
	},
	{
		"venue_id": "yelpxrg0z_U7cVrq_G-zqtZ9iA",
		"venue_name": "Bonchon - Chinatown Chicago",
		"latitude": 41.8536631865071,
		"longitude": -87.6348391547799,
		"address1": "2163 S China Pl",
		"address2": "",
		"address3": null,
		"city": "Chicago",
		"state": "IL",
		"zip_code": "60616"
	},
	{
		"venue_id": "yelp3ROYyggfgyTUFvvJzc_gzg",
		"venue_name": "Bulldog Ale House",
		"latitude": 42.00284,
		"longitude": -87.66124,
		"address1": "6606 N Sherdian Rd",
		"address2": null,
		"address3": "",
		"city": "Chicago",
		"state": "IL",
		"zip_code": "60626"
	},
	{
		"venue_id": "yelpP04H0_SvD6jFKhHNAPmmGA",
		"venue_name": "Harold's Chicken Shack",
		"latitude": 41.8740921,
		"longitude": -87.6261049,
		"address1": "612 S Wabash Ave",
		"address2": "",
		"address3": "",
		"city": "Chicago",
		"state": "IL",
		"zip_code": "60605"
	},
	{
		"venue_id": "yelpyKzQnhfX--yYuNg70bb3NA",
		"venue_name": "The Irish Oak",
		"latitude": 41.9460546,
		"longitude": -87.6554356,
		"address1": "3511 N Clark St",
		"address2": null,
		"address3": "",
		"city": "Chicago",
		"state": "IL",
		"zip_code": "60657"
	},
	{
		"venue_id": "yelpDDzT2AA047ZgyId-yf0pQg",
		"venue_name": "ML Kitchen",
		"latitude": 41.869543,
		"longitude": -87.655786,
		"address1": "1138 W Taylor St",
		"address2": "",
		"address3": null,
		"city": "Chicago",
		"state": "IL",
		"zip_code": "60607"
	},
	{
		"venue_id": "yelpHGFlmnTyGw8Dn5rhRCwgeg",
		"venue_name": "Output Lounge & Sports Bar",
		"latitude": 41.891146,
		"longitude": -87.6718379,
		"address1": "1758 W Grand Ave",
		"address2": null,
		"address3": "",
		"city": "Chicago",
		"state": "IL",
		"zip_code": "60622"
	},
	{
		"venue_id": "yelp2NnsEs0Q55VzE43d1hfpWQ",
		"venue_name": "Home Run Inn Pizza - 31st Street in Chicago",
		"latitude": 41.83681,
		"longitude": -87.73133,
		"address1": "4254 W 31st St",
		"address2": "",
		"address3": "",
		"city": "Chicago",
		"state": "IL",
		"zip_code": "60623"
	},
	{
		"venue_id": "yelpwaTuGD9ANQXtTuibPQFQBg",
		"venue_name": "Floyd's Pub",
		"latitude": 41.917487,
		"longitude": -87.685266,
		"address1": "1944 N Oakley Ave",
		"address2": null,
		"address3": "",
		"city": "Chicago",
		"state": "IL",
		"zip_code": "60647"
	},
	{
		"venue_id": "yelpRf3LRS-heDClX_3SngmfNg",
		"venue_name": "Harold's Chicken Shack #36",
		"latitude": 41.9067420959473,
		"longitude": -87.6713256835938,
		"address1": "1361 N Milwaukee Ave",
		"address2": "",
		"address3": "",
		"city": "Chicago",
		"state": "IL",
		"zip_code": "60622"
	},
	{
		"venue_id": "yelpNBEEgsYm4h9FzK12j4VfHQ",
		"venue_name": "Mini Mott",
		"latitude": 41.927963,
		"longitude": -87.704771,
		"address1": "3057 W Logan Blvd",
		"address2": "",
		"address3": null,
		"city": "Chicago",
		"state": "IL",
		"zip_code": "60647"
	},
	{
		"venue_id": "yelpyru60xmUoTlQp8qTD-bqkg",
		"venue_name": "Villa Rosa Pizza Kitchen",
		"latitude": 41.9972032,
		"longitude": -87.7628036,
		"address1": "5345 W Devon Ave",
		"address2": "",
		"address3": "",
		"city": "Chicago",
		"state": "IL",
		"zip_code": "60646"
	},
	{
		"venue_id": "yelpCLY3AAneJpVXwnobhlTwdw",
		"venue_name": "Tanaka Ramen",
		"latitude": 41.9328773819745,
		"longitude": -87.6430871977416,
		"address1": "553 W Diversey Pkwy",
		"address2": "",
		"address3": null,
		"city": "Chicago",
		"state": "IL",
		"zip_code": "60614"
	},
	{
		"venue_id": "yelpww2hVfjY1YKSQPCwmKzjdQ",
		"venue_name": "The Crowd Theater",
		"latitude": 41.9536473282456,
		"longitude": -87.649837516738,
		"address1": "3935 N Broadway",
		"address2": null,
		"address3": "",
		"city": "Chicago",
		"state": "IL",
		"zip_code": "60613"
	},
	{
		"venue_id": "yelpCfAjS4WAY7n6NDp96k96Bw",
		"venue_name": "Bacolod Chicken Haus",
		"latitude": 41.9961842,
		"longitude": -87.7171328,
		"address1": "6320 N Lincoln Ave",
		"address2": "",
		"address3": "Ste C & D",
		"city": "Chicago",
		"state": "IL",
		"zip_code": "60659"
	},
	{
		"venue_id": "yelpARh10eL9cOZhCw5mnsTqWA",
		"venue_name": "Krispy Krunchy Chicken",
		"latitude": 41.9908649,
		"longitude": -87.6766226,
		"address1": "1840 W Peterson Ave",
		"address2": "",
		"address3": "",
		"city": "Chicago",
		"state": "IL",
		"zip_code": "60660"
	},
	{
		"venue_id": "yelpfwhWPr5ev2Qrjc5MWXc85g",
		"venue_name": "House of Wings",
		"latitude": 41.926725,
		"longitude": -87.640985,
		"address1": "2447 N Clark St",
		"address2": "",
		"address3": "",
		"city": "Chicago",
		"state": "IL",
		"zip_code": "60614"
	},
	{
		"venue_id": "yelp8Wwpm0I68xaKrEDeG_blQQ",
		"venue_name": "Buffalo Wings & Rings",
		"latitude": 41.831629,
		"longitude": -87.6462546,
		"address1": "3434 S Halsted St",
		"address2": "",
		"address3": "",
		"city": "Chicago",
		"state": "IL",
		"zip_code": "60608"
	},
	{
		"venue_id": "yelp6OU29ckrzBUV3Hx_IRwC6w",
		"venue_name": "Jet's Pizza",
		"latitude": 41.93301,
		"longitude": -87.668,
		"address1": "2811 N Ashland Ave",
		"address2": "",
		"address3": "",
		"city": "Chicago",
		"state": "IL",
		"zip_code": "60657"
	},
	{
		"venue_id": "yelpOHs0IK44JzCOVj5D3ZsYZA",
		"venue_name": "Sarpino's Pizzeria",
		"latitude": 41.8855458,
		"longitude": -87.643964,
		"address1": "627 W Lake St",
		"address2": "",
		"address3": "",
		"city": "Chicago",
		"state": "IL",
		"zip_code": "60661"
	},
	{
		"venue_id": "yelps9e69kI8oaJf9B6TGzzHoA",
		"venue_name": "Bulldog Ale House-Chicago",
		"latitude": 41.8701293625529,
		"longitude": -87.6272985769645,
		"address1": "901 S State St",
		"address2": "",
		"address3": null,
		"city": "Chicago",
		"state": "IL",
		"zip_code": "60605"
	},
	{
		"venue_id": "yelprIgUeMEi8uEqvXnVs6kzcQ",
		"venue_name": "Si-Pie Pizzeria",
		"latitude": 41.9432,
		"longitude": -87.65397,
		"address1": "3349 N Sheffield Ave",
		"address2": null,
		"address3": "",
		"city": "Chicago",
		"state": "IL",
		"zip_code": "60657"
	},
	{
		"venue_id": "yelpQm4cCDBnIh0LtTHlP3atZw",
		"venue_name": "Papa Ray's Pizza & Wings",
		"latitude": 41.9392434,
		"longitude": -87.7273049,
		"address1": "3208 N Pulaski Rd",
		"address2": "",
		"address3": "",
		"city": "Chicago",
		"state": "IL",
		"zip_code": "60641"
	},
	{
		"venue_id": "yelpv9BZ784y-KmFfkhiu-GcVg",
		"venue_name": "Papa Ray's Pizza & Wings",
		"latitude": 41.968502,
		"longitude": -87.654422,
		"address1": "4757 N Sheridan Rd",
		"address2": "",
		"address3": "",
		"city": "Chicago",
		"state": "IL",
		"zip_code": "60640"
	},
	{
		"venue_id": "yelp0jGeeSgnQIGC09kdMAnV8w",
		"venue_name": "Marco's Beef",
		"latitude": 41.9241,
		"longitude": -87.77617,
		"address1": "6008 W Fullerton Ave",
		"address2": "",
		"address3": "",
		"city": "Chicago",
		"state": "IL",
		"zip_code": "60639"
	},
	{
		"venue_id": "yelpTkD2PSou68kEwdg0BWmFAw",
		"venue_name": "Uncle Remus",
		"latitude": 41.8798904,
		"longitude": -87.7654037,
		"address1": "5611 W Madison St",
		"address2": "",
		"address3": "",
		"city": "Chicago",
		"state": "IL",
		"zip_code": "60644"
	},
	{
		"venue_id": "yelp-KQhIwUrOzFINTtusScZ2g",
		"venue_name": "The Sports Corner Bar & Grill",
		"latitude": 41.9473722127298,
		"longitude": -87.6541649622844,
		"address1": "956 W Addison St",
		"address2": "",
		"address3": "",
		"city": "Chicago",
		"state": "IL",
		"zip_code": "60613"
	},
	{
		"venue_id": "yelpDCkM6dDHImInZmVchiwjrQ",
		"venue_name": "Am Thai Restaurant",
		"latitude": 41.96145,
		"longitude": -87.7104,
		"address1": "3254 W Montrose Ave",
		"address2": null,
		"address3": "",
		"city": "Chicago",
		"state": "IL",
		"zip_code": "60618"
	},
	{
		"venue_id": "yelp6oABmvUJWoUtmO2LtzzmRg",
		"venue_name": "Hooters",
		"latitude": 41.8941596275253,
		"longitude": -87.6343546044642,
		"address1": "660 N Wells St",
		"address2": "",
		"address3": "",
		"city": "Chicago",
		"state": "IL",
		"zip_code": "60610"
	},
	{
		"venue_id": "yelpQOg8a1X7wjFOFg5g5NSIeg",
		"venue_name": "Nick's  Pit  Stop",
		"latitude": 41.96859,
		"longitude": -87.7203,
		"address1": "3652 W Lawrence Ave",
		"address2": "",
		"address3": "",
		"city": "Chicago",
		"state": "IL",
		"zip_code": "60625"
	},
	{
		"venue_id": "yelpepBHjJLHOzx-mXQa4j-rhg",
		"venue_name": "Wingstop",
		"latitude": 41.9112818,
		"longitude": -87.678597,
		"address1": "1637 N Milwaukee Ave",
		"address2": "",
		"address3": "",
		"city": "Chicago",
		"state": "IL",
		"zip_code": "60647"
	},
	{
		"venue_id": "yelp80jtastRWCLuDaeWa26ASQ",
		"venue_name": "Dino's Carry-Outs",
		"latitude": 41.8182374,
		"longitude": -87.6971845,
		"address1": "4135 S Archer Ave",
		"address2": "",
		"address3": "",
		"city": "Chicago",
		"state": "IL",
		"zip_code": "60632"
	},
	{
		"venue_id": "yelpp9YdLf_yNO85YTl5JLwDfQ",
		"venue_name": "Pollo Campero",
		"latitude": 41.96911,
		"longitude": -87.72892,
		"address1": "4830 N Pulaski Rd",
		"address2": "",
		"address3": "",
		"city": "Chicago",
		"state": "IL",
		"zip_code": "60630"
	},
	{
		"venue_id": "yelpEn7wH6QM_qpJJUsn6TeuTg",
		"venue_name": "Micky's Chicken & Fish",
		"latitude": 41.87641,
		"longitude": -87.63106,
		"address1": "408 S Clark St",
		"address2": null,
		"address3": "",
		"city": "Chicago",
		"state": "IL",
		"zip_code": "60605"
	},
	{
		"venue_id": "yelpz5nkKjat1z4qinPVUFZ3fA",
		"venue_name": "BenjYehuda",
		"latitude": 41.8825776971372,
		"longitude": -87.6402557109161,
		"address1": "500 W Madison",
		"address2": "",
		"address3": "",
		"city": "Chicago",
		"state": "IL",
		"zip_code": "60661"
	},
	{
		"venue_id": "yelphp12_WfcLvnKgQvIhpz2sQ",
		"venue_name": "Wingstop",
		"latitude": 41.9421520151596,
		"longitude": -87.6883162868209,
		"address1": "3326 N Western Ave",
		"address2": "",
		"address3": "",
		"city": "Chicago",
		"state": "IL",
		"zip_code": "60618"
	},
	{
		"venue_id": "yelp9mKgkm_OzzIkJMKX3vU9Bg",
		"venue_name": "Harold's Chicken Shack",
		"latitude": 41.831152230028,
		"longitude": -87.6221690699458,
		"address1": "124 E 35th St",
		"address2": "Ste C",
		"address3": "",
		"city": "Chicago",
		"state": "IL",
		"zip_code": "60616"
	},
	{
		"venue_id": "yelpGQO4bNj7UlQS14bZISAImw",
		"venue_name": "Buffalo Wild Wings",
		"latitude": 41.9143399,
		"longitude": -87.654485,
		"address1": "1832 N Clybourn Ave",
		"address2": "",
		"address3": "",
		"city": "Chicago",
		"state": "IL",
		"zip_code": "60614"
	},
	{
		"venue_id": "yelpnvYqxcdJgbHkyBbbTy4Qfg",
		"venue_name": "Wingstop",
		"latitude": 41.8745049,
		"longitude": -87.6273516,
		"address1": "12 E Harrison St",
		"address2": "",
		"address3": "",
		"city": "Chicago",
		"state": "IL",
		"zip_code": "60605"
	},
	{
		"venue_id": "yelpxs-hAB1Agxd4HaWtJLvqOA",
		"venue_name": "Popeyes Louisiana Kitchen",
		"latitude": 41.95456,
		"longitude": -87.66942,
		"address1": "1600 W Irving Park Rd",
		"address2": "",
		"address3": "",
		"city": "Chicago",
		"state": "IL",
		"zip_code": "60613"
	},
	{
		"venue_id": "yelp7i4vd2_0UiR02UBuezw91g",
		"venue_name": "Wingstop",
		"latitude": 41.9304481,
		"longitude": -87.6439395,
		"address1": "2634 Clark St",
		"address2": null,
		"address3": "",
		"city": "Chicago",
		"state": "IL",
		"zip_code": "60614"
	},
	{
		"venue_id": "yelpnAKNoZla1l36a9HikFihdg",
		"venue_name": "Kim Long Restaurant",
		"latitude": 41.9242791473963,
		"longitude": -87.754516956822,
		"address1": "5114 W Fullerton Ave",
		"address2": "",
		"address3": "",
		"city": "Chicago",
		"state": "IL",
		"zip_code": "60639"
	},
	{
		"venue_id": "yelpYWWycRSUDOeU6pltygPGXw",
		"venue_name": "LaCocos Pizza & Wings",
		"latitude": 41.80833,
		"longitude": -87.70844,
		"address1": "3350 W 47th St",
		"address2": "",
		"address3": "",
		"city": "Chicago",
		"state": "IL",
		"zip_code": "60632"
	},
	{
		"venue_id": "yelpRrJ9WBtMffwR8WJ1UHMjrw",
		"venue_name": "Buffalo Wild Wings",
		"latitude": 41.8695833151809,
		"longitude": -87.6405102824615,
		"address1": "513 W Taylor St",
		"address2": null,
		"address3": null,
		"city": "Chicago",
		"state": "IL",
		"zip_code": "60607"
	},
	{
		"venue_id": "yelpy4B0zQrN-iOM33PRb6IXlw",
		"venue_name": "Domino's Pizza",
		"latitude": 41.95405,
		"longitude": -87.66501,
		"address1": "1415 W Irving Park Rd",
		"address2": "",
		"address3": "",
		"city": "Chicago",
		"state": "IL",
		"zip_code": "60613"
	},
	{
		"venue_id": "yelpgKq4ZTXTEDRLThyEaD3Yzw",
		"venue_name": "Wingstop",
		"latitude": 41.8671434083237,
		"longitude": -87.6391139589337,
		"address1": "500 W Roosevelt Rd",
		"address2": "",
		"address3": null,
		"city": "Chicago",
		"state": "IL",
		"zip_code": "60607"
	},
	{
		"venue_id": "yelpeDW-OBDw6BRrSDu4kt18Eg",
		"venue_name": "Blue Willow Chinese Restaurant",
		"latitude": 41.92522,
		"longitude": -87.68845,
		"address1": "2418 W Fullerton Ave",
		"address2": "",
		"address3": "",
		"city": "Chicago",
		"state": "IL",
		"zip_code": "60647"
	},
	{
		"venue_id": "yelpwj6gXJkOxfuDIRYUOntw_w",
		"venue_name": "Domino's Pizza",
		"latitude": 41.9247551,
		"longitude": -87.6896623,
		"address1": "2455 W Fullerton Ave",
		"address2": "",
		"address3": "",
		"city": "Chicago",
		"state": "IL",
		"zip_code": "60647"
	},
	{
		"venue_id": "yelpQ9NBr9vsu26NJf07iMltUg",
		"venue_name": "Wingstop",
		"latitude": 41.9622719,
		"longitude": -87.7276842,
		"address1": "4445 Pulaski Rd",
		"address2": "Unit N & O",
		"address3": null,
		"city": "Chicago",
		"state": "IL",
		"zip_code": "60630"
	},
	{
		"venue_id": "yelpH8Zh-zmwBl0A9pNVVK76Cg",
		"venue_name": "Harold's Chicken West Loop",
		"latitude": 41.8812799,
		"longitude": -87.6650499,
		"address1": "1501 W Madison St",
		"address2": null,
		"address3": "",
		"city": "Chicago",
		"state": "IL",
		"zip_code": "60607"
	},
	{
		"venue_id": "yelpLt93TIa5pmoeK4zQe5Dk1w",
		"venue_name": "Water Hole Lounge",
		"latitude": 41.862881,
		"longitude": -87.68633,
		"address1": "1400 S Western Ave",
		"address2": "",
		"address3": "",
		"city": "Chicago",
		"state": "IL",
		"zip_code": "60608"
	},
	{
		"venue_id": "yelphwrBNgqg95B09sJpTqDUPg",
		"venue_name": "Domino's Pizza",
		"latitude": 41.937978,
		"longitude": -87.6488803,
		"address1": "3103 N Clark St",
		"address2": "",
		"address3": "",
		"city": "Chicago",
		"state": "IL",
		"zip_code": "60657"
	},
	{
		"venue_id": "yelpSHQHv_wyzQNYul8435YKKQ",
		"venue_name": "Popeyes Louisiana Kitchen",
		"latitude": 41.9249051,
		"longitude": -87.6775069,
		"address1": "1949 W Fullerton Ave",
		"address2": "",
		"address3": "",
		"city": "Chicago",
		"state": "IL",
		"zip_code": "60614"
	},
	{
		"venue_id": "yelp_yw3z7PqyZ8GxoRVSHmPsA",
		"venue_name": "Sam's Chicken and Ribs",
		"latitude": 41.939955,
		"longitude": -87.7126249,
		"address1": "3220 N Kimball Ave",
		"address2": "",
		"address3": null,
		"city": "Chicago",
		"state": "IL",
		"zip_code": "60618"
	},
	{
		"venue_id": "yelpqs6LW305_mBazsTD-oOx6A",
		"venue_name": "Wingstop",
		"latitude": 41.83132,
		"longitude": -87.61549,
		"address1": "456 E 35th St",
		"address2": null,
		"address3": null,
		"city": "Chicago",
		"state": "IL",
		"zip_code": "60616"
	},
	{
		"venue_id": "yelp_YW_Hf6wgpfT6aL7-jOMGA",
		"venue_name": "Broasted Chicken Royal",
		"latitude": 41.96793,
		"longitude": -87.77596,
		"address1": "5930 W Lawrence Ave",
		"address2": "",
		"address3": "",
		"city": "Chicago",
		"state": "IL",
		"zip_code": "60630"
	},
	{
		"venue_id": "yelpTV0-rJ13D3k_nLyOAk2RBw",
		"venue_name": "Tapia's Pizza and Grill",
		"latitude": 42.00276,
		"longitude": -87.67256,
		"address1": "6632 N Clark St",
		"address2": "",
		"address3": "",
		"city": "Chicago",
		"state": "IL",
		"zip_code": "60626"
	},
	{
		"venue_id": "yelp10gcY7V-b1caWgr2Ytn-1Q",
		"venue_name": "Jet's Pizza",
		"latitude": 41.89544,
		"longitude": -87.6347,
		"address1": "207 W Superior St",
		"address2": "",
		"address3": null,
		"city": "Chicago",
		"state": "IL",
		"zip_code": "60654"
	},
	{
		"venue_id": "yelpLi2RZWcSX5-AGizJhEYBxg",
		"venue_name": "Harold's Shrimp and Chicken",
		"latitude": 41.87458,
		"longitude": -87.64037,
		"address1": "518 W Harrison St",
		"address2": "",
		"address3": null,
		"city": "Chicago",
		"state": "IL",
		"zip_code": "60607"
	},
	{
		"venue_id": "yelpdd2i4MBTT2TjClivhgVg8g",
		"venue_name": "Domino's Pizza",
		"latitude": 41.9244149,
		"longitude": -87.7420833,
		"address1": "4608 W Fullerton Ave",
		"address2": "",
		"address3": "",
		"city": "Chicago",
		"state": "IL",
		"zip_code": "60639"
	},
	{
		"venue_id": "yelpIsL2iXt5525rdBBrI6-XYw",
		"venue_name": "Shark's Fish & Chicken",
		"latitude": 41.8312149,
		"longitude": -87.6195955,
		"address1": "250 E 35th St",
		"address2": null,
		"address3": "",
		"city": "Chicago",
		"state": "IL",
		"zip_code": "60616"
	},
	{
		"venue_id": "yelpM33PohtxYi0DcJrQcjPqdw",
		"venue_name": "Brandi Pizza & Wings",
		"latitude": 41.8357172,
		"longitude": -87.6661891,
		"address1": "3170 S Ashland Ave",
		"address2": "",
		"address3": null,
		"city": "Chicago",
		"state": "IL",
		"zip_code": "60608"
	},
	{
		"venue_id": "yelpFRxoeHKVT7-W4Uroz5eMAg",
		"venue_name": "Slice of Bronzeville",
		"latitude": 41.809534511327,
		"longitude": -87.6159768551588,
		"address1": "4655 S King Dr",
		"address2": "",
		"address3": null,
		"city": "Chicago",
		"state": "IL",
		"zip_code": "60653"
	},
	{
		"venue_id": "yelpWoC_kCUxChmG8T8O2sJHyg",
		"venue_name": "Popeyes Louisiana Kitchen",
		"latitude": 41.997672160932,
		"longitude": -87.660776903624,
		"address1": "6340 N Broadway St",
		"address2": "",
		"address3": "",
		"city": "Chicago",
		"state": "IL",
		"zip_code": "60660"
	},
	{
		"venue_id": "yelp2mbm_jZ9IO4FpYdlcuxi8g",
		"venue_name": "Domino's Pizza",
		"latitude": 41.99766,
		"longitude": -87.70872,
		"address1": "3144 W Devon Ave",
		"address2": "",
		"address3": "",
		"city": "Chicago",
		"state": "IL",
		"zip_code": "60659"
	},
	{
		"venue_id": "yelpK5rFmtR5-zEzrw_K3QzBUw",
		"venue_name": "Captain Hook's of Roosevelt & Central",
		"latitude": 41.866171,
		"longitude": -87.765812,
		"address1": "5648 W Roosevelt Rd",
		"address2": null,
		"address3": null,
		"city": "Chicago",
		"state": "IL",
		"zip_code": "60644"
	},
	{
		"venue_id": "yelpbYQbmSMGnf_mzAyG57AFpg",
		"venue_name": "Roger's Wing",
		"latitude": 42.00514,
		"longitude": -87.66132,
		"address1": "6752 N Sheridan Rd",
		"address2": "",
		"address3": null,
		"city": "Chicago",
		"state": "IL",
		"zip_code": "60626"
	},
	{
		"venue_id": "yelph_-ul1xabizUqTs1705g-Q",
		"venue_name": "Landbirds",
		"latitude": 41.92764,
		"longitude": -87.69782,
		"address1": "2532 N California Ave",
		"address2": "",
		"address3": null,
		"city": "Chicago",
		"state": "IL",
		"zip_code": "60647"
	},
	{
		"venue_id": "yelp5-9AzcIW0Q7ogBWsb5HLWQ",
		"venue_name": "Popeyes Louisiana Kitchen",
		"latitude": 41.8353115,
		"longitude": -87.6660135,
		"address1": "3204 S Ashland Ave",
		"address2": "",
		"address3": "",
		"city": "Chicago",
		"state": "IL",
		"zip_code": "60608"
	},
	{
		"venue_id": "yelpQzryTgBjj_plB9OV_TeUTA",
		"venue_name": "Uncle Remus SFC - 47th Street",
		"latitude": 41.8093963766001,
		"longitude": -87.6073659560809,
		"address1": "737 E 47th St",
		"address2": "",
		"address3": "",
		"city": "Chicago",
		"state": "IL",
		"zip_code": "60653"
	},
	{
		"venue_id": "yelpseZNzHpwmrnkPJL5cTHATA",
		"venue_name": "Domino's Pizza",
		"latitude": 41.9890762586202,
		"longitude": -87.6702600914927,
		"address1": "5912 N Clark St",
		"address2": "",
		"address3": "",
		"city": "Chicago",
		"state": "IL",
		"zip_code": "60660"
	},
	{
		"venue_id": "yelpUBRXK4TI5pQsh43w-gj-PA",
		"venue_name": "Wingstop",
		"latitude": 41.911465021877,
		"longitude": -87.806243253518,
		"address1": "1740 N Harlem Ave",
		"address2": "",
		"address3": "",
		"city": "Elmwood Park",
		"state": "IL",
		"zip_code": "60707"
	},
	{
		"venue_id": "yelpYwYkW0urbBmHhdqzCLgEfw",
		"venue_name": "Domino's Pizza",
		"latitude": 41.903765644271,
		"longitude": -87.633163065029,
		"address1": "143 W Division St",
		"address2": "",
		"address3": "",
		"city": "Chicago",
		"state": "IL",
		"zip_code": "60610"
	},
	{
		"venue_id": "yelpEaL9OchCstivW_T_aKskzg",
		"venue_name": "Wingstop",
		"latitude": 41.9037459975877,
		"longitude": -87.6303949952126,
		"address1": "47 W Division St",
		"address2": "",
		"address3": "",
		"city": "Chicago",
		"state": "IL",
		"zip_code": "60610"
	},
	{
		"venue_id": "yelpGEeVYaWfiUWhndHE3I6MCQ",
		"venue_name": "Papa Romeo's Pizza",
		"latitude": 41.936823,
		"longitude": -87.7266655,
		"address1": "4359 N Pulaski Rd",
		"address2": "",
		"address3": "",
		"city": "Chicago",
		"state": "IL",
		"zip_code": "60641"
	},
	{
		"venue_id": "yelpKfSBIeG69DOoSdSjBFPeIA",
		"venue_name": "Wingstop",
		"latitude": 41.9370989840119,
		"longitude": -87.7269884798643,
		"address1": "3057 N Pulaski Rd",
		"address2": "",
		"address3": "",
		"city": "Chicago",
		"state": "IL",
		"zip_code": "60641"
	},
	{
		"venue_id": "yelpB9h815TgP-H77bbBtQ9Rrw",
		"venue_name": "Innjoy Logan Square",
		"latitude": 41.92065,
		"longitude": -87.6941499,
		"address1": "2200 N Milwaukee Ave",
		"address2": "",
		"address3": null,
		"city": "Chicago",
		"state": "IL",
		"zip_code": "60647"
	},
	{
		"venue_id": "yelpbVCbtFOWoU_nJdxWbyrXnw",
		"venue_name": "Buffalo Wild Wings",
		"latitude": 41.9288706476837,
		"longitude": -87.7861896567123,
		"address1": "2650 N Narragansett Ave",
		"address2": "",
		"address3": "C9 The Brickyard",
		"city": "Chicago",
		"state": "IL",
		"zip_code": "60639"
	},
	{
		"venue_id": "yelpHuG67yRhJJqr-tA53PW3DA",
		"venue_name": "Harold's Chicken Shack",
		"latitude": 41.86878,
		"longitude": -87.68647,
		"address1": "1014 S Western Ave",
		"address2": "",
		"address3": "",
		"city": "Chicago",
		"state": "IL",
		"zip_code": "60612"
	},
	{
		"venue_id": "yelpEqV1CgymXMMbZeLz6nEIhQ",
		"venue_name": "J J Fish & Chicken",
		"latitude": 41.8806309523979,
		"longitude": -87.7654364738354,
		"address1": "5608 W Madison St",
		"address2": "",
		"address3": "",
		"city": "Chicago",
		"state": "IL",
		"zip_code": "60644"
	},
	{
		"venue_id": "yelpjzFbUW4Artg_Z1ex2TdB9A",
		"venue_name": "Wingstop",
		"latitude": 41.993839,
		"longitude": -87.713585,
		"address1": "6160 N Lincoln Ave",
		"address2": null,
		"address3": "",
		"city": "Chicago",
		"state": "IL",
		"zip_code": "60659"
	},
	{
		"venue_id": "yelphhAU-ej-Bydnp-SL3nYG3Q",
		"venue_name": "Wingstop",
		"latitude": 41.8389061784507,
		"longitude": -87.6464733040977,
		"address1": "3032 S Halsted St",
		"address2": "",
		"address3": "",
		"city": "Chicago",
		"state": "IL",
		"zip_code": "60608"
	},
	{
		"venue_id": "yelp46CHH5oZpLotj9xqR9nbNA",
		"venue_name": "Raising Cane's Chicken Fingers",
		"latitude": 41.967574,
		"longitude": -87.809247,
		"address1": "7306 W Lawrence Ave",
		"address2": null,
		"address3": null,
		"city": "Harwood Heights",
		"state": "IL",
		"zip_code": "60706"
	},
	{
		"venue_id": "yelpFTO0ReVRj7rz-j3GUojb1w",
		"venue_name": "Pizza Hut",
		"latitude": 41.9367256,
		"longitude": -87.6478424,
		"address1": "3009 N Clark St",
		"address2": "",
		"address3": "",
		"city": "Chicago",
		"state": "IL",
		"zip_code": "60657"
	},
	{
		"venue_id": "yelp9WCsuGJARLrshsYv1JzmYA",
		"venue_name": "Domino's Pizza",
		"latitude": 41.972282409668,
		"longitude": -87.7285003662109,
		"address1": "5008 N Pulaski Rd",
		"address2": "",
		"address3": "",
		"city": "Chicago",
		"state": "IL",
		"zip_code": "60630"
	},
	{
		"venue_id": "yelp5EO9i4FNlHIrvxsMckzqMw",
		"venue_name": "Nino's",
		"latitude": 41.88012,
		"longitude": -87.64083,
		"address1": "115 S Clinton St",
		"address2": "",
		"address3": null,
		"city": "Chicago",
		"state": "IL",
		"zip_code": "60661"
	},
	{
		"venue_id": "yelp_LPojeRZ-t7qQzbbQLIRbA",
		"venue_name": "Popeyes Louisiana Kitchen",
		"latitude": 41.9963128,
		"longitude": -87.7167152,
		"address1": "6321 N Lincoln Ave",
		"address2": "",
		"address3": "",
		"city": "Chicago",
		"state": "IL",
		"zip_code": "60659"
	},
	{
		"venue_id": "yelpur91pzMUaOSqM0y_sDpw6w",
		"venue_name": "Krispy Krunchy Chicken",
		"latitude": 41.95341,
		"longitude": -87.77225,
		"address1": "5800 W Irving Park Rd",
		"address2": null,
		"address3": null,
		"city": "Chicago",
		"state": "IL",
		"zip_code": "60634"
	},
	{
		"venue_id": "yelpvYzEamcL5l1vBhPIfOMXJw",
		"venue_name": "Popeyes Louisiana Kitchen",
		"latitude": 41.94646,
		"longitude": -87.68785,
		"address1": "2355 W Addison St",
		"address2": "",
		"address3": "",
		"city": "Chicago",
		"state": "IL",
		"zip_code": "60618"
	},
	{
		"venue_id": "yelpoC6Sj_kgdvUaBancrfc-aA",
		"venue_name": "Wingstop",
		"latitude": 41.896062,
		"longitude": -87.708276,
		"address1": "800 N Kedzie Ave",
		"address2": "Ste 108",
		"address3": null,
		"city": "Chicago",
		"state": "IL",
		"zip_code": "60651"
	},
	{
		"venue_id": "yelpGJcVSVrqllB6EGOP2Q0y9A",
		"venue_name": "Popeyes Louisiana Kitchen",
		"latitude": 41.8849988,
		"longitude": -87.6260095,
		"address1": "159 N Wabash Ave",
		"address2": "",
		"address3": "",
		"city": "Chicago",
		"state": "IL",
		"zip_code": "60601"
	},
	{
		"venue_id": "yelp9FzwYPgFeMZ4wSDHrwu3DQ",
		"venue_name": "Pizza Hut",
		"latitude": 41.9726656531171,
		"longitude": -87.6906502246857,
		"address1": "5033 North Lincoln",
		"address2": "",
		"address3": "",
		"city": "Chicago",
		"state": "IL",
		"zip_code": "60625"
	},
	{
		"venue_id": "yelpbLyMRmNSGFLd16f6K-gQYQ",
		"venue_name": "Popeyes Louisiana Kitchen",
		"latitude": 41.932361,
		"longitude": -87.698095,
		"address1": "2800 W Diversey Ave",
		"address2": "",
		"address3": "",
		"city": "Chicago",
		"state": "IL",
		"zip_code": "60647"
	},
	{
		"venue_id": "yelpXArnE8UpO9rOxlYDsYprIg",
		"venue_name": "Popeyes Louisiana Kitchen",
		"latitude": 41.86566,
		"longitude": -87.64657,
		"address1": "1251 S Halsted St",
		"address2": "",
		"address3": "",
		"city": "Chicago",
		"state": "IL",
		"zip_code": "60607"
	},
	{
		"venue_id": "yelp0Kz-BQ2tiGwwdWXRWzUVKA",
		"venue_name": "Slice Factory",
		"latitude": 41.85809,
		"longitude": -87.66398,
		"address1": "1502 W 18th St",
		"address2": "",
		"address3": null,
		"city": "Chicago",
		"state": "IL",
		"zip_code": "60608"
	},
	{
		"venue_id": "yelp-CoI79A__77yZaC2Rygunw",
		"venue_name": "Pizza Hut",
		"latitude": 41.9789071571803,
		"longitude": -87.6602519140109,
		"address1": "5320 N Broadway",
		"address2": "",
		"address3": "",
		"city": "Chicago",
		"state": "IL",
		"zip_code": "60640"
	},
	{
		"venue_id": "yelpFyiYRpJd7tEZy-d58_fh9A",
		"venue_name": "KFC",
		"latitude": 41.9538,
		"longitude": -87.6986,
		"address1": "2807 W Irving Park Rd",
		"address2": "",
		"address3": "",
		"city": "Chicago",
		"state": "IL",
		"zip_code": "60618"
	},
	{
		"venue_id": "yelpd1I_dLJJtQXTyVZ5taO9nQ",
		"venue_name": "Domino's Pizza",
		"latitude": 41.9974556,
		"longitude": -87.7642441,
		"address1": "5410 W Devon Ave",
		"address2": "",
		"address3": "",
		"city": "Chicago",
		"state": "IL",
		"zip_code": "60646"
	},
	{
		"venue_id": "yelpUQWIIjgTkdf6YP66pMzkUw",
		"venue_name": "Popeyes Louisiana Kitchen",
		"latitude": 41.9786663,
		"longitude": -87.8067385,
		"address1": "5353 N Harlem Ave",
		"address2": "",
		"address3": "",
		"city": "Chicago",
		"state": "IL",
		"zip_code": "60656"
	},
	{
		"venue_id": "yelpBlLIpTqRRUoWjeWAHDsE3Q",
		"venue_name": "Pizza Hut",
		"latitude": 41.976883,
		"longitude": -87.729477,
		"address1": "5240 N Pulaski Rd",
		"address2": "",
		"address3": "",
		"city": "Chicago",
		"state": "IL",
		"zip_code": "60630"
	},
	{
		"venue_id": "yelpEZ1EPDDuTMsnXoGmur9bIg",
		"venue_name": "Domino's Pizza",
		"latitude": 41.92282,
		"longitude": -87.6446,
		"address1": "2231 N Lincoln Ave",
		"address2": "",
		"address3": "",
		"city": "Chicago",
		"state": "IL",
		"zip_code": "60614"
	},
	{
		"venue_id": "yelpqPSgaGIM-EXbmsVCxA5VBA",
		"venue_name": "Wingstop",
		"latitude": 41.8124536,
		"longitude": -87.7239708,
		"address1": "4428 S Pulaski Rd",
		"address2": "",
		"address3": "",
		"city": "Chicago",
		"state": "IL",
		"zip_code": "60632"
	},
	{
		"venue_id": "yelpXPau61I0s8-XqVmLAGnw9w",
		"venue_name": "Wing Boss",
		"latitude": 41.8652903490078,
		"longitude": -87.7903425693512,
		"address1": "6625 Roosevelt Rd",
		"address2": "",
		"address3": "",
		"city": "Berwyn",
		"state": "IL",
		"zip_code": "60402"
	},
	{
		"venue_id": "yelpnTpi_RGG9fc1Uf-QILpyOQ",
		"venue_name": "Pizza Hut",
		"latitude": 41.9971751,
		"longitude": -87.7156855,
		"address1": "3451 W Devon Ave",
		"address2": "",
		"address3": "",
		"city": "Chicago",
		"state": "IL",
		"zip_code": "60659"
	},
	{
		"venue_id": "yelpeS2Ms-rVM4f5fnfdp-MOjQ",
		"venue_name": "Alley Dogs",
		"latitude": 41.9486855,
		"longitude": -87.6884913,
		"address1": "3700 N Western Ave",
		"address2": "",
		"address3": "",
		"city": "Chicago",
		"state": "IL",
		"zip_code": "60618"
	},
	{
		"venue_id": "yelpUyt3DVN7fZVr7TqwN_bk_g",
		"venue_name": "J & J Fish & Chicken",
		"latitude": 41.8098936248682,
		"longitude": -87.5919753910293,
		"address1": "1400 E 47th St",
		"address2": "Ste J",
		"address3": "",
		"city": "Chicago",
		"state": "IL",
		"zip_code": "60653"
	},
	{
		"venue_id": "yelpZt9e07Sjgnc-OfYV7P8g1w",
		"venue_name": "Popeyes Louisiana Kitchen",
		"latitude": 41.93894,
		"longitude": -87.75865,
		"address1": "5248 W Belmont Ave",
		"address2": "",
		"address3": "",
		"city": "Chicago",
		"state": "IL",
		"zip_code": "60641"
	},
	{
		"venue_id": "yelprL1qCkOL320YLMMuUiImlw",
		"venue_name": "KFC",
		"latitude": 41.9691,
		"longitude": -87.655,
		"address1": "4804 N Sheridan Rd",
		"address2": "",
		"address3": "",
		"city": "Chicago",
		"state": "IL",
		"zip_code": "60640"
	},
	{
		"venue_id": "yelpr7hSD2l3ODRw81KjtXMQJw",
		"venue_name": "Popeyes Louisiana Kitchen",
		"latitude": 41.9687901,
		"longitude": -87.7130679,
		"address1": "3352 W Lawrence Ave",
		"address2": "",
		"address3": "",
		"city": "Chicago",
		"state": "IL",
		"zip_code": "60625"
	},
	{
		"venue_id": "yelptiDlqR7RRYubS0-nhC7iXA",
		"venue_name": "Hoots",
		"latitude": 41.85082,
		"longitude": -87.74384,
		"address1": "2201 S Cicero Ave",
		"address2": "",
		"address3": null,
		"city": "Cicero",
		"state": "IL",
		"zip_code": "60804"
	},
	{
		"venue_id": "yelp5V2GHsW7GeHxsZYbSaoIJw",
		"venue_name": "CC's",
		"latitude": 41.8850612,
		"longitude": -87.6319669,
		"address1": "100 W Randolph St",
		"address2": null,
		"address3": null,
		"city": "Chicago",
		"state": "IL",
		"zip_code": "60601"
	},
	{
		"venue_id": "yelp65PI7m9kg5ai6nvPHvwqkw",
		"venue_name": "Wingstop",
		"latitude": 41.9497,
		"longitude": -87.649,
		"address1": "3720 N Broadway St",
		"address2": null,
		"address3": null,
		"city": "Chicago",
		"state": "IL",
		"zip_code": "60613"
	},
	{
		"venue_id": "yelpKrFzD16Aw0pYO613imcRlQ",
		"venue_name": "Domino's Pizza",
		"latitude": 41.8520755,
		"longitude": -87.6890934,
		"address1": "2508 W Cermak Rd",
		"address2": "",
		"address3": "",
		"city": "Chicago",
		"state": "IL",
		"zip_code": "60608"
	},
	{
		"venue_id": "yelpl869pqpuys0wirscl7zVGA",
		"venue_name": "The Pumping Company Bar & Grill",
		"latitude": 41.9669551,
		"longitude": -87.6662999,
		"address1": "1463 W Leland Ave",
		"address2": "",
		"address3": null,
		"city": "Chicago",
		"state": "IL",
		"zip_code": "60640"
	},
	{
		"venue_id": "yelpJmsoiENWz2WF39WLsjTjJA",
		"venue_name": "Wingstop",
		"latitude": 41.936312,
		"longitude": -87.766767,
		"address1": "3046 N Central Ave",
		"address2": null,
		"address3": null,
		"city": "Chicago",
		"state": "IL",
		"zip_code": "60634"
	},
	{
		"venue_id": "yelp3zV-AOphT_Tt6KTzC0pd-Q",
		"venue_name": "Domino's Pizza",
		"latitude": 41.8811749,
		"longitude": -87.6852902,
		"address1": "2331 W Madison St",
		"address2": "",
		"address3": "",
		"city": "Chicago",
		"state": "IL",
		"zip_code": "60612"
	},
	{
		"venue_id": "yelpZxGS79xZxs8E4gSAHyoG1w",
		"venue_name": "KFC",
		"latitude": 41.8669568869465,
		"longitude": -87.6863112001564,
		"address1": "1144 S Western Ave",
		"address2": "",
		"address3": "",
		"city": "Chicago",
		"state": "IL",
		"zip_code": "60612"
	},
	{
		"venue_id": "yelpqyJGZfPjfq8xgTqiFp7V1Q",
		"venue_name": "MIMI'S",
		"latitude": 41.9028559734445,
		"longitude": -87.7209088951349,
		"address1": "3748 W Division",
		"address2": "",
		"address3": "",
		"city": "Chicago",
		"state": "IL",
		"zip_code": "60651"
	},
	{
		"venue_id": "yelpZM_YD0yaZVHkl3eLJU0r0w",
		"venue_name": "Popeyes Louisiana Kitchen",
		"latitude": 41.924031,
		"longitude": -87.791679,
		"address1": "6622 W Fullerton Ave",
		"address2": "",
		"address3": "",
		"city": "Chicago",
		"state": "IL",
		"zip_code": "60639"
	},
	{
		"venue_id": "yelpVYktnIPSBk3lqhILylV2oQ",
		"venue_name": "Popeyes Louisiana Kitchen",
		"latitude": 41.9691285,
		"longitude": -87.762077,
		"address1": "4866 N Milwaukee Ave",
		"address2": null,
		"address3": "",
		"city": "Chicago",
		"state": "IL",
		"zip_code": "60630"
	},
	{
		"venue_id": "yelpQIfIW1_Ejo97wtQkDADK6Q",
		"venue_name": "Church's Chicken",
		"latitude": 41.87731,
		"longitude": -87.67134,
		"address1": "1755 W Jackson",
		"address2": "",
		"address3": "",
		"city": "Chicago",
		"state": "IL",
		"zip_code": "60612"
	},
	{
		"venue_id": "yelpFmrzfYnG5EbwIkck_vFFLg",
		"venue_name": "Popeyes Louisiana Kitchen",
		"latitude": 41.8822367,
		"longitude": -87.6865749,
		"address1": "50 N Western Ave",
		"address2": "",
		"address3": "",
		"city": "Chicago",
		"state": "IL",
		"zip_code": "60612"
	},
	{
		"venue_id": "yelpbMFDYu6sOemuE06emXTwpQ",
		"venue_name": "Domino's Pizza",
		"latitude": 41.830882,
		"longitude": -87.618219,
		"address1": "321 E 35th St",
		"address2": "",
		"address3": "",
		"city": "Chicago",
		"state": "IL",
		"zip_code": "60616"
	},
	{
		"venue_id": "yelp40JxmEYHfgO_Bc1VH1ELpg",
		"venue_name": "KFC",
		"latitude": 42.00362,
		"longitude": -87.69013,
		"address1": "6732 N Western Ave",
		"address2": null,
		"address3": null,
		"city": "Chicago",
		"state": "IL",
		"zip_code": "60645"
	},
	{
		"venue_id": "yelp0RLDxKt1SfcLXlD8Sp9aIQ",
		"venue_name": "KFC",
		"latitude": 41.9241,
		"longitude": -87.7444,
		"address1": "4715 W Fullerton Ave",
		"address2": "",
		"address3": "",
		"city": "Chicago",
		"state": "IL",
		"zip_code": "60639"
	},
	{
		"venue_id": "yelpOswjddyeJeO9V8wuc5C32Q",
		"venue_name": "Popeyes Louisiana Kitchen",
		"latitude": 41.88235,
		"longitude": -87.6404699,
		"address1": "500 W Madison St",
		"address2": "",
		"address3": null,
		"city": "Chicago",
		"state": "IL",
		"zip_code": "60661"
	},
	{
		"venue_id": "yelpz3duTWqEDWbAWUZ-QYRjRw",
		"venue_name": "Rosati's Pizza",
		"latitude": 41.93238,
		"longitude": -87.6535,
		"address1": "953 W Diversey Pkwy",
		"address2": null,
		"address3": "",
		"city": "Chicago",
		"state": "IL",
		"zip_code": "60614"
	},
	{
		"venue_id": "yelp14Xm4k99wSQV7B3zTFxCkw",
		"venue_name": "Wingstop",
		"latitude": 41.909955,
		"longitude": -87.737271,
		"address1": "4430 W North Ave",
		"address2": "",
		"address3": "",
		"city": "Chicago",
		"state": "IL",
		"zip_code": "60639"
	},
	{
		"venue_id": "yelpJ9MbOPvRq9sS9AJdZn2uKw",
		"venue_name": "Red Snapper Fish and Chicken",
		"latitude": 41.87999,
		"longitude": -87.75737,
		"address1": "5255 W Madison St",
		"address2": "",
		"address3": "",
		"city": "Chicago",
		"state": "IL",
		"zip_code": "60644"
	},
	{
		"venue_id": "yelpumdoU9hURaXAjIzE0tNWfA",
		"venue_name": "KFC",
		"latitude": 41.990091,
		"longitude": -87.713825,
		"address1": "3357 W Peterson Ave",
		"address2": "",
		"address3": "",
		"city": "Chicago",
		"state": "IL",
		"zip_code": "60659"
	},
	{
		"venue_id": "yelpdnR0WsMk-xCgPl8DcnULjQ",
		"venue_name": "Pizza Hut",
		"latitude": 41.9345525054937,
		"longitude": -87.7628781323242,
		"address1": "4925 W North Ave",
		"address2": "",
		"address3": "",
		"city": "Chicago",
		"state": "IL",
		"zip_code": "60639"
	},
	{
		"venue_id": "yelpiQyjRVEQIUUML50UYoYlrA",
		"venue_name": "Popeyes Louisiana Kitchen",
		"latitude": 41.83134,
		"longitude": -87.61895,
		"address1": "300 E 35th St",
		"address2": "",
		"address3": "",
		"city": "Chicago",
		"state": "IL",
		"zip_code": "60616"
	},
	{
		"venue_id": "yelpSYJhZ2QpLowToi5myLel3g",
		"venue_name": "Popeyes Louisiana Kitchen",
		"latitude": 41.8958267,
		"longitude": -87.7068202,
		"address1": "3202 W Chicago Ave",
		"address2": "",
		"address3": "",
		"city": "Chicago",
		"state": "IL",
		"zip_code": "60651"
	},
	{
		"venue_id": "yelpnOnbGSDnro7QG79W1rJEtQ",
		"venue_name": "Uncle Remus Chicken & Barbeque",
		"latitude": 41.8808817788672,
		"longitude": -87.7320966635588,
		"address1": "4236 W Madison St",
		"address2": "",
		"address3": "",
		"city": "Chicago",
		"state": "IL",
		"zip_code": "60624"
	},
	{
		"venue_id": "yelp0rBeg6iN8gQrshzNuIhniw",
		"venue_name": "KFC",
		"latitude": 41.9453,
		"longitude": -87.7471,
		"address1": "3536 N Cicero Ave",
		"address2": "",
		"address3": "",
		"city": "Chicago",
		"state": "IL",
		"zip_code": "60641"
	},
	{
		"venue_id": "yelpf1Gfjn0o5Ye6530_R-uP9w",
		"venue_name": "Wingstop",
		"latitude": 41.99167,
		"longitude": -87.66071,
		"address1": "6024 N Broadway St",
		"address2": "",
		"address3": null,
		"city": "Chicago",
		"state": "IL",
		"zip_code": "60660"
	},
	{
		"venue_id": "yelpoRtdQZwTmk4IfN7tz-4WMA",
		"venue_name": "Domino's Pizza",
		"latitude": 41.8148918,
		"longitude": -87.6649246,
		"address1": "4323 S Ashland Ave",
		"address2": "",
		"address3": "",
		"city": "Chicago",
		"state": "IL",
		"zip_code": "60609"
	},
	{
		"venue_id": "yelplGegttyBxzrtq13NjfEC1w",
		"venue_name": "KFC",
		"latitude": 41.9513,
		"longitude": -87.807,
		"address1": "3927 N Harlem Ave",
		"address2": "",
		"address3": "",
		"city": "Chicago",
		"state": "IL",
		"zip_code": "60634"
	},
	{
		"venue_id": "yelpEFHDU9lPWWogRuPA9pDRGg",
		"venue_name": "Buffalo Wild Wings",
		"latitude": 41.85068,
		"longitude": -87.80283,
		"address1": "7130 Cermak Rd",
		"address2": "",
		"address3": "",
		"city": "Berwyn",
		"state": "IL",
		"zip_code": "60402"
	},
	{
		"venue_id": "yelpI8zjmWoC14uxRxjoKlqEYA",
		"venue_name": "Popeyes Louisiana Kitchen",
		"latitude": 41.81248,
		"longitude": -87.70626,
		"address1": "4431 S Archer Ave",
		"address2": "",
		"address3": "",
		"city": "Chicago",
		"state": "IL",
		"zip_code": "60632"
	},
	{
		"venue_id": "yelp_cFmSIiDcW4gd8hIYcNkcQ",
		"venue_name": "Slice Factory",
		"latitude": 41.8875237554312,
		"longitude": -87.8049243986607,
		"address1": "421 N Harlem Ave",
		"address2": "",
		"address3": "",
		"city": "Oak Park",
		"state": "IL",
		"zip_code": "60301"
	},
	{
		"venue_id": "yelpqPyn7Kw0N_-mTahByXBHEg",
		"venue_name": "Domino's Pizza",
		"latitude": 41.894252,
		"longitude": -87.784614,
		"address1": "329 Chicago Ave",
		"address2": "",
		"address3": "",
		"city": "Oak Park",
		"state": "IL",
		"zip_code": "60302"
	},
	{
		"venue_id": "yelp8OrCzDZZXjk6k5Pk-Jq40A",
		"venue_name": "Popeyes Louisiana Kitchen",
		"latitude": 41.8448,
		"longitude": -87.69559,
		"address1": "2556 S California Ave",
		"address2": "",
		"address3": "",
		"city": "Chicago",
		"state": "IL",
		"zip_code": "60608"
	},
	{
		"venue_id": "yelpCFBCbBQBW2iHs0-pdzBRuQ",
		"venue_name": "Sharks Fish & Chicken",
		"latitude": 41.88131,
		"longitude": -87.72388,
		"address1": "3900 W Madison St",
		"address2": null,
		"address3": null,
		"city": "Chicago",
		"state": "IL",
		"zip_code": "60624"
	},
	{
		"venue_id": "yelp_G-wi4zJz5WjI_iwzhUSNA",
		"venue_name": "KFC",
		"latitude": 41.8312,
		"longitude": -87.6193,
		"address1": "300 E 35th St",
		"address2": null,
		"address3": null,
		"city": "Chicago",
		"state": "IL",
		"zip_code": "60616"
	},
	{
		"venue_id": "yelpE2-s3Of1VnH6x_2ZYr3G6g",
		"venue_name": "Shark's Fish and Chicken",
		"latitude": 41.8762231,
		"longitude": -87.6962749,
		"address1": "338 S California Ave",
		"address2": "",
		"address3": "",
		"city": "Chicago",
		"state": "IL",
		"zip_code": "60612"
	},
	{
		"venue_id": "yelpzI6oz0AafHl031gWO3KG8A",
		"venue_name": "Domino's Pizza",
		"latitude": 41.92543,
		"longitude": -87.66932,
		"address1": "2401 Clybourn Ave",
		"address2": null,
		"address3": null,
		"city": "Chicago",
		"state": "IL",
		"zip_code": "60614"
	},
	{
		"venue_id": "yelpX4NBxJxmMIddvXKoi1KX6Q",
		"venue_name": "Domino's Pizza",
		"latitude": 41.843948,
		"longitude": -87.726104,
		"address1": "4039 W 26th St",
		"address2": "",
		"address3": "",
		"city": "Chicago",
		"state": "IL",
		"zip_code": "60623"
	},
	{
		"venue_id": "yelpytVUakv872TF68ybLi87Sw",
		"venue_name": "Rosatis Pizza",
		"latitude": 41.88509,
		"longitude": -87.63416,
		"address1": "176 N Wells St",
		"address2": "",
		"address3": null,
		"city": "Chicago",
		"state": "IL",
		"zip_code": "60606"
	},
	{
		"venue_id": "yelp5AfHTvp-T9JwHBJ1gupJ2A",
		"venue_name": "KFC",
		"latitude": 41.8847,
		"longitude": -87.6309,
		"address1": "100 W Randolph",
		"address2": "James R. Thompson Center, Great State Fare Food Court",
		"address3": "",
		"city": "Chicago",
		"state": "IL",
		"zip_code": "60601"
	},
	{
		"venue_id": "yelpj8KVgTcpnAsrFRbRhPCc8A",
		"venue_name": "JJ-Fish & Chicken",
		"latitude": 41.8663584,
		"longitude": -87.6659627,
		"address1": "1215 S Ashland Ave",
		"address2": "",
		"address3": "",
		"city": "Chicago",
		"state": "IL",
		"zip_code": "60608"
	},
	{
		"venue_id": "yelpw299mFOPEL_sF3DtH2K9mw",
		"venue_name": "Popeyes Louisiana Kitchen",
		"latitude": 41.80991,
		"longitude": -87.60555,
		"address1": "818 E 47th St",
		"address2": "",
		"address3": "",
		"city": "Chicago",
		"state": "IL",
		"zip_code": "60653"
	},
	{
		"venue_id": "yelpuGMfh41-mgAPWkYFa9V3hw",
		"venue_name": "J&J Fish & Chicken",
		"latitude": 41.880676,
		"longitude": -87.80513,
		"address1": "319 Harlem Ave",
		"address2": "",
		"address3": "",
		"city": "Forest Park",
		"state": "IL",
		"zip_code": "60130"
	},
	{
		"venue_id": "yelpuEKG7HcSPnPCw4BjoqDMkg",
		"venue_name": "Whale Fish & Chicken",
		"latitude": 41.89574,
		"longitude": -87.71657,
		"address1": "3600 W Chicago Ave",
		"address2": null,
		"address3": null,
		"city": "Chicago",
		"state": "IL",
		"zip_code": "60651"
	},
	{
		"venue_id": "yelpUeRmjBRd-NzWo8x_y7ecIQ",
		"venue_name": "Church's Chicken",
		"latitude": 41.9097449,
		"longitude": -87.7465153,
		"address1": "4812 W North Ave",
		"address2": "",
		"address3": "",
		"city": "Chicago",
		"state": "IL",
		"zip_code": "60639"
	},
	{
		"venue_id": "yelp23QQscQJt3U22lRgeNu_hA",
		"venue_name": "Domino's Pizza",
		"latitude": 41.896694,
		"longitude": -87.70797,
		"address1": "800 N Kedzie Ave",
		"address2": "",
		"address3": null,
		"city": "Chicago",
		"state": "IL",
		"zip_code": "60651"
	},
	{
		"venue_id": "yelp62LUcjGF9Sul_4HE4pKNVQ",
		"venue_name": "Church's Chicken",
		"latitude": 41.85217,
		"longitude": -87.696,
		"address1": "2806 W Cermak",
		"address2": "",
		"address3": "",
		"city": "Chicago",
		"state": "IL",
		"zip_code": "60623"
	},
	{
		"venue_id": "yelpQdbU8NSeSMlOwdNELl2eNA",
		"venue_name": "Pizza Hut",
		"latitude": 41.88235,
		"longitude": -87.6404699,
		"address1": "500 W Madison St",
		"address2": "",
		"address3": "Ogilvie Food Court",
		"city": "Chicago",
		"state": "IL",
		"zip_code": "60661"
	},
	{
		"venue_id": "yelpkLVT9hvGfSMNIp5Xe_t9Hw",
		"venue_name": "KFC",
		"latitude": 41.8268,
		"longitude": -87.6838,
		"address1": "3696 S Archer Ave",
		"address2": "",
		"address3": "",
		"city": "Chicago",
		"state": "IL",
		"zip_code": "60609"
	},
	{
		"venue_id": "yelp-d63JAFzPeuVw3JgvxecAw",
		"venue_name": "J & J Fish & Chicken",
		"latitude": 41.89567,
		"longitude": -87.72556,
		"address1": "3944 W Chicago Ave",
		"address2": null,
		"address3": null,
		"city": "Chicago",
		"state": "IL",
		"zip_code": "60651"
	},
	{
		"venue_id": "yelp3_BLxmBRW-K5tmZRuTv1jA",
		"venue_name": "Chi-Town Fried Chicken",
		"latitude": 41.8955764770508,
		"longitude": -87.7306365966797,
		"address1": "4154 W Chicago Ave",
		"address2": null,
		"address3": null,
		"city": "Chicago",
		"state": "IL",
		"zip_code": "60651"
	},
	{
		"venue_id": "yelpgQWQ8q3sTY68JgvYVxoPrA",
		"venue_name": "KFC",
		"latitude": 41.9095002,
		"longitude": -87.7764,
		"address1": "6034 W N Ave",
		"address2": "",
		"address3": "",
		"city": "Chicago",
		"state": "IL",
		"zip_code": "60639"
	},
	{
		"venue_id": "yelpytElMFwBAMxX2h8n8ZAihg",
		"venue_name": "Raising Cane's",
		"latitude": 42.002142,
		"longitude": -87.6609592,
		"address1": "6568 N Sheridan Rd",
		"address2": "",
		"address3": null,
		"city": "Chicago",
		"state": "IL",
		"zip_code": "60626"
	},
	{
		"venue_id": "yelpYULX9j3fdcLtUNYHax19JA",
		"venue_name": "Maggie Gyros & Chicken",
		"latitude": 41.8092351,
		"longitude": -87.6178277,
		"address1": "349 E 47th St",
		"address2": null,
		"address3": null,
		"city": "Chicago",
		"state": "IL",
		"zip_code": "60653"
	},
	{
		"venue_id": "yelpsU3FVQtaEO75msp637QSPA",
		"venue_name": "Domino's Pizza",
		"latitude": 41.9409634,
		"longitude": -87.8070326,
		"address1": "3336 N Harlem Ave",
		"address2": "",
		"address3": "",
		"city": "Chicago",
		"state": "IL",
		"zip_code": "60634"
	},
	{
		"venue_id": "yelpMScIvRG_We2Go3XjVwLQkA",
		"venue_name": "Popeyes Louisiana Kitchen",
		"latitude": 41.9096401,
		"longitude": -87.7633734,
		"address1": "5500 W North Ave",
		"address2": "",
		"address3": "",
		"city": "Chicago",
		"state": "IL",
		"zip_code": "60639"
	},
	{
		"venue_id": "yelpMBlFKYz8h1z_pGS2M_5D7w",
		"venue_name": "Popeyes Louisiana Kitchen",
		"latitude": 41.924048,
		"longitude": -87.791616,
		"address1": "6622 W Fullerton Ave",
		"address2": "",
		"address3": "",
		"city": "Chicago",
		"state": "IL",
		"zip_code": "60707"
	},
	{
		"venue_id": "yelp6QK4H9mtAaD2LfpzfASxZA",
		"venue_name": "Pizza Hut",
		"latitude": 41.808777,
		"longitude": -87.676283,
		"address1": "2042 W 47th St",
		"address2": "",
		"address3": "",
		"city": "Chicago",
		"state": "IL",
		"zip_code": "60609"
	},
	{
		"venue_id": "yelpBe9yc66qXHnR953OlIenIg",
		"venue_name": "Slice Factory",
		"latitude": 41.84427,
		"longitude": -87.71146,
		"address1": "3435 1/2 W 26th S",
		"address2": null,
		"address3": "",
		"city": "Chicago",
		"state": "IL",
		"zip_code": "60623"
	},
	{
		"venue_id": "yelpL0UD6zrZtccCbSyOzaH2_w",
		"venue_name": "Chicago Downtown - Gold Coast Sarpino's",
		"latitude": 41.904009,
		"longitude": -87.633835,
		"address1": "158 W Division St",
		"address2": "",
		"address3": null,
		"city": "Chicago",
		"state": "IL",
		"zip_code": "60610"
	},
	{
		"venue_id": "yelp-LkLMhNfhLNbzJONobq6FQ",
		"venue_name": "Out of Bounds Chicken & Fish",
		"latitude": 41.8730804206784,
		"longitude": -87.7454591831871,
		"address1": "4813 W Harrison St",
		"address2": "",
		"address3": null,
		"city": "Chicago",
		"state": "IL",
		"zip_code": "60644"
	},
	{
		"venue_id": "yelpAt-Q-farG8npPCdKXvb13w",
		"venue_name": "Wingstop",
		"latitude": 41.864204,
		"longitude": -87.8046370670199,
		"address1": "1215 Harlem Ave",
		"address2": "",
		"address3": null,
		"city": "Forest Park",
		"state": "IL",
		"zip_code": "60130"
	},
	{
		"venue_id": "yelpJtsyF4zsVLaowf8yk1zb4A",
		"venue_name": "Wingstop",
		"latitude": 41.9650225,
		"longitude": -87.6570079,
		"address1": "4547 N. Broadway St #51",
		"address2": null,
		"address3": null,
		"city": "Chicago",
		"state": "IL",
		"zip_code": "60640"
	},
	{
		"venue_id": "yelp3nadp4IlV2MtguFSP4XoDg",
		"venue_name": "Captain Hooks Fish and Chicken",
		"latitude": 41.8516740202904,
		"longitude": -87.7239592373371,
		"address1": "3948 W Cermak Rd",
		"address2": "",
		"address3": "",
		"city": "Chicago",
		"state": "IL",
		"zip_code": "60623"
	},
	{
		"venue_id": "yelpr09Zn5zKMp5HYt_-CnFDww",
		"venue_name": "Popeyes Louisiana Kitchen",
		"latitude": 41.85022,
		"longitude": -87.7976,
		"address1": "6935 Cermak Rd",
		"address2": "",
		"address3": "",
		"city": "Berwyn",
		"state": "IL",
		"zip_code": "60402"
	},
	{
		"venue_id": "yelpKEKCRuE9oulNpuym6liiYg",
		"venue_name": "Popeyes Louisiana Kitchen",
		"latitude": 41.880137,
		"longitude": -87.790118,
		"address1": "610 Madison St",
		"address2": null,
		"address3": "",
		"city": "Oak Park",
		"state": "IL",
		"zip_code": "60302"
	},
	{
		"venue_id": "yelp_H-z6yRiJVPAXFTj6qT_zQ",
		"venue_name": "Pizza Hut",
		"latitude": 41.955737,
		"longitude": -87.804158,
		"address1": "7060 Forest Preserve Dr",
		"address2": "",
		"address3": "",
		"city": "Norridge",
		"state": "IL",
		"zip_code": "60706"
	},
	{
		"venue_id": "yelp5vs7dxV53BWE6XbMRvmhrw",
		"venue_name": "Domino's Pizza",
		"latitude": 41.85025,
		"longitude": -87.7891,
		"address1": "6613 Cermak Rd",
		"address2": "",
		"address3": "",
		"city": "Berwyn",
		"state": "IL",
		"zip_code": "60402"
	},
	{
		"venue_id": "yelpkb_ooTyh2tLjJdWKNrOqzg",
		"venue_name": "Red Snapper",
		"latitude": 41.90189,
		"longitude": -87.76614,
		"address1": "5611 W Division St",
		"address2": null,
		"address3": null,
		"city": "Chicago",
		"state": "IL",
		"zip_code": "60651"
	},
	{
		"venue_id": "yelpVipPhzCSrazW6TUVBczX4A",
		"venue_name": "Wingstop",
		"latitude": 41.96414,
		"longitude": -87.8073249,
		"address1": "4622 N Harlem Ave",
		"address2": "",
		"address3": "",
		"city": "Harwood Heights",
		"state": "IL",
		"zip_code": "60706"
	},
	{
		"venue_id": "yelpP6JsgTyM0x5XY4hPpkZstA",
		"venue_name": "KFC",
		"latitude": 41.8806,
		"longitude": -87.7561,
		"address1": "5230 W Madison St",
		"address2": "",
		"address3": "",
		"city": "Chicago",
		"state": "IL",
		"zip_code": "60644"
	},
	{
		"venue_id": "yelp2buCzOrPbuVkGWm0AUa-1g",
		"venue_name": "FireWings",
		"latitude": 41.9677026531743,
		"longitude": -87.7278566044259,
		"address1": "4749 N Pulaski Rd",
		"address2": "",
		"address3": null,
		"city": "Chicago",
		"state": "IL",
		"zip_code": "60625"
	},
	{
		"venue_id": "yelpZkTEUjtwquqi5QSGq_mwZA",
		"venue_name": "Pizza Hut",
		"latitude": 41.8515586853027,
		"longitude": -87.7507019042969,
		"address1": "5020 W Cermak Rd",
		"address2": "",
		"address3": "",
		"city": "Cicero",
		"state": "IL",
		"zip_code": "60804"
	},
	{
		"venue_id": "yelpeCRTMVEEUOcOAJ44YBSPXQ",
		"venue_name": "Wingstop",
		"latitude": 41.8210311233997,
		"longitude": -87.8026545792818,
		"address1": "3900b Harlem Ave",
		"address2": "",
		"address3": "",
		"city": "Lyons",
		"state": "IL",
		"zip_code": "60534"
	},
	{
		"venue_id": "yelpOeZPlSDj1YNLQNDpiC-SIA",
		"venue_name": "Popeyes Louisiana Kitchen",
		"latitude": 41.866056,
		"longitude": -87.712656,
		"address1": "3451 W Roosevelt Rd",
		"address2": "",
		"address3": "",
		"city": "Chicago",
		"state": "IL",
		"zip_code": "60624"
	},
	{
		"venue_id": "yelph9mj7GKTfIatHRywS8qODQ",
		"venue_name": "Wingstop",
		"latitude": 41.8500671,
		"longitude": -87.7444,
		"address1": "2240 S Cicero Ave",
		"address2": null,
		"address3": "",
		"city": "Cicero",
		"state": "IL",
		"zip_code": "60804"
	},
	{
		"venue_id": "yelpqU8e3OsrMaWnuNpjSVKtTA",
		"venue_name": "KFC",
		"latitude": 41.8801,
		"longitude": -87.7833,
		"address1": "316 Madison St",
		"address2": null,
		"address3": null,
		"city": "Oak Park",
		"state": "IL",
		"zip_code": "60302"
	},
	{
		"venue_id": "yelplBE0vAN0G-Lro1zA_WWU4Q",
		"venue_name": "Golden Hook Fish & Chicken",
		"latitude": 41.8860236156809,
		"longitude": -87.7456955239177,
		"address1": "4800 W Fulton",
		"address2": "Unit D",
		"address3": "",
		"city": "Chicago",
		"state": "IL",
		"zip_code": "60644"
	},
	{
		"venue_id": "yelpn9ahlXWRxGm7VlSI0CEl7Q",
		"venue_name": "Derno's",
		"latitude": 41.93315,
		"longitude": -87.64172,
		"address1": "506 W Diversey Pkwy",
		"address2": "",
		"address3": null,
		"city": "Chicago",
		"state": "IL",
		"zip_code": "60614"
	},
	{
		"venue_id": "yelpNyaR-vkW3MNR01oD9HxQTA",
		"venue_name": "Church's Chicken",
		"latitude": 41.80883,
		"longitude": -87.67035,
		"address1": "1808 W 47th St",
		"address2": "",
		"address3": "",
		"city": "Chicago",
		"state": "IL",
		"zip_code": "60609"
	},
	{
		"venue_id": "yelp_4RACy1-mIY4ebz69WuOQA",
		"venue_name": "Wingstop",
		"latitude": 41.85216,
		"longitude": -87.68492,
		"address1": "2344 West Cermak Rd",
		"address2": null,
		"address3": null,
		"city": "Chicago",
		"state": "IL",
		"zip_code": "60608"
	},
	{
		"venue_id": "yelp8LhUaSBf2-L-UvWb7GpHLA",
		"venue_name": "J&J fish & chicken",
		"latitude": 41.8517532,
		"longitude": -87.7239227,
		"address1": "3948 W Cermak Rd",
		"address2": null,
		"address3": "",
		"city": "Chicago",
		"state": "IL",
		"zip_code": "60623"
	},
	{
		"venue_id": "yelpv6cSq0fQMWUlEf1L02pzkw",
		"venue_name": "China Express 168",
		"latitude": 41.8168099,
		"longitude": -87.63145,
		"address1": "4248 S Wentworth Ave",
		"address2": "",
		"address3": null,
		"city": "Chicago",
		"state": "IL",
		"zip_code": "60609"
	},
	{
		"venue_id": "yelpfuanT6rE7Cg58a0trEURsQ",
		"venue_name": "Popeyes Louisiana Kitchen",
		"latitude": 41.80902,
		"longitude": -87.65972,
		"address1": "1356 W 47th St",
		"address2": null,
		"address3": null,
		"city": "Chicago",
		"state": "IL",
		"zip_code": "60609"
	},
	{
		"venue_id": "yelpZ_rls2s4_wzZ_rd2fVWtoA",
		"venue_name": "Popeyes Louisiana Kitchen",
		"latitude": 41.8508716,
		"longitude": -87.7431532,
		"address1": "4773 W Cermak Rd",
		"address2": "",
		"address3": "",
		"city": "Cicero",
		"state": "IL",
		"zip_code": "60804"
	},
	{
		"venue_id": "yelpvU97Fr6onHDZyEpjsPzpgA",
		"venue_name": "KFC",
		"latitude": 41.8508,
		"longitude": -87.7786,
		"address1": "6200 Cermak Rd",
		"address2": "",
		"address3": "",
		"city": "Berwyn",
		"state": "IL",
		"zip_code": "60402"
	},
	{
		"venue_id": "yelplFNbdXFcbD2Ti5rsU-89hw",
		"venue_name": "KFC",
		"latitude": 41.8418,
		"longitude": -87.7436,
		"address1": "2823 S Cicero Ave",
		"address2": "",
		"address3": "",
		"city": "Cicero",
		"state": "IL",
		"zip_code": "60804"
	},
	{
		"venue_id": "yelpXtO1Z5nYoQzk68L5Ny-RDg",
		"venue_name": "KFC",
		"latitude": 41.8243,
		"longitude": -87.8014,
		"address1": "7135 Ogden Ave",
		"address2": "",
		"address3": "",
		"city": "Berwyn",
		"state": "IL",
		"zip_code": "60402"
	},
	{
		"venue_id": "yelpxnrDkaNv1rchP_yw6V7lTA",
		"venue_name": "Popeyes Louisiana Kitchen",
		"latitude": 41.9567157,
		"longitude": -87.8073949,
		"address1": "4142 N Harlem Ave",
		"address2": null,
		"address3": null,
		"city": "Norridge",
		"state": "IL",
		"zip_code": "60706"
	}
]