[
	{
		"venue_id": "yelpeUlykGltBGH0RC5lkwx2eg",
		"venue_name": "Honey Butter Fried Chicken",
		"latitude": 41.9426302817062,
		"longitude": -87.7027218416333,
		"address1": "3361 N Elston Ave",
		"address2": "",
		"address3": "",
		"city": "Chicago",
		"state": "IL",
		"zip_code": "60618"
	},
	{
		"venue_id": "yelp0hk0dnOxW3axag0xwlwGKQ",
		"venue_name": "Papa's Cache Sabroso",
		"latitude": 41.90268,
		"longitude": -87.6902,
		"address1": "2517 W Division St",
		"address2": "",
		"address3": "",
		"city": "Chicago",
		"state": "IL",
		"zip_code": "60622"
	},
	{
		"venue_id": "yelpTQp4_qJFrn_aO6Y1IOZgCg",
		"venue_name": "Gus's World Famous Fried Chicken",
		"latitude": 41.8866488028888,
		"longitude": -87.6494031537698,
		"address1": "847 W Fulton Market",
		"address2": "",
		"address3": "",
		"city": "Chicago",
		"state": "IL",
		"zip_code": "60607"
	},
	{
		"venue_id": "yelpwl-48uPlP-7RTC1p7sJEyw",
		"venue_name": "Nando's PERi-PERi",
		"latitude": 41.8840715,
		"longitude": -87.6513439,
		"address1": "953 W Randolph St",
		"address2": "",
		"address3": "",
		"city": "Chicago",
		"state": "IL",
		"zip_code": "60607"
	},
	{
		"venue_id": "yelpp_tOKdAg5rlyVYRCkmVPCA",
		"venue_name": "Chicken Planet",
		"latitude": 41.876749,
		"longitude": -87.633383,
		"address1": "177 W Van Buren St",
		"address2": "",
		"address3": "",
		"city": "Chicago",
		"state": "IL",
		"zip_code": "60605"
	},
	{
		"venue_id": "yelpnlzCOQG-8oKBOGMMtbreTg",
		"venue_name": "Nando's PERi-PERi",
		"latitude": 41.8812209,
		"longitude": -87.6263332,
		"address1": "22 S Wabash Ave",
		"address2": "Ste B1",
		"address3": "",
		"city": "Chicago",
		"state": "IL",
		"zip_code": "60603"
	},
	{
		"venue_id": "yelp8VMNhH7CDY3Mb1Rha4psjg",
		"venue_name": "Ms. T's Southern Fried Chicken",
		"latitude": 41.94299,
		"longitude": -87.64437,
		"address1": "3343 N Broadway",
		"address2": "",
		"address3": "",
		"city": "Chicago",
		"state": "IL",
		"zip_code": "60657"
	},
	{
		"venue_id": "yelp1pPJ0QRipdFEx-qeu6CNKA",
		"venue_name": "The Budlong Hot Chicken",
		"latitude": 41.9182862,
		"longitude": -87.6539105,
		"address1": "1008 W Armitage",
		"address2": "",
		"address3": "",
		"city": "Chicago",
		"state": "IL",
		"zip_code": "60614"
	},
	{
		"venue_id": "yelp4OF7gij3pj8f-haNC-WLqA",
		"venue_name": "Nando's PERi-PERi",
		"latitude": 41.93303,
		"longitude": -87.64639,
		"address1": "670 W Diversey Pkwy",
		"address2": "",
		"address3": "",
		"city": "Chicago",
		"state": "IL",
		"zip_code": "60614"
	},
	{
		"venue_id": "yelprKdhYSnzpMoY582ZeqP4LQ",
		"venue_name": "Nando's PERi-PERi",
		"latitude": 41.8931121826172,
		"longitude": -87.6216278076172,
		"address1": "227 E Ontario St",
		"address2": "",
		"address3": null,
		"city": "Chicago",
		"state": "IL",
		"zip_code": "60611"
	},
	{
		"venue_id": "yelpdnEgDQuPgkfpwE2gzTUEVA",
		"venue_name": "Nando's PERi-PERi",
		"latitude": 41.8695655542612,
		"longitude": -87.6324513949254,
		"address1": "1005 S Delano Ct E",
		"address2": "Ste F126C",
		"address3": null,
		"city": "Chicago",
		"state": "IL",
		"zip_code": "60605"
	},
	{
		"venue_id": "yelpOVULIB0J2lRgw-ytNFcNGQ",
		"venue_name": "Troha's Chicken & Shrimp House",
		"latitude": 41.843903,
		"longitude": -87.728962,
		"address1": "4151 W 26th St",
		"address2": "",
		"address3": "",
		"city": "Chicago",
		"state": "IL",
		"zip_code": "60623"
	},
	{
		"venue_id": "yelp9AXJmehEJ3hZqL2lmLeP5Q",
		"venue_name": "Nando's PERi-PERi",
		"latitude": 41.9082411,
		"longitude": -87.646727,
		"address1": "1500 N Clybourn Ave",
		"address2": "Ste C106",
		"address3": "",
		"city": "Chicago",
		"state": "IL",
		"zip_code": "60610"
	},
	{
		"venue_id": "yelpk1VobLvWkn0magmj7KYfeg",
		"venue_name": "Boxcar Betty's",
		"latitude": 41.88235,
		"longitude": -87.6404699,
		"address1": "500 W Madison St",
		"address2": "",
		"address3": null,
		"city": "Chicago",
		"state": "IL",
		"zip_code": "60661"
	},
	{
		"venue_id": "yelpE4viDrgaOn_0yTtPYOYw1Q",
		"venue_name": "The Budlong - Revival Food Hall",
		"latitude": 41.8799369,
		"longitude": -87.6306651,
		"address1": "125 S Clark St",
		"address2": "",
		"address3": null,
		"city": "Chicago",
		"state": "IL",
		"zip_code": "60603"
	},
	{
		"venue_id": "yelpjVgAKYcXZph6ILNcVzRzuQ",
		"venue_name": "Nando's PERi-PERi",
		"latitude": 41.885547,
		"longitude": -87.624253,
		"address1": "117 E Lake St",
		"address2": "",
		"address3": null,
		"city": "Chicago",
		"state": "IL",
		"zip_code": "60601"
	},
	{
		"venue_id": "yelp324_scbyhjeo93vyN8xrkA",
		"venue_name": "Nick's Pit Stop",
		"latitude": 41.91847,
		"longitude": -87.67728,
		"address1": "2023 N Damen Ave",
		"address2": "",
		"address3": "",
		"city": "Chicago",
		"state": "IL",
		"zip_code": "60647"
	},
	{
		"venue_id": "yelpyn2GB3E3Ty4GIyOwh_mKig",
		"venue_name": "Bonchon - Division St.",
		"latitude": 41.9035571734286,
		"longitude": -87.6712457835674,
		"address1": "1732 W Division St",
		"address2": "",
		"address3": null,
		"city": "Chicago",
		"state": "IL",
		"zip_code": "60622"
	},
	{
		"venue_id": "yelp4gim1lsytnX8oTb3ELmELQ",
		"venue_name": "Hangry's",
		"latitude": 41.92448,
		"longitude": -87.75144,
		"address1": "5000 W Fullerton",
		"address2": null,
		"address3": "",
		"city": "Chicago",
		"state": "IL",
		"zip_code": "60639"
	},
	{
		"venue_id": "yelpH8Zh-zmwBl0A9pNVVK76Cg",
		"venue_name": "Harold's Chicken West Loop",
		"latitude": 41.8812799,
		"longitude": -87.6650499,
		"address1": "1501 W Madison St",
		"address2": null,
		"address3": "",
		"city": "Chicago",
		"state": "IL",
		"zip_code": "60607"
	},
	{
		"venue_id": "yelpVrzgMSrRLcLK9500bKaUxg",
		"venue_name": "Big City Chicken",
		"latitude": 41.8912722664407,
		"longitude": -87.6081091403279,
		"address1": "700 E Grand Ave",
		"address2": "",
		"address3": "",
		"city": "Chicago",
		"state": "IL",
		"zip_code": "60611"
	},
	{
		"venue_id": "yelp_YW_Hf6wgpfT6aL7-jOMGA",
		"venue_name": "Broasted Chicken Royal",
		"latitude": 41.96793,
		"longitude": -87.77596,
		"address1": "5930 W Lawrence Ave",
		"address2": "",
		"address3": "",
		"city": "Chicago",
		"state": "IL",
		"zip_code": "60630"
	},
	{
		"venue_id": "yelpL949H0B_VD-Qng5wjZpWeQ",
		"venue_name": "Nando's PERi-PERi",
		"latitude": 41.8888548,
		"longitude": -87.8042626,
		"address1": "1138 Lake St",
		"address2": "",
		"address3": "",
		"city": "OakPark",
		"state": "IL",
		"zip_code": "60301"
	},
	{
		"venue_id": "yelpHcfOniLGjjpLeiYheodB9w",
		"venue_name": "Harold's Chicken Shack",
		"latitude": 41.8531484769648,
		"longitude": -87.623882038623,
		"address1": "2132 Michigan Ave",
		"address2": "",
		"address3": "",
		"city": "Chicago",
		"state": "IL",
		"zip_code": "60616"
	},
	{
		"venue_id": "yelpFyiYRpJd7tEZy-d58_fh9A",
		"venue_name": "KFC",
		"latitude": 41.9538,
		"longitude": -87.6986,
		"address1": "2807 W Irving Park Rd",
		"address2": "",
		"address3": "",
		"city": "Chicago",
		"state": "IL",
		"zip_code": "60618"
	},
	{
		"venue_id": "yelprL1qCkOL320YLMMuUiImlw",
		"venue_name": "KFC",
		"latitude": 41.9691,
		"longitude": -87.655,
		"address1": "4804 N Sheridan Rd",
		"address2": "",
		"address3": "",
		"city": "Chicago",
		"state": "IL",
		"zip_code": "60640"
	},
	{
		"venue_id": "yelpZxGS79xZxs8E4gSAHyoG1w",
		"venue_name": "KFC",
		"latitude": 41.8669568869465,
		"longitude": -87.6863112001564,
		"address1": "1144 S Western Ave",
		"address2": "",
		"address3": "",
		"city": "Chicago",
		"state": "IL",
		"zip_code": "60612"
	},
	{
		"venue_id": "yelpqyJGZfPjfq8xgTqiFp7V1Q",
		"venue_name": "MIMI'S",
		"latitude": 41.9028559734445,
		"longitude": -87.7209088951349,
		"address1": "3748 W Division",
		"address2": "",
		"address3": "",
		"city": "Chicago",
		"state": "IL",
		"zip_code": "60651"
	},
	{
		"venue_id": "yelp40JxmEYHfgO_Bc1VH1ELpg",
		"venue_name": "KFC",
		"latitude": 42.00362,
		"longitude": -87.69013,
		"address1": "6732 N Western Ave",
		"address2": null,
		"address3": null,
		"city": "Chicago",
		"state": "IL",
		"zip_code": "60645"
	},
	{
		"venue_id": "yelp8Mlal87EojIecsOPQgMiNw",
		"venue_name": "JJ Fish & Chicken",
		"latitude": 41.896669,
		"longitude": -87.706835,
		"address1": "800 N Kedzie Ave",
		"address2": "",
		"address3": "",
		"city": "Chicago",
		"state": "IL",
		"zip_code": "60651"
	},
	{
		"venue_id": "yelp0RLDxKt1SfcLXlD8Sp9aIQ",
		"venue_name": "KFC",
		"latitude": 41.9241,
		"longitude": -87.7444,
		"address1": "4715 W Fullerton Ave",
		"address2": "",
		"address3": "",
		"city": "Chicago",
		"state": "IL",
		"zip_code": "60639"
	},
	{
		"venue_id": "yelpumdoU9hURaXAjIzE0tNWfA",
		"venue_name": "KFC",
		"latitude": 41.990091,
		"longitude": -87.713825,
		"address1": "3357 W Peterson Ave",
		"address2": "",
		"address3": "",
		"city": "Chicago",
		"state": "IL",
		"zip_code": "60659"
	},
	{
		"venue_id": "yelp0rBeg6iN8gQrshzNuIhniw",
		"venue_name": "KFC",
		"latitude": 41.9453,
		"longitude": -87.7471,
		"address1": "3536 N Cicero Ave",
		"address2": "",
		"address3": "",
		"city": "Chicago",
		"state": "IL",
		"zip_code": "60641"
	},
	{
		"venue_id": "yelplGegttyBxzrtq13NjfEC1w",
		"venue_name": "KFC",
		"latitude": 41.9513,
		"longitude": -87.807,
		"address1": "3927 N Harlem Ave",
		"address2": "",
		"address3": "",
		"city": "Chicago",
		"state": "IL",
		"zip_code": "60634"
	},
	{
		"venue_id": "yelp_G-wi4zJz5WjI_iwzhUSNA",
		"venue_name": "KFC",
		"latitude": 41.8312,
		"longitude": -87.6193,
		"address1": "300 E 35th St",
		"address2": null,
		"address3": null,
		"city": "Chicago",
		"state": "IL",
		"zip_code": "60616"
	},
	{
		"venue_id": "yelp5AfHTvp-T9JwHBJ1gupJ2A",
		"venue_name": "KFC",
		"latitude": 41.8847,
		"longitude": -87.6309,
		"address1": "100 W Randolph",
		"address2": "James R. Thompson Center, Great State Fare Food Court",
		"address3": "",
		"city": "Chicago",
		"state": "IL",
		"zip_code": "60601"
	},
	{
		"venue_id": "yelpkLVT9hvGfSMNIp5Xe_t9Hw",
		"venue_name": "KFC",
		"latitude": 41.8268,
		"longitude": -87.6838,
		"address1": "3696 S Archer Ave",
		"address2": "",
		"address3": "",
		"city": "Chicago",
		"state": "IL",
		"zip_code": "60609"
	},
	{
		"venue_id": "yelpgQWQ8q3sTY68JgvYVxoPrA",
		"venue_name": "KFC",
		"latitude": 41.9095002,
		"longitude": -87.7764,
		"address1": "6034 W N Ave",
		"address2": "",
		"address3": "",
		"city": "Chicago",
		"state": "IL",
		"zip_code": "60639"
	},
	{
		"venue_id": "yelpP6JsgTyM0x5XY4hPpkZstA",
		"venue_name": "KFC",
		"latitude": 41.8806,
		"longitude": -87.7561,
		"address1": "5230 W Madison St",
		"address2": "",
		"address3": "",
		"city": "Chicago",
		"state": "IL",
		"zip_code": "60644"
	},
	{
		"venue_id": "yelpqU8e3OsrMaWnuNpjSVKtTA",
		"venue_name": "KFC",
		"latitude": 41.8801,
		"longitude": -87.7833,
		"address1": "316 Madison St",
		"address2": null,
		"address3": null,
		"city": "Oak Park",
		"state": "IL",
		"zip_code": "60302"
	},
	{
		"venue_id": "yelpLfm_4i4Oitj9e74nolBaJQ",
		"venue_name": "Church's Chicken",
		"latitude": 41.88814,
		"longitude": -87.77475,
		"address1": "431 N Austin",
		"address2": "",
		"address3": "",
		"city": "Chicago",
		"state": "IL",
		"zip_code": "60644"
	},
	{
		"venue_id": "yelpvU97Fr6onHDZyEpjsPzpgA",
		"venue_name": "KFC",
		"latitude": 41.8508,
		"longitude": -87.7786,
		"address1": "6200 Cermak Rd",
		"address2": "",
		"address3": "",
		"city": "Berwyn",
		"state": "IL",
		"zip_code": "60402"
	},
	{
		"venue_id": "yelplFNbdXFcbD2Ti5rsU-89hw",
		"venue_name": "KFC",
		"latitude": 41.8418,
		"longitude": -87.7436,
		"address1": "2823 S Cicero Ave",
		"address2": "",
		"address3": "",
		"city": "Cicero",
		"state": "IL",
		"zip_code": "60804"
	},
	{
		"venue_id": "yelpXtO1Z5nYoQzk68L5Ny-RDg",
		"venue_name": "KFC",
		"latitude": 41.8243,
		"longitude": -87.8014,
		"address1": "7135 Ogden Ave",
		"address2": "",
		"address3": "",
		"city": "Berwyn",
		"state": "IL",
		"zip_code": "60402"
	},
	{
		"venue_id": "yelpoyP078_oEBepAWR86RyM6g",
		"venue_name": "El Se\u00f1or Pollo Asado",
		"latitude": 41.8507521584244,
		"longitude": -87.7657676675632,
		"address1": "5639 W Cermak Rd",
		"address2": "",
		"address3": null,
		"city": "Cicero",
		"state": "IL",
		"zip_code": "60804"
	}
]