[
	{
		"venue_id": "yelps1JPKx5lAeoq7QU8pmN-5A",
		"venue_name": "MingHin Cuisine",
		"latitude": 41.8532564325305,
		"longitude": -87.6349026829699,
		"address1": "2168 S Archer Ave",
		"address2": "",
		"address3": "",
		"city": "Chicago",
		"state": "IL",
		"zip_code": "60616"
	},
	{
		"venue_id": "yelpKomhK0JD5cleEW55YTw7MQ",
		"venue_name": "Sun Wah Bar-B-Que",
		"latitude": 41.97396,
		"longitude": -87.65919,
		"address1": "5041 N Broadway",
		"address2": "",
		"address3": "",
		"city": "Chicago",
		"state": "IL",
		"zip_code": "60640"
	},
	{
		"venue_id": "yelpOSyGZMwCI9w_0BbQtH-kCw",
		"venue_name": "Duck Duck Goat",
		"latitude": 41.8866557616734,
		"longitude": -87.6497170813778,
		"address1": "857 W Fulton Market",
		"address2": "",
		"address3": "",
		"city": "Chicago",
		"state": "IL",
		"zip_code": "60607"
	},
	{
		"venue_id": "yelpBwoMqO_x_FRT949HOAtCEw",
		"venue_name": "Chi Cafe",
		"latitude": 41.85351,
		"longitude": -87.63448,
		"address1": "2160 S Archer Ave",
		"address2": "Ste A",
		"address3": "",
		"city": "Chicago",
		"state": "IL",
		"zip_code": "60616"
	},
	{
		"venue_id": "yelpuVYkk8dsnSMSd6xMGGoGTw",
		"venue_name": "Fat Rice",
		"latitude": 41.9319451,
		"longitude": -87.7017382,
		"address1": "2957 W Diversey Ave",
		"address2": "",
		"address3": "",
		"city": "Chicago",
		"state": "IL",
		"zip_code": "60647"
	},
	{
		"venue_id": "yelp0LxN36awD48RfrBJGl2BYg",
		"venue_name": "Imperial Lamian",
		"latitude": 41.8901808541776,
		"longitude": -87.6281682718002,
		"address1": "6 W Hubbard St",
		"address2": "",
		"address3": "",
		"city": "Chicago",
		"state": "IL",
		"zip_code": "60654"
	},
	{
		"venue_id": "yelpT_egMuf7xJHLdldzPqOaSQ",
		"venue_name": "Qing Xiang Yuan Dumplings",
		"latitude": 41.85505,
		"longitude": -87.63219,
		"address1": "2002 S Wentworth Ave",
		"address2": "Ste 103",
		"address3": "",
		"city": "Chicago",
		"state": "IL",
		"zip_code": "60616"
	},
	{
		"venue_id": "yelp7FRba2yDi9uWlSBvahRmEw",
		"venue_name": "MingHin Cuisine",
		"latitude": 41.8851133316306,
		"longitude": -87.6191340577136,
		"address1": "333 E Benton Pl",
		"address2": "Ste 300",
		"address3": "",
		"city": "Chicago",
		"state": "IL",
		"zip_code": "60601"
	},
	{
		"venue_id": "yelpaZqKMhhy_dbQlGTQ91YSbw",
		"venue_name": "Go 4 Food",
		"latitude": 41.851085,
		"longitude": -87.6326203,
		"address1": "212 W 23rd St",
		"address2": null,
		"address3": "",
		"city": "Chicago",
		"state": "IL",
		"zip_code": "60616"
	},
	{
		"venue_id": "yelp4-uKJdGyT0iZmu3rbSDwBw",
		"venue_name": "Great Sea Chinese Restaurant",
		"latitude": 41.9687,
		"longitude": -87.71065,
		"address1": "3254 W Lawrence Ave",
		"address2": "",
		"address3": "",
		"city": "Chicago",
		"state": "IL",
		"zip_code": "60625"
	},
	{
		"venue_id": "yelpyBRaSkuYwFhYEoucDyD0lA",
		"venue_name": "Lao Sze Chuan",
		"latitude": 41.85328,
		"longitude": -87.63495,
		"address1": "2172 S Archer Ave",
		"address2": "",
		"address3": "",
		"city": "Chicago",
		"state": "IL",
		"zip_code": "60616"
	},
	{
		"venue_id": "yelpc-33j2eSYNCppwBVLUFpzg",
		"venue_name": "Yummy Yummy Asian Cuisine",
		"latitude": 41.9351256288396,
		"longitude": -87.6440628857616,
		"address1": "2901 N Broadway St",
		"address2": null,
		"address3": "",
		"city": "Chicago",
		"state": "IL",
		"zip_code": "60657"
	},
	{
		"venue_id": "yelp3NV3TTsKGqW1WEbEQv_yBA",
		"venue_name": "Chengdu Impression",
		"latitude": 41.9286079,
		"longitude": -87.648514,
		"address1": "2545 N Halsted St",
		"address2": "",
		"address3": "",
		"city": "Chicago",
		"state": "IL",
		"zip_code": "60614"
	},
	{
		"venue_id": "yelp9WqiX6CdZxg1ju8EjReVkQ",
		"venue_name": "Little Sheep Mongolian Hot Pot",
		"latitude": 41.8498034592167,
		"longitude": -87.6320048336464,
		"address1": "2342 S Wentworth Ave",
		"address2": null,
		"address3": "",
		"city": "Chicago",
		"state": "IL",
		"zip_code": "60616"
	},
	{
		"venue_id": "yelpeHpf-vadyWIK23bdK67IXA",
		"venue_name": "Dolo Restaurant and Bar",
		"latitude": 41.85256,
		"longitude": -87.63604,
		"address1": "2222 S Archer Ave",
		"address2": "",
		"address3": "",
		"city": "Chicago",
		"state": "IL",
		"zip_code": "60616"
	},
	{
		"venue_id": "yelpTjPPHjSDJwrFWvG1W3drtw",
		"venue_name": "Shanghai Terrace",
		"latitude": 41.89624,
		"longitude": -87.62497,
		"address1": "108 E Superior St",
		"address2": "",
		"address3": "",
		"city": "Chicago",
		"state": "IL",
		"zip_code": "60611"
	},
	{
		"venue_id": "yelpQG6k8viDLaAf5WBIytthDA",
		"venue_name": "Jess Cafe",
		"latitude": 41.93825,
		"longitude": -87.77216,
		"address1": "5819 W Belmont Ave",
		"address2": "",
		"address3": "",
		"city": "Chicago",
		"state": "IL",
		"zip_code": "60634"
	},
	{
		"venue_id": "yelpEVQUygqTpgwJnvoHctJ8jw",
		"venue_name": "Chiu Quon Bakery and Dim Sum",
		"latitude": 41.85139,
		"longitude": -87.63161,
		"address1": "2253 S Wentworth Ave",
		"address2": "",
		"address3": "",
		"city": "Chicago",
		"state": "IL",
		"zip_code": "60616"
	},
	{
		"venue_id": "yelpaOGt6tVmHtElMSupeAj9Tg",
		"venue_name": "WJ Noodles",
		"latitude": 41.8780711,
		"longitude": -87.6477205,
		"address1": "810 W Jackson Blvd",
		"address2": "",
		"address3": null,
		"city": "Chicago",
		"state": "IL",
		"zip_code": "60607"
	},
	{
		"venue_id": "yelpNSQ-hexS7EpP5e_wlKt81g",
		"venue_name": "Triple Crown Restaurant",
		"latitude": 41.852477,
		"longitude": -87.6318687435513,
		"address1": "2217 S Wentworth Ave",
		"address2": "",
		"address3": "",
		"city": "Chicago",
		"state": "IL",
		"zip_code": "60616"
	},
	{
		"venue_id": "yelpW4dwdmpUAZFv2hsUOcZOnA",
		"venue_name": "Big Bowl",
		"latitude": 41.892629,
		"longitude": -87.6261317,
		"address1": "60 E Ohio St",
		"address2": "",
		"address3": null,
		"city": "Chicago",
		"state": "IL",
		"zip_code": "60611"
	},
	{
		"venue_id": "yelpaKF6myBnEnm2llSofy3dew",
		"venue_name": "Wow Bao",
		"latitude": 41.8979009401519,
		"longitude": -87.6237559318542,
		"address1": "835 N Michigan Ave",
		"address2": "",
		"address3": "Lobby Level",
		"city": "Chicago",
		"state": "IL",
		"zip_code": "60611"
	},
	{
		"venue_id": "yelpHAXPZ2zKHLQ5OtkA05e3NA",
		"venue_name": "Chiu Quon Bakery",
		"latitude": 41.97302,
		"longitude": -87.6588699,
		"address1": "1127 W Argyle St",
		"address2": "",
		"address3": "",
		"city": "Chicago",
		"state": "IL",
		"zip_code": "60640"
	},
	{
		"venue_id": "yelp0PPM0wxA2r8XVM8vbMm9Pw",
		"venue_name": "MCCB Chicago \u65f6\u5c1a\u98df\u8c31",
		"latitude": 41.8539,
		"longitude": -87.63365,
		"address1": "2138 South Archer Ave",
		"address2": null,
		"address3": "",
		"city": "Chicago",
		"state": "IL",
		"zip_code": "60616"
	},
	{
		"venue_id": "yelp0F80pfvLYzKdHhSakhbYAg",
		"venue_name": "Min's Noodle House\u6e14\u5bb6\u91cd\u5e86\u5c0f\u9762",
		"latitude": 41.8353899,
		"longitude": -87.64586,
		"address1": "3235 S Halsted St",
		"address2": null,
		"address3": "",
		"city": "Chicago",
		"state": "IL",
		"zip_code": "60608"
	},
	{
		"venue_id": "yelph_fKxtXwqvZx2CZSt8YbmQ",
		"venue_name": "Friendship Chinese Restaurant",
		"latitude": 41.9324798583984,
		"longitude": -87.7135467529297,
		"address1": "2830 N Milwaukee Ave",
		"address2": "",
		"address3": "",
		"city": "Chicago",
		"state": "IL",
		"zip_code": "60618"
	},
	{
		"venue_id": "yelpb03cgB8GM7J3TjwOA0BGSg",
		"venue_name": "Hoanh Long",
		"latitude": 41.9937279,
		"longitude": -87.7133513,
		"address1": "6150 N Lincoln Ave",
		"address2": "",
		"address3": "",
		"city": "Chicago",
		"state": "IL",
		"zip_code": "60659"
	},
	{
		"venue_id": "yelpTd-uLb5BUifr7Su-eKKqyw",
		"venue_name": "Lao Sze Chuan",
		"latitude": 41.8914408,
		"longitude": -87.6243185,
		"address1": "520 N Michigan Ave",
		"address2": "Ste 420",
		"address3": "",
		"city": "Chicago",
		"state": "IL",
		"zip_code": "60611"
	},
	{
		"venue_id": "yelp_xRAgS41XcT4eoJ5BAW7Pg",
		"venue_name": "Phoenix Restaurant",
		"latitude": 41.8534698486328,
		"longitude": -87.6329345703125,
		"address1": "2131 S Archer Ave",
		"address2": "",
		"address3": "",
		"city": "Chicago",
		"state": "IL",
		"zip_code": "60616"
	},
	{
		"venue_id": "yelp7Ees_Pd8ehKBMAtFzjPpyQ",
		"venue_name": "Wow Bao",
		"latitude": 41.8859149826022,
		"longitude": -87.6282665232788,
		"address1": "1 W Wacker Dr",
		"address2": "Ste 107",
		"address3": "",
		"city": "Chicago",
		"state": "IL",
		"zip_code": "60601"
	},
	{
		"venue_id": "yelpCWPxh2qAN-JwD_eQXfPwjA",
		"venue_name": "Han 202",
		"latitude": 41.837927,
		"longitude": -87.641755,
		"address1": "605 W 31st St",
		"address2": "",
		"address3": "",
		"city": "Chicago",
		"state": "IL",
		"zip_code": "60616"
	},
	{
		"venue_id": "yelpXa9SjCN4tiUCnpaZl8OzAg",
		"venue_name": "Hing Kee Restaurant",
		"latitude": 41.853948,
		"longitude": -87.633651,
		"address1": "2140 S Archer Ave",
		"address2": "",
		"address3": "",
		"city": "Chicago",
		"state": "IL",
		"zip_code": "60616"
	},
	{
		"venue_id": "yelpBMVKZPiG7q5_9m6cQF1Iyg",
		"venue_name": "Joy Yee's Noodle Shop",
		"latitude": 41.8643301355842,
		"longitude": -87.6467004576721,
		"address1": "1335 S Halsted St",
		"address2": null,
		"address3": "",
		"city": "Chicago",
		"state": "IL",
		"zip_code": "60608"
	},
	{
		"venue_id": "yelpQz5uN801Hx2cFrfI7sggoQ",
		"venue_name": "MAK Restaurant",
		"latitude": 41.9032611,
		"longitude": -87.6759818,
		"address1": "1924 W Division St",
		"address2": "",
		"address3": "",
		"city": "Chicago",
		"state": "IL",
		"zip_code": "60622"
	},
	{
		"venue_id": "yelp8Me8vpBSJJyB0N6S68UJWw",
		"venue_name": "Ping Pong",
		"latitude": 41.9424108,
		"longitude": -87.6446454,
		"address1": "3322 N Broadway St",
		"address2": "",
		"address3": "",
		"city": "Chicago",
		"state": "IL",
		"zip_code": "60657"
	},
	{
		"venue_id": "yelpxT_ZLdD5JSZol2PLfPijiw",
		"venue_name": "Homestyle Taste",
		"latitude": 41.8360011536387,
		"longitude": -87.6459531784058,
		"address1": "3205 S Halsted St",
		"address2": "",
		"address3": "",
		"city": "Chicago",
		"state": "IL",
		"zip_code": "60608"
	},
	{
		"venue_id": "yelp4R23-oaCFprfR7aSEBLlig",
		"venue_name": "Cai",
		"latitude": 41.85454,
		"longitude": -87.63225,
		"address1": "2100 S Archer Ave",
		"address2": "Ste 2F",
		"address3": "",
		"city": "Chicago",
		"state": "IL",
		"zip_code": "60616"
	},
	{
		"venue_id": "yelpEks_FayD0L98im7tRPL0Xg",
		"venue_name": "Ken Kee Restaurant",
		"latitude": 41.8543853759766,
		"longitude": -87.6333236694336,
		"address1": "2129 S China Pl",
		"address2": "Ste A",
		"address3": "",
		"city": "Chicago",
		"state": "IL",
		"zip_code": "60616"
	},
	{
		"venue_id": "yelpRBRmn-lk0R6bgvqXeNqT3w",
		"venue_name": "Shanghai Inn",
		"latitude": 41.967647,
		"longitude": -87.679002,
		"address1": "4723 N Damen Ave",
		"address2": "",
		"address3": "",
		"city": "Chicago",
		"state": "IL",
		"zip_code": "60625"
	},
	{
		"venue_id": "yelpGUF_eoOX6YMWjzoUeMnECw",
		"venue_name": "Potsticker House",
		"latitude": 41.836894,
		"longitude": -87.645896,
		"address1": "3139 S Halsted St",
		"address2": null,
		"address3": "",
		"city": "Chicago",
		"state": "IL",
		"zip_code": "60608"
	},
	{
		"venue_id": "yelp9-wt77qJQbtxYCp8t5iRLg",
		"venue_name": "Hon Kee Restaurant",
		"latitude": 41.97349,
		"longitude": -87.65826,
		"address1": "1064 W Argyle St",
		"address2": "",
		"address3": "",
		"city": "Chicago",
		"state": "IL",
		"zip_code": "60640"
	},
	{
		"venue_id": "yelpsAOFX9cfMm4w2iZN7A8ziw",
		"venue_name": "Golden Bull Restaurant",
		"latitude": 41.85324,
		"longitude": -87.63347,
		"address1": "242 W Cermak Rd",
		"address2": "",
		"address3": "",
		"city": "Chicago",
		"state": "IL",
		"zip_code": "60616"
	},
	{
		"venue_id": "yelpzlvkbqkgYun3sqs02Sqyig",
		"venue_name": "House of Wah Sun",
		"latitude": 41.9601,
		"longitude": -87.68253,
		"address1": "4319 N Lincoln Ave",
		"address2": "",
		"address3": "",
		"city": "Chicago",
		"state": "IL",
		"zip_code": "60618"
	},
	{
		"venue_id": "yelpAWfz3Pte-rtbsjMnWJBb5A",
		"venue_name": "Yummy Yummy Noodles",
		"latitude": 41.849921,
		"longitude": -87.632384,
		"address1": "2334 S Wentworth",
		"address2": "Unit 105",
		"address3": "",
		"city": "Chicago",
		"state": "IL",
		"zip_code": "60616"
	},
	{
		"venue_id": "yelpkVQL97svePu8-thJPK3A1w",
		"venue_name": "Saint Anna Bakery & Cafe",
		"latitude": 41.85354,
		"longitude": -87.63441,
		"address1": "2158 S Archer Ave",
		"address2": "",
		"address3": "",
		"city": "Chicago",
		"state": "IL",
		"zip_code": "60616"
	},
	{
		"venue_id": "yelpWjezqZkjqN44OgS14wRo5Q",
		"venue_name": "Emperor's Choice Restaurant",
		"latitude": 41.8517417907715,
		"longitude": -87.6322784423828,
		"address1": "2238 S Wentworth Ave",
		"address2": "",
		"address3": "",
		"city": "Chicago",
		"state": "IL",
		"zip_code": "60616"
	},
	{
		"venue_id": "yelp4xQ7x-Td1nFshx7J0Bd6pw",
		"venue_name": "Peking Mandarin",
		"latitude": 41.9682451,
		"longitude": -87.7151227,
		"address1": "3459 W Lawrence Ave",
		"address2": "",
		"address3": "",
		"city": "Chicago",
		"state": "IL",
		"zip_code": "60625"
	},
	{
		"venue_id": "yelp3QMf_Zi8ZpmAZ4QTbs3HjA",
		"venue_name": "Dee's Mandarin & Sushi Lounge",
		"latitude": 41.9183311462402,
		"longitude": -87.6560592651367,
		"address1": "1114 W Armitage Ave",
		"address2": "",
		"address3": "",
		"city": "Chicago",
		"state": "IL",
		"zip_code": "60614"
	},
	{
		"venue_id": "yelpzsL_VMONkLJjykXejIE8Gw",
		"venue_name": "Hot Woks Cool Sushi",
		"latitude": 41.9528312683105,
		"longitude": -87.7278366088867,
		"address1": "3930 N Pulaski Rd",
		"address2": "",
		"address3": "",
		"city": "Chicago",
		"state": "IL",
		"zip_code": "60641"
	},
	{
		"venue_id": "yelpI3BBgEJGNXX8rAlSUOTF2Q",
		"venue_name": "Furama Restaurant",
		"latitude": 41.9719356,
		"longitude": -87.6599421,
		"address1": "4936 N Broadway St",
		"address2": "",
		"address3": "",
		"city": "Chicago",
		"state": "IL",
		"zip_code": "60640"
	},
	{
		"venue_id": "yelp7TneEDpP-ntW30eNuVbTIQ",
		"venue_name": "Young's Chinese Restaurant",
		"latitude": 41.95389,
		"longitude": -87.66867,
		"address1": "3949 N Ashland Ave",
		"address2": null,
		"address3": "",
		"city": "Chicago",
		"state": "IL",
		"zip_code": "60613"
	},
	{
		"venue_id": "yelpUPflj0Zi1PKugkB2NnXCog",
		"venue_name": "Dong Ky Chinese & Vietnamese Restaurant",
		"latitude": 41.97061,
		"longitude": -87.65882,
		"address1": "4877 N Broadway St",
		"address2": "",
		"address3": "",
		"city": "Chicago",
		"state": "IL",
		"zip_code": "60640"
	},
	{
		"venue_id": "yelpxRMdNT0cNJjlAKtlcNOOpA",
		"venue_name": "P.F. Chang's",
		"latitude": 41.8919052750496,
		"longitude": -87.6269987225533,
		"address1": "530 N Wabash Ave",
		"address2": "",
		"address3": "",
		"city": "Chicago",
		"state": "IL",
		"zip_code": "60611"
	},
	{
		"venue_id": "yelphNChaYybUb2pNpqtVq5wYQ",
		"venue_name": "Moon Palace Restaurant",
		"latitude": 41.853212,
		"longitude": -87.63252,
		"address1": "216 W Cermak Rd",
		"address2": "",
		"address3": "",
		"city": "Chicago",
		"state": "IL",
		"zip_code": "60616"
	},
	{
		"venue_id": "yelpfF5_VmlLDUaMFsp2u0THOw",
		"venue_name": "Lao Sze Chuan - Uptown",
		"latitude": 41.970021,
		"longitude": -87.659915,
		"address1": "4832 N Broadway St",
		"address2": "",
		"address3": "",
		"city": "Chicago",
		"state": "IL",
		"zip_code": "60640"
	},
	{
		"venue_id": "yelp_QU_V5NBPR4TwuQpNQndqQ",
		"venue_name": "Li Hing",
		"latitude": 41.93878,
		"longitude": -87.77103,
		"address1": "5754 W Belmont Ave",
		"address2": "",
		"address3": "",
		"city": "Chicago",
		"state": "IL",
		"zip_code": "60634"
	},
	{
		"venue_id": "yelp8rsVbquCysRF_q_G3343RQ",
		"venue_name": "Jade Court",
		"latitude": 41.8734283447266,
		"longitude": -87.6572036743164,
		"address1": "626 S Racine Ave",
		"address2": "",
		"address3": null,
		"city": "Chicago",
		"state": "IL",
		"zip_code": "60607"
	},
	{
		"venue_id": "yelpGhgDVR4hDFpGl_imK0hjdw",
		"venue_name": "Chen's Chinese and Cuisine",
		"latitude": 41.9456488,
		"longitude": -87.6554725,
		"address1": "3506 N Clark St",
		"address2": "",
		"address3": "",
		"city": "Chicago",
		"state": "IL",
		"zip_code": "60657"
	},
	{
		"venue_id": "yelpwLISzgNl7jRgsv-oABdXwA",
		"venue_name": "Seven Treasures Cantonese Cuisine",
		"latitude": 41.850483,
		"longitude": -87.632082,
		"address1": "2312 S Wentworth Ave",
		"address2": "",
		"address3": "",
		"city": "Chicago",
		"state": "IL",
		"zip_code": "60616"
	},
	{
		"venue_id": "yelpfUYB5sY0lSx_xFL9pNmh1A",
		"venue_name": "Snack Planet",
		"latitude": 41.8550491333008,
		"longitude": -87.6321868896484,
		"address1": "2002 S Wentworth",
		"address2": "",
		"address3": "",
		"city": "Chicago",
		"state": "IL",
		"zip_code": "60616"
	},
	{
		"venue_id": "yelpm973NCh_zflXOrJZnUTPfA",
		"venue_name": "Mon Lung",
		"latitude": 41.9000324,
		"longitude": -87.6672824,
		"address1": "1009 N Ashland Ave",
		"address2": "",
		"address3": "",
		"city": "Chicago",
		"state": "IL",
		"zip_code": "60622"
	},
	{
		"venue_id": "yelpXm1s8oPxwZl9t4CnAEXZzA",
		"venue_name": "Three Happiness Original Restaurant",
		"latitude": 41.852611541748,
		"longitude": -87.6324615478516,
		"address1": "209 W Cermak Rd",
		"address2": "",
		"address3": "",
		"city": "Chicago",
		"state": "IL",
		"zip_code": "60616"
	},
	{
		"venue_id": "yelpFqmde28Bc3wV_nYL6RT8Zg",
		"venue_name": "Mo's Asian Bistro",
		"latitude": 41.9250951,
		"longitude": -87.662435,
		"address1": "1353 W Fullerton Ave",
		"address2": null,
		"address3": "",
		"city": "Chicago",
		"state": "IL",
		"zip_code": "60614"
	},
	{
		"venue_id": "yelp-RjNYuks75BliXnhchxLnw",
		"venue_name": "Hot Woks Cool Sushi",
		"latitude": 41.94348,
		"longitude": -87.67984,
		"address1": "2032 W Roscoe St",
		"address2": "",
		"address3": "",
		"city": "Chicago",
		"state": "IL",
		"zip_code": "60618"
	},
	{
		"venue_id": "yelpyFq9EHQXAoyR80msdq1ZRw",
		"venue_name": "Xi'an Cuisine",
		"latitude": 41.85262,
		"longitude": -87.63309,
		"address1": "225 W Cermak Rd",
		"address2": "",
		"address3": "",
		"city": "Chicago",
		"state": "IL",
		"zip_code": "60616"
	},
	{
		"venue_id": "yelpZM5FEk492JPfUKFWqOZirA",
		"venue_name": "Wok Cuisine",
		"latitude": 41.96426,
		"longitude": -87.70868,
		"address1": "4554 N Kedzie Ave",
		"address2": "",
		"address3": "",
		"city": "Chicago",
		"state": "IL",
		"zip_code": "60625"
	},
	{
		"venue_id": "yelpSXZ7hIvjmJvWb9CI2GYoNA",
		"venue_name": "Tony's Chinese & American Restaurant",
		"latitude": 41.92213,
		"longitude": -87.78477,
		"address1": "6347 W Grand Ave",
		"address2": "",
		"address3": "",
		"city": "Chicago",
		"state": "IL",
		"zip_code": "60639"
	},
	{
		"venue_id": "yelpRon92pbDoW0QgoMJZkMtpQ",
		"venue_name": "Chop Suey City",
		"latitude": 41.8238,
		"longitude": -87.68784,
		"address1": "3825 S Archer Ave",
		"address2": "",
		"address3": "",
		"city": "Chicago",
		"state": "IL",
		"zip_code": "60632"
	},
	{
		"venue_id": "yelpNyTitrHoXIhMGyRoE11TyA",
		"venue_name": "Slurp Slurp",
		"latitude": 41.851539939222,
		"longitude": -87.6316161453724,
		"address1": "2247 S Wentworth Ave",
		"address2": "",
		"address3": "",
		"city": "Chicago",
		"state": "IL",
		"zip_code": "60616"
	},
	{
		"venue_id": "yelpx5jeYKd5yvMO9lqq0egZpg",
		"venue_name": "BBQ King House",
		"latitude": 41.85371,
		"longitude": -87.63405,
		"address1": "2148 S Archer Ave",
		"address2": "",
		"address3": "",
		"city": "Chicago",
		"state": "IL",
		"zip_code": "60616"
	},
	{
		"venue_id": "yelpDDzT2AA047ZgyId-yf0pQg",
		"venue_name": "ML Kitchen",
		"latitude": 41.869543,
		"longitude": -87.655786,
		"address1": "1138 W Taylor St",
		"address2": "",
		"address3": null,
		"city": "Chicago",
		"state": "IL",
		"zip_code": "60607"
	},
	{
		"venue_id": "yelphg7GTftFbQG2Y6jz8u_Olg",
		"venue_name": "B.I.Tea & Dim Sum",
		"latitude": 41.8839695,
		"longitude": -87.6410747,
		"address1": "131 N Clinton St",
		"address2": "",
		"address3": "Chicago French Market",
		"city": "Chicago",
		"state": "IL",
		"zip_code": "60661"
	},
	{
		"venue_id": "yelpnD9poL2XS2nnVOJXXMqbuA",
		"venue_name": "Little Wok",
		"latitude": 41.939,
		"longitude": -87.64465,
		"address1": "3144 N Broadway",
		"address2": "",
		"address3": null,
		"city": "Chicago",
		"state": "IL",
		"zip_code": "60657"
	},
	{
		"venue_id": "yelpVmDwRbMa4Joj1giVYuJ6zA",
		"venue_name": "Lee Wing Wah Restaurant",
		"latitude": 41.8539237976074,
		"longitude": -87.63427734375,
		"address1": "2147 S China Pl",
		"address2": "",
		"address3": "Chinatown Square",
		"city": "Chicago",
		"state": "IL",
		"zip_code": "60616"
	},
	{
		"venue_id": "yelpBoBOSsWoiVnkhqg7So9j_A",
		"venue_name": "Wing Yip Chop Suey Restaurant",
		"latitude": 41.84513,
		"longitude": -87.6414,
		"address1": "537 W 26th St",
		"address2": "",
		"address3": "",
		"city": "Chicago",
		"state": "IL",
		"zip_code": "60616"
	},
	{
		"venue_id": "yelpHL7nZ6nhdnlHnArtrWPL7Q",
		"venue_name": "Dongpo Impression",
		"latitude": 41.8531163744725,
		"longitude": -87.632901383007,
		"address1": "228 W Cermak Rd",
		"address2": "",
		"address3": "",
		"city": "Chicago",
		"state": "IL",
		"zip_code": "60616"
	},
	{
		"venue_id": "yelpiWk3FL1s6HJMoCnvPH20Ig",
		"venue_name": "Grand Palace",
		"latitude": 41.8453675,
		"longitude": -87.6326853,
		"address1": "225 W 26th St",
		"address2": "",
		"address3": "",
		"city": "Chicago",
		"state": "IL",
		"zip_code": "60616"
	},
	{
		"venue_id": "yelpyqNmh5p_H5Y3tp6xDVmhiA",
		"venue_name": "Szechwan JMC",
		"latitude": 41.85261,
		"longitude": -87.63373,
		"address1": "243 W Cermak Rd",
		"address2": "",
		"address3": null,
		"city": "Chicago",
		"state": "IL",
		"zip_code": "60616"
	},
	{
		"venue_id": "yelpHP3zkN0SvoDzQiOdiMAKLw",
		"venue_name": "Cheng Chopsticks",
		"latitude": 41.91716,
		"longitude": -87.704205,
		"address1": "3054 W Armitage Ave",
		"address2": "",
		"address3": "",
		"city": "Chicago",
		"state": "IL",
		"zip_code": "60647"
	},
	{
		"venue_id": "yelpy52hALw-qlQpB8dGvjKlOQ",
		"venue_name": "Lan's Old Town",
		"latitude": 41.9095306396484,
		"longitude": -87.6382293701172,
		"address1": "1507 N Sedgwick St",
		"address2": "",
		"address3": "",
		"city": "Chicago",
		"state": "IL",
		"zip_code": "60610"
	},
	{
		"venue_id": "yelpSw_PQIgLW78QqAAMvUwEQw",
		"venue_name": "Lee's Chop Suey",
		"latitude": 41.93201,
		"longitude": -87.68877,
		"address1": "2415 W Diversey Ave",
		"address2": "",
		"address3": "",
		"city": "Chicago",
		"state": "IL",
		"zip_code": "60647"
	},
	{
		"venue_id": "yelpxRerLV6SpekmF9n0V-93Rw",
		"venue_name": "Grandee Cuisine",
		"latitude": 41.89153,
		"longitude": -87.62204,
		"address1": "215 E Grand Ave",
		"address2": "",
		"address3": null,
		"city": "Chicago",
		"state": "IL",
		"zip_code": "60611"
	},
	{
		"venue_id": "yelpS6V628WKkM7KIkpbEYr_ww",
		"venue_name": "New Furama Restaurant",
		"latitude": 41.841576,
		"longitude": -87.632042,
		"address1": "2828 S Wentworth Ave",
		"address2": "",
		"address3": "",
		"city": "Chicago",
		"state": "IL",
		"zip_code": "60616"
	},
	{
		"venue_id": "yelppHxR9gybOtRmJq7O5wKZbA",
		"venue_name": "Sze Chuan Cuisine",
		"latitude": 41.8486728,
		"longitude": -87.6320288,
		"address1": "2414 S Wentworth Ave",
		"address2": "",
		"address3": "",
		"city": "Chicago",
		"state": "IL",
		"zip_code": "60616"
	},
	{
		"venue_id": "yelpNe29Rt_YPJAguD4kc3qamA",
		"venue_name": "Evergreen Restaurant",
		"latitude": 41.848699,
		"longitude": -87.631819,
		"address1": "2411 S Wentworth Ave",
		"address2": "",
		"address3": "",
		"city": "Chicago",
		"state": "IL",
		"zip_code": "60616"
	},
	{
		"venue_id": "yelpFOwcXuIpjP_h49RCMgSGsA",
		"venue_name": "Orange Garden Restaurant",
		"latitude": 41.954468,
		"longitude": -87.678062,
		"address1": "1942 W Irving Park Rd",
		"address2": "",
		"address3": null,
		"city": "Chicago",
		"state": "IL",
		"zip_code": "60613"
	},
	{
		"venue_id": "yelpCXLu5QMzCj7gcYbOwp8btQ",
		"venue_name": "Hunan Egg Roll King",
		"latitude": 41.9585485,
		"longitude": -87.6532582,
		"address1": "4204 N Broadway St",
		"address2": "",
		"address3": "",
		"city": "Chicago",
		"state": "IL",
		"zip_code": "60613"
	},
	{
		"venue_id": "yelpCoSRSpByyyNMuI8m15PH7A",
		"venue_name": "Thee Asian Restaurant",
		"latitude": 41.91028,
		"longitude": -87.6732,
		"address1": "1811 W North Ave",
		"address2": "",
		"address3": "",
		"city": "Chicago",
		"state": "IL",
		"zip_code": "60622"
	},
	{
		"venue_id": "yelprd4NrLcEOKBVaGRIkC35NQ",
		"venue_name": "Takie Outit",
		"latitude": 41.89611,
		"longitude": -87.68086,
		"address1": "2132 W Chicago Ave",
		"address2": null,
		"address3": "",
		"city": "Chicago",
		"state": "IL",
		"zip_code": "60622"
	},
	{
		"venue_id": "yelpv-rvEsqRtJcECRhcK3WUZg",
		"venue_name": "China Court",
		"latitude": 41.9023813,
		"longitude": -87.6652238,
		"address1": "1146 N Milwaukee Ave",
		"address2": "",
		"address3": "",
		"city": "Chicago",
		"state": "IL",
		"zip_code": "60642"
	},
	{
		"venue_id": "yelprr0vjTtpPCaY6U7tns3JVg",
		"venue_name": "Silver Seafood Restaurant",
		"latitude": 41.970148,
		"longitude": -87.659551,
		"address1": "4829 N Broadway St",
		"address2": "",
		"address3": "",
		"city": "Chicago",
		"state": "IL",
		"zip_code": "60640"
	},
	{
		"venue_id": "yelpmUYfbaCdKGW0ZY2xsxVx2g",
		"venue_name": "My Place",
		"latitude": 41.854736328125,
		"longitude": -87.6322708129883,
		"address1": "2022 S Archer Ave",
		"address2": "",
		"address3": "",
		"city": "Chicago",
		"state": "IL",
		"zip_code": "60616"
	},
	{
		"venue_id": "yelprVRMpovx68BZXTLedFwB5Q",
		"venue_name": "Wentworth Seafood House",
		"latitude": 41.852301277333,
		"longitude": -87.631848673597,
		"address1": "2229 S Wentworth Ave",
		"address2": "",
		"address3": null,
		"city": "Chicago",
		"state": "IL",
		"zip_code": "60616"
	},
	{
		"venue_id": "yelpcT5PCUVcozFYUFlCKigodg",
		"venue_name": "House of Hunan",
		"latitude": 41.925893,
		"longitude": -87.641125,
		"address1": "444 W Fullerton Pkwy",
		"address2": "",
		"address3": "",
		"city": "Chicago",
		"state": "IL",
		"zip_code": "60614"
	},
	{
		"venue_id": "yelpMliVaUKlAC0ZNjnmngJDIQ",
		"venue_name": "Mei Shung",
		"latitude": 41.9822,
		"longitude": -87.65956,
		"address1": "5511 N Broadway St",
		"address2": "",
		"address3": "",
		"city": "Chicago",
		"state": "IL",
		"zip_code": "60640"
	},
	{
		"venue_id": "yelpl-_sDyPCS43_dWl7qnhgUA",
		"venue_name": "Hong Huah",
		"latitude": 41.9241333007812,
		"longitude": -87.7743301391602,
		"address1": "5924 W Fullerton Ave",
		"address2": null,
		"address3": "",
		"city": "Chicago",
		"state": "IL",
		"zip_code": "60639"
	},
	{
		"venue_id": "yelp9ilxfqCnY21F9WSnG_gikg",
		"venue_name": "China Fast Wok",
		"latitude": 41.9181022644043,
		"longitude": -87.6976470947266,
		"address1": "2020 N California Ave",
		"address2": null,
		"address3": "",
		"city": "Chicago",
		"state": "IL",
		"zip_code": "60647"
	},
	{
		"venue_id": "yelplDcKoiQS-X7w0kK6EOPvmg",
		"venue_name": "Wing Hoe Restaurant",
		"latitude": 41.9794802132926,
		"longitude": -87.6553201675415,
		"address1": "5356 N Sheridan Rd",
		"address2": "",
		"address3": "",
		"city": "Chicago",
		"state": "IL",
		"zip_code": "60640"
	},
	{
		"venue_id": "yelpH-0zJt3y4oG8bWjBz1h7eQ",
		"venue_name": "Tom Lee's Chop Suey",
		"latitude": 41.9665802,
		"longitude": -87.6889649,
		"address1": "4660 N Western Ave",
		"address2": null,
		"address3": null,
		"city": "Chicago",
		"state": "IL",
		"zip_code": "60625"
	},
	{
		"venue_id": "yelpCOhmkMcsgDGm3dQCNE5h-w",
		"venue_name": "Mandarin Kitchen",
		"latitude": 41.8535,
		"longitude": -87.633372,
		"address1": "2143 S Archer Ave",
		"address2": "",
		"address3": "",
		"city": "Chicago",
		"state": "IL",
		"zip_code": "60616"
	},
	{
		"venue_id": "yelp56NTS41jIwg5k1pdAB5oLg",
		"venue_name": "a place BY DAMAO",
		"latitude": 41.8444245897206,
		"longitude": -87.6461577331106,
		"address1": "2621 S Halsted St",
		"address2": "Ste 1",
		"address3": null,
		"city": "Chicago",
		"state": "IL",
		"zip_code": "60608"
	},
	{
		"venue_id": "yelptf95j1pb4Khcv-B4pGW_sQ",
		"venue_name": "Mee Mah Restaurant",
		"latitude": 41.990407,
		"longitude": -87.730254,
		"address1": "4032 W Peterson Ave",
		"address2": "",
		"address3": "",
		"city": "Chicago",
		"state": "IL",
		"zip_code": "60646"
	},
	{
		"venue_id": "yelpAE_PCkL3_D6Q3vPdudb_vg",
		"venue_name": "Bamboo Garden",
		"latitude": 41.9401499,
		"longitude": -87.650616,
		"address1": "3203 N Clark St",
		"address2": "",
		"address3": "",
		"city": "Chicago",
		"state": "IL",
		"zip_code": "60657"
	},
	{
		"venue_id": "yelpxZOtv5pS_O96Sn3UPkBTIQ",
		"venue_name": "Gourmet Food",
		"latitude": 41.85113,
		"longitude": -87.63251,
		"address1": "210 W 23rd St",
		"address2": "",
		"address3": "",
		"city": "Chicago",
		"state": "IL",
		"zip_code": "60616"
	},
	{
		"venue_id": "yelpbrqW_fwJq6AVubryc2z5vg",
		"venue_name": "Saint's Alp Teahouse & Gourmet",
		"latitude": 41.85377,
		"longitude": -87.63462,
		"address1": "2157 S China Pl",
		"address2": "",
		"address3": "",
		"city": "Chicago",
		"state": "IL",
		"zip_code": "60616"
	},
	{
		"venue_id": "yelp9g98FdAhBrxzMuTemWAVKg",
		"venue_name": "New China Station",
		"latitude": 41.9101039,
		"longitude": -87.6877506,
		"address1": "2411 W North Ave",
		"address2": "",
		"address3": "",
		"city": "Chicago",
		"state": "IL",
		"zip_code": "60647"
	},
	{
		"venue_id": "yelpFOdnlpZymhgT0DaKFmX-HA",
		"venue_name": "Taste Of Canton",
		"latitude": 41.833595,
		"longitude": -87.672937,
		"address1": "3324 South Archer Ave",
		"address2": "Unit A",
		"address3": null,
		"city": "Chicago",
		"state": "IL",
		"zip_code": "60608"
	},
	{
		"venue_id": "yelpQ_0FJy9CGw71Rf-X4EJwFw",
		"venue_name": "Rice & Roll",
		"latitude": 41.9759699,
		"longitude": -87.71173,
		"address1": "3312 W Foster Ave",
		"address2": null,
		"address3": "",
		"city": "Chicago",
		"state": "IL",
		"zip_code": "60625"
	},
	{
		"venue_id": "yelpCp4Tda2mlEqzjLUzZHL6jg",
		"venue_name": "Sizzling Pot King",
		"latitude": 41.8778151,
		"longitude": -87.6465597,
		"address1": "769 W Jackson Blvd",
		"address2": "",
		"address3": null,
		"city": "Chicago",
		"state": "IL",
		"zip_code": "60661"
	},
	{
		"venue_id": "yelpAlVpkRpskcPbORAp53p3Qw",
		"venue_name": "Wing Chong Restaurant",
		"latitude": 41.9553756713867,
		"longitude": -87.7211685180664,
		"address1": "4077 N Elston Ave",
		"address2": "",
		"address3": "",
		"city": "Chicago",
		"state": "IL",
		"zip_code": "60618"
	},
	{
		"venue_id": "yelpErrbtpXHn_FXCbPXZhGXKw",
		"venue_name": "Hong Kong House",
		"latitude": 41.95175,
		"longitude": -87.7473849,
		"address1": "3904 N Cicero Ave",
		"address2": "",
		"address3": "",
		"city": "Chicago",
		"state": "IL",
		"zip_code": "60641"
	},
	{
		"venue_id": "yelpbxtGnjGbDBhTVleTRpjtAg",
		"venue_name": "Honeymoon Cafe",
		"latitude": 41.9733899,
		"longitude": -87.6591902,
		"address1": "1138 W Argyle St",
		"address2": "",
		"address3": "",
		"city": "Chicago",
		"state": "IL",
		"zip_code": "60640"
	},
	{
		"venue_id": "yelpLNs1IWiBb71YnQOOvgDmQA",
		"venue_name": "China Buffet",
		"latitude": 41.936208,
		"longitude": -87.726586,
		"address1": "3029 N Pulaski Rd",
		"address2": "",
		"address3": "",
		"city": "Chicago",
		"state": "IL",
		"zip_code": "60641"
	},
	{
		"venue_id": "yelpkMGTeEAkXZRgkupfLx-HpQ",
		"venue_name": "Min Min Asian Cafe",
		"latitude": 41.9542779643999,
		"longitude": -87.6666306545428,
		"address1": "1465 W Irving Park Rd",
		"address2": "",
		"address3": null,
		"city": "Chicago",
		"state": "IL",
		"zip_code": "60613"
	},
	{
		"venue_id": "yelpUdPSq3-tnbC8YBSPpbcvqA",
		"venue_name": "Mei's Corner",
		"latitude": 41.8990588792157,
		"longitude": -87.6254403591156,
		"address1": "101 E Delaware Pl",
		"address2": "",
		"address3": "The Whitehall Hotel",
		"city": "Chicago",
		"state": "IL",
		"zip_code": "60611"
	},
	{
		"venue_id": "yelpVPUiIyXHHTcIs06ca_hRSQ",
		"venue_name": "Silk Road",
		"latitude": 41.8812872634843,
		"longitude": -87.631418809387,
		"address1": "19 S La Salle St",
		"address2": "",
		"address3": "",
		"city": "Chicago",
		"state": "IL",
		"zip_code": "60603"
	},
	{
		"venue_id": "yelp4t55Sb9C0lnsCyuZhjcP0A",
		"venue_name": "Wow Bao",
		"latitude": 41.8864216,
		"longitude": -87.623884,
		"address1": "225 N Michigan Ave",
		"address2": "",
		"address3": "",
		"city": "Chicago",
		"state": "IL",
		"zip_code": "60601"
	},
	{
		"venue_id": "yelpJ3uA_rpqn6tYgntsoSen6A",
		"venue_name": "Three Harmony Chinese Restaurant",
		"latitude": 41.9650379,
		"longitude": -87.6611089,
		"address1": "4546 N Magnolia Ave",
		"address2": "",
		"address3": "",
		"city": "Chicago",
		"state": "IL",
		"zip_code": "60640"
	},
	{
		"venue_id": "yelpwU2lFMQAmRT8-p1jpjozsg",
		"venue_name": "Plenty",
		"latitude": 41.961746004356,
		"longitude": -87.679378373899,
		"address1": "2002 W Montrose Ave",
		"address2": "",
		"address3": "",
		"city": "Chicago",
		"state": "IL",
		"zip_code": "60618"
	},
	{
		"venue_id": "yelpmhMjkmuVO3aKBjk6XR4dog",
		"venue_name": "Northern City",
		"latitude": 41.8382949829102,
		"longitude": -87.6455841064453,
		"address1": "742 W 31st St",
		"address2": "",
		"address3": "",
		"city": "Chicago",
		"state": "IL",
		"zip_code": "60616"
	},
	{
		"venue_id": "yelpnoBXIopOA6ZrGRrFtW-70A",
		"venue_name": "Sixty Five Chinese Restaurant",
		"latitude": 41.8817291259766,
		"longitude": -87.6340560913086,
		"address1": "201 W Madison St",
		"address2": "",
		"address3": "",
		"city": "Chicago",
		"state": "IL",
		"zip_code": "60606"
	},
	{
		"venue_id": "yelpkz8p2ooTg0aUTGb03Yyeng",
		"venue_name": "Tasty place",
		"latitude": 41.850663733621,
		"longitude": -87.6321720881968,
		"address1": "2306 South Wentworth Ave",
		"address2": "",
		"address3": "",
		"city": "Chicago",
		"state": "IL",
		"zip_code": "60616"
	},
	{
		"venue_id": "yelpWZ7qwg6yZ6WIsPd-DF2ZlQ",
		"venue_name": "Wow Bao",
		"latitude": 41.9330049396068,
		"longitude": -87.6451519465329,
		"address1": "2806 N Clark St",
		"address2": "",
		"address3": "",
		"city": "Chicago",
		"state": "IL",
		"zip_code": "60657"
	},
	{
		"venue_id": "yelp8r5od9fuNeqxd14RaXlr8A",
		"venue_name": "Eat First",
		"latitude": 41.9391651,
		"longitude": -87.7115183,
		"address1": "3337 W Belmont Ave",
		"address2": "",
		"address3": "",
		"city": "Chicago",
		"state": "IL",
		"zip_code": "60618"
	},
	{
		"venue_id": "yelpsYo4ePEiMC_wdH4wyezrJw",
		"venue_name": "Great Wall Chinese Restaurant",
		"latitude": 41.8544399,
		"longitude": -87.63322,
		"address1": "2127 S China Pl",
		"address2": "",
		"address3": "",
		"city": "Chicago",
		"state": "IL",
		"zip_code": "60616"
	},
	{
		"venue_id": "yelpOSMx-5Trt2VtJByoF3HmYA",
		"venue_name": "King Wok Gourmet Asian",
		"latitude": 41.880806,
		"longitude": -87.68512,
		"address1": "2323 W Madison St",
		"address2": null,
		"address3": "",
		"city": "Chicago",
		"state": "IL",
		"zip_code": "60612"
	},
	{
		"venue_id": "yelpSNQqaT5fo5Zz7mGLXO6TFg",
		"venue_name": "1Chop Suey",
		"latitude": 41.9469704843939,
		"longitude": -87.6924397907697,
		"address1": "2550 W Addison St",
		"address2": "",
		"address3": "",
		"city": "Chicago",
		"state": "IL",
		"zip_code": "60618"
	},
	{
		"venue_id": "yelpRvE6qfdEYzzeEjQtDsf8Hw",
		"venue_name": "Star Kitchen",
		"latitude": 41.8378506,
		"longitude": -87.6354674,
		"address1": "3110 S Shields Ave",
		"address2": null,
		"address3": "",
		"city": "Chicago",
		"state": "IL",
		"zip_code": "60616"
	},
	{
		"venue_id": "yelpVks_oMFQqUgwyAjprVbaCg",
		"venue_name": "Tang's Garden Restaurant",
		"latitude": 41.856822,
		"longitude": -87.639221,
		"address1": "1826 S Canal St",
		"address2": "",
		"address3": "",
		"city": "Chicago",
		"state": "IL",
		"zip_code": "60616"
	},
	{
		"venue_id": "yelpFlYfesh6031jiPAJhUPlcg",
		"venue_name": "Northern Taste",
		"latitude": 41.83213,
		"longitude": -87.64578,
		"address1": "3409 S Halsted St",
		"address2": null,
		"address3": "",
		"city": "Chicago",
		"state": "IL",
		"zip_code": "60608"
	},
	{
		"venue_id": "yelpbZVUOcg23n4_pGZpH9mTDQ",
		"venue_name": "Original Triple Crown Restaurant",
		"latitude": 41.85198,
		"longitude": -87.63253,
		"address1": "211 W 22nd Pl",
		"address2": null,
		"address3": "",
		"city": "Chicago",
		"state": "IL",
		"zip_code": "60616"
	},
	{
		"venue_id": "yelpJ4DPDOKpCR7Iwo1xhZcX1g",
		"venue_name": "Peking Chinese Kitchen",
		"latitude": 41.93977,
		"longitude": -87.64892,
		"address1": "3167 N Halsted St",
		"address2": "",
		"address3": "",
		"city": "Chicago",
		"state": "IL",
		"zip_code": "60657"
	},
	{
		"venue_id": "yelpcDtcbT4aEwmTsgS0KF_PlQ",
		"venue_name": "China Cafe",
		"latitude": 41.8507905,
		"longitude": -87.6321496,
		"address1": "2300 S Wentworth Ave",
		"address2": "",
		"address3": "",
		"city": "Chicago",
		"state": "IL",
		"zip_code": "60616"
	},
	{
		"venue_id": "yelpxr6YwdvbFHlPF5zzBtOO6A",
		"venue_name": "Mayflower Chinese Restaurant",
		"latitude": 41.97654,
		"longitude": -87.7283849,
		"address1": "5240 N Pulaski Rd",
		"address2": "Ste M",
		"address3": "",
		"city": "Chicago",
		"state": "IL",
		"zip_code": "60630"
	},
	{
		"venue_id": "yelpSpVZ2h1mHAHWWuI7SjsR0Q",
		"venue_name": "Golden Chef Chinese Kitchen",
		"latitude": 41.910419,
		"longitude": -87.709274,
		"address1": "3262 W North Ave",
		"address2": "",
		"address3": "",
		"city": "Chicago",
		"state": "IL",
		"zip_code": "60647"
	},
	{
		"venue_id": "yelp1uGrUoIvjajEv-VTcFzLWA",
		"venue_name": "Lao Yunnan",
		"latitude": 41.85463,
		"longitude": -87.63283,
		"address1": "2109 S China Pl",
		"address2": "",
		"address3": "",
		"city": "Chicago",
		"state": "IL",
		"zip_code": "60616"
	},
	{
		"venue_id": "yelpuvW2R5qHoDbafoPk9-fhMA",
		"venue_name": "De Rice",
		"latitude": 41.8096849,
		"longitude": -87.6028599,
		"address1": "918 E 47th St",
		"address2": null,
		"address3": "",
		"city": "Chicago",
		"state": "IL",
		"zip_code": "60653"
	},
	{
		"venue_id": "yelpM8B3YX-UCTqVArqeNSwdHA",
		"venue_name": "China Night Cafe",
		"latitude": 41.86967,
		"longitude": -87.65586,
		"address1": "1140 W Taylor St",
		"address2": "",
		"address3": "",
		"city": "Chicago",
		"state": "IL",
		"zip_code": "60607"
	},
	{
		"venue_id": "yelpBwf10GRl1g7CHYE9akVIbw",
		"venue_name": "Dragon Gate",
		"latitude": 42.0007264,
		"longitude": -87.6716798,
		"address1": "6528 N Clark St",
		"address2": "",
		"address3": "",
		"city": "Chicago",
		"state": "IL",
		"zip_code": "60626"
	},
	{
		"venue_id": "yelpo970FbA-gklLJMX3iqMZ1g",
		"venue_name": "Mayflower Restaurant",
		"latitude": 41.8521270751953,
		"longitude": -87.6316604614258,
		"address1": "2225 S Wentworth Ave",
		"address2": "",
		"address3": "",
		"city": "Chicago",
		"state": "IL",
		"zip_code": "60686"
	},
	{
		"venue_id": "yelpHTXcuk7e_N1JmHU9162Mjw",
		"venue_name": "China Dragon Restaurant",
		"latitude": 41.8574752807617,
		"longitude": -87.6701278686523,
		"address1": "1737 W 18th St",
		"address2": "",
		"address3": "",
		"city": "Chicago",
		"state": "IL",
		"zip_code": "60608"
	},
	{
		"venue_id": "yelp3ORa0JxpFcj6mDJzdSJy6Q",
		"venue_name": "China Express",
		"latitude": 41.9188804626465,
		"longitude": -87.7680587768555,
		"address1": "5663 W Grand Ave",
		"address2": "",
		"address3": "",
		"city": "Chicago",
		"state": "IL",
		"zip_code": "60639"
	},
	{
		"venue_id": "yelpoDh30QE6ObDUL-pzUHYpCQ",
		"venue_name": "Guey Lon",
		"latitude": 41.9531021118164,
		"longitude": -87.71875,
		"address1": "3968 N Elston Ave",
		"address2": null,
		"address3": "",
		"city": "Chicago",
		"state": "IL",
		"zip_code": "60618"
	},
	{
		"venue_id": "yelpS-m9Vk86-ScRzzyMZW5hKg",
		"venue_name": "Lee's Wok",
		"latitude": 41.9615773489608,
		"longitude": -87.666780911386,
		"address1": "1437 W Montrose Ave",
		"address2": "",
		"address3": "",
		"city": "Chicago",
		"state": "IL",
		"zip_code": "60613"
	},
	{
		"venue_id": "yelpTGy2x77AGbhvSbccw2pXaA",
		"venue_name": "Dim Dim",
		"latitude": 41.8421592712402,
		"longitude": -87.6321182250977,
		"address1": "2820 S Wentworth Ave",
		"address2": "",
		"address3": "",
		"city": "Chicago",
		"state": "IL",
		"zip_code": "60616"
	},
	{
		"venue_id": "yelpviz6o81hQ0F4WM0jxMVH3A",
		"venue_name": "Lo's China Kitchen",
		"latitude": 41.95432,
		"longitude": -87.69859,
		"address1": "2800 W Irving Park Rd",
		"address2": "Ste C",
		"address3": "",
		"city": "Chicago",
		"state": "IL",
		"zip_code": "60618"
	},
	{
		"venue_id": "yelpCbYLLsisVlIZP-81alnL9Q",
		"venue_name": "Hunan Spring Restaurant",
		"latitude": 41.9769154,
		"longitude": -87.7541697,
		"address1": "5279 N Elston Ave",
		"address2": "",
		"address3": "",
		"city": "Chicago",
		"state": "IL",
		"zip_code": "60630"
	},
	{
		"venue_id": "yelp1YG70BmoiNTsLVTnBhCeDw",
		"venue_name": "Excelsior Garden",
		"latitude": 41.9691432,
		"longitude": -87.7616777,
		"address1": "4855 N Milwaukee Ave",
		"address2": "",
		"address3": "",
		"city": "Chicago",
		"state": "IL",
		"zip_code": "60630"
	},
	{
		"venue_id": "yelp6wkOUidf34Mou12Ou5wqCw",
		"venue_name": "Moy Lee Chinese Restaurant",
		"latitude": 41.97771,
		"longitude": -87.77007,
		"address1": "5346 N Milwaukee Ave",
		"address2": "",
		"address3": "",
		"city": "Chicago",
		"state": "IL",
		"zip_code": "60630"
	},
	{
		"venue_id": "yelpDsu5Hfs0fZj8beo3ursTVQ",
		"venue_name": "Hing Wang Restaurant",
		"latitude": 41.9656944274902,
		"longitude": -87.6585006713867,
		"address1": "1120 W Wilson Ave",
		"address2": null,
		"address3": "",
		"city": "Chicago",
		"state": "IL",
		"zip_code": "60640"
	},
	{
		"venue_id": "yelpTKLU6Lg4cpXmr1dGlZFPMA",
		"venue_name": "Fried Rice Express",
		"latitude": 41.9809646606445,
		"longitude": -87.8050918579102,
		"address1": "7108 W Higgins Ave",
		"address2": "",
		"address3": "",
		"city": "Chicago",
		"state": "IL",
		"zip_code": "60656"
	},
	{
		"venue_id": "yelpDLOgHX-oG5eDBQa_NJjMVA",
		"venue_name": "Happiness",
		"latitude": 41.83395,
		"longitude": -87.64582,
		"address1": "3313 S Halsted St",
		"address2": "",
		"address3": "",
		"city": "Chicago",
		"state": "IL",
		"zip_code": "60608"
	},
	{
		"venue_id": "yelpUBmLVxpplk_wPfXgMGuZ_g",
		"venue_name": "Chinese Kitchen",
		"latitude": 41.97685,
		"longitude": -87.76972,
		"address1": "5316 N Milwaukee Ave",
		"address2": "",
		"address3": "",
		"city": "Chicago",
		"state": "IL",
		"zip_code": "60630"
	},
	{
		"venue_id": "yelpdK3dLLG4-e0bxqI7y2w3Dw",
		"venue_name": "New Chinatown Restaurant",
		"latitude": 41.852611541748,
		"longitude": -87.6323699951172,
		"address1": "207 W Cermak Rd",
		"address2": "",
		"address3": "",
		"city": "Chicago",
		"state": "IL",
		"zip_code": "60616"
	},
	{
		"venue_id": "yelp4WIqUf_ImmLhQtRKEFROqw",
		"venue_name": "Tai Ho Yee Food Company",
		"latitude": 41.8483651159139,
		"longitude": -87.6321445423279,
		"address1": "2422 S Wentworth Ave",
		"address2": "",
		"address3": "",
		"city": "Chicago",
		"state": "IL",
		"zip_code": "60616"
	},
	{
		"venue_id": "yelpfAXhh7pydsEL8TobSfFOqA",
		"venue_name": "Mala Temptation",
		"latitude": 41.85505,
		"longitude": -87.63219,
		"address1": "2002 S Wentworth Ave",
		"address2": "Ste 100",
		"address3": "",
		"city": "Chicago",
		"state": "IL",
		"zip_code": "60616"
	},
	{
		"venue_id": "yelpYBgXPuKVNV39-k9KxYb79A",
		"venue_name": "Happy Cafe",
		"latitude": 41.8497182,
		"longitude": -87.6317558,
		"address1": "2351 S Wentworth Ave",
		"address2": "",
		"address3": "",
		"city": "Chicago",
		"state": "IL",
		"zip_code": "60616"
	},
	{
		"venue_id": "yelp7XeT1wnKJwI48ksk5Qbspw",
		"venue_name": "Choi's Chinese Restaurant",
		"latitude": 41.929626,
		"longitude": -87.7086048,
		"address1": "2638 N Milwaukee Ave",
		"address2": "",
		"address3": "",
		"city": "Chicago",
		"state": "IL",
		"zip_code": "60647"
	},
	{
		"venue_id": "yelpRGY1_i925PKFNZ0tQ5a04Q",
		"venue_name": "Panda Express",
		"latitude": 41.9464447800252,
		"longitude": -87.7019436805787,
		"address1": "2949 W Addison St",
		"address2": "",
		"address3": "",
		"city": "Chicago",
		"state": "IL",
		"zip_code": "60618"
	},
	{
		"venue_id": "yelpCiFCHzLKI3eiUPbf_AkAiA",
		"venue_name": "Yummy Buffet Chicago",
		"latitude": 41.9681151,
		"longitude": -87.7265415,
		"address1": "3925 W Lawrence Ave",
		"address2": "",
		"address3": "",
		"city": "Chicago",
		"state": "IL",
		"zip_code": "60625"
	},
	{
		"venue_id": "yelpNn19Yw7BsQ_0ICRa56BKow",
		"venue_name": "New China",
		"latitude": 41.9033088684082,
		"longitude": -87.6886215209961,
		"address1": "2438 W Division St",
		"address2": "",
		"address3": "",
		"city": "Chicago",
		"state": "IL",
		"zip_code": "60622"
	},
	{
		"venue_id": "yelpAMSnlzINjJz3baG3_vTxtA",
		"venue_name": "Great Dragon",
		"latitude": 41.9405784606934,
		"longitude": -87.7257232666016,
		"address1": "3269 N Milwaukee Ave",
		"address2": "",
		"address3": "",
		"city": "Chicago",
		"state": "IL",
		"zip_code": "60618"
	},
	{
		"venue_id": "yelpSbVI1c68qrJI0f6Q-DoQKQ",
		"venue_name": "Little Kitchen",
		"latitude": 41.9567634,
		"longitude": -87.6547756,
		"address1": "4104 N Sheridan Rd",
		"address2": null,
		"address3": null,
		"city": "Chicago",
		"state": "IL",
		"zip_code": "60613"
	},
	{
		"venue_id": "yelpJNCwCWIwXhbCUGNS833CcQ",
		"venue_name": "Mr Ging Chop Suey",
		"latitude": 41.94554,
		"longitude": -87.76639,
		"address1": "3549 N Central Ave",
		"address2": "",
		"address3": "",
		"city": "Chicago",
		"state": "IL",
		"zip_code": "60634"
	},
	{
		"venue_id": "yelpi4YV88dn3f5vufLX7RTffg",
		"venue_name": "Chinese Kitchen Sushi and Grill",
		"latitude": 41.83839,
		"longitude": -87.6374,
		"address1": "420 W 31st St",
		"address2": "",
		"address3": "",
		"city": "Chicago",
		"state": "IL",
		"zip_code": "60616"
	},
	{
		"venue_id": "yelpi5xYjypSAtJnuyAc-WJgOw",
		"venue_name": "China Hut",
		"latitude": 41.9683570861816,
		"longitude": -87.687141418457,
		"address1": "2311 W Lawrence Ave",
		"address2": "",
		"address3": "",
		"city": "Chicago",
		"state": "IL",
		"zip_code": "60625"
	},
	{
		"venue_id": "yelpLGgZD9b89vPLNI_ax1fW5Q",
		"venue_name": "Dragon Bowl",
		"latitude": 41.8384552001953,
		"longitude": -87.6325454711914,
		"address1": "220 W 31st St",
		"address2": "",
		"address3": "",
		"city": "Chicago",
		"state": "IL",
		"zip_code": "60616"
	},
	{
		"venue_id": "yelpTX5hzNr0a5zqdTYtyWo1Fg",
		"venue_name": "Kam Fung",
		"latitude": 41.852367401123,
		"longitude": -87.6327285766602,
		"address1": "216 W 22nd Pl",
		"address2": "",
		"address3": "",
		"city": "Chicago",
		"state": "IL",
		"zip_code": "60616"
	},
	{
		"venue_id": "yelpHZP8Ieuq8lmFpz7V41NJgQ",
		"venue_name": "New Star Restaurant",
		"latitude": 41.908906,
		"longitude": -87.812765,
		"address1": "7444 W North Ave",
		"address2": "",
		"address3": "",
		"city": "Elmwood Park",
		"state": "IL",
		"zip_code": "60707"
	},
	{
		"venue_id": "yelpBFl2eEkvKA956OEXVrE7LQ",
		"venue_name": "Dim Sum House",
		"latitude": 41.84509,
		"longitude": -87.63214,
		"address1": "2610 S Wentworth Ave",
		"address2": "",
		"address3": "",
		"city": "Chicago",
		"state": "IL",
		"zip_code": "60616"
	},
	{
		"venue_id": "yelpXnDmx77GbhDKnNaJMb5ADA",
		"venue_name": "Hana Sushi, Chinese & Thai",
		"latitude": 41.86914,
		"longitude": -87.6597199,
		"address1": "1311 W Taylor St",
		"address2": "",
		"address3": "",
		"city": "Chicago",
		"state": "IL",
		"zip_code": "60607"
	},
	{
		"venue_id": "yelpemJGbFR6mtTrfMB7QkglnA",
		"venue_name": "Wow Bao",
		"latitude": 41.88611,
		"longitude": -87.625,
		"address1": "200 N Michigan Ave",
		"address2": "",
		"address3": null,
		"city": "Chicago",
		"state": "IL",
		"zip_code": "60601"
	},
	{
		"venue_id": "yelpKP-fb0gdJ8XkQYnwFl0uJg",
		"venue_name": "Chop Sticks",
		"latitude": 41.8676149,
		"longitude": -87.62657,
		"address1": "28 E Roosevelt Rd",
		"address2": null,
		"address3": null,
		"city": "Chicago",
		"state": "IL",
		"zip_code": "60605"
	},
	{
		"venue_id": "yelpcKH4p-pGXtr7Cl091uxPXg",
		"venue_name": "Jin Asian Cafe",
		"latitude": 41.9396324157715,
		"longitude": -87.656135559082,
		"address1": "1053 W Belmont Ave",
		"address2": "",
		"address3": "",
		"city": "Chicago",
		"state": "IL",
		"zip_code": "60657"
	},
	{
		"venue_id": "yelpbEJoJ4p_HI2pvedzUsfz1A",
		"venue_name": "Seafood Harbor",
		"latitude": 41.8534698486328,
		"longitude": -87.6329345703125,
		"address1": "2131 S Archer Ave",
		"address2": "",
		"address3": null,
		"city": "Chicago",
		"state": "IL",
		"zip_code": "60616"
	},
	{
		"venue_id": "yelp8-tMqMCE6aOMMHt9fQxUuA",
		"venue_name": "Original Steams",
		"latitude": 41.8481638,
		"longitude": -87.6417993,
		"address1": "2428 S Wallace St",
		"address2": null,
		"address3": "",
		"city": "Chicago",
		"state": "IL",
		"zip_code": "60616"
	},
	{
		"venue_id": "yelpCJN_LGoTkoAFyfSNtSWm1g",
		"venue_name": "Peking Chinese Food",
		"latitude": 41.9110442816427,
		"longitude": -87.6327975723873,
		"address1": "129 W North Ave",
		"address2": "",
		"address3": "",
		"city": "Chicago",
		"state": "IL",
		"zip_code": "60610"
	},
	{
		"venue_id": "yelpyYNXlVz5-RTmTXY1LDoXxg",
		"venue_name": "Usmania Zabiha Chinese Restaurant",
		"latitude": 41.9975128173828,
		"longitude": -87.6870574951172,
		"address1": "2253 W Devon Ave",
		"address2": "",
		"address3": "",
		"city": "Chicago",
		"state": "IL",
		"zip_code": "60659"
	},
	{
		"venue_id": "yelpkNP-DYUu340ioAo653H36A",
		"venue_name": "Ma Gong La Po",
		"latitude": 41.8524929297065,
		"longitude": -87.6317862947896,
		"address1": "2215 S Wentworth Ave",
		"address2": null,
		"address3": "",
		"city": "Chicago",
		"state": "IL",
		"zip_code": "60616"
	},
	{
		"venue_id": "yelpjFaNkc2-mTN36n_OSqCCjQ",
		"venue_name": "Yummy",
		"latitude": 41.947545,
		"longitude": -87.806587,
		"address1": "3709 N Harlem Ave",
		"address2": "",
		"address3": "",
		"city": "Chicago",
		"state": "IL",
		"zip_code": "60634"
	},
	{
		"venue_id": "yelp7jlSHTAbqcEypfajSMwUGw",
		"venue_name": "Tasty China",
		"latitude": 41.9099451,
		"longitude": -87.7098699,
		"address1": "3315 W North Ave",
		"address2": "",
		"address3": "",
		"city": "Chicago",
		"state": "IL",
		"zip_code": "60647"
	},
	{
		"venue_id": "yelpDGBp72_qQdmSv7hAJuHsxA",
		"venue_name": "China Snack",
		"latitude": 41.85156,
		"longitude": -87.70139,
		"address1": "3025 W Cermak Rd",
		"address2": "",
		"address3": "",
		"city": "Chicago",
		"state": "IL",
		"zip_code": "60623"
	},
	{
		"venue_id": "yelpnAKNoZla1l36a9HikFihdg",
		"venue_name": "Kim Long Restaurant",
		"latitude": 41.9242791473963,
		"longitude": -87.754516956822,
		"address1": "5114 W Fullerton Ave",
		"address2": "",
		"address3": "",
		"city": "Chicago",
		"state": "IL",
		"zip_code": "60639"
	},
	{
		"venue_id": "yelp2Ya7x2SZIeN_fIXH31-95w",
		"venue_name": "Jason's Wok",
		"latitude": 41.868785,
		"longitude": -87.686454,
		"address1": "1014 S Western Ave",
		"address2": "",
		"address3": "",
		"city": "Chicago",
		"state": "IL",
		"zip_code": "60612"
	},
	{
		"venue_id": "yelpIbRzCH8k2XSfM7VbCXMeoA",
		"venue_name": "Number 1 Chop Suey",
		"latitude": 41.95324,
		"longitude": -87.7358,
		"address1": "4307 W Irving Park Rd",
		"address2": "",
		"address3": "",
		"city": "Chicago",
		"state": "IL",
		"zip_code": "60641"
	},
	{
		"venue_id": "yelp8ElqHd_vgZSW9eUbNdgeTA",
		"venue_name": "Wow Bao - Gold coast",
		"latitude": 41.9037,
		"longitude": -87.62889,
		"address1": "1 W Division St",
		"address2": "",
		"address3": null,
		"city": "Chicago",
		"state": "IL",
		"zip_code": "60610"
	},
	{
		"venue_id": "yelpVFnls5N0Q4a10SEKHpSlLw",
		"venue_name": "See Thru Chinese Kitchen",
		"latitude": 41.9725,
		"longitude": -87.7282749,
		"address1": "5012 N Pulaski Rd",
		"address2": "",
		"address3": "",
		"city": "Chicago",
		"state": "IL",
		"zip_code": "60630"
	},
	{
		"venue_id": "yelpw3VTUxd-uAJfEMS7XlSAgQ",
		"venue_name": "Fung's Chop Suey",
		"latitude": 41.809996,
		"longitude": -87.592039,
		"address1": "1400 E 47th St",
		"address2": "",
		"address3": "",
		"city": "Chicago",
		"state": "IL",
		"zip_code": "60653"
	},
	{
		"venue_id": "yelpjCbaqGheWWUlMbsMLLlijA",
		"venue_name": "China Lamp Restaurant",
		"latitude": 41.81024,
		"longitude": -87.66459,
		"address1": "4603 S Ashland Ave",
		"address2": "",
		"address3": "",
		"city": "Chicago",
		"state": "IL",
		"zip_code": "60609"
	},
	{
		"venue_id": "yelpeDW-OBDw6BRrSDu4kt18Eg",
		"venue_name": "Blue Willow Chinese Restaurant",
		"latitude": 41.92522,
		"longitude": -87.68845,
		"address1": "2418 W Fullerton Ave",
		"address2": "",
		"address3": "",
		"city": "Chicago",
		"state": "IL",
		"zip_code": "60647"
	},
	{
		"venue_id": "yelpSW_xB0BLU6l_FvpmISOjBw",
		"venue_name": "China Palace",
		"latitude": 41.9898196,
		"longitude": -87.6594721,
		"address1": "1129 W Thorndale Ave",
		"address2": "",
		"address3": "",
		"city": "Chicago",
		"state": "IL",
		"zip_code": "60660"
	},
	{
		"venue_id": "yelp8EBMrbMOJZIIFFA4noOpLg",
		"venue_name": "Grand Triple Crown",
		"latitude": 41.83893,
		"longitude": -87.6464349,
		"address1": "3034 S Halsted St",
		"address2": "",
		"address3": "",
		"city": "Chicago",
		"state": "IL",
		"zip_code": "60608"
	},
	{
		"venue_id": "yelp373u-JUJm7iSY3itFdAGRw",
		"venue_name": "Chen's Garden",
		"latitude": 41.9622719,
		"longitude": -87.7276842,
		"address1": "4445 N Pulaski Rd",
		"address2": "Ste M",
		"address3": "",
		"city": "Chicago",
		"state": "IL",
		"zip_code": "60630"
	},
	{
		"venue_id": "yelpO8P17VtBUpqrHthrMz8XSA",
		"venue_name": "Panda Express",
		"latitude": 41.877862,
		"longitude": -87.6339346,
		"address1": "302 S Wells",
		"address2": "",
		"address3": "",
		"city": "Chicago",
		"state": "IL",
		"zip_code": "60610"
	},
	{
		"venue_id": "yelpsuwfx9N1jwovQ14VgRsZzw",
		"venue_name": "China Doll",
		"latitude": 41.90525,
		"longitude": -87.63486,
		"address1": "1246 N Wells St",
		"address2": "",
		"address3": "",
		"city": "Chicago",
		"state": "IL",
		"zip_code": "60610"
	},
	{
		"venue_id": "yelpz1h1dAZzNPJPRkTR5SsXvg",
		"venue_name": "Happy Panda",
		"latitude": 41.85762,
		"longitude": -87.6605,
		"address1": "1343 W 18th St",
		"address2": null,
		"address3": "",
		"city": "Chicago",
		"state": "IL",
		"zip_code": "60608"
	},
	{
		"venue_id": "yelpo-9UsUAF7K-ZByF9J6rKKA",
		"venue_name": "Van Phat Chinese Restaurant",
		"latitude": 41.93166,
		"longitude": -87.71263,
		"address1": "2750 N Kimball Ave",
		"address2": "",
		"address3": "",
		"city": "Chicago",
		"state": "IL",
		"zip_code": "60647"
	},
	{
		"venue_id": "yelp8C8lP3U9CfXRhNeNiC_j8g",
		"venue_name": "Great Wall Chinese Restaurant",
		"latitude": 42.0049945228824,
		"longitude": -87.6612055563127,
		"address1": "6748 N Sheridan Rd",
		"address2": "",
		"address3": "",
		"city": "Chicago",
		"state": "IL",
		"zip_code": "60626"
	},
	{
		"venue_id": "yelprnNJDY-WAGXX3rwvuuoyyg",
		"venue_name": "65 Express",
		"latitude": 41.8770776,
		"longitude": -87.6350651,
		"address1": "333 S Franklin St",
		"address2": "",
		"address3": null,
		"city": "Chicago",
		"state": "IL",
		"zip_code": "60606"
	},
	{
		"venue_id": "yelpTwtii57EHPcobWg5zMzp_A",
		"venue_name": "Daguan Noodle",
		"latitude": 41.851945,
		"longitude": -87.63228,
		"address1": "2230 S Wentworth Ave",
		"address2": "",
		"address3": null,
		"city": "Chicago",
		"state": "IL",
		"zip_code": "60616"
	},
	{
		"venue_id": "yelphq3S-k7cmHBUqr0W-Zb_pA",
		"venue_name": "Great Beijing",
		"latitude": 42.00315,
		"longitude": -87.72745,
		"address1": "6717 N Lincoln Ave",
		"address2": "",
		"address3": "",
		"city": "Lincolnwood",
		"state": "IL",
		"zip_code": "60712"
	},
	{
		"venue_id": "yelpdVFaT09phIIqPH_ss69I7Q",
		"venue_name": "New China Buffet",
		"latitude": 41.9467449,
		"longitude": -87.7090799,
		"address1": "3246 W Addison St",
		"address2": "",
		"address3": "",
		"city": "Chicago",
		"state": "IL",
		"zip_code": "60618"
	},
	{
		"venue_id": "yelplFdEFeJSguG3fL9gQuEuGQ",
		"venue_name": "Wok N Chop",
		"latitude": 41.97592,
		"longitude": -87.71559,
		"address1": "3456 W Foster Ave",
		"address2": null,
		"address3": "",
		"city": "Chicago",
		"state": "IL",
		"zip_code": "60625"
	},
	{
		"venue_id": "yelpP6Pl_a2o10a3XNjyeC1PaQ",
		"venue_name": "New China 2",
		"latitude": 41.9458699368988,
		"longitude": -87.6878499984741,
		"address1": "3533 N Western Ave",
		"address2": "",
		"address3": "",
		"city": "Chicago",
		"state": "IL",
		"zip_code": "60618"
	},
	{
		"venue_id": "yelpaw9fVEOdD1jdvOdoxAQGuw",
		"venue_name": "China Wok Restaurant",
		"latitude": 41.9370727539062,
		"longitude": -87.7667922973633,
		"address1": "3106 N Central Ave",
		"address2": "",
		"address3": "",
		"city": "Chicago",
		"state": "IL",
		"zip_code": "60634"
	},
	{
		"venue_id": "yelpkx51cqT0shVKYPEju4teKA",
		"venue_name": "Gen Hoe II",
		"latitude": 41.890633,
		"longitude": -87.706072,
		"address1": "501 N Kedzie Ave",
		"address2": "",
		"address3": "",
		"city": "Chicago",
		"state": "IL",
		"zip_code": "60612"
	},
	{
		"venue_id": "yelpVRjwa1MKA5dvLXjDUwygog",
		"venue_name": "Serena Restaurant",
		"latitude": 41.9976479,
		"longitude": -87.6879395,
		"address1": "2311 W Devon Ave",
		"address2": "",
		"address3": "",
		"city": "Chicago",
		"state": "IL",
		"zip_code": "60659"
	},
	{
		"venue_id": "yelpHo9LOYC2W5qpP0uIp7DmQg",
		"venue_name": "Panda Express",
		"latitude": 41.8793955,
		"longitude": -87.6252218,
		"address1": "77 E Adams St",
		"address2": "",
		"address3": "",
		"city": "Chicago",
		"state": "IL",
		"zip_code": "60604"
	},
	{
		"venue_id": "yelpVH-e49xlbbzyL7wVS6n_Fg",
		"venue_name": "Asian Cuisine Express",
		"latitude": 41.83669,
		"longitude": -87.72042,
		"address1": "3823 W 31st St",
		"address2": null,
		"address3": "",
		"city": "Chicago",
		"state": "IL",
		"zip_code": "60623"
	},
	{
		"venue_id": "yelpYFpphB37vMI_9QeyAtUOdg",
		"venue_name": "Chop Suey Huang",
		"latitude": 41.9760275,
		"longitude": -87.6924949,
		"address1": "5202 N Lincoln Ave",
		"address2": "",
		"address3": "",
		"city": "Chicago",
		"state": "IL",
		"zip_code": "60625"
	},
	{
		"venue_id": "yelpCpUaEdMNAWCLMTE3xMnFvA",
		"venue_name": "Buffet Castle",
		"latitude": 41.9394430275816,
		"longitude": -87.7118772563097,
		"address1": "3326 W Belmont Ave",
		"address2": null,
		"address3": "",
		"city": "Chicago",
		"state": "IL",
		"zip_code": "60618"
	},
	{
		"venue_id": "yelpDbbXsLJaghy0HVd4nokzKg",
		"venue_name": "Tientsin Restaurant",
		"latitude": 41.8550137169133,
		"longitude": -87.6320949196815,
		"address1": "2002 S Wentworth Ave",
		"address2": "",
		"address3": "Richland Center Food Court",
		"city": "Chicago",
		"state": "IL",
		"zip_code": "60616"
	},
	{
		"venue_id": "yelpFeejTCQoirTZAjxid5nBFA",
		"venue_name": "House Of Fortune",
		"latitude": 41.8488354,
		"longitude": -87.6317295,
		"address1": "2407 S Wentworth Ave",
		"address2": null,
		"address3": "",
		"city": "Chicago",
		"state": "IL",
		"zip_code": "60616"
	},
	{
		"venue_id": "yelp0nPzJn9Wb3yuf81FLCwenw",
		"venue_name": "Xiao Mei Xing",
		"latitude": 41.844745,
		"longitude": -87.6462951,
		"address1": "2615 S Halsted St",
		"address2": null,
		"address3": "",
		"city": "Chicago",
		"state": "IL",
		"zip_code": "60608"
	},
	{
		"venue_id": "yelpMQ2-urSQ5R0zlq5sDX2H_Q",
		"venue_name": "Chop Suey King Chinese Restaurant",
		"latitude": 41.9381,
		"longitude": -87.74643,
		"address1": "3135 N Cicero Ave",
		"address2": "",
		"address3": "",
		"city": "Chicago",
		"state": "IL",
		"zip_code": "60641"
	},
	{
		"venue_id": "yelpR7dWhVQdybm7oj6OS8uXoA",
		"venue_name": "China Cafe",
		"latitude": 41.9695651,
		"longitude": -87.6549349,
		"address1": "4818 N Sheridan Rd",
		"address2": "",
		"address3": "",
		"city": "Chicago",
		"state": "IL",
		"zip_code": "60640"
	},
	{
		"venue_id": "yelpoj2GWX5fGQPjHQhEQx1AnA",
		"venue_name": "Katy's Dumpling House",
		"latitude": 41.88838,
		"longitude": -87.80311,
		"address1": "1113 Lake St",
		"address2": "",
		"address3": "",
		"city": "Oak Park",
		"state": "IL",
		"zip_code": "60301"
	},
	{
		"venue_id": "yelpusc11_J2hP7FZKAoaqs0Ew",
		"venue_name": "See Thru Chinese Kitchen",
		"latitude": 41.8666551,
		"longitude": -87.6680966,
		"address1": "1651 W Roosevelt Rd",
		"address2": "",
		"address3": "",
		"city": "Chicago",
		"state": "IL",
		"zip_code": "60608"
	},
	{
		"venue_id": "yelp8wUSOJ6AVANd4lgR7Ga5hA",
		"venue_name": "Hong Kong Buffet",
		"latitude": 41.99519,
		"longitude": -87.71233,
		"address1": "6249 N McCormick Rd",
		"address2": "",
		"address3": "",
		"city": "Chicago",
		"state": "IL",
		"zip_code": "60659"
	},
	{
		"venue_id": "yelpUmu1BeHLB5siSWHhvkFWqQ",
		"venue_name": "Panda Express",
		"latitude": 41.8914408,
		"longitude": -87.6243185,
		"address1": "520 N Michigan Ave",
		"address2": "",
		"address3": "",
		"city": "Chicago",
		"state": "IL",
		"zip_code": "60611"
	},
	{
		"venue_id": "yelpTDqJMvNVEpbUkOy2qdwS1w",
		"venue_name": "Panda Express",
		"latitude": 41.9269530219885,
		"longitude": -87.6733466687866,
		"address1": "1730 W Fullerton Ave",
		"address2": "",
		"address3": "",
		"city": "Chicago",
		"state": "IL",
		"zip_code": "60614"
	},
	{
		"venue_id": "yelpgIoKJpHjOEPjWxGZObTxiQ",
		"venue_name": "China Star",
		"latitude": 41.9660045206547,
		"longitude": -87.7591980993748,
		"address1": "4716 N Milwaukee Ave",
		"address2": "",
		"address3": "",
		"city": "Chicago",
		"state": "IL",
		"zip_code": "60630"
	},
	{
		"venue_id": "yelp_lKhp5xPoq1ZD-AVEtVulg",
		"venue_name": "Chop Suey Kitchen",
		"latitude": 41.8801773,
		"longitude": -87.7596763,
		"address1": "5353 W Madison St",
		"address2": "",
		"address3": "",
		"city": "Chicago",
		"state": "IL",
		"zip_code": "60644"
	},
	{
		"venue_id": "yelpNxgAAr1dZsRT9UeZZJpjKg",
		"venue_name": "Chens Chinese River North",
		"latitude": 41.8888893,
		"longitude": -87.6330566,
		"address1": "149 W Kinzie St",
		"address2": null,
		"address3": "",
		"city": "Chicago",
		"state": "IL",
		"zip_code": "60654"
	},
	{
		"venue_id": "yelp7bayZdgSdeXJ_dsVLvvE5g",
		"venue_name": "China Kitchen",
		"latitude": 41.9759251,
		"longitude": -87.6776414,
		"address1": "1931 W Foster Ave",
		"address2": null,
		"address3": "",
		"city": "Chicago",
		"state": "IL",
		"zip_code": "60640"
	},
	{
		"venue_id": "yelpkyHu8RrARg3jB7OlToqwkA",
		"venue_name": "See Thru Chinese Kitchen",
		"latitude": 41.81525,
		"longitude": -87.66552,
		"address1": "4318 S Ashland Ave",
		"address2": "",
		"address3": "",
		"city": "Chicago",
		"state": "IL",
		"zip_code": "60609"
	},
	{
		"venue_id": "yelpZzJpJwYVNqb0FOfc_I1Dyw",
		"venue_name": "Wing Wah",
		"latitude": 41.8147316,
		"longitude": -87.7037811,
		"address1": "4340 S Archer Ave",
		"address2": "",
		"address3": "",
		"city": "Chicago",
		"state": "IL",
		"zip_code": "60632"
	},
	{
		"venue_id": "yelptkh_pqwzdruGBNNWnegrIg",
		"venue_name": "Macau Tasty House",
		"latitude": 41.84181,
		"longitude": -87.63218,
		"address1": "2826 S Wentworth Ave",
		"address2": "",
		"address3": null,
		"city": "Chicago",
		"state": "IL",
		"zip_code": "60616"
	},
	{
		"venue_id": "yelpA_og6lFgn8pG5jecJuzeUA",
		"venue_name": "Mr Wang - Traditional Malatang",
		"latitude": 41.8533823960886,
		"longitude": -87.6352023450962,
		"address1": "2171 S China Pl",
		"address2": "",
		"address3": null,
		"city": "Chicago",
		"state": "IL",
		"zip_code": "60616"
	},
	{
		"venue_id": "yelp9wSlQH95uVZLzgPu3mMxOw",
		"venue_name": "Panda Express",
		"latitude": 41.9949843190029,
		"longitude": -87.7142668638215,
		"address1": "6201 N Lincoln Ave",
		"address2": "",
		"address3": "",
		"city": "Chicago",
		"state": "IL",
		"zip_code": "60659"
	},
	{
		"venue_id": "yelpCn7v7ij_Qa8i-BK6Q8lAVw",
		"venue_name": "China Dragon",
		"latitude": 41.99462890625,
		"longitude": -87.6901702880859,
		"address1": "6214 N Western Ave",
		"address2": "",
		"address3": "",
		"city": "Chicago",
		"state": "IL",
		"zip_code": "60659"
	},
	{
		"venue_id": "yelp4Fr08sk3orj-itq-v-3rWA",
		"venue_name": "Miss Egg Roll",
		"latitude": 41.964235,
		"longitude": -87.65435,
		"address1": "4513 N Sheridan Rd",
		"address2": "",
		"address3": "",
		"city": "Chicago",
		"state": "IL",
		"zip_code": "60640"
	},
	{
		"venue_id": "yelpG3hp9OAtmCdrq_yhyGNh6A",
		"venue_name": "Lotus Chinese Restaurant",
		"latitude": 41.910149,
		"longitude": -87.807443,
		"address1": "7230 W North Ave",
		"address2": "Ste 210",
		"address3": "",
		"city": "Elmwood Park",
		"state": "IL",
		"zip_code": "60707"
	},
	{
		"venue_id": "yelpXlr7jRxSmzilPZbh9qBO3Q",
		"venue_name": "Family House",
		"latitude": 41.9731451,
		"longitude": -87.65535,
		"address1": "1007 W Argyle St",
		"address2": "",
		"address3": "",
		"city": "Chicago",
		"state": "IL",
		"zip_code": "60640"
	},
	{
		"venue_id": "yelpXyMQC5C_EkXDX-2UJxMh5Q",
		"venue_name": "Panda Express",
		"latitude": 41.8850367438412,
		"longitude": -87.6228216537083,
		"address1": "130 E Randolph",
		"address2": "130 E Randolph St",
		"address3": "",
		"city": "Chicago",
		"state": "IL",
		"zip_code": "60601"
	},
	{
		"venue_id": "yelpDcY70IPWXm6w5ays04TLiQ",
		"venue_name": "Chen's Garden",
		"latitude": 41.910186,
		"longitude": -87.724502,
		"address1": "3912 W North Ave",
		"address2": "",
		"address3": "",
		"city": "Chicago",
		"state": "IL",
		"zip_code": "60647"
	},
	{
		"venue_id": "yelpR9jRdYgRsS1oDQdP-DICxA",
		"venue_name": "Panda Express",
		"latitude": 41.8856035299199,
		"longitude": -87.626606784761,
		"address1": "180 N Wabash",
		"address2": "",
		"address3": "",
		"city": "Chicago",
		"state": "IL",
		"zip_code": "60601"
	},
	{
		"venue_id": "yelpJwnXfTcwyIskzBqAsFI0JQ",
		"venue_name": "Panda Express",
		"latitude": 41.88186,
		"longitude": -87.62669,
		"address1": "29 E Madison",
		"address2": "",
		"address3": "",
		"city": "Chicago",
		"state": "IL",
		"zip_code": "60602"
	},
	{
		"venue_id": "yelp1xusdeh8fo3xJN5Asxni9Q",
		"venue_name": "Lee's Garden Restaurant",
		"latitude": 41.909963,
		"longitude": -87.732888,
		"address1": "4240 W North Ave",
		"address2": "",
		"address3": "",
		"city": "Chicago",
		"state": "IL",
		"zip_code": "60639"
	},
	{
		"venue_id": "yelpkXBG_G7Zt_CXNG0043JuQw",
		"venue_name": "Panda Express",
		"latitude": 41.8850975036621,
		"longitude": -87.6315231323242,
		"address1": "100 W Randolph C17",
		"address2": "",
		"address3": "",
		"city": "Chicago",
		"state": "IL",
		"zip_code": "60601"
	},
	{
		"venue_id": "yelpli8TXpJqS7RQYmn-PXCZNg",
		"venue_name": "Panda Express",
		"latitude": 41.8659599,
		"longitude": -87.639375,
		"address1": "1250 South Canal St",
		"address2": null,
		"address3": null,
		"city": "Chicago",
		"state": "IL",
		"zip_code": "60607"
	},
	{
		"venue_id": "yelpydHzot2gtnge9zdpiaGbtg",
		"venue_name": "Hong Kong Express",
		"latitude": 41.8517851,
		"longitude": -87.6932846,
		"address1": "2703 W Cermak Rd",
		"address2": "",
		"address3": "",
		"city": "Chicago",
		"state": "IL",
		"zip_code": "60608"
	},
	{
		"venue_id": "yelpjSfLnra0vZxD2V90JXKPVw",
		"venue_name": "Star East",
		"latitude": 41.9240749,
		"longitude": -87.7689618,
		"address1": "5712 W Fullerton Ave",
		"address2": "",
		"address3": "",
		"city": "Chicago",
		"state": "IL",
		"zip_code": "60639"
	},
	{
		"venue_id": "yelpBTA-dqpD1Hz2CoX-86yJiA",
		"venue_name": "Panda Express",
		"latitude": 41.8751167970981,
		"longitude": -87.6274356612093,
		"address1": "515 S State St",
		"address2": "",
		"address3": "",
		"city": "Chicago",
		"state": "IL",
		"zip_code": "60605"
	},
	{
		"venue_id": "yelpe6VghMCxGeGOu8B7ZZJ2Vw",
		"venue_name": "Panda Express",
		"latitude": 41.88235,
		"longitude": -87.6404699,
		"address1": "500 W Madison St",
		"address2": "",
		"address3": "",
		"city": "Chicago",
		"state": "IL",
		"zip_code": "60661"
	},
	{
		"venue_id": "yelpRAT3V-66nBq-N-KKPlmx3A",
		"venue_name": "Wing's Chinese Restaurant",
		"latitude": 41.8455256,
		"longitude": -87.7536236,
		"address1": "5143 W 25th St",
		"address2": "",
		"address3": "",
		"city": "Cicero",
		"state": "IL",
		"zip_code": "60804"
	},
	{
		"venue_id": "yelpdQCXxwQujjMB9YC_6wtRyg",
		"venue_name": "Chinese Kitchen",
		"latitude": 41.945785,
		"longitude": -87.7469351,
		"address1": "3539 N Cicero Ave",
		"address2": "",
		"address3": "",
		"city": "Chicago",
		"state": "IL",
		"zip_code": "60641"
	},
	{
		"venue_id": "yelpCacV51UrPVMjTxZ4yyjILg",
		"venue_name": "Gao's Kabob Sports Grill",
		"latitude": 41.852276,
		"longitude": -87.633509,
		"address1": "232 W 22nd Pl",
		"address2": "",
		"address3": null,
		"city": "Chicago",
		"state": "IL",
		"zip_code": "60616"
	},
	{
		"venue_id": "yelpUhuVo3fYwGpjx8haCAyuYg",
		"venue_name": "Chan's Garden",
		"latitude": 41.8516199,
		"longitude": -87.69652,
		"address1": "2825 W Cermak Rd",
		"address2": "",
		"address3": "",
		"city": "Chicago",
		"state": "IL",
		"zip_code": "60623"
	},
	{
		"venue_id": "yelpjaW2XhOcdqfy6tAbMztbsg",
		"venue_name": "Lime Leaf",
		"latitude": 41.8770892,
		"longitude": -87.6273126,
		"address1": "8 E Van Buren St",
		"address2": "",
		"address3": null,
		"city": "Chicago",
		"state": "IL",
		"zip_code": "60604"
	},
	{
		"venue_id": "yelphtDlYjTIdl2NoxkRx3-qDw",
		"venue_name": "China Chef",
		"latitude": 41.9390144,
		"longitude": -87.7425537,
		"address1": "4600 W Belmont Ave",
		"address2": "",
		"address3": "",
		"city": "Chicago",
		"state": "IL",
		"zip_code": "60641"
	},
	{
		"venue_id": "yelpDB-3umIbc0nxMHQ7JJmiSg",
		"venue_name": "King Chop Suey Restaurant",
		"latitude": 41.8883215,
		"longitude": -87.7805379,
		"address1": "210 Lake St",
		"address2": "",
		"address3": "",
		"city": "Oak Park",
		"state": "IL",
		"zip_code": "60302"
	},
	{
		"venue_id": "yelpgf_JDbv4_M8LXjmxZXjBFg",
		"venue_name": "Luo's Peking House",
		"latitude": 41.8876488,
		"longitude": -87.8025227,
		"address1": "113 N Marion St",
		"address2": "",
		"address3": "",
		"city": "Oak Park",
		"state": "IL",
		"zip_code": "60301"
	},
	{
		"venue_id": "yelp-OoRBi390Kiv6vDMKDOfNA",
		"venue_name": "Cajun Grill At Union Station",
		"latitude": 41.878795,
		"longitude": -87.63876,
		"address1": "225 S Canal St",
		"address2": "",
		"address3": "",
		"city": "Chicago",
		"state": "IL",
		"zip_code": "60606"
	},
	{
		"venue_id": "yelpwVAiUKGBN9jpaXI5ou7Pgg",
		"venue_name": "Big Bowl Chinese Express",
		"latitude": 41.8913714024301,
		"longitude": -87.608,
		"address1": "600 E Grand Ave",
		"address2": "",
		"address3": "",
		"city": "Chicago",
		"state": "IL",
		"zip_code": "60611"
	},
	{
		"venue_id": "yelpKdGMWed_WZyYFV6yyYlsUw",
		"venue_name": "Wow Bao",
		"latitude": 41.89687,
		"longitude": -87.62643,
		"address1": "46 E Chicago Ave",
		"address2": null,
		"address3": null,
		"city": "Chicago",
		"state": "IL",
		"zip_code": "60611"
	},
	{
		"venue_id": "yelp23EPdy1HoBWL_UcmoqFggA",
		"venue_name": "Wen Cai Chinese Kitchen",
		"latitude": 41.8517499695275,
		"longitude": -87.6851570606232,
		"address1": "2334 W Cermak Rd",
		"address2": "",
		"address3": "",
		"city": "Chicago",
		"state": "IL",
		"zip_code": "60608"
	},
	{
		"venue_id": "yelpRmMRHFyFR5sGBdF47huxKg",
		"venue_name": "China Palace",
		"latitude": 41.9899139934233,
		"longitude": -87.6594649392986,
		"address1": "1129 W Thorndale Ave",
		"address2": null,
		"address3": "",
		"city": "Chicago",
		"state": "IL",
		"zip_code": "60660"
	},
	{
		"venue_id": "yelpGl6gZCXi4OvywRNGnNuzdw",
		"venue_name": "Happy Chef",
		"latitude": 41.86401,
		"longitude": -87.80452,
		"address1": "1215 B S Harlem Ave",
		"address2": "",
		"address3": "",
		"city": "Forest Park",
		"state": "IL",
		"zip_code": "60130"
	},
	{
		"venue_id": "yelpDegqunLGTVUTtHeWg5aFVA",
		"venue_name": "New China Buffet",
		"latitude": 41.9757783861324,
		"longitude": -87.8099786744261,
		"address1": "7310 W Foster Ave",
		"address2": "",
		"address3": "",
		"city": "Chicago",
		"state": "IL",
		"zip_code": "60656"
	},
	{
		"venue_id": "yelp6EaSCtyDV4HR2xFfLQDeJw",
		"venue_name": "Beijing & Bangkok",
		"latitude": 41.909676,
		"longitude": -87.633559,
		"address1": "1512 N Lasalle St",
		"address2": "",
		"address3": "",
		"city": "Chicago",
		"state": "IL",
		"zip_code": "60610"
	},
	{
		"venue_id": "yelpuBk8iYKCBKKzTbhdVTy9ow",
		"venue_name": "Beijing Chinese Restaurant",
		"latitude": 41.8090837,
		"longitude": -87.6614904,
		"address1": "4640 S Bishop St",
		"address2": null,
		"address3": null,
		"city": "Chicago",
		"state": "IL",
		"zip_code": "60609"
	},
	{
		"venue_id": "yelpWimXBIxydgIpyLtrzYXtPw",
		"venue_name": "Great China House",
		"latitude": 41.8506555813284,
		"longitude": -87.6763534920326,
		"address1": "2300 S Damen Ave",
		"address2": "",
		"address3": "",
		"city": "Chicago",
		"state": "IL",
		"zip_code": "60608"
	},
	{
		"venue_id": "yelpcGgbmHkBwUPlzQtv_akwWQ",
		"venue_name": "Elaine's Chop Suey",
		"latitude": 41.8099849,
		"longitude": -87.6751565,
		"address1": "4512 B Damen Ave",
		"address2": "",
		"address3": "",
		"city": "Chicago",
		"state": "IL",
		"zip_code": "60609"
	},
	{
		"venue_id": "yelpg6Zs7pTsRDuO-v0JdV-w1w",
		"venue_name": "Jade Palace",
		"latitude": 41.8448,
		"longitude": -87.70466,
		"address1": "2551 S Kedzie Ave",
		"address2": "",
		"address3": "",
		"city": "Chicago",
		"state": "IL",
		"zip_code": "60623"
	},
	{
		"venue_id": "yelpD4YLn4IuUND1yow04JqPnA",
		"venue_name": "Joye Carryout",
		"latitude": 41.8948419,
		"longitude": -87.7470472,
		"address1": "4829 W Chicago Ave",
		"address2": "",
		"address3": "",
		"city": "Chicago",
		"state": "IL",
		"zip_code": "60651"
	},
	{
		"venue_id": "yelpz3aD1T5cmDmJSn7WPFUIjw",
		"venue_name": "Hong Kong Garden",
		"latitude": 41.82077,
		"longitude": -87.80312,
		"address1": "3906 Harlem Ave",
		"address2": "",
		"address3": "",
		"city": "Lyons",
		"state": "IL",
		"zip_code": "60534"
	},
	{
		"venue_id": "yelpiLzep9qTYOcoki31v4DJgQ",
		"venue_name": "China King Restaurant",
		"latitude": 41.9673311,
		"longitude": -87.8103943,
		"address1": "7320 W Lawrence Ave",
		"address2": "",
		"address3": "",
		"city": "Harwood Heights",
		"state": "IL",
		"zip_code": "60706"
	},
	{
		"venue_id": "yelp8dI2wOdhi_o9_l7LyB-2tw",
		"venue_name": "New Love Teriyaki",
		"latitude": 41.822533,
		"longitude": -87.694389,
		"address1": "3901 S California Ave",
		"address2": "",
		"address3": "",
		"city": "Chicago",
		"state": "IL",
		"zip_code": "60632"
	},
	{
		"venue_id": "yelpgWZ6PzjrbeDJyKrTpNK-CA",
		"venue_name": "Brickyard Super China Buffet",
		"latitude": 41.9282324,
		"longitude": -87.7858048,
		"address1": "2650 N Narragansett Ave",
		"address2": "",
		"address3": "",
		"city": "Chicago",
		"state": "IL",
		"zip_code": "60639"
	},
	{
		"venue_id": "yelp8X_B-2qYugWiA2_7rKuDdw",
		"venue_name": "J-Wok Chinese Kitchen",
		"latitude": 41.86492,
		"longitude": -87.7904,
		"address1": "6641 Roosevelt Rd",
		"address2": "",
		"address3": "",
		"city": "Berwyn",
		"state": "IL",
		"zip_code": "60402"
	},
	{
		"venue_id": "yelpZnSQSDg48FfjkbcsknMfYg",
		"venue_name": "Hong Kong Delight IV",
		"latitude": 41.8309651,
		"longitude": -87.6178496,
		"address1": "327 E 35th St",
		"address2": "",
		"address3": "",
		"city": "Chicago",
		"state": "IL",
		"zip_code": "60616"
	},
	{
		"venue_id": "yelpvbQAjeJbz8Yfmzpm17uZFQ",
		"venue_name": "Go Go China",
		"latitude": 41.9989128112793,
		"longitude": -87.7479476928711,
		"address1": "6467 N Cicero",
		"address2": "",
		"address3": "",
		"city": "Lincolnwood",
		"state": "IL",
		"zip_code": "60712"
	},
	{
		"venue_id": "yelpP83IJ37HqdQe3vCxRdwzOA",
		"venue_name": "N-Joy Chop Suey",
		"latitude": 41.8288351,
		"longitude": -87.770924,
		"address1": "5903 W 35th St",
		"address2": "",
		"address3": "",
		"city": "Cicero",
		"state": "IL",
		"zip_code": "60804"
	},
	{
		"venue_id": "yelp_0mISpJTBxd9G1Pc9--Weg",
		"venue_name": "Joy Place",
		"latitude": 41.8499772,
		"longitude": -87.6319779,
		"address1": "2334 S Wentworth Ave",
		"address2": "",
		"address3": "",
		"city": "Chicago",
		"state": "IL",
		"zip_code": "60616"
	},
	{
		"venue_id": "yelpcaWQRPn3_jSYM4eeDNDARQ",
		"venue_name": "See Thru Chinese Kitchen",
		"latitude": 41.9020151,
		"longitude": -87.7659266,
		"address1": "5609 W Division St",
		"address2": null,
		"address3": null,
		"city": "Chicago",
		"state": "IL",
		"zip_code": "60651"
	},
	{
		"venue_id": "yelpwzqxPTQ6NRE8HV3oG7hRkg",
		"venue_name": "Town Kitchen",
		"latitude": 41.8550459315101,
		"longitude": -87.6321264356375,
		"address1": "2002 S Wentworth Ave",
		"address2": null,
		"address3": "B9",
		"city": "Chicago",
		"state": "IL",
		"zip_code": "60616"
	},
	{
		"venue_id": "yelpJBBtwd2Bfmnkh16zRtqDWA",
		"venue_name": "NO 1 BBQ",
		"latitude": 41.8493114594906,
		"longitude": -87.6320396172142,
		"address1": "2358 S Wentworth Ave",
		"address2": "",
		"address3": null,
		"city": "Chicago",
		"state": "IL",
		"zip_code": "60616"
	},
	{
		"venue_id": "yelp3HtIOmCeuF33eySf--qzDA",
		"venue_name": "Happy Chinese Kitchen",
		"latitude": 41.8530529330814,
		"longitude": -87.6242785166023,
		"address1": "80 East Cermak Rd",
		"address2": "Ste B",
		"address3": "",
		"city": "Chicago",
		"state": "IL",
		"zip_code": "60616"
	},
	{
		"venue_id": "yelpj2ya6VbwNGsDiMEp8nQN0w",
		"venue_name": "Chop Stick Express",
		"latitude": 41.93913,
		"longitude": -87.80641,
		"address1": "3237 N Harlem Ave",
		"address2": "",
		"address3": "",
		"city": "Chicago",
		"state": "IL",
		"zip_code": "60634"
	},
	{
		"venue_id": "yelpGlS0EjpsWHZ4AvgSTTDHkQ",
		"venue_name": "Super China Buffet",
		"latitude": 41.9551464,
		"longitude": -87.8071551,
		"address1": "4125 N Harlem Ave",
		"address2": "",
		"address3": "",
		"city": "Norridge",
		"state": "IL",
		"zip_code": "60706"
	},
	{
		"venue_id": "yelpKzgg9J68DjaX_MS-r1aNWA",
		"venue_name": "Golden Apple Cafe & Bakery",
		"latitude": 41.84876,
		"longitude": -87.63158,
		"address1": "2409 S Wentworth Ave",
		"address2": "",
		"address3": "",
		"city": "Chicago",
		"state": "IL",
		"zip_code": "60616"
	},
	{
		"venue_id": "yelpPcM-v6HLlSTTMhf63ieO6A",
		"venue_name": "Panda Express",
		"latitude": 41.8448870442285,
		"longitude": -87.7002970660464,
		"address1": "3000 W 26th St",
		"address2": "",
		"address3": null,
		"city": "Chicago",
		"state": "IL",
		"zip_code": "60623"
	},
	{
		"venue_id": "yelp7gnQQ_yNKnxqD-dlPXnmTw",
		"venue_name": "Wok N Roll Express",
		"latitude": 41.8261575168266,
		"longitude": -87.7969187797623,
		"address1": "6969 Ogden Ave",
		"address2": "",
		"address3": "",
		"city": "Berwyn",
		"state": "IL",
		"zip_code": "60402"
	},
	{
		"venue_id": "yelpQuLCjEa_6Iw30Z4yXevkdQ",
		"venue_name": "China Chop Suey",
		"latitude": 41.9087488,
		"longitude": -87.7857032,
		"address1": "6425 N Ave",
		"address2": "",
		"address3": "",
		"city": "Oak Park",
		"state": "IL",
		"zip_code": "60302"
	},
	{
		"venue_id": "yelpxN-HRPe8sJh20xleqxkcUA",
		"venue_name": "Chinese Kltchen",
		"latitude": 41.86772,
		"longitude": -87.705875,
		"address1": "1114 S Kedzie Ave",
		"address2": "",
		"address3": "",
		"city": "Chicago",
		"state": "IL",
		"zip_code": "60612"
	},
	{
		"venue_id": "yelpQSAnna9k5xdNmL0HGsQoeA",
		"venue_name": "Tasty House Restaurant",
		"latitude": 41.86474,
		"longitude": -87.80193,
		"address1": "7101 Roosevelt Rd",
		"address2": "",
		"address3": "",
		"city": "Berwyn",
		"state": "IL",
		"zip_code": "60402"
	},
	{
		"venue_id": "yelpOpjcw_pPgyE0UJJxr4yv9A",
		"venue_name": "See Thru Chinese Kitchen",
		"latitude": 41.8802251,
		"longitude": -87.7571486,
		"address1": "5249 W Madison St",
		"address2": null,
		"address3": null,
		"city": "Chicago",
		"state": "IL",
		"zip_code": "60644"
	},
	{
		"venue_id": "yelpjlnAEW4-Suhd5OylaRYJSw",
		"venue_name": "Panda China",
		"latitude": 41.9540426,
		"longitude": -87.7867556,
		"address1": "4042 N Narragansett Ave",
		"address2": "",
		"address3": null,
		"city": "Chicago",
		"state": "IL",
		"zip_code": "60634"
	},
	{
		"venue_id": "yelp4Xh5oN5N2B4jHU56DnSh8w",
		"venue_name": "Chinese Kitchen",
		"latitude": 41.8666801452637,
		"longitude": -87.705810546875,
		"address1": "1114 S Kedzie Ave",
		"address2": "",
		"address3": "",
		"city": "Chicago",
		"state": "IL",
		"zip_code": "60612"
	},
	{
		"venue_id": "yelpWH3mVGrzhR7V3wLDiSEzdw",
		"venue_name": "Canton Star",
		"latitude": 41.851114881722,
		"longitude": -87.6863449439406,
		"address1": "2230 Western Ave",
		"address2": "",
		"address3": "",
		"city": "Chicago",
		"state": "IL",
		"zip_code": "60608"
	},
	{
		"venue_id": "yelp6DFHmfEtz5RnovyCWL78Sw",
		"venue_name": "China Delight",
		"latitude": 41.9092049,
		"longitude": -87.7908432,
		"address1": "6618 W North Ave",
		"address2": "",
		"address3": "",
		"city": "Chicago",
		"state": "IL",
		"zip_code": "60707"
	},
	{
		"venue_id": "yelpbM4Ea1sV0caV7lzL2dQBkw",
		"venue_name": "Double Happiness",
		"latitude": 41.97303,
		"longitude": -87.65733,
		"address1": "1061 W Argyle St",
		"address2": "",
		"address3": null,
		"city": "Chicago",
		"state": "IL",
		"zip_code": "60640"
	},
	{
		"venue_id": "yelpxA6ILYZElrrhjguJwFkxwQ",
		"venue_name": "#1 Chop suey",
		"latitude": 41.894918215156,
		"longitude": -87.7820884427612,
		"address1": "242 Chicago Ave",
		"address2": "",
		"address3": "",
		"city": "Oak Park",
		"state": "IL",
		"zip_code": "60302"
	},
	{
		"venue_id": "yelpcJrP4qr_Mpq2xMJReQyAkA",
		"venue_name": "First Chop Suey",
		"latitude": 41.848936,
		"longitude": -87.7440087,
		"address1": "2325 S Cicero Ave",
		"address2": "",
		"address3": "",
		"city": "Cicero",
		"state": "IL",
		"zip_code": "60804"
	},
	{
		"venue_id": "yelpRZfv616sHgQzfHt9rczHuw",
		"venue_name": "See Thru Chinese Kitchen",
		"latitude": 41.89585,
		"longitude": -87.707439,
		"address1": "800 N Kedzie Ave",
		"address2": "Ste 302",
		"address3": "",
		"city": "Chicago",
		"state": "IL",
		"zip_code": "60651"
	},
	{
		"venue_id": "yelpA80sfAF_YZaDeYAfGHO2hw",
		"venue_name": "Chinese Community Center",
		"latitude": 41.8523483276367,
		"longitude": -87.6340103149414,
		"address1": "250 W 22nd Pl",
		"address2": "",
		"address3": "",
		"city": "Chicago",
		"state": "IL",
		"zip_code": "60616"
	},
	{
		"venue_id": "yelpVYGZba-k6YeqrjZeNn-rfA",
		"venue_name": "Happiness Chinese Restaurant",
		"latitude": 41.86562,
		"longitude": -87.78006,
		"address1": "6222 Roosevelt Rd",
		"address2": "",
		"address3": "",
		"city": "Oak Park",
		"state": "IL",
		"zip_code": "60304"
	},
	{
		"venue_id": "yelpwpDIChp5X46YvdKunWz1kA",
		"venue_name": "65-Asian Kitchen Merchandise Exchange",
		"latitude": 41.8778785,
		"longitude": -87.6316251,
		"address1": "315 S La Salle St",
		"address2": "",
		"address3": "",
		"city": "Chicago",
		"state": "IL",
		"zip_code": "60604"
	},
	{
		"venue_id": "yelpztEumlu0wQKiJBuTx12zqA",
		"venue_name": "Happy Chef",
		"latitude": 41.86401,
		"longitude": -87.80452,
		"address1": "1215 S Harlem Ave",
		"address2": "",
		"address3": "",
		"city": "Forest Park",
		"state": "IL",
		"zip_code": "60130"
	},
	{
		"venue_id": "yelpZMh2wZJMA6MiZyTUiXDL8w",
		"venue_name": "To Your Taste",
		"latitude": 41.8415237,
		"longitude": -87.8035183,
		"address1": "2728 Harlem Ave",
		"address2": "",
		"address3": "",
		"city": "Riverside",
		"state": "IL",
		"zip_code": "60546"
	},
	{
		"venue_id": "yelprNkLkMDkyFld-Jpqsl07vw",
		"venue_name": "Sun Eng's",
		"latitude": 41.9663352966309,
		"longitude": -87.8075485229492,
		"address1": "4734 N Harlem Ave",
		"address2": "",
		"address3": "",
		"city": "Harwood Heights",
		"state": "IL",
		"zip_code": "60706"
	},
	{
		"venue_id": "yelp10A9YrewPgQblIHr9uYgmg",
		"venue_name": "N Joy II",
		"latitude": 41.83088,
		"longitude": -87.80251,
		"address1": "7140 Windsor Ave",
		"address2": "",
		"address3": "",
		"city": "Berwyn",
		"state": "IL",
		"zip_code": "60402"
	},
	{
		"venue_id": "yelpGZlBiURnGYPY7qwIAuq8zg",
		"venue_name": "Yu Shan",
		"latitude": 41.9023813,
		"longitude": -87.6652238,
		"address1": "1146 N Milwaukee Ave",
		"address2": "Ste 1146",
		"address3": null,
		"city": "Chicago",
		"state": "IL",
		"zip_code": "60642"
	},
	{
		"venue_id": "yelphhAo90EnMhU1xHIger_Reg",
		"venue_name": "65 Express",
		"latitude": 41.8852,
		"longitude": -87.63563,
		"address1": "174 N Franklin St",
		"address2": "",
		"address3": null,
		"city": "Chicago",
		"state": "IL",
		"zip_code": "60606"
	},
	{
		"venue_id": "yelpYEtGkUL4Krl7XolVpbpP_Q",
		"venue_name": "Wanda's Chinese Kitchen",
		"latitude": 41.85036,
		"longitude": -87.78134,
		"address1": "6301 W Cermak Rd",
		"address2": "Ste D",
		"address3": "",
		"city": "Berwyn",
		"state": "IL",
		"zip_code": "60402"
	},
	{
		"venue_id": "yelp8ogBepUZsGZ5CYuuP5h-dg",
		"venue_name": "Seven Star",
		"latitude": 41.8061217308563,
		"longitude": -87.7044569362071,
		"address1": "3209 W 47th Pl",
		"address2": "",
		"address3": "",
		"city": "Chicago",
		"state": "IL",
		"zip_code": "60632"
	},
	{
		"venue_id": "yelpr9Dg8V5ufYBIgtr683nbcw",
		"venue_name": "Cafe California",
		"latitude": 41.99477,
		"longitude": -87.6998799,
		"address1": "6226 N California Ave",
		"address2": "",
		"address3": "",
		"city": "Chicago",
		"state": "IL",
		"zip_code": "60659"
	},
	{
		"venue_id": "yelp7GWR9RMjfAHM9YcnneNnMw",
		"venue_name": "Panda Express",
		"latitude": 41.848777,
		"longitude": -87.804046,
		"address1": "2300 S Harlem Ave",
		"address2": "",
		"address3": "",
		"city": "North Riverside",
		"state": "IL",
		"zip_code": "60546"
	},
	{
		"venue_id": "yelpI4MV_eM__diXr-hvI6VLBA",
		"venue_name": "See Thru Chinese Kitchen",
		"latitude": 41.8667907714844,
		"longitude": -87.6786804199219,
		"address1": "5616 W Roosevelt Rd",
		"address2": "",
		"address3": "",
		"city": "Chicago",
		"state": "IL",
		"zip_code": "60608"
	},
	{
		"venue_id": "yelp1lcJ2zfaS3wKHvyfkiV0qQ",
		"venue_name": "Panda Express",
		"latitude": 41.8367474261671,
		"longitude": -87.7438374236226,
		"address1": "3076 S Cicero Ave",
		"address2": null,
		"address3": null,
		"city": "Cicero",
		"state": "IL",
		"zip_code": "60804"
	},
	{
		"venue_id": "yelpoDif9TUZ_25slFKlp-Q4kQ",
		"venue_name": "Kuan Zhai Alley",
		"latitude": 41.85505,
		"longitude": -87.63219,
		"address1": "2002 S Wentworth Ave",
		"address2": null,
		"address3": null,
		"city": "Chicago",
		"state": "IL",
		"zip_code": "60616"
	},
	{
		"venue_id": "yelpvPO4vPYlZzrEf-qK3O6Rgw",
		"venue_name": "King Wah Express",
		"latitude": 41.8919826,
		"longitude": -87.6091808,
		"address1": "700 E Grand Ave",
		"address2": "",
		"address3": "",
		"city": "Chicago",
		"state": "IL",
		"zip_code": "60611"
	},
	{
		"venue_id": "yelpex53bLTFJI3vYiZtCwoUKg",
		"venue_name": "See Thru Chinese Kitchen",
		"latitude": 41.85834,
		"longitude": -87.7443651,
		"address1": "1605 S Cicero Ave",
		"address2": "",
		"address3": "",
		"city": "Cicero",
		"state": "IL",
		"zip_code": "60804"
	},
	{
		"venue_id": "yelpnyRl4XD4W3NmnG2GUDzHHA",
		"venue_name": "Shan Shaan Taste \u5c71\u9655\u540d\u5403",
		"latitude": 41.85505,
		"longitude": -87.63219,
		"address1": "2002 S Wentworth Ave B10",
		"address2": null,
		"address3": "",
		"city": "Chicago",
		"state": "IL",
		"zip_code": "60616"
	},
	{
		"venue_id": "yelpzKjqASngJJufJ2I3EOJuqA",
		"venue_name": "Anne's Mandarin",
		"latitude": 41.9254188537598,
		"longitude": -87.6677169799805,
		"address1": "1550 W Fullerton Ave",
		"address2": null,
		"address3": "",
		"city": "Chicago",
		"state": "IL",
		"zip_code": "60614"
	},
	{
		"venue_id": "yelpVGBb5EPYLG-jYAIJu2PDVg",
		"venue_name": "Overseas China Restaurant",
		"latitude": 41.8508,
		"longitude": -87.79543,
		"address1": "6846 Cermak Rd",
		"address2": "",
		"address3": "",
		"city": "Berwyn",
		"state": "IL",
		"zip_code": "60402"
	},
	{
		"venue_id": "yelpFJSJrE7UXXzQ3-lIv_ZVrA",
		"venue_name": "Chinese Chef's Kitchen",
		"latitude": 41.9287534,
		"longitude": -87.7659713,
		"address1": "2637 N Central Ave",
		"address2": "",
		"address3": "",
		"city": "Chicago",
		"state": "IL",
		"zip_code": "60639"
	},
	{
		"venue_id": "yelpxYvpsNQprVAKUGuwk3vqXw",
		"venue_name": "Panda Express",
		"latitude": 41.8727636866164,
		"longitude": -87.6494461962963,
		"address1": "750 S Halsted St",
		"address2": "",
		"address3": null,
		"city": "Chicago",
		"state": "IL",
		"zip_code": "60607"
	},
	{
		"venue_id": "yelpQ2o2DIhjz8uslZ8xl3BZ7g",
		"venue_name": "Little Box",
		"latitude": 41.9898186,
		"longitude": -87.6594696,
		"address1": "1129 W Thorndale",
		"address2": "",
		"address3": "",
		"city": "Chicago",
		"state": "IL",
		"zip_code": "60660"
	},
	{
		"venue_id": "yelpgYLlhdwTKguUqTUf6rWcWA",
		"venue_name": "Charming Wok",
		"latitude": 41.9691811,
		"longitude": -87.6593094,
		"address1": "4801 N Broadway St",
		"address2": "",
		"address3": "",
		"city": "Chicago",
		"state": "IL",
		"zip_code": "60640"
	},
	{
		"venue_id": "yelpSUwsTA812lE2nU1ppAnQvA",
		"venue_name": "China Chef",
		"latitude": 41.8311989,
		"longitude": -87.6200013,
		"address1": "258 E 35th St",
		"address2": "",
		"address3": "",
		"city": "Chicago",
		"state": "IL",
		"zip_code": "60616"
	},
	{
		"venue_id": "yelpOzSGEoAUk3AkGwQROJAonw",
		"venue_name": "Great Buffet",
		"latitude": 41.8516620615654,
		"longitude": -87.6509857177734,
		"address1": "2531 W Cermak Rd",
		"address2": "",
		"address3": "",
		"city": "Chicago",
		"state": "IL",
		"zip_code": "60608"
	},
	{
		"venue_id": "yelp6n3jFoC-68eiq9XIKfu0OQ",
		"venue_name": "Wing Wah Restaurant",
		"latitude": 41.83297,
		"longitude": -87.80327,
		"address1": "3222 Harlem Ave",
		"address2": "",
		"address3": "",
		"city": "Riverside",
		"state": "IL",
		"zip_code": "60546"
	},
	{
		"venue_id": "yelpctwF1QekHROrYHJ-atXb_w",
		"venue_name": "gruub hub",
		"latitude": 41.8501276485573,
		"longitude": -87.6502990722656,
		"address1": "",
		"address2": "",
		"address3": "",
		"city": "Chicago",
		"state": "IL",
		"zip_code": ""
	},
	{
		"venue_id": "yelpslPh5E8kobwNg8RagP2TZQ",
		"venue_name": "Best Buy Chinese Kitchen",
		"latitude": 41.8515608,
		"longitude": -87.7522483,
		"address1": "5116 W Cermak Rd",
		"address2": null,
		"address3": null,
		"city": "Cicero",
		"state": "IL",
		"zip_code": "60804"
	},
	{
		"venue_id": "yelpPEcytWLgRNY8K4mTCJ2DkA",
		"venue_name": "Golden River",
		"latitude": 41.9642141461372,
		"longitude": -87.8072552382946,
		"address1": "4622 N Harlem Ave",
		"address2": "",
		"address3": "",
		"city": "Harwood Heights",
		"state": "IL",
		"zip_code": "60706"
	},
	{
		"venue_id": "yelpz8eirtmUQoy2DBCsEtoN6g",
		"venue_name": "Kung Fu Wok Restaurant",
		"latitude": 41.99508,
		"longitude": -87.78528,
		"address1": "6249 N Milwaukee Ave",
		"address2": "",
		"address3": null,
		"city": "Chicago",
		"state": "IL",
		"zip_code": "60646"
	},
	{
		"venue_id": "yelp-hMPoScti3Xm9l1VWoRKBA",
		"venue_name": "Panda Express",
		"latitude": 41.9567146,
		"longitude": -87.8073949,
		"address1": "4140 N Harlem Ave",
		"address2": "",
		"address3": "",
		"city": "Norridge",
		"state": "IL",
		"zip_code": "60706"
	},
	{
		"venue_id": "yelpOb25GWThkvIoWq40mZ9PhQ",
		"venue_name": "Chinese Gourmet Express",
		"latitude": 41.9565,
		"longitude": -87.80745,
		"address1": "4104 N Harlem Ave",
		"address2": "",
		"address3": "",
		"city": "Norridge",
		"state": "IL",
		"zip_code": "60706"
	},
	{
		"venue_id": "yelpKvS9B76B8787M95GbCWBCw",
		"venue_name": "New Wing Wah Chinese Restaurant",
		"latitude": 41.865222,
		"longitude": -87.776795,
		"address1": "6101 W Roosevelt Rd",
		"address2": "",
		"address3": "",
		"city": "Cicero",
		"state": "IL",
		"zip_code": "60804"
	},
	{
		"venue_id": "yelpv6cSq0fQMWUlEf1L02pzkw",
		"venue_name": "China Express 168",
		"latitude": 41.8168099,
		"longitude": -87.63145,
		"address1": "4248 S Wentworth Ave",
		"address2": "",
		"address3": null,
		"city": "Chicago",
		"state": "IL",
		"zip_code": "60609"
	}
]