[
	{
		"venue_id": "yelpd1_U0mQp4UtGvQ-jKymSjA",
		"venue_name": "Iguana Caf\u00e9",
		"latitude": 41.8917655944824,
		"longitude": -87.6474304199219,
		"address1": "517 N Halsted St",
		"address2": "",
		"address3": "",
		"city": "Chicago",
		"state": "IL",
		"zip_code": "60642"
	},
	{
		"venue_id": "yelp-KZsoQtr3e-md07sj0UQzQ",
		"venue_name": "The Crepe Shop",
		"latitude": 41.93587,
		"longitude": -87.64457,
		"address1": "2928 N Broadway St",
		"address2": null,
		"address3": "",
		"city": "Chicago",
		"state": "IL",
		"zip_code": "60657"
	},
	{
		"venue_id": "yelpOJctw29lDizc_Ei4oueUTA",
		"venue_name": "La Cr\u00eaperie",
		"latitude": 41.934059,
		"longitude": -87.645708,
		"address1": "2845 N Clark St",
		"address2": "",
		"address3": "",
		"city": "Chicago",
		"state": "IL",
		"zip_code": "60657"
	},
	{
		"venue_id": "yelpfLfZI4FtJhOT0U7NzfVr-Q",
		"venue_name": "Bistro 6050",
		"latitude": 41.953133,
		"longitude": -87.778753,
		"address1": "6050 W Irving Park Rd",
		"address2": "",
		"address3": null,
		"city": "Chicago",
		"state": "IL",
		"zip_code": "60634"
	},
	{
		"venue_id": "yelpz_Fdvv5wAdXmGmFDs6vM5g",
		"venue_name": "Pannenkoeken Cafe",
		"latitude": 41.9682370444073,
		"longitude": -87.6886891946197,
		"address1": "4757 N Western Ave",
		"address2": "",
		"address3": "",
		"city": "Chicago",
		"state": "IL",
		"zip_code": "60625"
	},
	{
		"venue_id": "yelp56HWQzYO2hLhREjlmq6tGg",
		"venue_name": "Tryzub Ukrainian Kitchen",
		"latitude": 41.8958059,
		"longitude": -87.6819438,
		"address1": "2201 W Chicago Ave",
		"address2": "",
		"address3": null,
		"city": "Chicago",
		"state": "IL",
		"zip_code": "60622"
	},
	{
		"venue_id": "yelp-dupkkd-yqIUdRVNdn9OYw",
		"venue_name": "FliP Crepes",
		"latitude": 41.8839695,
		"longitude": -87.6410747,
		"address1": "131 N Clinton St",
		"address2": "Ste 12",
		"address3": "",
		"city": "Chicago",
		"state": "IL",
		"zip_code": "60661"
	},
	{
		"venue_id": "yelpo45FQHpbwpOoelr8lmvdmg",
		"venue_name": "Leonidas Chocolaterie",
		"latitude": 41.8965751,
		"longitude": -87.6259459,
		"address1": "59 E Chicago Ave",
		"address2": "",
		"address3": "",
		"city": "Chicago",
		"state": "IL",
		"zip_code": "60611"
	},
	{
		"venue_id": "yelp8z4pkwkjYh1J6EQz1iULVA",
		"venue_name": "Cr\u00eape Bistro",
		"latitude": 41.8852380636428,
		"longitude": -87.6341215109736,
		"address1": "186 N Wells St",
		"address2": "",
		"address3": "",
		"city": "Chicago",
		"state": "IL",
		"zip_code": "60606"
	},
	{
		"venue_id": "yelpa3DwTLYFIwLo0kESduHvhQ",
		"venue_name": "Six06 Cafe Bar",
		"latitude": 41.89573,
		"longitude": -87.66893,
		"address1": "1641 W Chicago Ave",
		"address2": "",
		"address3": null,
		"city": "Chicago",
		"state": "IL",
		"zip_code": "60622"
	},
	{
		"venue_id": "yelpZ78_dJShHBsfnK2nGK03Sw",
		"venue_name": "Ice Max",
		"latitude": 41.8520899,
		"longitude": -87.63164,
		"address1": "2227 S Wentworth Ave",
		"address2": "",
		"address3": null,
		"city": "Chicago",
		"state": "IL",
		"zip_code": "60616"
	},
	{
		"venue_id": "yelpnK9V66lbiT9bfai5IfOhSg",
		"venue_name": "Aha Crepe",
		"latitude": 41.9266801,
		"longitude": -87.640955,
		"address1": "2435 N Clark St",
		"address2": null,
		"address3": "",
		"city": "Chicago",
		"state": "IL",
		"zip_code": "60614"
	},
	{
		"venue_id": "yelp4BIQGbl3u1gzfTYGjuG32g",
		"venue_name": "CornerStone Caf\u00e9",
		"latitude": 41.92176,
		"longitude": -87.6649,
		"address1": "2200 N Clybourn Ave",
		"address2": "",
		"address3": null,
		"city": "Chicago",
		"state": "IL",
		"zip_code": "60614"
	},
	{
		"venue_id": "yelpjSACRNhrAnHxVjfADTQvHQ",
		"venue_name": "Creperia Nuevo Leon",
		"latitude": 41.85802,
		"longitude": -87.66764,
		"address1": "1636 W 18th St",
		"address2": null,
		"address3": "",
		"city": "Chicago",
		"state": "IL",
		"zip_code": "60608"
	},
	{
		"venue_id": "yelpNoSGhtcaetdym0Pp6vkYiw",
		"venue_name": "Crepes In the Park",
		"latitude": 41.9630151,
		"longitude": -87.6872899,
		"address1": "2333 W Sunnyside Ave",
		"address2": "",
		"address3": "",
		"city": "Chicago",
		"state": "IL",
		"zip_code": "60625"
	},
	{
		"venue_id": "yelpwBiNbB6T-sUVRP0bQuVYFg",
		"venue_name": "Brasas Pancake House",
		"latitude": 41.86515,
		"longitude": -87.77577,
		"address1": "6033 Roosevelt Rd",
		"address2": "",
		"address3": null,
		"city": "Cicero",
		"state": "IL",
		"zip_code": "60804"
	},
	{
		"venue_id": "yelpGuOr4zvUGZVZijk9aa7_3w",
		"venue_name": "Melissa's Palacinke Crepes",
		"latitude": 41.8794441572523,
		"longitude": -87.6323531215121,
		"address1": "",
		"address2": "",
		"address3": null,
		"city": "Chicago",
		"state": "IL",
		"zip_code": ""
	}
]