[
	{
		"venue_id": "yelpTrHpyyurfCHWUQMpsLyxVw",
		"venue_name": "Bari",
		"latitude": 41.89136,
		"longitude": -87.65555,
		"address1": "1120 W Grand Ave",
		"address2": "",
		"address3": "",
		"city": "Chicago",
		"state": "IL",
		"zip_code": "60642"
	},
	{
		"venue_id": "yelpjA9n0blJbyaP1pcmn0yu2A",
		"venue_name": "J.P. Graziano Grocery",
		"latitude": 41.88405,
		"longitude": -87.65001,
		"address1": "901 W Randolph St",
		"address2": "",
		"address3": "",
		"city": "Chicago",
		"state": "IL",
		"zip_code": "60607"
	},
	{
		"venue_id": "yelpgbnabQiEgwrlcZbhFkOkNw",
		"venue_name": "Publican Quality Meats",
		"latitude": 41.8866482860074,
		"longitude": -87.648498128403,
		"address1": "825 W Fulton Market St",
		"address2": "",
		"address3": "",
		"city": "Chicago",
		"state": "IL",
		"zip_code": "60607"
	},
	{
		"venue_id": "yelp5n86ysWVnN9SUA-VUVctrQ",
		"venue_name": "Manny's Cafeteria and Delicatessen",
		"latitude": 41.867936029135,
		"longitude": -87.642088208016,
		"address1": "1141 S Jefferson St",
		"address2": "",
		"address3": "",
		"city": "Chicago",
		"state": "IL",
		"zip_code": "60607"
	},
	{
		"venue_id": "yelpENfiSGbuKEI0UUKPWPJqtQ",
		"venue_name": "Pastoral",
		"latitude": 41.8856159,
		"longitude": -87.6260252,
		"address1": "53 E Lake St",
		"address2": "",
		"address3": "",
		"city": "Chicago",
		"state": "IL",
		"zip_code": "60601"
	},
	{
		"venue_id": "yelpBPg56t_UUCjZCK6i0o6xkQ",
		"venue_name": "Eleven City Diner",
		"latitude": 41.86877,
		"longitude": -87.62635,
		"address1": "1112 S Wabash Ave",
		"address2": null,
		"address3": "",
		"city": "Chicago",
		"state": "IL",
		"zip_code": "60605"
	},
	{
		"venue_id": "yelphxq4TNNazA-sjqFvVgx_Pw",
		"venue_name": "Bongiorno's Italian Deli & Pizzeria",
		"latitude": 41.8897666931152,
		"longitude": -87.6260147094727,
		"address1": "405 N Wabash Ave",
		"address2": "",
		"address3": "",
		"city": "Chicago",
		"state": "IL",
		"zip_code": "60611"
	},
	{
		"venue_id": "yelpLXtSheHGNVAjY8DUMy9pqA",
		"venue_name": "ChiTown Sandwich Club",
		"latitude": 41.9353684,
		"longitude": -87.6467452,
		"address1": "2921 N Clark St",
		"address2": null,
		"address3": "",
		"city": "Chicago",
		"state": "IL",
		"zip_code": "60657"
	},
	{
		"venue_id": "yelp_IFYKbyisxTsDiuqKolI4A",
		"venue_name": "Pittsfield Cafe",
		"latitude": 41.883263,
		"longitude": -87.62597,
		"address1": "55 E Washington St",
		"address2": "",
		"address3": "",
		"city": "Chicago",
		"state": "IL",
		"zip_code": "60602"
	},
	{
		"venue_id": "yelpJoT_npTii4Kavxr6WC0etA",
		"venue_name": "Vinnie's Sub Shop",
		"latitude": 41.8912632221338,
		"longitude": -87.6576940932541,
		"address1": "1204 W Grand Ave",
		"address2": "",
		"address3": "",
		"city": "Chicago",
		"state": "IL",
		"zip_code": "60642"
	},
	{
		"venue_id": "yelpJ9WfLOHSTcXaT_9kz2gq0Q",
		"venue_name": "Conte Di Savoia",
		"latitude": 41.869411,
		"longitude": -87.6632462,
		"address1": "1438 W Taylor St",
		"address2": "",
		"address3": "",
		"city": "Chicago",
		"state": "IL",
		"zip_code": "60607"
	},
	{
		"venue_id": "yelpf_AF0jimm_eq7eZnxArV7w",
		"venue_name": "Tempesta Market",
		"latitude": 41.89133,
		"longitude": -87.66176,
		"address1": "1372 W Grand Ave",
		"address2": "",
		"address3": null,
		"city": "Chicago",
		"state": "IL",
		"zip_code": "60642"
	},
	{
		"venue_id": "yelpRU3rDAIUv3iNwkiuS3wMbg",
		"venue_name": "Piatto Pronto",
		"latitude": 41.98425,
		"longitude": -87.66929,
		"address1": "5624 N Clark St",
		"address2": "",
		"address3": "",
		"city": "Chicago",
		"state": "IL",
		"zip_code": "60660"
	},
	{
		"venue_id": "yelpHs3b3jbwPQ88qtycbcR65w",
		"venue_name": "Lucia's Gourmet Italian Cuisine",
		"latitude": 41.91026,
		"longitude": -87.67359,
		"address1": "1825 W North Ave",
		"address2": "",
		"address3": "",
		"city": "Chicago",
		"state": "IL",
		"zip_code": "60622"
	},
	{
		"venue_id": "yelpK9PR2ixP1in-sqiQN-kinA",
		"venue_name": "Gio's Cafe and Deli",
		"latitude": 41.84366,
		"longitude": -87.64312,
		"address1": "2724 S Lowe Ave",
		"address2": "",
		"address3": "",
		"city": "Chicago",
		"state": "IL",
		"zip_code": "60616"
	},
	{
		"venue_id": "yelp7LaPQZgvjxXsfVHICKGf4g",
		"venue_name": "Fumare Meats & Deli",
		"latitude": 41.8842777,
		"longitude": -87.6410971,
		"address1": "131 N Clinton St",
		"address2": "Ste 14",
		"address3": "",
		"city": "Chicago",
		"state": "IL",
		"zip_code": "60661"
	},
	{
		"venue_id": "yelpUBRWllRUeY1yolEfcglRmA",
		"venue_name": "Macello",
		"latitude": 41.885228,
		"longitude": -87.6582169,
		"address1": "1235 W Lake St",
		"address2": "",
		"address3": "",
		"city": "Chicago",
		"state": "IL",
		"zip_code": "60607"
	},
	{
		"venue_id": "yelpcJsIYva2SY34iSTr23QFEg",
		"venue_name": "Fiore Delicatessen",
		"latitude": 41.8933181762695,
		"longitude": -87.6841659545898,
		"address1": "2258 W Erie St",
		"address2": "",
		"address3": "",
		"city": "Chicago",
		"state": "IL",
		"zip_code": "60612"
	},
	{
		"venue_id": "yelpG1JrlwShWkG05T2J5dM94w",
		"venue_name": "Goddess and Grocer",
		"latitude": 41.91192,
		"longitude": -87.67714,
		"address1": "1649 N Damen Ave",
		"address2": "",
		"address3": "",
		"city": "Chicago",
		"state": "IL",
		"zip_code": "60647"
	},
	{
		"venue_id": "yelpT_MM86UUHinTFVWzzboBgQ",
		"venue_name": "NYC Bagel Deli",
		"latitude": 41.8913701,
		"longitude": -87.6294951,
		"address1": "515 N Dearborn St",
		"address2": null,
		"address3": null,
		"city": "Chicago",
		"state": "IL",
		"zip_code": "60654"
	},
	{
		"venue_id": "yelpGQiHiIOOXuhAG0m2KDEatw",
		"venue_name": "Langhe Market",
		"latitude": 41.91598,
		"longitude": -87.68755,
		"address1": "1904 N Western Ave",
		"address2": "",
		"address3": null,
		"city": "Chicago",
		"state": "IL",
		"zip_code": "60647"
	},
	{
		"venue_id": "yelpnVFHTcIAhi5psUnRy3bCZQ",
		"venue_name": "Bagel Restaurant & Deli",
		"latitude": 41.9378348,
		"longitude": -87.6441564,
		"address1": "3107 N Broadway St",
		"address2": "",
		"address3": "",
		"city": "Chicago",
		"state": "IL",
		"zip_code": "60657"
	},
	{
		"venue_id": "yelpuAJGnqscYKKa1WPnxwQ_3A",
		"venue_name": "Kasia's Delicatessen & Catering",
		"latitude": 41.89559,
		"longitude": -87.67966,
		"address1": "2101 W Chicago Ave",
		"address2": "",
		"address3": "",
		"city": "Chicago",
		"state": "IL",
		"zip_code": "60622"
	},
	{
		"venue_id": "yelpwI-mHhdWh8flIZgt46kpUw",
		"venue_name": "The Artisan Cellar",
		"latitude": 41.8883705,
		"longitude": -87.6353607,
		"address1": "222 Merchandise Mart Plz",
		"address2": "Ste 116",
		"address3": "",
		"city": "Chicago",
		"state": "IL",
		"zip_code": "60654"
	},
	{
		"venue_id": "yelpXT1urbucBS7iut-BIaciZA",
		"venue_name": "Frances' Deli",
		"latitude": 41.9289801,
		"longitude": -87.6426694,
		"address1": "2552 N Clark St",
		"address2": "",
		"address3": "",
		"city": "Chicago",
		"state": "IL",
		"zip_code": "60614"
	},
	{
		"venue_id": "yelpzOI7WKYWvnF3_u0cVoRbZg",
		"venue_name": "Cermak Produce",
		"latitude": 41.90985,
		"longitude": -87.6949,
		"address1": "2701 W North Ave",
		"address2": "",
		"address3": "",
		"city": "Chicago",
		"state": "IL",
		"zip_code": "60647"
	},
	{
		"venue_id": "yelpYzh2FYP5f28l6myzlZDczg",
		"venue_name": "North Buena Wine Shop & Deli",
		"latitude": 41.95872,
		"longitude": -87.653527,
		"address1": "4200 N Broadway",
		"address2": "",
		"address3": "",
		"city": "Chicago",
		"state": "IL",
		"zip_code": "60613"
	},
	{
		"venue_id": "yelpdAtnrxod4RRg38V3_v5qbQ",
		"venue_name": "Kathy De's Deli",
		"latitude": 41.82774,
		"longitude": -87.64026,
		"address1": "3642 S Parnell Ave",
		"address2": null,
		"address3": null,
		"city": "Chicago",
		"state": "IL",
		"zip_code": "60609"
	},
	{
		"venue_id": "yelptUKY7bdrcjeRlfP1mWkyPg",
		"venue_name": "frunchroom",
		"latitude": 41.9541592233227,
		"longitude": -87.7487733587623,
		"address1": "4042 N Milwaukee Ave",
		"address2": "",
		"address3": null,
		"city": "Chicago",
		"state": "IL",
		"zip_code": "60641"
	},
	{
		"venue_id": "yelpeGr6IYUUFwrvM336aHDiiQ",
		"venue_name": "Jupiter Outpost Cafe",
		"latitude": 41.8865451,
		"longitude": -87.65612,
		"address1": "1139 Fulton Market Ave",
		"address2": null,
		"address3": "",
		"city": "Chicago",
		"state": "IL",
		"zip_code": "60607"
	},
	{
		"venue_id": "yelpaJnDRYev9oQT-FeixNPriA",
		"venue_name": "Jason's Deli",
		"latitude": 41.8655885855067,
		"longitude": -87.6402215213618,
		"address1": "1258 S Canal St",
		"address2": "",
		"address3": "",
		"city": "Chicago",
		"state": "IL",
		"zip_code": "60607"
	},
	{
		"venue_id": "yelph8T36i6gb_MVgRAiqwtUug",
		"venue_name": "Rich's Deli",
		"latitude": 41.8974455780909,
		"longitude": -87.6865117521034,
		"address1": "857 N Western Ave",
		"address2": "",
		"address3": "",
		"city": "Chicago",
		"state": "IL",
		"zip_code": "60622"
	},
	{
		"venue_id": "yelpSpARlVxYNeMzGZ71mzVtEQ",
		"venue_name": "De'Michaels Market",
		"latitude": 41.8456648583682,
		"longitude": -87.6247502033119,
		"address1": "42 E 26th St",
		"address2": "",
		"address3": "",
		"city": "Chicago",
		"state": "IL",
		"zip_code": "60616"
	},
	{
		"venue_id": "yelpUgDwjwn6HkExlbSeIGX0gw",
		"venue_name": "Steingold's",
		"latitude": 41.95451,
		"longitude": -87.67582,
		"address1": "1840 W Irving Park Rd",
		"address2": "",
		"address3": null,
		"city": "Chicago",
		"state": "IL",
		"zip_code": "60613"
	},
	{
		"venue_id": "yelp2l8rt03j9EH5-Z9rD84MGQ",
		"venue_name": "Devon Market",
		"latitude": 41.9981648772955,
		"longitude": -87.6675000786781,
		"address1": "1440 W Devon Ave",
		"address2": "",
		"address3": "",
		"city": "Chicago",
		"state": "IL",
		"zip_code": "60660"
	},
	{
		"venue_id": "yelp7iGoDSMMbJH79CxhB7nL1g",
		"venue_name": "Honey Baked Ham Company",
		"latitude": 41.9329848134764,
		"longitude": -87.6679162157031,
		"address1": "2815 N. Ashland",
		"address2": "",
		"address3": "",
		"city": "Chicago",
		"state": "IL",
		"zip_code": "60657"
	},
	{
		"venue_id": "yelpjJtW94fpYhvtCMms9fJTWQ",
		"venue_name": "Nonna Soluri's Italian Deli",
		"latitude": 41.83667,
		"longitude": -87.65142,
		"address1": "3142 S Morgan St",
		"address2": "",
		"address3": null,
		"city": "Chicago",
		"state": "IL",
		"zip_code": "60608"
	},
	{
		"venue_id": "yelpC4vOSg6AWI5PpTlbYViSYg",
		"venue_name": "Jason's Deli",
		"latitude": 41.8855223,
		"longitude": -87.6293351,
		"address1": "195 N Dearborn St",
		"address2": "",
		"address3": "",
		"city": "Chicago",
		"state": "IL",
		"zip_code": "60601"
	},
	{
		"venue_id": "yelpjPkbsGAke4HMHODgXM0Djg",
		"venue_name": "Bockwinkel's",
		"latitude": 41.8866048300081,
		"longitude": -87.621770790213,
		"address1": "222 N Columbus Dr",
		"address2": "",
		"address3": "",
		"city": "Chicago",
		"state": "IL",
		"zip_code": "60601"
	},
	{
		"venue_id": "yelpHwCzZoBi_DkJR44BfqL6dw",
		"venue_name": "Nottoli Italian Foods",
		"latitude": 41.972673,
		"longitude": -87.806714,
		"address1": "5025 N Harlem Ave",
		"address2": "",
		"address3": "",
		"city": "Chicago",
		"state": "IL",
		"zip_code": "60656"
	},
	{
		"venue_id": "yelpTEeKBJX8sY4GCBwW7hCDPQ",
		"venue_name": "Montrose Deli",
		"latitude": 41.9603901,
		"longitude": -87.7629084,
		"address1": "5411 W Montrose Ave",
		"address2": "",
		"address3": "",
		"city": "Chicago",
		"state": "IL",
		"zip_code": "60641"
	},
	{
		"venue_id": "yelpD3QdygYcn3VxLk8MJjuYpQ",
		"venue_name": "La Boulangerie",
		"latitude": 41.927704,
		"longitude": -87.706073,
		"address1": "3129 W Logan Blvd",
		"address2": "",
		"address3": null,
		"city": "Chicago",
		"state": "IL",
		"zip_code": "60647"
	},
	{
		"venue_id": "yelpsISu-T8hsjEF_T3bK9Dj1w",
		"venue_name": "Andy's Deli & Mikolajczyk Sausage Shop",
		"latitude": 41.9804079,
		"longitude": -87.7724157,
		"address1": "5442 N Milwaukee Ave",
		"address2": "",
		"address3": "",
		"city": "Chicago",
		"state": "IL",
		"zip_code": "60630"
	},
	{
		"venue_id": "yelpFagukV_QdBk7QOzvBmpSmg",
		"venue_name": "Conte Di Savoia West",
		"latitude": 41.868724822998,
		"longitude": -87.6822814941406,
		"address1": "2227 W Taylor St",
		"address2": "",
		"address3": "",
		"city": "Chicago",
		"state": "IL",
		"zip_code": "60612"
	},
	{
		"venue_id": "yelpMVfXc6BorVtWbDv1shceSA",
		"venue_name": "Jersey Mike's Subs",
		"latitude": 41.9392891,
		"longitude": -87.6445389,
		"address1": "3152 N Broadway",
		"address2": "",
		"address3": "",
		"city": "Chicago",
		"state": "IL",
		"zip_code": "60657"
	},
	{
		"venue_id": "yelpY8qszfLuUtmGWoYgKU8cFA",
		"venue_name": "Galleria Market",
		"latitude": 41.8958282470703,
		"longitude": -87.6375732421875,
		"address1": "340 W Superior St",
		"address2": "",
		"address3": "",
		"city": "Chicago",
		"state": "IL",
		"zip_code": "60654"
	},
	{
		"venue_id": "yelpYJHq6J7M3VskjXx7gfts5w",
		"venue_name": "Impallaria Bakery & Deli",
		"latitude": 41.84016,
		"longitude": -87.6418,
		"address1": "2952 S Wallace St",
		"address2": "",
		"address3": "",
		"city": "Chicago",
		"state": "IL",
		"zip_code": "60616"
	},
	{
		"venue_id": "yelplS_dGObdvDlnlEkpOvPngQ",
		"venue_name": "JB's Deli",
		"latitude": 41.98183,
		"longitude": -87.66809,
		"address1": "5501 N Clark St",
		"address2": "",
		"address3": "",
		"city": "Chicago",
		"state": "IL",
		"zip_code": "60640"
	},
	{
		"venue_id": "yelpZAt0CGuxEbJEP6UrqR4HcQ",
		"venue_name": "Cermak Fresh Market",
		"latitude": 41.9321560200334,
		"longitude": -87.7278386248653,
		"address1": "4000 W Diversey Ave",
		"address2": "",
		"address3": "",
		"city": "Chicago",
		"state": "IL",
		"zip_code": "60639"
	},
	{
		"venue_id": "yelpQ9OM6d00YPkdtDzx0OA43w",
		"venue_name": "Jersey Mike's Subs",
		"latitude": 41.8811044703635,
		"longitude": -87.6339590549469,
		"address1": "200 W Monroe St",
		"address2": "",
		"address3": "",
		"city": "Chicago",
		"state": "IL",
		"zip_code": "60606"
	},
	{
		"venue_id": "yelpEddMmvswLwP0DPwzJJAlmA",
		"venue_name": "Harrington's Catering & Deli",
		"latitude": 41.9848191,
		"longitude": -87.77587,
		"address1": "5685 N Milwaukee Ave",
		"address2": null,
		"address3": "",
		"city": "Chicago",
		"state": "IL",
		"zip_code": "60646"
	},
	{
		"venue_id": "yelpkekLHCyxcvxyea2joQrKBA",
		"venue_name": "Hetman Deli",
		"latitude": 41.9383399,
		"longitude": -87.76463,
		"address1": "5513 W Belmont Ave",
		"address2": "",
		"address3": "",
		"city": "Chicago",
		"state": "IL",
		"zip_code": "60641"
	},
	{
		"venue_id": "yelpHVvqSK8R8McWDESQodLrdw",
		"venue_name": "Mac Kelly's",
		"latitude": 41.881749,
		"longitude": -87.631739,
		"address1": "123 W Madison St",
		"address2": "",
		"address3": "",
		"city": "Chicago",
		"state": "IL",
		"zip_code": "60602"
	},
	{
		"venue_id": "yelpHziWbCyuE4-1k8AqpKyUHQ",
		"venue_name": "Kolatek's Bakery & Deli",
		"latitude": 41.9248542785645,
		"longitude": -87.8059310913086,
		"address1": "2445 N Harlem Ave",
		"address2": "",
		"address3": "",
		"city": "Chicago",
		"state": "IL",
		"zip_code": "60707"
	},
	{
		"venue_id": "yelp0jQB40_EoCL5a5PtnGzAjQ",
		"venue_name": "Jimmy John's",
		"latitude": 41.8924384,
		"longitude": -87.6220456,
		"address1": "205 E Ohio St",
		"address2": "",
		"address3": "",
		"city": "Chicago",
		"state": "IL",
		"zip_code": "60611"
	},
	{
		"venue_id": "yelpJsQ0my3Hmjm_0lMB2Z-eqA",
		"venue_name": "Jersey Mike's Subs",
		"latitude": 41.892437,
		"longitude": -87.6222763,
		"address1": "203 E Ohio St",
		"address2": "",
		"address3": "",
		"city": "Chicago",
		"state": "IL",
		"zip_code": "60611"
	},
	{
		"venue_id": "yelpb0mgRz5NtzmEBsefTReqLw",
		"venue_name": "Milt's Extra Innings",
		"latitude": 41.943594,
		"longitude": -87.6447966,
		"address1": "3409 North Broadway",
		"address2": null,
		"address3": "",
		"city": "Chicago",
		"state": "IL",
		"zip_code": "60657"
	},
	{
		"venue_id": "yelpy0nj4wd1TlDhXCIW42R4EA",
		"venue_name": "Jimmy John's",
		"latitude": 41.8821197605872,
		"longitude": -87.6271769288184,
		"address1": "6 E Madison St",
		"address2": "",
		"address3": "",
		"city": "Chicago",
		"state": "IL",
		"zip_code": "60602"
	},
	{
		"venue_id": "yelpmFU8xdnk4UDfmQhWEmWG4g",
		"venue_name": "Szymanski Deli & Liquors",
		"latitude": 41.9531715,
		"longitude": -87.7775637,
		"address1": "6016 W Irving Park Rd",
		"address2": "",
		"address3": "",
		"city": "Chicago",
		"state": "IL",
		"zip_code": "60634"
	},
	{
		"venue_id": "yelpcXCvYv8EFe2iXhj4PYLy1g",
		"venue_name": "Bebe's Kosher Deli",
		"latitude": 41.884106,
		"longitude": -87.641231,
		"address1": "131 N Clinton St",
		"address2": "",
		"address3": "The French Market",
		"city": "Chicago",
		"state": "IL",
		"zip_code": "60661"
	},
	{
		"venue_id": "yelpqOvSu-OP9y-BZUjdNXt_GA",
		"venue_name": "Lalich Delicatessens",
		"latitude": 41.96844,
		"longitude": -87.73343,
		"address1": "4208 W Lawrence Ave",
		"address2": "",
		"address3": "",
		"city": "Chicago",
		"state": "IL",
		"zip_code": "60630"
	},
	{
		"venue_id": "yelp9OFazUPEZhBkm_QrhT15NA",
		"venue_name": "Goddess and Grocer",
		"latitude": 41.9028125536905,
		"longitude": -87.6281524077058,
		"address1": "1127 N State St",
		"address2": "",
		"address3": "",
		"city": "Chicago",
		"state": "IL",
		"zip_code": "60610"
	},
	{
		"venue_id": "yelpS5Bk20D67MWN1oiotHWcSg",
		"venue_name": "Halsted Street Deli",
		"latitude": 41.887107,
		"longitude": -87.623438,
		"address1": "233 N Michigan Ave",
		"address2": "",
		"address3": "",
		"city": "Chicago",
		"state": "IL",
		"zip_code": "60601"
	},
	{
		"venue_id": "yelprjKqHVfSz6WLf3_mTyROvA",
		"venue_name": "Jimmy John's",
		"latitude": 41.886379,
		"longitude": -87.623584,
		"address1": "225 N Michigan Ave",
		"address2": "",
		"address3": "",
		"city": "Chicago",
		"state": "IL",
		"zip_code": "60602"
	},
	{
		"venue_id": "yelpjt-XXLfjbrTqMCwsCINZzQ",
		"venue_name": "Jimmy John's",
		"latitude": 41.8833749,
		"longitude": -87.6350275,
		"address1": "216 W Washington St",
		"address2": null,
		"address3": "",
		"city": "Chicago",
		"state": "IL",
		"zip_code": "60606"
	},
	{
		"venue_id": "yelplx5rqfzIYgQppx1N_ihCDA",
		"venue_name": "Jimmy John's",
		"latitude": 41.93067,
		"longitude": -87.78744,
		"address1": "6451 W Diversey Ave",
		"address2": "",
		"address3": "",
		"city": "Chicago",
		"state": "IL",
		"zip_code": "60707"
	},
	{
		"venue_id": "yelpIC6nIOe5DpQKm5wR8mQvCg",
		"venue_name": "Bub's Place",
		"latitude": 41.95341,
		"longitude": -87.77225,
		"address1": "5800 W Irving Park Rd",
		"address2": "",
		"address3": "",
		"city": "Chicago",
		"state": "IL",
		"zip_code": "60634"
	},
	{
		"venue_id": "yelp1oCnFbATjx0lMO2hmMJJaw",
		"venue_name": "Thorndale Cafe",
		"latitude": 41.9900069024902,
		"longitude": -87.6593852528555,
		"address1": "1124 W Thorndale",
		"address2": "",
		"address3": "",
		"city": "Chicago",
		"state": "IL",
		"zip_code": "60660"
	},
	{
		"venue_id": "yelpGrZeu-8Q420472PuFxqzDA",
		"venue_name": "Jimmy John's",
		"latitude": 41.9525418,
		"longitude": -87.8112185,
		"address1": "7329 W Irving Park Rd",
		"address2": null,
		"address3": "",
		"city": "Chicago",
		"state": "IL",
		"zip_code": "60634"
	},
	{
		"venue_id": "yelpYHToK3BYKGJudH_UNUCeVw",
		"venue_name": "Deli & More",
		"latitude": 41.9333267211914,
		"longitude": -87.6386184692383,
		"address1": "330 W Diversey Pkwy",
		"address2": "",
		"address3": "",
		"city": "Chicago",
		"state": "IL",
		"zip_code": "60657"
	},
	{
		"venue_id": "yelpobeMTl6pKvPnzMk246urqQ",
		"venue_name": "Onion Roll",
		"latitude": 41.908637,
		"longitude": -87.800006,
		"address1": "6935 North Ave",
		"address2": "",
		"address3": "",
		"city": "Oak Park",
		"state": "IL",
		"zip_code": "60302"
	},
	{
		"venue_id": "yelpjws42OnSf_-muPQT77X-Mw",
		"venue_name": "North Loop Market",
		"latitude": 41.8886020198875,
		"longitude": -87.6292316326547,
		"address1": "300 N State St",
		"address2": "",
		"address3": "",
		"city": "Chicago",
		"state": "IL",
		"zip_code": "60654"
	},
	{
		"venue_id": "yelp2Tg1BKZFgdXin1bqyRY0Zw",
		"venue_name": "Jimmy John's",
		"latitude": 41.9687449,
		"longitude": -87.687971,
		"address1": "2336 W Lawrence Ave",
		"address2": "",
		"address3": "",
		"city": "Chicago",
		"state": "IL",
		"zip_code": "60625"
	},
	{
		"venue_id": "yelpxKBMWpSxqCfhzTMkHtC_Gw",
		"venue_name": "Jimmy John's",
		"latitude": 41.903790818123,
		"longitude": -87.630619423123,
		"address1": "51 W Division",
		"address2": "",
		"address3": "",
		"city": "Chicago",
		"state": "IL",
		"zip_code": "60610"
	},
	{
		"venue_id": "yelpR_VkipLvwxbacWV0mfCBNg",
		"venue_name": "Alonti Deli",
		"latitude": 41.87741,
		"longitude": -87.63876,
		"address1": "300 S Riverside Plz",
		"address2": "",
		"address3": "",
		"city": "Chicago",
		"state": "IL",
		"zip_code": "60606"
	},
	{
		"venue_id": "yelpmvWbKzLTMxVcXr8Gzm5DKQ",
		"venue_name": "Jimmy John's",
		"latitude": 41.8784255981445,
		"longitude": -87.6344909667969,
		"address1": "216 W Jackson Blvd",
		"address2": "",
		"address3": "",
		"city": "Chicago",
		"state": "IL",
		"zip_code": "60606"
	},
	{
		"venue_id": "yelpacEwTzz-wOVhLBNMqgqCgw",
		"venue_name": "Jimmy John's",
		"latitude": 41.9037922,
		"longitude": -87.6304951,
		"address1": "51 W Division St",
		"address2": "",
		"address3": "",
		"city": "Chicago",
		"state": "IL",
		"zip_code": "60610"
	},
	{
		"venue_id": "yelpd39digxGUnQraEl3ErpTSg",
		"venue_name": "NiX Restaurant",
		"latitude": 41.8999220684385,
		"longitude": -87.6227141899964,
		"address1": "163 East Walton Place",
		"address2": "",
		"address3": "",
		"city": "Chicago",
		"state": "IL",
		"zip_code": "60611"
	},
	{
		"venue_id": "yelp32xJ0Xxshxzy8XhXp2WnKQ",
		"venue_name": "Jimmy John's",
		"latitude": 41.885870626774,
		"longitude": -87.643086751636,
		"address1": "200 N Jefferson St",
		"address2": "",
		"address3": "",
		"city": "Chicago",
		"state": "IL",
		"zip_code": "60601"
	},
	{
		"venue_id": "yelpn-mvENOJUttvB4kWpmkWww",
		"venue_name": "Jimmy John's",
		"latitude": 41.94235,
		"longitude": -87.65307,
		"address1": "3328 N Clark St",
		"address2": "",
		"address3": "",
		"city": "Chicago",
		"state": "IL",
		"zip_code": "60657"
	},
	{
		"venue_id": "yelpl6DMsJBpFVTkngK8aECoig",
		"venue_name": "El Jardin",
		"latitude": 41.8876902,
		"longitude": -87.6206535,
		"address1": "303 E Wacker Dr",
		"address2": "",
		"address3": "",
		"city": "Chicago",
		"state": "IL",
		"zip_code": "60601"
	},
	{
		"venue_id": "yelpsWtur78mChDwsqkpY3xsjw",
		"venue_name": "Jimmy John's",
		"latitude": 41.872448,
		"longitude": -87.627258033822,
		"address1": "725 S State",
		"address2": "",
		"address3": "",
		"city": "Chicago",
		"state": "IL",
		"zip_code": "60605"
	},
	{
		"venue_id": "yelpdIp_35HoaEGLu9P6-HXDmg",
		"venue_name": "Jimmy John's",
		"latitude": 41.8691902160645,
		"longitude": -87.6556015014648,
		"address1": "1133 W Taylor St",
		"address2": "",
		"address3": "",
		"city": "Chicago",
		"state": "IL",
		"zip_code": "60607"
	},
	{
		"venue_id": "yelpP4hM-4GnAV15ijChDzadSg",
		"venue_name": "Jimmy John's",
		"latitude": 41.9655049,
		"longitude": -87.6590921,
		"address1": "1148 W Wilson Ave",
		"address2": "",
		"address3": "",
		"city": "Chicago",
		"state": "IL",
		"zip_code": "60640"
	},
	{
		"venue_id": "yelp2g63sTi0w1aB6avw7rP69w",
		"venue_name": "Halsted Street Deli",
		"latitude": 41.876468,
		"longitude": -87.632217,
		"address1": "400 S La Salle St",
		"address2": "",
		"address3": "",
		"city": "Chicago",
		"state": "IL",
		"zip_code": "60605"
	},
	{
		"venue_id": "yelp5d5KsQZSjd2k7HGxfPhssA",
		"venue_name": "Jimmy John's",
		"latitude": 41.86606,
		"longitude": -87.62443,
		"address1": "1250 S Michigan Ave",
		"address2": "",
		"address3": "",
		"city": "Chicago",
		"state": "IL",
		"zip_code": "60605"
	},
	{
		"venue_id": "yelps4obsmvCIZoW_OqDbPJnDA",
		"venue_name": "Jimmy John's",
		"latitude": 41.8298873901367,
		"longitude": -87.6505508422852,
		"address1": "974 W 35th Pl",
		"address2": "",
		"address3": "",
		"city": "Chicago",
		"state": "IL",
		"zip_code": "60609"
	},
	{
		"venue_id": "yelpvXoe5fyOPPkUgsR4dswhQg",
		"venue_name": "McCormick Market",
		"latitude": 41.8530722434602,
		"longitude": -87.6241497687172,
		"address1": "80 E Cermak Rd",
		"address2": "",
		"address3": "",
		"city": "Chicago",
		"state": "IL",
		"zip_code": "60616"
	},
	{
		"venue_id": "yelpRyibVYuj7eaeYz0CTuy9_Q",
		"venue_name": "Halsted Street Deli",
		"latitude": 41.880234181881,
		"longitude": -87.6353303343058,
		"address1": "128 S Franklin St",
		"address2": "",
		"address3": "",
		"city": "Chicago",
		"state": "IL",
		"zip_code": "60606"
	},
	{
		"venue_id": "yelpdF39dKbRyinW0IHNUBFSHA",
		"venue_name": "Jimmy John's",
		"latitude": 41.9938049316406,
		"longitude": -87.6600646972656,
		"address1": "6153 N Broadway St",
		"address2": "",
		"address3": "",
		"city": "Chicago",
		"state": "IL",
		"zip_code": "60660"
	},
	{
		"venue_id": "yelpk__dZROQnoEDUAdCigVvIg",
		"venue_name": "Manny's Deli",
		"latitude": 41.8677574148497,
		"longitude": -87.6420204281807,
		"address1": "2301 S Lake Shore Dr",
		"address2": "",
		"address3": "Plate Room Food Court",
		"city": "Chicago",
		"state": "IL",
		"zip_code": "60616"
	},
	{
		"venue_id": "yelpy3zmRXGAUH9MBo3JdjD68g",
		"venue_name": "Jimmy John's",
		"latitude": 41.8852564726587,
		"longitude": -87.6329675005977,
		"address1": "180 N La Salle St",
		"address2": "Ste 372",
		"address3": "",
		"city": "Chicago",
		"state": "IL",
		"zip_code": "60601"
	},
	{
		"venue_id": "yelpsxhFa0wAiYSAZ_3fLYmniw",
		"venue_name": "Ukraina Deli",
		"latitude": 41.89604,
		"longitude": -87.68461,
		"address1": "2304 W Chicago Ave",
		"address2": null,
		"address3": null,
		"city": "Chicago",
		"state": "IL",
		"zip_code": "60622"
	},
	{
		"venue_id": "yelpUNkb429G5Cvi5dWOYB7mpg",
		"venue_name": "Pulaski Deli",
		"latitude": 41.9452286,
		"longitude": -87.8048514,
		"address1": "7141 W Addison St",
		"address2": "",
		"address3": "",
		"city": "Chicago",
		"state": "IL",
		"zip_code": "60634"
	},
	{
		"venue_id": "yelpIx58iZp-7rMkJ-eNx8zKEQ",
		"venue_name": "Jimmy John's",
		"latitude": 41.89099,
		"longitude": -87.63228,
		"address1": "501 N Lasalle Dr",
		"address2": "",
		"address3": "",
		"city": "Chicago",
		"state": "IL",
		"zip_code": "60654"
	},
	{
		"venue_id": "yelpeiZbBya9DNCNjSiDleBdrw",
		"venue_name": "Jimmy John's",
		"latitude": 41.9331043472546,
		"longitude": -87.6452298605659,
		"address1": "2810 N Clark St",
		"address2": "",
		"address3": "",
		"city": "Chicago",
		"state": "IL",
		"zip_code": "60657"
	},
	{
		"venue_id": "yelphBjg4YfoEqEGYXiznf9z7A",
		"venue_name": "Jimmy John's",
		"latitude": 41.8916799,
		"longitude": -87.6587955,
		"address1": "520 N Ogden",
		"address2": "",
		"address3": "",
		"city": "Chicago",
		"state": "IL",
		"zip_code": "60642"
	},
	{
		"venue_id": "yelpFdvDkic01XqyXwEJkC8tBg",
		"venue_name": "Halsted Street Deli",
		"latitude": 41.88648,
		"longitude": -87.63307,
		"address1": "222 N La Salle St",
		"address2": "",
		"address3": "",
		"city": "Chicago",
		"state": "IL",
		"zip_code": "60601"
	},
	{
		"venue_id": "yelp6nBQUd8J49-IhzjjdAe5pw",
		"venue_name": "Jimmy John's",
		"latitude": 41.92282,
		"longitude": -87.6446,
		"address1": "2231 N Lincoln Ave",
		"address2": "",
		"address3": "",
		"city": "Chicago",
		"state": "IL",
		"zip_code": "60614"
	},
	{
		"venue_id": "yelpk3spclhADOpPK5-RezDQZA",
		"venue_name": "Potash Markets",
		"latitude": 41.8987699,
		"longitude": -87.6229168,
		"address1": "875 N Michigan Ave",
		"address2": "Fl 44",
		"address3": "",
		"city": "Chicago",
		"state": "IL",
		"zip_code": "60611"
	},
	{
		"venue_id": "yelpWvv7X9NtG2aZ7CWSzgJ-wg",
		"venue_name": "Jimmy John's",
		"latitude": 41.907100133536,
		"longitude": -87.6501233837099,
		"address1": "1431 N Kingsbury St",
		"address2": "",
		"address3": "",
		"city": "Chicago",
		"state": "IL",
		"zip_code": "60642"
	},
	{
		"venue_id": "yelpinS7Wr4jMnk1VljxfrgWVQ",
		"venue_name": "Jimmy John's",
		"latitude": 41.90298,
		"longitude": -87.67845,
		"address1": "2029 W Division St",
		"address2": "",
		"address3": "",
		"city": "Chicago",
		"state": "IL",
		"zip_code": "60622"
	},
	{
		"venue_id": "yelp7FzfS7m1TGm1QWV8cPSy_w",
		"venue_name": "Jimmy John's",
		"latitude": 41.91091,
		"longitude": -87.63633,
		"address1": "237 W North Ave",
		"address2": "",
		"address3": "",
		"city": "Chicago",
		"state": "IL",
		"zip_code": "60610"
	},
	{
		"venue_id": "yelpeT3D0aQmoA7OsYjZQuA2Zw",
		"venue_name": "Quiznos",
		"latitude": 41.9042,
		"longitude": -87.63381,
		"address1": "164 W Division St",
		"address2": "",
		"address3": "",
		"city": "Chicago",
		"state": "IL",
		"zip_code": "60610"
	},
	{
		"venue_id": "yelpnQE_EaQ0Cdtk0s2jTNp6Sg",
		"venue_name": "Bockwinkel's",
		"latitude": 41.8926601856947,
		"longitude": -87.6193564385176,
		"address1": "320 E Ohio",
		"address2": "",
		"address3": "",
		"city": "Chicago",
		"state": "IL",
		"zip_code": "60611"
	},
	{
		"venue_id": "yelpoQrKAx6YsbVKyZMlnY18kw",
		"venue_name": "Laramie Bakery & Deli",
		"latitude": 41.9355354309082,
		"longitude": -87.7569274902344,
		"address1": "3012 N Laramie Ave",
		"address2": "",
		"address3": "",
		"city": "Chicago",
		"state": "IL",
		"zip_code": "60641"
	},
	{
		"venue_id": "yelpHknuhcAe9XRwAQ8kGOWbvw",
		"venue_name": "Erik's Deli",
		"latitude": 41.8763,
		"longitude": -87.64016,
		"address1": "525 W Van Buren St",
		"address2": "",
		"address3": "",
		"city": "Chicago",
		"state": "IL",
		"zip_code": "60607"
	},
	{
		"venue_id": "yelpASwj9XC7CQnMGL5ckfYpVA",
		"venue_name": "Tonini's Italian Market",
		"latitude": 41.8321869,
		"longitude": -87.7968518,
		"address1": "6950 Windsor Ave",
		"address2": "",
		"address3": "",
		"city": "Berwyn",
		"state": "IL",
		"zip_code": "60402"
	},
	{
		"venue_id": "yelpAp3yRao49GqH2tz6pqE8WQ",
		"venue_name": "Jimmy John's",
		"latitude": 41.9429016113281,
		"longitude": -87.6815643310547,
		"address1": "2115 W Roscoe St",
		"address2": "",
		"address3": "",
		"city": "Chicago",
		"state": "IL",
		"zip_code": "60618"
	},
	{
		"venue_id": "yelpk2vP8osVKGJXTGtx8JfdRQ",
		"venue_name": "Fairplay Foods",
		"latitude": 41.8512229919434,
		"longitude": -87.6873397827148,
		"address1": "2200 S Western Ave",
		"address2": "",
		"address3": "",
		"city": "Chicago",
		"state": "IL",
		"zip_code": "60608"
	},
	{
		"venue_id": "yelpL74Dy_K-Fi3rOgQrS3RA0w",
		"venue_name": "Jimmy John's",
		"latitude": 41.876953125,
		"longitude": -87.6480255126953,
		"address1": "812 W Van Buren St",
		"address2": "",
		"address3": "",
		"city": "Chicago",
		"state": "IL",
		"zip_code": "60607"
	},
	{
		"venue_id": "yelpTACCTQrsrGZzaf6rfQ2mGA",
		"venue_name": "Halsted Street Deli & Bagel",
		"latitude": 41.87743,
		"longitude": -87.63557,
		"address1": "311 S Wacker Dr",
		"address2": "Ste 5",
		"address3": "",
		"city": "Chicago",
		"state": "IL",
		"zip_code": "60606"
	},
	{
		"venue_id": "yelp0FnPmZkMI6IH8j3PxSd65g",
		"venue_name": "J & J European Deli",
		"latitude": 41.9676856866355,
		"longitude": -87.7771222295101,
		"address1": "5960 W Lawrence Ave",
		"address2": "",
		"address3": "",
		"city": "Chicago",
		"state": "IL",
		"zip_code": "60630"
	},
	{
		"venue_id": "yelpSqG1fn9g5EJ6G8MzIzdE4Q",
		"venue_name": "Jimmy John's",
		"latitude": 41.83073,
		"longitude": -87.6271299,
		"address1": "3506 S State St",
		"address2": "",
		"address3": "",
		"city": "Chicago",
		"state": "IL",
		"zip_code": "60609"
	},
	{
		"venue_id": "yelpiM1xubql8Losmqxzdjc4yQ",
		"venue_name": "Jimmy John's",
		"latitude": 41.8826913,
		"longitude": -87.6311008,
		"address1": "28 N Clark St",
		"address2": "",
		"address3": "",
		"city": "Chicago",
		"state": "IL",
		"zip_code": "60602"
	},
	{
		"venue_id": "yelpNVxz-c-JMrx2Qe79_Z2dLg",
		"venue_name": "Jimmy John's",
		"latitude": 41.88038,
		"longitude": -87.63411,
		"address1": "205 W Monroe St",
		"address2": "",
		"address3": "",
		"city": "Chicago",
		"state": "IL",
		"zip_code": "60606"
	},
	{
		"venue_id": "yelpPBWFBvT4tc4z-llHiso3zA",
		"venue_name": "Jimmy John's",
		"latitude": 41.9217655062675,
		"longitude": -87.6646964997053,
		"address1": "2206 N Clybourn Ave",
		"address2": "",
		"address3": "",
		"city": "Chicago",
		"state": "IL",
		"zip_code": "60614"
	},
	{
		"venue_id": "yelporWzz0GzkAGKTfs61DqPIQ",
		"venue_name": "Jimmy John's",
		"latitude": 41.9540147,
		"longitude": -87.7480545,
		"address1": "4021 N Milwaukee Ave",
		"address2": "",
		"address3": "",
		"city": "Chicago",
		"state": "IL",
		"zip_code": "60641"
	},
	{
		"venue_id": "yelp1C8JKDNA6kncMQaSKwiFfg",
		"venue_name": "Halsted Street Deli & Bagel",
		"latitude": 41.88235,
		"longitude": -87.6404699,
		"address1": "500 W Madison Ave",
		"address2": "",
		"address3": "",
		"city": "Chicago",
		"state": "IL",
		"zip_code": "60661"
	},
	{
		"venue_id": "yelpHcTv6ZUZrBPzIcK6ZSkluQ",
		"venue_name": "Harczak's Authentic Ethnic Sausages",
		"latitude": 41.9801872,
		"longitude": -87.8038274,
		"address1": "7035 W Higgins Rd",
		"address2": null,
		"address3": "",
		"city": "Chicago",
		"state": "IL",
		"zip_code": "60656"
	},
	{
		"venue_id": "yelptvMip9XbU-zsnOjXb-6f4Q",
		"venue_name": "Miska's Deli",
		"latitude": 41.941103,
		"longitude": -87.682779,
		"address1": "2156 W Belmont Ave",
		"address2": "",
		"address3": "",
		"city": "Chicago",
		"state": "IL",
		"zip_code": "60686"
	},
	{
		"venue_id": "yelpbUiIoRQJxU_Q150LVbZSvA",
		"venue_name": "Jimmy John's",
		"latitude": 41.9747009277344,
		"longitude": -87.6679916381836,
		"address1": "5109 N Clark St",
		"address2": "",
		"address3": "",
		"city": "Chicago",
		"state": "IL",
		"zip_code": "60640"
	},
	{
		"venue_id": "yelpXeJB7tgcHWtmPoYJCiMNtA",
		"venue_name": "Jimmy John's",
		"latitude": 41.9372367858887,
		"longitude": -87.6647644042969,
		"address1": "3041 N Lincoln Ave",
		"address2": "",
		"address3": "",
		"city": "Chicago",
		"state": "IL",
		"zip_code": "60657"
	},
	{
		"venue_id": "yelpXZqD6_ANZH_0JRtC5vFHqg",
		"venue_name": "Marcello's Market & Deli",
		"latitude": 41.8850975036621,
		"longitude": -87.6315231323242,
		"address1": "100 W Randolph St",
		"address2": "",
		"address3": "",
		"city": "Chicago",
		"state": "IL",
		"zip_code": "60601"
	},
	{
		"venue_id": "yelpp1TYvVlyPr64WV81Trt1MQ",
		"venue_name": "Halsted Street Deli",
		"latitude": 41.87754,
		"longitude": -87.627212,
		"address1": "333 S State St",
		"address2": "",
		"address3": "",
		"city": "Chicago",
		"state": "IL",
		"zip_code": "60604"
	},
	{
		"venue_id": "yelpy2z8xJGZCqnjKYFo6vwB6Q",
		"venue_name": "Jimmy John's",
		"latitude": 41.8798665,
		"longitude": -87.640907,
		"address1": "131 S Clinton St",
		"address2": "",
		"address3": "",
		"city": "Chicago",
		"state": "IL",
		"zip_code": "60686"
	},
	{
		"venue_id": "yelpjtx3JKncVvDx09RbKGllZg",
		"venue_name": "International Sandwich Shop",
		"latitude": 41.88227,
		"longitude": -87.63502,
		"address1": "1 N Franklin St",
		"address2": null,
		"address3": null,
		"city": "Chicago",
		"state": "IL",
		"zip_code": "60606"
	},
	{
		"venue_id": "yelpRwtoALx1TRiOJ6R9HAv9yA",
		"venue_name": "Jimmy John's",
		"latitude": 41.88038,
		"longitude": -87.63411,
		"address1": "205 W Monroe St",
		"address2": "",
		"address3": "",
		"city": "Chicago",
		"state": "IL",
		"zip_code": "60606"
	},
	{
		"venue_id": "yelpBwOxNRVh3HiQp1dQhw4TrQ",
		"venue_name": "Jimmy John's",
		"latitude": 41.885293,
		"longitude": -87.621452,
		"address1": "200 E Randolph St",
		"address2": "",
		"address3": "",
		"city": "Chicago",
		"state": "IL",
		"zip_code": "60601"
	},
	{
		"venue_id": "yelp1NqvRwIRqX_rHEO3FPMZSQ",
		"venue_name": "Jimmy John's",
		"latitude": 41.8915375165755,
		"longitude": -87.62441260806,
		"address1": "520 N Michigan Ave",
		"address2": "",
		"address3": "Fl 4 Food Court",
		"city": "Chicago",
		"state": "IL",
		"zip_code": "60611"
	},
	{
		"venue_id": "yelpiOkVrOZ2TxzogZVvBy1eKg",
		"venue_name": "Jimmy John's",
		"latitude": 41.99267578125,
		"longitude": -87.6901092529297,
		"address1": "6108 N Western Ave",
		"address2": "Ste 103",
		"address3": "",
		"city": "Chicago",
		"state": "IL",
		"zip_code": "60659"
	},
	{
		"venue_id": "yelpjkE_7CC3dd_9X2NCZxEXNg",
		"venue_name": "Scratch Deli & Cafe",
		"latitude": 41.879207,
		"longitude": -87.811767,
		"address1": "7444 Madison St",
		"address2": null,
		"address3": "",
		"city": "Forest Park",
		"state": "IL",
		"zip_code": "60130"
	},
	{
		"venue_id": "yelpLM1RkonuVduSCTleRaHEoA",
		"venue_name": "Jimmy John's",
		"latitude": 41.882036626339,
		"longitude": -87.6387749612331,
		"address1": "2 N Riverside Plz",
		"address2": "",
		"address3": "",
		"city": "Chicago",
		"state": "IL",
		"zip_code": "60606"
	},
	{
		"venue_id": "yelpHmE8MtU34xrmaXCkaoQBPQ",
		"venue_name": "Lu's Old Fashioned Deli & Pub",
		"latitude": 41.8976598,
		"longitude": -87.6271194,
		"address1": "26 E Pearson",
		"address2": "",
		"address3": "",
		"city": "Chicago",
		"state": "IL",
		"zip_code": "60611"
	},
	{
		"venue_id": "yelpusCW8aTv0RfJDXCC_dk2zA",
		"venue_name": "New York Deli",
		"latitude": 41.8095083081799,
		"longitude": -87.6194499310276,
		"address1": "316 E 47th St",
		"address2": "",
		"address3": "",
		"city": "Chicago",
		"state": "IL",
		"zip_code": "60653"
	},
	{
		"venue_id": "yelp49MgIr1eUWNQgxN9PdWOcg",
		"venue_name": "Carnelli's Deli",
		"latitude": 41.891511,
		"longitude": -87.608582,
		"address1": "600 E Grand Ave",
		"address2": "Ste 123",
		"address3": "",
		"city": "Chicago",
		"state": "IL",
		"zip_code": "60611"
	},
	{
		"venue_id": "yelpb5Yeina6CPpgzF31LzZjTA",
		"venue_name": "Chicago's Finest Deli on Wheels",
		"latitude": 41.935003,
		"longitude": -87.683082,
		"address1": "N Leavitt St",
		"address2": "",
		"address3": "",
		"city": "Chicago",
		"state": "IL",
		"zip_code": ""
	},
	{
		"venue_id": "yelpFSLAQP0jOaIGMqqz3y0QVw",
		"venue_name": "Food 4 Less",
		"latitude": 41.83818,
		"longitude": -87.74151,
		"address1": "3039 S Cicero Ave",
		"address2": null,
		"address3": null,
		"city": "Cicero",
		"state": "IL",
		"zip_code": "60804"
	},
	{
		"venue_id": "yelplAIU-0t62Nnv6O7cmf_q6w",
		"venue_name": "Jimmy John's",
		"latitude": 41.8798583365943,
		"longitude": -87.808313369751,
		"address1": "350 Circle Ave",
		"address2": null,
		"address3": "",
		"city": "Forest Park",
		"state": "IL",
		"zip_code": "60130"
	},
	{
		"venue_id": "yelpCBMX5uDSq9Lz4yaNvzrN-A",
		"venue_name": "Sun Subs",
		"latitude": 41.886360168457,
		"longitude": -87.7549057006836,
		"address1": "321 N Laramie Ave",
		"address2": "",
		"address3": "",
		"city": "Chicago",
		"state": "IL",
		"zip_code": "60644"
	},
	{
		"venue_id": "yelpqgti5xJUQhrxh-J4K2iAzg",
		"venue_name": "Alonti Deli",
		"latitude": 41.882036626339,
		"longitude": -87.6387749612331,
		"address1": "2 N Riverside Plz",
		"address2": "",
		"address3": "",
		"city": "Chicago",
		"state": "IL",
		"zip_code": "60606"
	},
	{
		"venue_id": "yelpZ-jUglOApiKdsVf2J_Wpbg",
		"venue_name": "Gage's Deli",
		"latitude": 41.9669451,
		"longitude": -87.6667118,
		"address1": "1467 W Leland Ave",
		"address2": "",
		"address3": null,
		"city": "Chicago",
		"state": "IL",
		"zip_code": "60640"
	},
	{
		"venue_id": "yelpV5Yib6S1IySnwXdcrB37zQ",
		"venue_name": "Honey Baked Ham Company",
		"latitude": 41.95574,
		"longitude": -87.80379,
		"address1": "7044 West Forest Preserve Drive",
		"address2": "",
		"address3": null,
		"city": "Norridge",
		"state": "IL",
		"zip_code": "60706"
	},
	{
		"venue_id": "yelpCaHxJp9hRsS0YcD-pQ92zw",
		"venue_name": "Jimmy John's",
		"latitude": 41.881806324967,
		"longitude": -87.6345071228844,
		"address1": "201 W Madison St",
		"address2": null,
		"address3": null,
		"city": "Chicago",
		"state": "IL",
		"zip_code": "60606"
	},
	{
		"venue_id": "yelpbEgQIFb45vgJupkZa9edMQ",
		"venue_name": "Bristol Deli",
		"latitude": 41.9385617,
		"longitude": -87.756899,
		"address1": "5205 W Belmont Ave",
		"address2": "",
		"address3": "",
		"city": "Chicago",
		"state": "IL",
		"zip_code": "60641"
	},
	{
		"venue_id": "yelpbUzWPI_3jzq7BTs5EmphmQ",
		"venue_name": "Jimmy John's",
		"latitude": 41.8684673,
		"longitude": -87.6390786,
		"address1": "1101 S Canal St",
		"address2": "",
		"address3": "",
		"city": "Chicago",
		"state": "IL",
		"zip_code": "60607"
	},
	{
		"venue_id": "yelpcE8Swl45jhcE5lkk2GJZWw",
		"venue_name": "Jimmy John's",
		"latitude": 41.88843008918,
		"longitude": -87.7931488489663,
		"address1": "709 Lake St",
		"address2": null,
		"address3": null,
		"city": "Oak Park",
		"state": "IL",
		"zip_code": "60301"
	},
	{
		"venue_id": "yelpCKSPOe5nldBVf6uVr6nsBA",
		"venue_name": "Courthouse Food Connection",
		"latitude": 41.88384,
		"longitude": -87.6313,
		"address1": "118 N Clark St",
		"address2": "",
		"address3": "",
		"city": "Chicago",
		"state": "IL",
		"zip_code": "60602"
	},
	{
		"venue_id": "yelpakbyOKo0OmC49KafAtF-MQ",
		"venue_name": "Wall Street Deli",
		"latitude": 41.87863,
		"longitude": -87.6265899,
		"address1": "228 W Wabash Ave",
		"address2": "",
		"address3": "",
		"city": "Chicago",
		"state": "IL",
		"zip_code": "60604"
	},
	{
		"venue_id": "yelpntXtyQzr6XkbG9csq__f2Q",
		"venue_name": "Nino Panino's",
		"latitude": 41.8789329,
		"longitude": -87.6393912,
		"address1": "225 S Canal St",
		"address2": "",
		"address3": "",
		"city": "Chicago",
		"state": "IL",
		"zip_code": "60686"
	},
	{
		"venue_id": "yelp0IYgb0zuWoSeSPPOM9Vv0Q",
		"venue_name": "Jimmy John's",
		"latitude": 41.8505749,
		"longitude": -87.79996,
		"address1": "7028 Cermak Rd",
		"address2": "",
		"address3": "",
		"city": "Berwyn",
		"state": "IL",
		"zip_code": "60402"
	},
	{
		"venue_id": "yelpYg1BAdRj_FsdPFU_F9mysg",
		"venue_name": "Deli 4 You",
		"latitude": 41.960153,
		"longitude": -87.806962,
		"address1": "4351 N Harlem Ave",
		"address2": "",
		"address3": "",
		"city": "Norridge",
		"state": "IL",
		"zip_code": "60706"
	},
	{
		"venue_id": "yelp7_OSGc7KYae64N6OpmcB-g",
		"venue_name": "AP Deli",
		"latitude": 41.8802261,
		"longitude": -87.7570953,
		"address1": "5251 W Madison St",
		"address2": null,
		"address3": null,
		"city": "Chicago",
		"state": "IL",
		"zip_code": "60644"
	},
	{
		"venue_id": "yelpJAaDfEgVFeOH9ol7qpFZqw",
		"venue_name": "Lilly's Quick Mart & Fresh Deli",
		"latitude": 41.8808171528142,
		"longitude": -87.7059203758836,
		"address1": "3179 W Madison St",
		"address2": "",
		"address3": null,
		"city": "Chicago",
		"state": "IL",
		"zip_code": "60612"
	},
	{
		"venue_id": "yelpHpE3VcpnvhthLvLy9BMySw",
		"venue_name": "Piano Terra",
		"latitude": 41.8803720086812,
		"longitude": -87.6235247381734,
		"address1": "111 S Michigan Ave",
		"address2": "",
		"address3": "",
		"city": "Chicago",
		"state": "IL",
		"zip_code": "60603"
	},
	{
		"venue_id": "yelpykLi7Kg48QzvEwcZmmicDg",
		"venue_name": "Pol-Mart Deli",
		"latitude": 41.945041,
		"longitude": -87.805007,
		"address1": "7141 W Addison St",
		"address2": "",
		"address3": "",
		"city": "Chicago",
		"state": "IL",
		"zip_code": "60634"
	},
	{
		"venue_id": "yelpSYrPk5PejQTqPUmJ8X_eDw",
		"venue_name": "New Waves Cafe & Deli",
		"latitude": 41.94549,
		"longitude": -87.7784,
		"address1": "6043 W Addison St",
		"address2": "",
		"address3": "",
		"city": "Chicago",
		"state": "IL",
		"zip_code": "60634"
	},
	{
		"venue_id": "yelpw3tdRH5PxUa1U0qH6ajm-g",
		"venue_name": "Halsted Street Deli",
		"latitude": 41.8922287337492,
		"longitude": -87.6204513112829,
		"address1": "541 N Fairbanks Ct",
		"address2": "Lower Level",
		"address3": null,
		"city": "Chicago",
		"state": "IL",
		"zip_code": "60611"
	},
	{
		"venue_id": "yelpE8uqhLoNDo3eEX5B_LPDTA",
		"venue_name": "Deli Lunch",
		"latitude": 41.8927726745605,
		"longitude": -87.622444152832,
		"address1": "200 E Ohio St",
		"address2": "",
		"address3": "",
		"city": "Chicago",
		"state": "IL",
		"zip_code": "60611"
	},
	{
		"venue_id": "yelpREmwPQdGLVF1OC0cp1hTqQ",
		"venue_name": "Jimmy John's",
		"latitude": 41.882393,
		"longitude": -87.627022,
		"address1": "1 N State St",
		"address2": "",
		"address3": "",
		"city": "Chicago",
		"state": "IL",
		"zip_code": "60602"
	},
	{
		"venue_id": "yelpe4PU2_seL2kUbHzghi0MiA",
		"venue_name": "Deli Time",
		"latitude": 41.89221,
		"longitude": -87.61975,
		"address1": "541 N Fairbanks Ct",
		"address2": null,
		"address3": null,
		"city": "Chicago",
		"state": "IL",
		"zip_code": "60611"
	},
	{
		"venue_id": "yelpjsz7u3e-Hx7F1Gf8HAfsMg",
		"venue_name": "Deli Time",
		"latitude": 41.886064,
		"longitude": -87.635964,
		"address1": "333 W Wacker Dr Lbby 1",
		"address2": null,
		"address3": null,
		"city": "Chicago",
		"state": "IL",
		"zip_code": "60606"
	},
	{
		"venue_id": "yelp5S1qRgDc7XIYaJjegmkCVw",
		"venue_name": "Harwood Heights Deli",
		"latitude": 41.9613342285156,
		"longitude": -87.7990798950195,
		"address1": "6832 W Montrose Ave",
		"address2": "",
		"address3": "",
		"city": "Harwood Heights",
		"state": "IL",
		"zip_code": "60706"
	},
	{
		"venue_id": "yelpegk81gS-TaJa03wxEXVzNA",
		"venue_name": "Taz Deli",
		"latitude": 41.8322282,
		"longitude": -87.7966452,
		"address1": "6932 Windsor Ave",
		"address2": null,
		"address3": "",
		"city": "Berwyn",
		"state": "IL",
		"zip_code": "60402"
	},
	{
		"venue_id": "yelpZuxiPfzOAX8zkOczMoZPdQ",
		"venue_name": "Domaci",
		"latitude": 41.9676793042559,
		"longitude": -87.8081770160643,
		"address1": "7316 W Lawrence Ave",
		"address2": "",
		"address3": "",
		"city": "Harwood Heights",
		"state": "IL",
		"zip_code": "60706"
	},
	{
		"venue_id": "yelpTh4saaqiehHbTXcM6Gtx9A",
		"venue_name": "Jimmy John's",
		"latitude": 41.9112967,
		"longitude": -87.8060216,
		"address1": "1702 Harlem Ave",
		"address2": "",
		"address3": "",
		"city": "Elmwood Park",
		"state": "IL",
		"zip_code": "60707"
	}
]