[
	{
		"venue_id": "yelp-sdMTRmgExufOk6STZFi9w",
		"venue_name": "Little Goat Diner",
		"latitude": 41.8846460590586,
		"longitude": -87.6484126982138,
		"address1": "820 W Randolph St",
		"address2": "",
		"address3": "",
		"city": "Chicago",
		"state": "IL",
		"zip_code": "60607"
	},
	{
		"venue_id": "yelpLMaoM2Ue2BR_HI9ba3JsZg",
		"venue_name": "The Publican",
		"latitude": 41.886644,
		"longitude": -87.648765,
		"address1": "837 W Fulton Market",
		"address2": "",
		"address3": "",
		"city": "Chicago",
		"state": "IL",
		"zip_code": "60607"
	},
	{
		"venue_id": "yelp0VEE9H6OuGaswhC70tjKeQ",
		"venue_name": "Beatrix Streeterville",
		"latitude": 41.8944242,
		"longitude": -87.622564,
		"address1": "671 N St Clair",
		"address2": "",
		"address3": "",
		"city": "Chicago",
		"state": "IL",
		"zip_code": "60611"
	},
	{
		"venue_id": "yelp50gFzdVglOz88eFJ6v-26A",
		"venue_name": "Glenns Diner",
		"latitude": 41.9616270639775,
		"longitude": -87.6754598194383,
		"address1": "1820 W Montrose Ave",
		"address2": "",
		"address3": "",
		"city": "Chicago",
		"state": "IL",
		"zip_code": "60613"
	},
	{
		"venue_id": "yelpBPg56t_UUCjZCK6i0o6xkQ",
		"venue_name": "Eleven City Diner",
		"latitude": 41.86877,
		"longitude": -87.62635,
		"address1": "1112 S Wabash Ave",
		"address2": null,
		"address3": "",
		"city": "Chicago",
		"state": "IL",
		"zip_code": "60605"
	},
	{
		"venue_id": "yelpKwFp1p0t0L1CLCm4HSizsQ",
		"venue_name": "Stella's Diner",
		"latitude": 41.9377628713846,
		"longitude": -87.6443700492382,
		"address1": "3042 N Broadway St",
		"address2": "",
		"address3": "",
		"city": "Chicago",
		"state": "IL",
		"zip_code": "60657"
	},
	{
		"venue_id": "yelpSS35Cso7FMrHnwDYYrfL7Q",
		"venue_name": "Palace Grill",
		"latitude": 41.88178,
		"longitude": -87.66248,
		"address1": "1408 W Madison St",
		"address2": "",
		"address3": "",
		"city": "Chicago",
		"state": "IL",
		"zip_code": "60607"
	},
	{
		"venue_id": "yelp6nThdNoEuRfHwjNR875fVw",
		"venue_name": "Feed",
		"latitude": 41.895473,
		"longitude": -87.696973,
		"address1": "2803 W Chicago Ave",
		"address2": "",
		"address3": "",
		"city": "Chicago",
		"state": "IL",
		"zip_code": "60622"
	},
	{
		"venue_id": "yelpn99qEoKGGdFG6p_rHzK_Cw",
		"venue_name": "Lou Mitchell's Restaurant & Bakery",
		"latitude": 41.87779,
		"longitude": -87.64211,
		"address1": "565 W Jackson Blvd",
		"address2": "",
		"address3": "",
		"city": "Chicago",
		"state": "IL",
		"zip_code": "60661"
	},
	{
		"venue_id": "yelpahp1F4QC_8nqrbw5jAvGPA",
		"venue_name": "Cozy Corner Restaurant & Pancake House",
		"latitude": 41.92244,
		"longitude": -87.69707,
		"address1": "2294 N Milwaukee Ave",
		"address2": "",
		"address3": "",
		"city": "Chicago",
		"state": "IL",
		"zip_code": "60647"
	},
	{
		"venue_id": "yelp_IFYKbyisxTsDiuqKolI4A",
		"venue_name": "Pittsfield Cafe",
		"latitude": 41.883263,
		"longitude": -87.62597,
		"address1": "55 E Washington St",
		"address2": "",
		"address3": "",
		"city": "Chicago",
		"state": "IL",
		"zip_code": "60602"
	},
	{
		"venue_id": "yelpMrWETKbSyG-FBq6ttK8SiQ",
		"venue_name": "Eggy's Diner",
		"latitude": 41.8851851,
		"longitude": -87.6185829,
		"address1": "333 E Benton Pl",
		"address2": "Ste 103",
		"address3": "",
		"city": "Chicago",
		"state": "IL",
		"zip_code": "60601"
	},
	{
		"venue_id": "yelpFT0INMzZgvPsWUfEvI5wKA",
		"venue_name": "Saint Lou's Assembly",
		"latitude": 41.886,
		"longitude": -87.64522,
		"address1": "664 W Lake St",
		"address2": "",
		"address3": "",
		"city": "Chicago",
		"state": "IL",
		"zip_code": "60661"
	},
	{
		"venue_id": "yelpIBWaLosoL5Jop81u4FxFwA",
		"venue_name": "Diner Grill",
		"latitude": 41.95408,
		"longitude": -87.67048,
		"address1": "1635 W Irving Park Rd",
		"address2": "",
		"address3": "",
		"city": "Chicago",
		"state": "IL",
		"zip_code": "60613"
	},
	{
		"venue_id": "yelpuM0bo8IaXddPZlIYfDSHhQ",
		"venue_name": "Miss Ricky's",
		"latitude": 41.8860646,
		"longitude": -87.6258528,
		"address1": "203 N Wabash Ave",
		"address2": "Virgin Hotels Chicago",
		"address3": "",
		"city": "Chicago",
		"state": "IL",
		"zip_code": "60601"
	},
	{
		"venue_id": "yelplPnav884H0DxHrftYF1BIg",
		"venue_name": "Shilas Restaurant",
		"latitude": 41.9526596,
		"longitude": -87.747406,
		"address1": "3938 N Cicero Ave",
		"address2": "",
		"address3": "",
		"city": "Chicago",
		"state": "IL",
		"zip_code": "60641"
	},
	{
		"venue_id": "yelpvxtVXDAjtKXO1Ziu5ByHyg",
		"venue_name": "Golden House Restaurant & Pancake House",
		"latitude": 41.9684132118093,
		"longitude": -87.6598485492127,
		"address1": "4744 N Broadway",
		"address2": "",
		"address3": "",
		"city": "Chicago",
		"state": "IL",
		"zip_code": "60640"
	},
	{
		"venue_id": "yelphdb9ThuQUukK7GWcknDxMA",
		"venue_name": "West Town Bakery & Diner",
		"latitude": 41.896214,
		"longitude": -87.675423,
		"address1": "1916 W Chicago Ave",
		"address2": "",
		"address3": "",
		"city": "Chicago",
		"state": "IL",
		"zip_code": "60622"
	},
	{
		"venue_id": "yelpRRflazDtBkqqpvEz2hbV2w",
		"venue_name": "Yellow Rose Cafe",
		"latitude": 41.98367,
		"longitude": -87.76634,
		"address1": "5640 N Elston Ave",
		"address2": "",
		"address3": "",
		"city": "Chicago",
		"state": "IL",
		"zip_code": "60646"
	},
	{
		"venue_id": "yelpRBL0LuaABDWmurNOxUUejA",
		"venue_name": "White Palace Grill",
		"latitude": 41.8675498962402,
		"longitude": -87.6389694213867,
		"address1": "1159 S Canal St",
		"address2": "",
		"address3": "",
		"city": "Chicago",
		"state": "IL",
		"zip_code": "60607"
	},
	{
		"venue_id": "yelp_3hz43PN50iPIap6XnjU8w",
		"venue_name": "Torteria San Lenchito",
		"latitude": 41.9686651,
		"longitude": -87.7171894,
		"address1": "4810 N Drake Ave",
		"address2": "",
		"address3": "",
		"city": "Chicago",
		"state": "IL",
		"zip_code": "60625"
	},
	{
		"venue_id": "yelpafmAYNXgvG5Te9bsvzJPXA",
		"venue_name": "Johnnie's Snack Shop",
		"latitude": 41.8849019,
		"longitude": -87.6475595,
		"address1": "160 N Halsted St",
		"address2": "",
		"address3": "",
		"city": "Chicago",
		"state": "IL",
		"zip_code": "60661"
	},
	{
		"venue_id": "yelpFFZmLgJaCrD-PNjnaO1buQ",
		"venue_name": "Tio Luis Tacos",
		"latitude": 41.823674,
		"longitude": -87.689114,
		"address1": "3856 S Archer Ave",
		"address2": "",
		"address3": "",
		"city": "Chicago",
		"state": "IL",
		"zip_code": "60632"
	},
	{
		"venue_id": "yelpvvc8AmPruXgRDr7qBZO80Q",
		"venue_name": "Maxwell Street Depot",
		"latitude": 41.838049703686,
		"longitude": -87.6371533103465,
		"address1": "411 W 31st St",
		"address2": "",
		"address3": "",
		"city": "Chicago",
		"state": "IL",
		"zip_code": "60616"
	},
	{
		"venue_id": "yelpZDFETj5PzK5ADseNp0U7eQ",
		"venue_name": "Golden Apple Grill & Breakfast House",
		"latitude": 41.9359408869827,
		"longitude": -87.6631273417081,
		"address1": "2971 N Lincoln Ave",
		"address2": "",
		"address3": "",
		"city": "Chicago",
		"state": "IL",
		"zip_code": "60657"
	},
	{
		"venue_id": "yelpy12ngwgZED8rAy-DII0yzA",
		"venue_name": "West River Cafe",
		"latitude": 41.9613562524319,
		"longitude": -87.7083145827055,
		"address1": "4400 N Kedzie Ave",
		"address2": "",
		"address3": "",
		"city": "Chicago",
		"state": "IL",
		"zip_code": "60625"
	},
	{
		"venue_id": "yelpaS1_TQ98B4urnMJC7iLrEg",
		"venue_name": "Alexander's Restaurant",
		"latitude": 41.9943440413381,
		"longitude": -87.6704196273746,
		"address1": "6158 N Clark St",
		"address2": "",
		"address3": "",
		"city": "Chicago",
		"state": "IL",
		"zip_code": "60660"
	},
	{
		"venue_id": "yelpMCT54u_suCuc_2L8wotYgw",
		"venue_name": "Park View Diner",
		"latitude": 41.85608,
		"longitude": -87.6761,
		"address1": "2000 W 19th St",
		"address2": "",
		"address3": "",
		"city": "Chicago",
		"state": "IL",
		"zip_code": "60608"
	},
	{
		"venue_id": "yelpTR5aMT-mE4SWGUySGb16Yg",
		"venue_name": "Hollywood Grill",
		"latitude": 41.910384224074,
		"longitude": -87.6680632177234,
		"address1": "1601 W North Ave",
		"address2": "",
		"address3": "",
		"city": "Chicago",
		"state": "IL",
		"zip_code": "60622"
	},
	{
		"venue_id": "yelpeFab0re0g5F2fsizBTkl3g",
		"venue_name": "Thai on Clark",
		"latitude": 41.9664916992188,
		"longitude": -87.6666488647461,
		"address1": "4641 N Clark St",
		"address2": null,
		"address3": "",
		"city": "Chicago",
		"state": "IL",
		"zip_code": "60640"
	},
	{
		"venue_id": "yelptR3gdBxJJ7I7W6xoSuUrQg",
		"venue_name": "Belmont Snack Shop",
		"latitude": 41.939086,
		"longitude": -87.712888,
		"address1": "3407 W Belmont Ave",
		"address2": null,
		"address3": "",
		"city": "Chicago",
		"state": "IL",
		"zip_code": "60618"
	},
	{
		"venue_id": "yelpTdUE8NPGaCkaygitV0s08A",
		"venue_name": "Pauline's",
		"latitude": 41.979923248291,
		"longitude": -87.6741638183594,
		"address1": "1754 W Balmoral Ave",
		"address2": "",
		"address3": "",
		"city": "Chicago",
		"state": "IL",
		"zip_code": "60640"
	},
	{
		"venue_id": "yelplHJfojSV_bTC8VrJ6Tu6Qw",
		"venue_name": "Eppel's Restaurant",
		"latitude": 41.8675575256348,
		"longitude": -87.6413192749023,
		"address1": "554 W Roosevelt Rd",
		"address2": "",
		"address3": "",
		"city": "Chicago",
		"state": "IL",
		"zip_code": "60607"
	},
	{
		"venue_id": "yelpsPLUAKhjHrMe5zaAGJUTCg",
		"venue_name": "Jeri's Grill",
		"latitude": 41.9612,
		"longitude": -87.6883,
		"address1": "4357 N Western Ave",
		"address2": "",
		"address3": "",
		"city": "Chicago",
		"state": "IL",
		"zip_code": "60618"
	},
	{
		"venue_id": "yelpgZT907q6FX6sxW9PrgAe7Q",
		"venue_name": "Nick's Hi-Ho Cafe",
		"latitude": 41.93804,
		"longitude": -87.74726,
		"address1": "3134 N Cicero Ave",
		"address2": "",
		"address3": "",
		"city": "Chicago",
		"state": "IL",
		"zip_code": "60686"
	},
	{
		"venue_id": "yelp_FBHkdADghdd6r6pX5LL-Q",
		"venue_name": "Griddle 24",
		"latitude": 41.8967057952508,
		"longitude": -87.6369849219918,
		"address1": "334 W Chicago Ave",
		"address2": "",
		"address3": null,
		"city": "Chicago",
		"state": "IL",
		"zip_code": "60654"
	},
	{
		"venue_id": "yelpZ6WZWLg1TDvDBLkAHavUVQ",
		"venue_name": "Dollop Diner",
		"latitude": 41.974242,
		"longitude": -87.6683533856019,
		"address1": "5060 N Clark St",
		"address2": "",
		"address3": null,
		"city": "Chicago",
		"state": "IL",
		"zip_code": "60640"
	},
	{
		"venue_id": "yelpjvU19JluvhvIsVyZMJdlXg",
		"venue_name": "Big Top Restaurant",
		"latitude": 41.9763718772576,
		"longitude": -87.7869019657373,
		"address1": "6348 W Higgins Ave",
		"address2": "",
		"address3": "",
		"city": "Chicago",
		"state": "IL",
		"zip_code": "60630"
	},
	{
		"venue_id": "yelpJrEI27-703NstNBaRrlr3Q",
		"venue_name": "Steak 'n' Egger",
		"latitude": 41.8526449,
		"longitude": -87.65566,
		"address1": "1174 W Cermak Rd",
		"address2": "",
		"address3": "",
		"city": "Chicago",
		"state": "IL",
		"zip_code": "60608"
	},
	{
		"venue_id": "yelpB9GC0mRtbXwR4U9fgehMCg",
		"venue_name": "Fullerton Restaurant",
		"latitude": 41.92567,
		"longitude": -87.687896,
		"address1": "2400 W Fullerton Ave",
		"address2": "",
		"address3": "",
		"city": "Chicago",
		"state": "IL",
		"zip_code": "60647"
	},
	{
		"venue_id": "yelp3rCV2DY8cXUUg5ojzcNXdg",
		"venue_name": "3 Squares Diner",
		"latitude": 41.969389,
		"longitude": -87.655825,
		"address1": "1020 W Lawrence Ave",
		"address2": "",
		"address3": null,
		"city": "Chicago",
		"state": "IL",
		"zip_code": "60640"
	},
	{
		"venue_id": "yelp39kFyLPn1NU477OijCvXuQ",
		"venue_name": "Lucky Grill",
		"latitude": 41.9619151,
		"longitude": -87.7557976,
		"address1": "4454 N Milwaukee Ave",
		"address2": "",
		"address3": "",
		"city": "Chicago",
		"state": "IL",
		"zip_code": "60630"
	},
	{
		"venue_id": "yelpCTbOVEQFhq8pixZgr7SiWA",
		"venue_name": "Sunshine Restaurant",
		"latitude": 41.9455808401108,
		"longitude": -87.7077077329159,
		"address1": "3523 N Kedzie Ave",
		"address2": "",
		"address3": "",
		"city": "Chicago",
		"state": "IL",
		"zip_code": "60618"
	},
	{
		"venue_id": "yelpjvGJSB3MDhnQbIvhgwEvhw",
		"venue_name": "Kentone's Drive-In",
		"latitude": 41.85744,
		"longitude": -87.64083,
		"address1": "551 W 18th St",
		"address2": "",
		"address3": "",
		"city": "Chicago",
		"state": "IL",
		"zip_code": "60616"
	},
	{
		"venue_id": "yelpg2Hji8KscrA_7cJPJYDi4w",
		"venue_name": "The Lakefront Restaurant",
		"latitude": 41.926802417024,
		"longitude": -87.6305051663638,
		"address1": "2401 N Lake Shore Dr",
		"address2": "",
		"address3": null,
		"city": "Chicago",
		"state": "IL",
		"zip_code": "60614"
	},
	{
		"venue_id": "yelpzQH1szwJE7Rluw1qVe-UOg",
		"venue_name": "Brick House Cafe",
		"latitude": 41.95423,
		"longitude": -87.70775,
		"address1": "3152 W Irving Park Rd",
		"address2": "",
		"address3": "",
		"city": "Chicago",
		"state": "IL",
		"zip_code": "60618"
	},
	{
		"venue_id": "yelpz_cmAQK-yPxFX-mAFzN-2w",
		"venue_name": "Yolk - Wicker Park",
		"latitude": 41.90291,
		"longitude": -87.67319,
		"address1": "1819 W Division St",
		"address2": "Ste 300",
		"address3": null,
		"city": "Chicago",
		"state": "IL",
		"zip_code": "60622"
	},
	{
		"venue_id": "yelptcK8VEt6nGXefYj-WQoXnw",
		"venue_name": "Art's Drive In",
		"latitude": 41.91053,
		"longitude": -87.66172,
		"address1": "1333 W North Ave",
		"address2": "",
		"address3": "",
		"city": "Chicago",
		"state": "IL",
		"zip_code": "60642"
	},
	{
		"venue_id": "yelpq_NQf9soEicOOEG2odpdXw",
		"venue_name": "Burgundy Restaurant",
		"latitude": 41.9528842285864,
		"longitude": -87.7766050849123,
		"address1": "5959 W Irving Park Rd",
		"address2": "",
		"address3": "",
		"city": "Chicago",
		"state": "IL",
		"zip_code": "60634"
	},
	{
		"venue_id": "yelpPKtU9LxlidVbp5fnqIqnNA",
		"venue_name": "Artist's Cafe",
		"latitude": 41.8767242,
		"longitude": -87.6245049,
		"address1": "412 S Michigan Ave",
		"address2": null,
		"address3": "",
		"city": "Chicago",
		"state": "IL",
		"zip_code": "60605"
	},
	{
		"venue_id": "yelpaJSV1VBnSBPBIW4EtAhEzg",
		"venue_name": "Chef Petros",
		"latitude": 41.8847347,
		"longitude": -87.6325949,
		"address1": "160 N La Salle St",
		"address2": null,
		"address3": "",
		"city": "Chicago",
		"state": "IL",
		"zip_code": "60601"
	},
	{
		"venue_id": "yelp9ZEU1-BCBO-fSBgwBbjZlA",
		"venue_name": "Louie's Grill",
		"latitude": 41.879154,
		"longitude": -87.810606,
		"address1": "7422 Madison St",
		"address2": "",
		"address3": "",
		"city": "Forest Park",
		"state": "IL",
		"zip_code": "60130"
	},
	{
		"venue_id": "yelp9svHL00YzRlMeE-9hDdzAQ",
		"venue_name": "Hilltop",
		"latitude": 41.9758749661638,
		"longitude": -87.699085,
		"address1": "2800 W Foster Ave",
		"address2": "",
		"address3": "",
		"city": "Chicago",
		"state": "IL",
		"zip_code": "60625"
	},
	{
		"venue_id": "yelpL-LNF6Mz_bH_iTohxohrDw",
		"venue_name": "Al's Grill",
		"latitude": 41.880072,
		"longitude": -87.802575,
		"address1": "1100 W Madison St",
		"address2": "",
		"address3": "",
		"city": "Oak Park",
		"state": "IL",
		"zip_code": "60302"
	},
	{
		"venue_id": "yelp91Zy64j1o92jKYd719r1vw",
		"venue_name": "United Grill",
		"latitude": 41.8516800552607,
		"longitude": -87.7540495991707,
		"address1": "2145 S Laramie Ave",
		"address2": "",
		"address3": "",
		"city": "Cicero",
		"state": "IL",
		"zip_code": "60804"
	},
	{
		"venue_id": "yelpWKhtmhzZ3CB2ojUujuKXMQ",
		"venue_name": "The Junction Diner",
		"latitude": 41.8796663,
		"longitude": -87.809676,
		"address1": "7401 W Madison St",
		"address2": null,
		"address3": "",
		"city": "Forest Park",
		"state": "IL",
		"zip_code": "60130"
	},
	{
		"venue_id": "yelpnrCsZq8efWiHSkx7Mx6wHg",
		"venue_name": "David's Grill",
		"latitude": 41.8527749,
		"longitude": -87.6467687,
		"address1": "800 W Cermak Rd",
		"address2": "",
		"address3": "",
		"city": "Chicago",
		"state": "IL",
		"zip_code": "60608"
	},
	{
		"venue_id": "yelpAQwczgFhqZqrnSCvMaqdvg",
		"venue_name": "Norwood Restaurant",
		"latitude": 41.9925645654161,
		"longitude": -87.7990261705253,
		"address1": "6101 N Nw Hwy",
		"address2": "",
		"address3": "",
		"city": "Chicago",
		"state": "IL",
		"zip_code": "60631"
	},
	{
		"venue_id": "yelp1xZMpizn2jPAvJ34Ip_oQw",
		"venue_name": "Connie's Family Restaurant",
		"latitude": 41.8317085705052,
		"longitude": -87.8025859107989,
		"address1": "3271 S Harlem Ave",
		"address2": "",
		"address3": "",
		"city": "Berwyn",
		"state": "IL",
		"zip_code": "60402"
	},
	{
		"venue_id": "yelpWjqzKhknP9mqN5LNqpuJRg",
		"venue_name": "Tj's Family Restaurant",
		"latitude": 41.8523101806641,
		"longitude": -87.6745529174805,
		"address1": "1928 W Cermak Rd",
		"address2": "",
		"address3": "",
		"city": "Chicago",
		"state": "IL",
		"zip_code": "60608"
	},
	{
		"venue_id": "yelpEFLu4JN76LW1GmX_jtC6FQ",
		"venue_name": "Golden Heart Mariscos & Restaurant",
		"latitude": 41.81704,
		"longitude": -87.69995,
		"address1": "4210 S Archer Ave",
		"address2": "",
		"address3": "",
		"city": "Chicago",
		"state": "IL",
		"zip_code": "60632"
	},
	{
		"venue_id": "yelpgB6t8ux99XEK1XYrGfjOOw",
		"venue_name": "New Delta Family Restaurant",
		"latitude": 41.939036,
		"longitude": -87.7467251,
		"address1": "3205 N Cicero Ave",
		"address2": "",
		"address3": "",
		"city": "Chicago",
		"state": "IL",
		"zip_code": "60641"
	},
	{
		"venue_id": "yelpNIJzV2Y5-oNzrMzdHTJ0yA",
		"venue_name": "Denny's",
		"latitude": 41.893430682078,
		"longitude": -87.804957853873,
		"address1": "711 N Harlem Ave",
		"address2": null,
		"address3": "",
		"city": "Oak Park",
		"state": "IL",
		"zip_code": "60302"
	},
	{
		"venue_id": "yelp4VzcNTp5Ls7GyFpwN8sKfA",
		"venue_name": "Movie Mondays at the Drake's Palm Court",
		"latitude": 41.900436,
		"longitude": -87.623405,
		"address1": "140 East Walton Pl",
		"address2": "",
		"address3": "",
		"city": "Chicago",
		"state": "IL",
		"zip_code": "60611"
	},
	{
		"venue_id": "yelpjL_QKW0L-35Vflp0WV-L9Q",
		"venue_name": "Nuk's Diner",
		"latitude": 41.88013,
		"longitude": -87.74408,
		"address1": "4731 W Madison St",
		"address2": null,
		"address3": "",
		"city": "Chicago",
		"state": "IL",
		"zip_code": "60644"
	},
	{
		"venue_id": "yelpVRhArRynosV6XL4I0sPs5g",
		"venue_name": "Denny's",
		"latitude": 41.964331,
		"longitude": -87.806843,
		"address1": "4609 N Harlem Ave",
		"address2": "",
		"address3": "",
		"city": "Norridge",
		"state": "IL",
		"zip_code": "60706"
	},
	{
		"venue_id": "yelpjdaNYEHO8iZk0AnQSEaGbA",
		"venue_name": "Steak-N-Egger",
		"latitude": 41.83646,
		"longitude": -87.76544,
		"address1": "5647 W Ogden Ave",
		"address2": "",
		"address3": "",
		"city": "Cicero",
		"state": "IL",
		"zip_code": "60804"
	},
	{
		"venue_id": "yelpZoasgbfYehmxlfBioOMTmA",
		"venue_name": "Jelly Jam",
		"latitude": 41.8336601,
		"longitude": -87.8026199,
		"address1": "3205 S Harlem Ave",
		"address2": "",
		"address3": "",
		"city": "Berwyn",
		"state": "IL",
		"zip_code": "60402"
	}
]