[
  {
    "venue_id": "EB_23753861",
    "venue_name": "Emporium Chicago - Arcade Bar Venue",
    "latitude": 41.9065508,
    "longitude": -87.67172210000001,
    "address1": "1366 North Milwaukee Avenue",
    "address2": "",
    "address3": "",
    "city": "Chicago",
    "state": "IL",
    "zip_code": "60622"
  },
  {
    "venue_id": "EB_28037725",
    "venue_name": "Alarmist Brewing & Taproom",
    "latitude": 41.98983,
    "longitude": -87.73138879999999,
    "address1": "4055 W. Peterson Ave",
    "address2": "",
    "address3": "",
    "city": "Chicago",
    "state": "IL",
    "zip_code": "60646"
  },
  {
    "venue_id": "EB_19239559",
    "venue_name": "HVAC Pub",
    "latitude": 41.9463,
    "longitude": -87.6562,
    "address1": "3530 North Clark Street",
    "address2": "",
    "address3": "",
    "city": "Chicago",
    "state": "IL",
    "zip_code": "60657"
  },
  {
    "venue_id": "EB_28089483",
    "venue_name": "10th Ward Public Service Office",
    "latitude": 41.7044597,
    "longitude": -87.5356544,
    "address1": "10500 S. Ewing Ave",
    "address2": "",
    "address3": "",
    "city": "Chicago",
    "state": "IL",
    "zip_code": "60617"
  },
  {
    "venue_id": "EB_13042251",
    "venue_name": "Newberry Library",
    "latitude": 41.900043,
    "longitude": -87.63061700000003,
    "address1": "60 West Walton Street",
    "address2": "",
    "address3": "",
    "city": "Chicago",
    "state": "IL",
    "zip_code": "60610"
  },
  {
    "venue_id": "EB_21604746",
    "venue_name": "Sulzer Regional Library",
    "latitude": 41.9627392,
    "longitude": -87.68443730000001,
    "address1": "4455 N. Lincoln Avenue",
    "address2": "",
    "address3": "",
    "city": "Chicago",
    "state": "IL",
    "zip_code": "60625"
  },
  {
    "venue_id": "EB_27480073",
    "venue_name": "Ford Motor Company Engineering Design Center",
    "latitude": 42.0569084,
    "longitude": -87.67651620000004,
    "address1": "2133 Sheridan Road",
    "address2": "ITW Classroom",
    "address3": "",
    "city": "Evanston",
    "state": "IL",
    "zip_code": "60208"
  },
  {
    "venue_id": "EB_27946316",
    "venue_name": "Hegewisch Branch, Chicago Public Library",
    "latitude": 41.6594095,
    "longitude": -87.54875609999999,
    "address1": "3048 East 130th Street",
    "address2": "",
    "address3": "",
    "city": "Chicago",
    "state": "IL",
    "zip_code": "60633"
  },
  {
    "venue_id": "EB_22007965",
    "venue_name": "Commons Club",
    "latitude": 41.886089,
    "longitude": -87.62603899999999,
    "address1": "203 North Wabash Avenue",
    "address2": "",
    "address3": "",
    "city": "Chicago",
    "state": "IL",
    "zip_code": "60601"
  },
  {
    "venue_id": "EB_28001082",
    "venue_name": "Kendra Scott",
    "latitude": 41.8996105,
    "longitude": -87.62488080000003,
    "address1": "900 North Michigan Shops",
    "address2": "900 Michigan Avenue",
    "address3": "",
    "city": "Chicago",
    "state": "IL",
    "zip_code": "60611"
  },
  {
    "venue_id": "EB_23510497",
    "venue_name": "Technexus",
    "latitude": 41.8824963,
    "longitude": -87.63732900000002,
    "address1": "20 North Upper Wacker Drive",
    "address2": "12th Floor",
    "address3": "",
    "city": "Chicago",
    "state": "IL",
    "zip_code": "60606"
  },
  {
    "venue_id": "EB_27678830",
    "venue_name": "Fulton Street Collective",
    "latitude": 41.8890932,
    "longitude": -87.67283029999999,
    "address1": "1821 West Hubbard Street",
    "address2": "# 307",
    "address3": "",
    "city": "Chicago",
    "state": "IL",
    "zip_code": "60622"
  },
  {
    "venue_id": "EB_25040676",
    "venue_name": "W Chicago - Lakeshore",
    "latitude": 41.89391860000001,
    "longitude": -87.61536610000002,
    "address1": "644 North Lake Shore Drive",
    "address2": "",
    "address3": "",
    "city": "Chicago",
    "state": "IL",
    "zip_code": "60611"
  },
  {
    "venue_id": "EB_28013222",
    "venue_name": "818 Coworking",
    "latitude": 42.0437772,
    "longitude": -87.68288319999999,
    "address1": "818 Lake Street",
    "address2": "",
    "address3": "",
    "city": "Evanston",
    "state": "IL",
    "zip_code": "60201"
  },
  {
    "venue_id": "EB_27665681",
    "venue_name": "Chicago-Kent College of Law at Illinois Institute of Technology",
    "latitude": 41.8791377,
    "longitude": -87.64220569999998,
    "address1": "565 West Adams Street",
    "address2": "10th Floor Morris Hall",
    "address3": "",
    "city": "Chicago",
    "state": "IL",
    "zip_code": "60661"
  },
  {
    "venue_id": "EB_20543737",
    "venue_name": "Italian Cultural Institute",
    "latitude": 41.8911632,
    "longitude": -87.6246865,
    "address1": "500 N Michigan Avenue",
    "address2": "Suite 1450",
    "address3": "",
    "city": "Chicago",
    "state": "IL",
    "zip_code": "60611"
  },
  {
    "venue_id": "EB_27427559",
    "venue_name": "Ace Hotel",
    "latitude": 41.8874703,
    "longitude": -87.6518537,
    "address1": "311 N Morgan St",
    "address2": "The Eaves Private Dinning Room",
    "address3": "",
    "city": "Chicago",
    "state": "IL",
    "zip_code": "60607"
  },
  {
    "venue_id": "EB_27221666",
    "venue_name": "The Westin O'Hare",
    "latitude": 41.9888549,
    "longitude": -87.8610617,
    "address1": "6100 North River Road",
    "address2": "",
    "address3": "",
    "city": "Rosemont",
    "state": "IL",
    "zip_code": "60018"
  },
  {
    "venue_id": "EB_28017450",
    "venue_name": "Harris School of Public Policy - Room 289A",
    "latitude": 41.78595199999999,
    "longitude": -87.5971265,
    "address1": "1155 East 60th Street",
    "address2": "",
    "address3": "",
    "city": "Chicago",
    "state": "IL",
    "zip_code": "60637"
  },
  {
    "venue_id": "EB_28079836",
    "venue_name": "Harry S Truman College",
    "latitude": 41.9643945,
    "longitude": -87.65996410000002,
    "address1": "1145 West Wilson Avenue",
    "address2": "",
    "address3": "",
    "city": "Chicago",
    "state": "IL",
    "zip_code": "60640"
  },
  {
    "venue_id": "EB_24472311",
    "venue_name": "Laugh Factory",
    "latitude": 41.93973400000001,
    "longitude": -87.64403319999997,
    "address1": "3175 North Broadway",
    "address2": "",
    "address3": "",
    "city": "Chicago",
    "state": "IL",
    "zip_code": "60657"
  },
  {
    "venue_id": "EB_12714346",
    "venue_name": "Institute of Politics",
    "latitude": 41.7911423,
    "longitude": -87.59612140000002,
    "address1": "5707 South Woodlawn Avenue",
    "address2": "",
    "address3": "",
    "city": "Chicago",
    "state": "IL",
    "zip_code": "60637"
  },
  {
    "venue_id": "EB_22664662",
    "venue_name": "Quadrangle Club",
    "latitude": 41.791235,
    "longitude": -87.59770200000003,
    "address1": "Main Dining Room",
    "address2": "1155 E. 57th St.",
    "address3": "",
    "city": "Chicago",
    "state": "IL",
    "zip_code": "60637"
  },
  {
    "venue_id": "EB_21978768",
    "venue_name": "Lobo Rey",
    "latitude": 41.8654135,
    "longitude": -87.62527740000002,
    "address1": "1307 South Wabash Avenue",
    "address2": "",
    "address3": "",
    "city": "Chicago",
    "state": "IL",
    "zip_code": "60605"
  },
  {
    "venue_id": "EB_27915966",
    "venue_name": "Dodd Camera",
    "latitude": 41.9177666,
    "longitude": -87.69900889999997,
    "address1": "2844 West Armitage Avenue",
    "address2": "",
    "address3": "",
    "city": "Chicago",
    "state": "IL",
    "zip_code": "60647"
  },
  {
    "venue_id": "EB_28111858",
    "venue_name": "Swissotel Chicago",
    "latitude": 41.88720939999999,
    "longitude": -87.6194974,
    "address1": "323 East Upper Wacker Drive",
    "address2": "Eleva-Riverview, 42nd Floor",
    "address3": "",
    "city": "Chicago",
    "state": "IL",
    "zip_code": "60601"
  },
  {
    "venue_id": "EB_27518864",
    "venue_name": "Davanti Enoteca",
    "latitude": 41.8101098,
    "longitude": -87.8989214,
    "address1": "800 Hillgrove Avenue",
    "address2": "",
    "address3": "",
    "city": "Western Springs",
    "state": "IL",
    "zip_code": "60558"
  },
  {
    "venue_id": "EB_27934137",
    "venue_name": "Harry S Truman College",
    "latitude": 41.9647341,
    "longitude": -87.65896069999997,
    "address1": "1145 W. Wilson",
    "address2": "",
    "address3": "",
    "city": "CHICAGO",
    "state": "IL",
    "zip_code": "60640"
  },
  {
    "venue_id": "EB_20364713",
    "venue_name": "1471 S Michigan Ave",
    "latitude": 41.862075,
    "longitude": -87.62383799999998,
    "address1": "1471 South Michigan Avenue",
    "address2": "Weissbluth Pediatrics South Loop",
    "address3": "",
    "city": "Chicago",
    "state": "IL",
    "zip_code": "60605"
  },
  {
    "venue_id": "EB_27915471",
    "venue_name": "Ping Tom Memorial Park",
    "latitude": 41.8572974,
    "longitude": -87.63438350000001,
    "address1": "1700 South Wentworth Avenue",
    "address2": "",
    "address3": "",
    "city": "Chicago",
    "state": "IL",
    "zip_code": "60616"
  },
  {
    "venue_id": "EB_27938744",
    "venue_name": "Chicago",
    "latitude": 41.872964,
    "longitude": -87.62615900000003,
    "address1": "700 S Wabash Ave",
    "address2": "",
    "address3": "",
    "city": "Chicago",
    "state": "IL",
    "zip_code": "60605"
  },
  {
    "venue_id": "EB_20880651",
    "venue_name": "Thalia Hall",
    "latitude": 41.8577,
    "longitude": -87.6572,
    "address1": "1807 South Allport Street",
    "address2": "",
    "address3": "",
    "city": "Chicago",
    "state": "IL",
    "zip_code": "60608"
  },
  {
    "venue_id": "EB_21360617",
    "venue_name": "Laugh Factory",
    "latitude": 41.9396832,
    "longitude": -87.6440877,
    "address1": "3175 North Broadway",
    "address2": "",
    "address3": "",
    "city": "Chicago",
    "state": "IL",
    "zip_code": "60657"
  },
  {
    "venue_id": "EB_27148961",
    "venue_name": "Pinstripes",
    "latitude": 41.8908879,
    "longitude": -87.61621780000002,
    "address1": "435 East Illinois Street",
    "address2": "",
    "address3": "",
    "city": "Chicago",
    "state": "IL",
    "zip_code": "60611"
  },
  {
    "venue_id": "EB_27314317",
    "venue_name": "Coalfire Pizza",
    "latitude": 41.9493075,
    "longitude": -87.66377699999998,
    "address1": "3707 North Southport Avenue",
    "address2": "",
    "address3": "",
    "city": "Chicago",
    "state": "IL",
    "zip_code": "60613"
  },
  {
    "venue_id": "EB_27933488",
    "venue_name": "University of Illinois at Chicago",
    "latitude": 41.8712416,
    "longitude": -87.67171080000003,
    "address1": "840 S. Wood Street",
    "address2": "Rm. 303",
    "address3": "",
    "city": "Chicago",
    "state": "IL",
    "zip_code": "60612"
  },
  {
    "venue_id": "EB_17304126",
    "venue_name": "McCook Athletic & Exposition",
    "latitude": 41.80418210000001,
    "longitude": -87.8461969,
    "address1": "4750 Vernon St",
    "address2": "",
    "address3": "",
    "city": "McCook",
    "state": "IL",
    "zip_code": "60525"
  },
  {
    "venue_id": "EB_27417537",
    "venue_name": "Maggiano's Little Italy",
    "latitude": 41.89139650000001,
    "longitude": -87.63178719999996,
    "address1": "111 West Grand",
    "address2": "",
    "address3": "",
    "city": "Chicago",
    "state": "IL",
    "zip_code": "60654"
  },
  {
    "venue_id": "EB_22694696",
    "venue_name": "Chicago Association of REALTORS\u00ae",
    "latitude": 41.884808,
    "longitude": -87.62497300000001,
    "address1": "430 N. Michigan Avenue, 8th Floor",
    "address2": "Classroom 3",
    "address3": "",
    "city": "Chicago",
    "state": "IL",
    "zip_code": "60611"
  },
  {
    "venue_id": "EB_27600727",
    "venue_name": "Edelman",
    "latitude": 41.8852828,
    "longitude": -87.62151210000002,
    "address1": "200 East Randolph Street",
    "address2": "#63",
    "address3": "",
    "city": "Chicago",
    "state": "IL",
    "zip_code": "60601"
  },
  {
    "venue_id": "EB_27912760",
    "venue_name": "Small Busines Development Center",
    "latitude": 41.8874152,
    "longitude": -87.67726099999999,
    "address1": "The Industrial Council of Near West Chicago",
    "address2": "320 N. Damen Ave.",
    "address3": "",
    "city": "Chicago",
    "state": "IL",
    "zip_code": "60612"
  },
  {
    "venue_id": "EB_28033579",
    "venue_name": "Harry S Truman College",
    "latitude": 41.96473659999999,
    "longitude": -87.65896350000003,
    "address1": "1145 West Wilson Avenue",
    "address2": "",
    "address3": "",
    "city": "Chicago",
    "state": "IL",
    "zip_code": "60640"
  },
  {
    "venue_id": "EB_27809595",
    "venue_name": "West Monroe Partners",
    "latitude": 41.8794972,
    "longitude": -87.63471299999998,
    "address1": "222 West Adams Street",
    "address2": "",
    "address3": "",
    "city": "Chicago",
    "state": "Illinois",
    "zip_code": "60606"
  },
  {
    "venue_id": "EB_17652198",
    "venue_name": "Association of Lloyd's Brokers",
    "latitude": 41.88161059999999,
    "longitude": -87.63335369999999,
    "address1": "181 W. Madison",
    "address2": "7th Floor - Edgewater Room",
    "address3": "",
    "city": "Chicago",
    "state": "IL",
    "zip_code": "60602"
  },
  {
    "venue_id": "EB_27832600",
    "venue_name": "Bar Cargo",
    "latitude": 41.892565,
    "longitude": -87.63394110000002,
    "address1": "605 North Wells",
    "address2": "",
    "address3": "",
    "city": "Chicago",
    "state": "IL",
    "zip_code": "60654"
  },
  {
    "venue_id": "EB_27842205",
    "venue_name": "Chicago Urban League",
    "latitude": 41.812667,
    "longitude": -87.62332879999997,
    "address1": "4510 S Michigan Ave, Grand Boulevard",
    "address2": "",
    "address3": "",
    "city": "Chicago",
    "state": "IL",
    "zip_code": "60621"
  },
  {
    "venue_id": "EB_9499898",
    "venue_name": "Braintree office",
    "latitude": 41.8883695,
    "longitude": -87.63536449999998,
    "address1": "222 W. Merchandise Mart Plaza",
    "address2": "8th Floor",
    "address3": "",
    "city": "Chicago",
    "state": "IL",
    "zip_code": "60654"
  },
  {
    "venue_id": "EB_26787125",
    "venue_name": "MakeOffices at River North",
    "latitude": 41.8887576,
    "longitude": -87.63730029999999,
    "address1": "350 N Orleans St #9000n",
    "address2": "",
    "address3": "",
    "city": "Chicago",
    "state": "IL",
    "zip_code": "60654"
  },
  {
    "venue_id": "EB_28097081",
    "venue_name": "Mount Greenwood Public Library",
    "latitude": 41.6931021,
    "longitude": -87.70122170000002,
    "address1": "11010 South Kedzie Avenue",
    "address2": "",
    "address3": "",
    "city": "Chicago",
    "state": "IL",
    "zip_code": "60655"
  },
  {
    "venue_id": "EB_23753861",
    "venue_name": "Emporium Chicago - Arcade Bar Venue",
    "latitude": 41.9065508,
    "longitude": -87.67172210000001,
    "address1": "1366 North Milwaukee Avenue",
    "address2": "",
    "address3": "",
    "city": "Chicago",
    "state": "IL",
    "zip_code": "60622"
  },
  {
    "venue_id": "EB_28037725",
    "venue_name": "Alarmist Brewing & Taproom",
    "latitude": 41.98983,
    "longitude": -87.73138879999999,
    "address1": "4055 W. Peterson Ave",
    "address2": "",
    "address3": "",
    "city": "Chicago",
    "state": "IL",
    "zip_code": "60646"
  },
  {
    "venue_id": "EB_19239559",
    "venue_name": "HVAC Pub",
    "latitude": 41.9463,
    "longitude": -87.6562,
    "address1": "3530 North Clark Street",
    "address2": "",
    "address3": "",
    "city": "Chicago",
    "state": "IL",
    "zip_code": "60657"
  },
  {
    "venue_id": "EB_28089483",
    "venue_name": "10th Ward Public Service Office",
    "latitude": 41.7044597,
    "longitude": -87.5356544,
    "address1": "10500 S. Ewing Ave",
    "address2": "",
    "address3": "",
    "city": "Chicago",
    "state": "IL",
    "zip_code": "60617"
  },
  {
    "venue_id": "EB_13042251",
    "venue_name": "Newberry Library",
    "latitude": 41.900043,
    "longitude": -87.63061700000003,
    "address1": "60 West Walton Street",
    "address2": "",
    "address3": "",
    "city": "Chicago",
    "state": "IL",
    "zip_code": "60610"
  },
  {
    "venue_id": "EB_21604746",
    "venue_name": "Sulzer Regional Library",
    "latitude": 41.9627392,
    "longitude": -87.68443730000001,
    "address1": "4455 N. Lincoln Avenue",
    "address2": "",
    "address3": "",
    "city": "Chicago",
    "state": "IL",
    "zip_code": "60625"
  },
  {
    "venue_id": "EB_27480073",
    "venue_name": "Ford Motor Company Engineering Design Center",
    "latitude": 42.0569084,
    "longitude": -87.67651620000004,
    "address1": "2133 Sheridan Road",
    "address2": "ITW Classroom",
    "address3": "",
    "city": "Evanston",
    "state": "IL",
    "zip_code": "60208"
  },
  {
    "venue_id": "EB_27946316",
    "venue_name": "Hegewisch Branch, Chicago Public Library",
    "latitude": 41.6594095,
    "longitude": -87.54875609999999,
    "address1": "3048 East 130th Street",
    "address2": "",
    "address3": "",
    "city": "Chicago",
    "state": "IL",
    "zip_code": "60633"
  },
  {
    "venue_id": "EB_22007965",
    "venue_name": "Commons Club",
    "latitude": 41.886089,
    "longitude": -87.62603899999999,
    "address1": "203 North Wabash Avenue",
    "address2": "",
    "address3": "",
    "city": "Chicago",
    "state": "IL",
    "zip_code": "60601"
  },
  {
    "venue_id": "EB_28001082",
    "venue_name": "Kendra Scott",
    "latitude": 41.8996105,
    "longitude": -87.62488080000003,
    "address1": "900 North Michigan Shops",
    "address2": "900 Michigan Avenue",
    "address3": "",
    "city": "Chicago",
    "state": "IL",
    "zip_code": "60611"
  },
  {
    "venue_id": "EB_23510497",
    "venue_name": "Technexus",
    "latitude": 41.8824963,
    "longitude": -87.63732900000002,
    "address1": "20 North Upper Wacker Drive",
    "address2": "12th Floor",
    "address3": "",
    "city": "Chicago",
    "state": "IL",
    "zip_code": "60606"
  },
  {
    "venue_id": "EB_27678830",
    "venue_name": "Fulton Street Collective",
    "latitude": 41.8890932,
    "longitude": -87.67283029999999,
    "address1": "1821 West Hubbard Street",
    "address2": "# 307",
    "address3": "",
    "city": "Chicago",
    "state": "IL",
    "zip_code": "60622"
  },
  {
    "venue_id": "EB_25040676",
    "venue_name": "W Chicago - Lakeshore",
    "latitude": 41.89391860000001,
    "longitude": -87.61536610000002,
    "address1": "644 North Lake Shore Drive",
    "address2": "",
    "address3": "",
    "city": "Chicago",
    "state": "IL",
    "zip_code": "60611"
  },
  {
    "venue_id": "EB_28013222",
    "venue_name": "818 Coworking",
    "latitude": 42.0437772,
    "longitude": -87.68288319999999,
    "address1": "818 Lake Street",
    "address2": "",
    "address3": "",
    "city": "Evanston",
    "state": "IL",
    "zip_code": "60201"
  },
  {
    "venue_id": "EB_27665681",
    "venue_name": "Chicago-Kent College of Law at Illinois Institute of Technology",
    "latitude": 41.8791377,
    "longitude": -87.64220569999998,
    "address1": "565 West Adams Street",
    "address2": "10th Floor Morris Hall",
    "address3": "",
    "city": "Chicago",
    "state": "IL",
    "zip_code": "60661"
  },
  {
    "venue_id": "EB_20543737",
    "venue_name": "Italian Cultural Institute",
    "latitude": 41.8911632,
    "longitude": -87.6246865,
    "address1": "500 N Michigan Avenue",
    "address2": "Suite 1450",
    "address3": "",
    "city": "Chicago",
    "state": "IL",
    "zip_code": "60611"
  },
  {
    "venue_id": "EB_27427559",
    "venue_name": "Ace Hotel",
    "latitude": 41.8874703,
    "longitude": -87.6518537,
    "address1": "311 N Morgan St",
    "address2": "The Eaves Private Dinning Room",
    "address3": "",
    "city": "Chicago",
    "state": "IL",
    "zip_code": "60607"
  },
  {
    "venue_id": "EB_27221666",
    "venue_name": "The Westin O'Hare",
    "latitude": 41.9888549,
    "longitude": -87.8610617,
    "address1": "6100 North River Road",
    "address2": "",
    "address3": "",
    "city": "Rosemont",
    "state": "IL",
    "zip_code": "60018"
  },
  {
    "venue_id": "EB_28017450",
    "venue_name": "Harris School of Public Policy - Room 289A",
    "latitude": 41.78595199999999,
    "longitude": -87.5971265,
    "address1": "1155 East 60th Street",
    "address2": "",
    "address3": "",
    "city": "Chicago",
    "state": "IL",
    "zip_code": "60637"
  },
  {
    "venue_id": "EB_28079836",
    "venue_name": "Harry S Truman College",
    "latitude": 41.9643945,
    "longitude": -87.65996410000002,
    "address1": "1145 West Wilson Avenue",
    "address2": "",
    "address3": "",
    "city": "Chicago",
    "state": "IL",
    "zip_code": "60640"
  },
  {
    "venue_id": "EB_24472311",
    "venue_name": "Laugh Factory",
    "latitude": 41.93973400000001,
    "longitude": -87.64403319999997,
    "address1": "3175 North Broadway",
    "address2": "",
    "address3": "",
    "city": "Chicago",
    "state": "IL",
    "zip_code": "60657"
  },
  {
    "venue_id": "EB_12714346",
    "venue_name": "Institute of Politics",
    "latitude": 41.7911423,
    "longitude": -87.59612140000002,
    "address1": "5707 South Woodlawn Avenue",
    "address2": "",
    "address3": "",
    "city": "Chicago",
    "state": "IL",
    "zip_code": "60637"
  },
  {
    "venue_id": "EB_22664662",
    "venue_name": "Quadrangle Club",
    "latitude": 41.791235,
    "longitude": -87.59770200000003,
    "address1": "Main Dining Room",
    "address2": "1155 E. 57th St.",
    "address3": "",
    "city": "Chicago",
    "state": "IL",
    "zip_code": "60637"
  },
  {
    "venue_id": "EB_21978768",
    "venue_name": "Lobo Rey",
    "latitude": 41.8654135,
    "longitude": -87.62527740000002,
    "address1": "1307 South Wabash Avenue",
    "address2": "",
    "address3": "",
    "city": "Chicago",
    "state": "IL",
    "zip_code": "60605"
  },
  {
    "venue_id": "EB_27915966",
    "venue_name": "Dodd Camera",
    "latitude": 41.9177666,
    "longitude": -87.69900889999997,
    "address1": "2844 West Armitage Avenue",
    "address2": "",
    "address3": "",
    "city": "Chicago",
    "state": "IL",
    "zip_code": "60647"
  },
  {
    "venue_id": "EB_28111858",
    "venue_name": "Swissotel Chicago",
    "latitude": 41.88720939999999,
    "longitude": -87.6194974,
    "address1": "323 East Upper Wacker Drive",
    "address2": "Eleva-Riverview, 42nd Floor",
    "address3": "",
    "city": "Chicago",
    "state": "IL",
    "zip_code": "60601"
  },
  {
    "venue_id": "EB_27518864",
    "venue_name": "Davanti Enoteca",
    "latitude": 41.8101098,
    "longitude": -87.8989214,
    "address1": "800 Hillgrove Avenue",
    "address2": "",
    "address3": "",
    "city": "Western Springs",
    "state": "IL",
    "zip_code": "60558"
  },
  {
    "venue_id": "EB_27934137",
    "venue_name": "Harry S Truman College",
    "latitude": 41.9647341,
    "longitude": -87.65896069999997,
    "address1": "1145 W. Wilson",
    "address2": "",
    "address3": "",
    "city": "CHICAGO",
    "state": "IL",
    "zip_code": "60640"
  },
  {
    "venue_id": "EB_20364713",
    "venue_name": "1471 S Michigan Ave",
    "latitude": 41.862075,
    "longitude": -87.62383799999998,
    "address1": "1471 South Michigan Avenue",
    "address2": "Weissbluth Pediatrics South Loop",
    "address3": "",
    "city": "Chicago",
    "state": "IL",
    "zip_code": "60605"
  },
  {
    "venue_id": "EB_27915471",
    "venue_name": "Ping Tom Memorial Park",
    "latitude": 41.8572974,
    "longitude": -87.63438350000001,
    "address1": "1700 South Wentworth Avenue",
    "address2": "",
    "address3": "",
    "city": "Chicago",
    "state": "IL",
    "zip_code": "60616"
  },
  {
    "venue_id": "EB_27938744",
    "venue_name": "Chicago",
    "latitude": 41.872964,
    "longitude": -87.62615900000003,
    "address1": "700 S Wabash Ave",
    "address2": "",
    "address3": "",
    "city": "Chicago",
    "state": "IL",
    "zip_code": "60605"
  },
  {
    "venue_id": "EB_20880651",
    "venue_name": "Thalia Hall",
    "latitude": 41.8577,
    "longitude": -87.6572,
    "address1": "1807 South Allport Street",
    "address2": "",
    "address3": "",
    "city": "Chicago",
    "state": "IL",
    "zip_code": "60608"
  },
  {
    "venue_id": "EB_21360617",
    "venue_name": "Laugh Factory",
    "latitude": 41.9396832,
    "longitude": -87.6440877,
    "address1": "3175 North Broadway",
    "address2": "",
    "address3": "",
    "city": "Chicago",
    "state": "IL",
    "zip_code": "60657"
  },
  {
    "venue_id": "EB_27148961",
    "venue_name": "Pinstripes",
    "latitude": 41.8908879,
    "longitude": -87.61621780000002,
    "address1": "435 East Illinois Street",
    "address2": "",
    "address3": "",
    "city": "Chicago",
    "state": "IL",
    "zip_code": "60611"
  },
  {
    "venue_id": "EB_27314317",
    "venue_name": "Coalfire Pizza",
    "latitude": 41.9493075,
    "longitude": -87.66377699999998,
    "address1": "3707 North Southport Avenue",
    "address2": "",
    "address3": "",
    "city": "Chicago",
    "state": "IL",
    "zip_code": "60613"
  },
  {
    "venue_id": "EB_27933488",
    "venue_name": "University of Illinois at Chicago",
    "latitude": 41.8712416,
    "longitude": -87.67171080000003,
    "address1": "840 S. Wood Street",
    "address2": "Rm. 303",
    "address3": "",
    "city": "Chicago",
    "state": "IL",
    "zip_code": "60612"
  },
  {
    "venue_id": "EB_17304126",
    "venue_name": "McCook Athletic & Exposition",
    "latitude": 41.80418210000001,
    "longitude": -87.8461969,
    "address1": "4750 Vernon St",
    "address2": "",
    "address3": "",
    "city": "McCook",
    "state": "IL",
    "zip_code": "60525"
  },
  {
    "venue_id": "EB_27417537",
    "venue_name": "Maggiano's Little Italy",
    "latitude": 41.89139650000001,
    "longitude": -87.63178719999996,
    "address1": "111 West Grand",
    "address2": "",
    "address3": "",
    "city": "Chicago",
    "state": "IL",
    "zip_code": "60654"
  },
  {
    "venue_id": "EB_22694696",
    "venue_name": "Chicago Association of REALTORS\u00ae",
    "latitude": 41.884808,
    "longitude": -87.62497300000001,
    "address1": "430 N. Michigan Avenue, 8th Floor",
    "address2": "Classroom 3",
    "address3": "",
    "city": "Chicago",
    "state": "IL",
    "zip_code": "60611"
  },
  {
    "venue_id": "EB_27600727",
    "venue_name": "Edelman",
    "latitude": 41.8852828,
    "longitude": -87.62151210000002,
    "address1": "200 East Randolph Street",
    "address2": "#63",
    "address3": "",
    "city": "Chicago",
    "state": "IL",
    "zip_code": "60601"
  },
  {
    "venue_id": "EB_27912760",
    "venue_name": "Small Busines Development Center",
    "latitude": 41.8874152,
    "longitude": -87.67726099999999,
    "address1": "The Industrial Council of Near West Chicago",
    "address2": "320 N. Damen Ave.",
    "address3": "",
    "city": "Chicago",
    "state": "IL",
    "zip_code": "60612"
  },
  {
    "venue_id": "EB_28033579",
    "venue_name": "Harry S Truman College",
    "latitude": 41.96473659999999,
    "longitude": -87.65896350000003,
    "address1": "1145 West Wilson Avenue",
    "address2": "",
    "address3": "",
    "city": "Chicago",
    "state": "IL",
    "zip_code": "60640"
  },
  {
    "venue_id": "EB_27809595",
    "venue_name": "West Monroe Partners",
    "latitude": 41.8794972,
    "longitude": -87.63471299999998,
    "address1": "222 West Adams Street",
    "address2": "",
    "address3": "",
    "city": "Chicago",
    "state": "Illinois",
    "zip_code": "60606"
  },
  {
    "venue_id": "EB_17652198",
    "venue_name": "Association of Lloyd's Brokers",
    "latitude": 41.88161059999999,
    "longitude": -87.63335369999999,
    "address1": "181 W. Madison",
    "address2": "7th Floor - Edgewater Room",
    "address3": "",
    "city": "Chicago",
    "state": "IL",
    "zip_code": "60602"
  },
  {
    "venue_id": "EB_27832600",
    "venue_name": "Bar Cargo",
    "latitude": 41.892565,
    "longitude": -87.63394110000002,
    "address1": "605 North Wells",
    "address2": "",
    "address3": "",
    "city": "Chicago",
    "state": "IL",
    "zip_code": "60654"
  },
  {
    "venue_id": "EB_27842205",
    "venue_name": "Chicago Urban League",
    "latitude": 41.812667,
    "longitude": -87.62332879999997,
    "address1": "4510 S Michigan Ave, Grand Boulevard",
    "address2": "",
    "address3": "",
    "city": "Chicago",
    "state": "IL",
    "zip_code": "60621"
  },
  {
    "venue_id": "EB_9499898",
    "venue_name": "Braintree office",
    "latitude": 41.8883695,
    "longitude": -87.63536449999998,
    "address1": "222 W. Merchandise Mart Plaza",
    "address2": "8th Floor",
    "address3": "",
    "city": "Chicago",
    "state": "IL",
    "zip_code": "60654"
  },
  {
    "venue_id": "EB_26787125",
    "venue_name": "MakeOffices at River North",
    "latitude": 41.8887576,
    "longitude": -87.63730029999999,
    "address1": "350 N Orleans St #9000n",
    "address2": "",
    "address3": "",
    "city": "Chicago",
    "state": "IL",
    "zip_code": "60654"
  },
  {
    "venue_id": "EB_28097081",
    "venue_name": "Mount Greenwood Public Library",
    "latitude": 41.6931021,
    "longitude": -87.70122170000002,
    "address1": "11010 South Kedzie Avenue",
    "address2": "",
    "address3": "",
    "city": "Chicago",
    "state": "IL",
    "zip_code": "60655"
  },
  {
    "venue_id": "EB_27557529",
    "venue_name": "Harold Washington College",
    "latitude": 41.8860232,
    "longitude": -87.62685190000002,
    "address1": "30 E Lake Street",
    "address2": "",
    "address3": "",
    "city": "Chicago",
    "state": "IL",
    "zip_code": "60601"
  },
  {
    "venue_id": "EB_27520016",
    "venue_name": "Brewpoint Coffee - Workshop & Roastery",
    "latitude": 41.91708209999999,
    "longitude": -87.93922020000002,
    "address1": "617 North York Street",
    "address2": "",
    "address3": "",
    "city": "Elmhurst",
    "state": "IL",
    "zip_code": "60126"
  },
  {
    "venue_id": "EB_28087133",
    "venue_name": "Wintrust Mortgage",
    "latitude": 41.9947978,
    "longitude": -87.86950460000003,
    "address1": "9700 West Higgins Road",
    "address2": "",
    "address3": "",
    "city": "Rosemont",
    "state": "IL",
    "zip_code": ""
  },
  {
    "venue_id": "EB_19952498",
    "venue_name": "W Chicago - City Center",
    "latitude": 41.879683,
    "longitude": -87.63322499999998,
    "address1": "172 West Adams Street",
    "address2": "",
    "address3": "",
    "city": "Chicago",
    "state": "IL",
    "zip_code": "60603"
  },
  {
    "venue_id": "EB_20882078",
    "venue_name": "The Empty Bottle",
    "latitude": 41.9005,
    "longitude": -87.6866,
    "address1": "1035 North Western Avenue",
    "address2": "",
    "address3": "",
    "city": "Chicago",
    "state": "IL",
    "zip_code": "60622"
  },
  {
    "venue_id": "EB_26231816",
    "venue_name": "La Catrina Cafe",
    "latitude": 41.85791719999999,
    "longitude": -87.65203309999998,
    "address1": "1011 West 18th Street",
    "address2": "",
    "address3": "",
    "city": "Chicago",
    "state": "IL",
    "zip_code": "60608"
  },
  {
    "venue_id": "EB_25828446",
    "venue_name": "InterContinental Chicago Magnificent Mile",
    "latitude": 41.8911959,
    "longitude": -87.62365669999997,
    "address1": "505 N Michigan ave",
    "address2": "",
    "address3": "",
    "city": "Chicago",
    "state": "IL",
    "zip_code": "60611"
  },
  {
    "venue_id": "EB_26535324",
    "venue_name": "90 Miles Cuban Cafe",
    "latitude": 41.9177135,
    "longitude": -87.6918364,
    "address1": "2540 West Armitage Avenue",
    "address2": "",
    "address3": "",
    "city": "Chicago",
    "state": "IL",
    "zip_code": "60647"
  },
  {
    "venue_id": "EB_28123889",
    "venue_name": "The Comedy Bar ",
    "latitude": 41.8908018,
    "longitude": -87.63268690000001,
    "address1": "500 N LaSalle St",
    "address2": "",
    "address3": "",
    "city": "Chicago",
    "state": "IL",
    "zip_code": "60654"
  },
  {
    "venue_id": "EB_16932415",
    "venue_name": "University Library, 2 East 2635",
    "latitude": 42.053528,
    "longitude": -87.67406599999998,
    "address1": "1970 Campus Dr",
    "address2": "",
    "address3": "",
    "city": "Evanston",
    "state": "IL",
    "zip_code": "60208"
  },
  {
    "venue_id": "EB_27564447",
    "venue_name": "The Comedy Bar ",
    "latitude": 41.8908018,
    "longitude": -87.63268690000001,
    "address1": "500 N LaSalle St",
    "address2": "",
    "address3": "",
    "city": "Chicago",
    "state": "IL",
    "zip_code": "60654"
  },
  {
    "venue_id": "EB_26721703",
    "venue_name": "Barnes & Noble - DePaul - Loop",
    "latitude": 41.8777442,
    "longitude": -87.62723030000001,
    "address1": "1 East Jackson Boulevard",
    "address2": "",
    "address3": "",
    "city": "Chicago",
    "state": "IL",
    "zip_code": "60604"
  },
  {
    "venue_id": "EB_28020296",
    "venue_name": "Bloomingdale's",
    "latitude": 41.8996105,
    "longitude": -87.62488080000003,
    "address1": "900 North Michigan Avenue",
    "address2": "",
    "address3": "",
    "city": "Chicago",
    "state": "IL",
    "zip_code": "60611"
  },
  {
    "venue_id": "EB_16014913",
    "venue_name": "Polsky Exchange North",
    "latitude": 41.7997257,
    "longitude": -87.58968549999997,
    "address1": "1452 E 53rd St",
    "address2": "",
    "address3": "",
    "city": "Chicago",
    "state": "IL",
    "zip_code": "60615"
  },
  {
    "venue_id": "EB_27883588",
    "venue_name": "Ain't She Sweet Cafe",
    "latitude": 41.8167748,
    "longitude": -87.61293940000002,
    "address1": "526 East 43rd Street",
    "address2": "",
    "address3": "",
    "city": "Chicago",
    "state": "IL",
    "zip_code": "60653"
  },
  {
    "venue_id": "EB_11611939",
    "venue_name": "Fosco Park",
    "latitude": 41.864505,
    "longitude": -87.65718800000002,
    "address1": "1312 South Racine Avenue",
    "address2": "",
    "address3": "",
    "city": "Chicago",
    "state": "IL",
    "zip_code": "60608"
  },
  {
    "venue_id": "EB_16008102",
    "venue_name": "Open Books",
    "latitude": 41.88538309999999,
    "longitude": -87.64477069999998,
    "address1": "651 West Lake Street",
    "address2": "",
    "address3": "",
    "city": "Chicago",
    "state": "IL",
    "zip_code": "60661"
  },
  {
    "venue_id": "EB_28065757",
    "venue_name": "citygirl@work",
    "latitude": 41.9326927,
    "longitude": -87.64528639999997,
    "address1": "639 West Diversey Parkway",
    "address2": "#221",
    "address3": "",
    "city": "Chicago",
    "state": "IL",
    "zip_code": "60614"
  },
  {
    "venue_id": "EB_22566236",
    "venue_name": "PNC Bank Community Room (Ground Level)",
    "latitude": 41.882267,
    "longitude": -87.635019,
    "address1": "1 N Franklin St",
    "address2": "",
    "address3": "",
    "city": "Chicago",
    "state": "IL",
    "zip_code": "60606"
  },
  {
    "venue_id": "EB_28107158",
    "venue_name": "Truth Italian Restaurant",
    "latitude": 41.8238568,
    "longitude": -87.62423079999996,
    "address1": "56 East Pershing Road",
    "address2": "",
    "address3": "",
    "city": "Chicago",
    "state": "IL",
    "zip_code": "60653"
  },
  {
    "venue_id": "EB_28167744",
    "venue_name": "Windy City Cigar Lounge",
    "latitude": 41.8161703,
    "longitude": -87.61998840000001,
    "address1": "4310 South Prairie Avenue",
    "address2": "",
    "address3": "",
    "city": "Chicago",
    "state": "IL",
    "zip_code": "60653"
  },
  {
    "venue_id": "EB_28089704",
    "venue_name": "",
    "latitude": 41.88695389999999,
    "longitude": -87.65911460000001,
    "address1": "300 N Elizabeth Street",
    "address2": "  Suite 3E",
    "address3": "",
    "city": " Chicago",
    "state": "Illinois",
    "zip_code": "60607"
  },
  {
    "venue_id": "EB_20881999",
    "venue_name": "The Promontory",
    "latitude": 41.7991,
    "longitude": -87.5876,
    "address1": "5311 South Lake Park Avenue West",
    "address2": "",
    "address3": "",
    "city": "Chicago",
    "state": "IL",
    "zip_code": "60615"
  },
  {
    "venue_id": "EB_5344887",
    "venue_name": "Westin Chicago River North Hotel",
    "latitude": 41.8882381,
    "longitude": -87.62987020000003,
    "address1": "320 N Dearborn St",
    "address2": "",
    "address3": "",
    "city": "Chicago",
    "state": "IL",
    "zip_code": "60654"
  },
  {
    "venue_id": "EB_20673226",
    "venue_name": "Chicago",
    "latitude": 41.8781136,
    "longitude": -87.62979819999998,
    "address1": "",
    "address2": "",
    "address3": "",
    "city": "Chicago",
    "state": "IL",
    "zip_code": ""
  },
  {
    "venue_id": "EB_27950476",
    "venue_name": "The Alice Millar Chapel",
    "latitude": 42.0503479,
    "longitude": -87.6771445,
    "address1": "1870 Sheridan Road",
    "address2": "",
    "address3": "",
    "city": "Evanston",
    "state": "IL",
    "zip_code": "60208"
  },
  {
    "venue_id": "EB_27166863",
    "venue_name": "Address Will Be Provided After Registration",
    "latitude": 41.8781136,
    "longitude": -87.62979819999998,
    "address1": "",
    "address2": "",
    "address3": "",
    "city": "Chicago",
    "state": "IL",
    "zip_code": ""
  },
  {
    "venue_id": "EB_8807351",
    "venue_name": "Wishcraft",
    "latitude": 41.9526248,
    "longitude": -87.67844550000001,
    "address1": "3907 N Damen ave ",
    "address2": "",
    "address3": "",
    "city": "Chicago",
    "state": "IL",
    "zip_code": "60618"
  },
  {
    "venue_id": "EB_27690409",
    "venue_name": "Online - Any Device w/Fast Internet and Sound**",
    "latitude": 41.9355239,
    "longitude": -87.6907501,
    "address1": "We'll Send You The Link",
    "address2": "",
    "address3": "",
    "city": "Chicago",
    "state": "IL",
    "zip_code": "60601"
  },
  {
    "venue_id": "EB_25980819",
    "venue_name": "Tribe",
    "latitude": 41.93934900000001,
    "longitude": -87.67447600000003,
    "address1": "1819-21 West Belmont Avenue",
    "address2": "",
    "address3": "",
    "city": "Chicago",
    "state": "IL",
    "zip_code": "60657"
  },
  {
    "venue_id": "EB_26693325",
    "venue_name": "The Godfrey Hotel Chicago",
    "latitude": 41.8945004,
    "longitude": -87.63194140000002,
    "address1": "127 W Huron St",
    "address2": "",
    "address3": "",
    "city": "Chicago",
    "state": "IL",
    "zip_code": "60654"
  },
  {
    "venue_id": "EB_21679184",
    "venue_name": "Mac & Cheese Productions (Wicker Park; exact address sent upon registration)",
    "latitude": 41.90325259999999,
    "longitude": -87.67357950000002,
    "address1": "Division and Honore",
    "address2": "",
    "address3": "",
    "city": "Chicago",
    "state": "IL",
    "zip_code": "60622"
  },
  {
    "venue_id": "EB_27686050",
    "venue_name": "416 S Clark St",
    "latitude": 41.8764042,
    "longitude": -87.63108749999998,
    "address1": "416 South Clark Street",
    "address2": "",
    "address3": "",
    "city": "Chicago",
    "state": "IL",
    "zip_code": "60605"
  },
  {
    "venue_id": "EB_27900798",
    "venue_name": "Polsinelli",
    "latitude": 41.8848648,
    "longitude": -87.63864719999998,
    "address1": "150 North Riverside Plaza",
    "address2": "#3000",
    "address3": "",
    "city": "Chicago",
    "state": "IL",
    "zip_code": "60606"
  },
  {
    "venue_id": "EB_22869325",
    "venue_name": "GMan Tavern",
    "latitude": 41.950091,
    "longitude": -87.65899489999998,
    "address1": "3740 N Clark Street",
    "address2": "",
    "address3": "",
    "city": "Chicago",
    "state": "IL",
    "zip_code": "60613"
  },
  {
    "venue_id": "EB_27906740",
    "venue_name": "1154 W Lunt",
    "latitude": 42.0002887,
    "longitude": -87.6611838,
    "address1": "Suite 4",
    "address2": "",
    "address3": "",
    "city": "Chicago",
    "state": "IL",
    "zip_code": "60626"
  },
  {
    "venue_id": "EB_24336477",
    "venue_name": "The Violet Hour",
    "latitude": 41.9090767,
    "longitude": -87.67761029999997,
    "address1": "1520 North Damen Avenue",
    "address2": "",
    "address3": "",
    "city": "Chicago",
    "state": "IL",
    "zip_code": "60622"
  },
  {
    "venue_id": "EB_28141028",
    "venue_name": "Shred415",
    "latitude": 41.90398209999999,
    "longitude": -87.63572899999997,
    "address1": "230 West Division Street",
    "address2": "",
    "address3": "",
    "city": "Chicago",
    "state": "IL",
    "zip_code": "60610"
  },
  {
    "venue_id": "EB_26175990",
    "venue_name": "Chicago",
    "latitude": 41.8781136,
    "longitude": -87.62979819999998,
    "address1": "",
    "address2": "",
    "address3": "",
    "city": "Chicago",
    "state": "Chicago",
    "zip_code": ""
  },
  {
    "venue_id": "EB_20523021",
    "venue_name": "University Church",
    "latitude": 41.7917026,
    "longitude": -87.5977896,
    "address1": "5655 South University Avenue",
    "address2": "",
    "address3": "",
    "city": "Chicago",
    "state": "IL",
    "zip_code": "60637"
  },
  {
    "venue_id": "EB_27861703",
    "venue_name": "Momentum Performing Arts MG",
    "latitude": 42.041172,
    "longitude": -87.77216709999999,
    "address1": "5810 Dempster Street",
    "address2": "",
    "address3": "",
    "city": "Morton Grove",
    "state": "IL",
    "zip_code": "60053"
  },
  {
    "venue_id": "EB_17652198",
    "venue_name": "Association of Lloyd's Brokers",
    "latitude": 41.88161059999999,
    "longitude": -87.63335369999999,
    "address1": "181 W. Madison",
    "address2": "7th Floor - Edgewater Room",
    "address3": "",
    "city": "Chicago",
    "state": "IL",
    "zip_code": "60602"
  },
  {
    "venue_id": "EB_28103822",
    "venue_name": "1000 Jorie Blvd",
    "latitude": 41.8451048,
    "longitude": -87.927839,
    "address1": "3rd Floor - Conf. Rm A",
    "address2": "",
    "address3": "",
    "city": "Oak Brook",
    "state": "IL",
    "zip_code": "60523"
  },
  {
    "venue_id": "EB_24329130",
    "venue_name": "Chicago",
    "latitude": 41.8803304,
    "longitude": -87.62567919999998,
    "address1": "Regus \u2013 Illinois, Chicago \u2013 55 E. Monroe  Address: 55 E Monroe St Suite 3800, Chicago, IL 60603, USA",
    "address2": "",
    "address3": "",
    "city": "Chicago",
    "state": "IL",
    "zip_code": "60603"
  },
  {
    "venue_id": "EB_27543324",
    "venue_name": "",
    "latitude": 41.8781136,
    "longitude": -87.62979819999998,
    "address1": "",
    "address2": "",
    "address3": "",
    "city": "Chicago",
    "state": "IL",
    "zip_code": ""
  },
  {
    "venue_id": "EB_15149288",
    "venue_name": "Kizuki Ramen and Izakaya Wicker Park",
    "latitude": 41.9086519,
    "longitude": -87.67529789999998,
    "address1": "1482 North Milwaukee Avenue",
    "address2": "",
    "address3": "",
    "city": "Chicago",
    "state": "IL",
    "zip_code": "60622"
  },
  {
    "venue_id": "EB_25933016",
    "venue_name": "Marquette Building",
    "latitude": 41.8797986,
    "longitude": -87.62955099999999,
    "address1": "140 S Dearborn St",
    "address2": "",
    "address3": "",
    "city": "Chicago",
    "state": "IL",
    "zip_code": "60603"
  },
  {
    "venue_id": "EB_25842698",
    "venue_name": "",
    "latitude": 41.8829298,
    "longitude": -87.63003079999999,
    "address1": "Exact location will be provided after registration",
    "address2": "",
    "address3": "",
    "city": "Chicago",
    "state": "IL",
    "zip_code": "60616"
  },
  {
    "venue_id": "EB_27671405",
    "venue_name": "7415 S East End Ave",
    "latitude": 41.76005900000001,
    "longitude": -87.58295799999996,
    "address1": "7415 South East End Avenue",
    "address2": "Bldg",
    "address3": "",
    "city": "Chicago",
    "state": "IL",
    "zip_code": "60649"
  },
  {
    "venue_id": "EB_24602377",
    "venue_name": "online",
    "latitude": 41.879211,
    "longitude": -87.62484999999998,
    "address1": "200 S Michigan Ave",
    "address2": "",
    "address3": "",
    "city": "chicago",
    "state": "IL",
    "zip_code": "60604"
  },
  {
    "venue_id": "EB_27773157",
    "venue_name": "Murphy's Lounge",
    "latitude": 41.7559324,
    "longitude": -87.6056016,
    "address1": "7628 South Cottage Grove Avenue",
    "address2": "",
    "address3": "",
    "city": "Chicago",
    "state": "IL",
    "zip_code": "60619"
  },
  {
    "venue_id": "EB_23721442",
    "venue_name": "CHICAGO NORTH SIDE",
    "latitude": 41.900306,
    "longitude": -87.63344510000002,
    "address1": "",
    "address2": "",
    "address3": "",
    "city": "CHICAGO NORTH SIDE",
    "state": "CHICAGO NORTH SIDE",
    "zip_code": ""
  },
  {
    "venue_id": "EB_22098763",
    "venue_name": "600 S. Michigan",
    "latitude": 41.8661648,
    "longitude": -87.6170952,
    "address1": "Room 1305",
    "address2": "",
    "address3": "",
    "city": "Chicago",
    "state": "IL",
    "zip_code": "60605"
  },
  {
    "venue_id": "EB_27791360",
    "venue_name": "VITAHL Medical Aesthetics",
    "latitude": 41.8814574,
    "longitude": -87.65574620000001,
    "address1": "1135 West Madison Street",
    "address2": "",
    "address3": "",
    "city": "Chicago",
    "state": "IL",
    "zip_code": "60607"
  },
  {
    "venue_id": "EB_26650728",
    "venue_name": "Business Center",
    "latitude": 41.87776059999999,
    "longitude": -87.63224989999998,
    "address1": "141 W. Jackson",
    "address2": " Suite 300A",
    "address3": "",
    "city": " Chicago",
    "state": "IL",
    "zip_code": "60604"
  },
  {
    "venue_id": "EB_26043941",
    "venue_name": "",
    "latitude": 41.8781136,
    "longitude": -87.62979819999998,
    "address1": "Exact location will be provided after registration",
    "address2": "",
    "address3": "",
    "city": "Chicago",
    "state": "IL",
    "zip_code": "60156"
  },
  {
    "venue_id": "EB_27713001",
    "venue_name": "Chicago",
    "latitude": 41.92191700000001,
    "longitude": -87.66429719999996,
    "address1": "2207 N Clybourn Ave",
    "address2": "",
    "address3": "",
    "city": "Chicago",
    "state": "IL",
    "zip_code": "60614"
  },
  {
    "venue_id": "EB_27865456",
    "venue_name": "IL Office",
    "latitude": 41.8781136,
    "longitude": -87.62979819999998,
    "address1": "Address will be giving after registration ",
    "address2": "",
    "address3": "",
    "city": "Chicago",
    "state": "IL",
    "zip_code": ""
  },
  {
    "venue_id": "EB_23818823",
    "venue_name": "Chicago",
    "latitude": 41.8781136,
    "longitude": -87.62979819999998,
    "address1": "",
    "address2": "",
    "address3": "",
    "city": "Chicago",
    "state": "IL",
    "zip_code": ""
  },
  {
    "venue_id": "EB_25840305",
    "venue_name": "Chicago",
    "latitude": 41.8803304,
    "longitude": -87.62567919999998,
    "address1": "Regus - Illinois, Chicago - 55 E. Monroe Address: 55 E Monroe St Suite 3800, Chicago, IL 60603, USA",
    "address2": "",
    "address3": "",
    "city": "Chicago",
    "state": "IL",
    "zip_code": ""
  },
  {
    "venue_id": "EB_27145164",
    "venue_name": "Business Center",
    "latitude": 41.87776059999999,
    "longitude": -87.63224989999998,
    "address1": "141 W. Jackson",
    "address2": "Suite 300A",
    "address3": "",
    "city": "Chicago",
    "state": "IL",
    "zip_code": "60604"
  },
  {
    "venue_id": "EB_27706573",
    "venue_name": "The WordSmith Writer's Lab",
    "latitude": 41.88236029999999,
    "longitude": -87.62728400000003,
    "address1": "1 North State Street",
    "address2": "#1559",
    "address3": "",
    "city": "Chicago",
    "state": "Illinois",
    "zip_code": "60602"
  },
  {
    "venue_id": "EB_20938926",
    "venue_name": "Columbia College Chicago",
    "latitude": 41.8742305,
    "longitude": -87.62479059999998,
    "address1": "600 South Michigan Avenue",
    "address2": "Room 1305",
    "address3": "",
    "city": "Chicago",
    "state": "IL",
    "zip_code": "60605"
  },
  {
    "venue_id": "EB_26598714",
    "venue_name": "Full Address upon registration",
    "latitude": 41.9644741,
    "longitude": -87.7376496,
    "address1": "",
    "address2": "",
    "address3": "",
    "city": "Mayfair",
    "state": "IL",
    "zip_code": "60630"
  },
  {
    "venue_id": "EB_23631056",
    "venue_name": "205 W Randolph St",
    "latitude": 41.8842413,
    "longitude": -87.63411129999997,
    "address1": "America Works of Illinois",
    "address2": "Suite 920",
    "address3": "",
    "city": "Chicago",
    "state": "IL",
    "zip_code": "60606"
  },
  {
    "venue_id": "EB_27981375",
    "venue_name": "",
    "latitude": 41.8781136,
    "longitude": -87.62979819999998,
    "address1": "",
    "address2": "",
    "address3": "",
    "city": "Chicago",
    "state": "IL",
    "zip_code": ""
  },
  {
    "venue_id": "EB_27482305",
    "venue_name": "Chicago",
    "latitude": 41.8703314,
    "longitude": -87.62357420000001,
    "address1": "",
    "address2": "",
    "address3": "",
    "city": "Chicago",
    "state": "IL",
    "zip_code": "60605"
  },
  {
    "venue_id": "EB_27897951",
    "venue_name": "212 N Sangamon St",
    "latitude": 41.8861776,
    "longitude": -87.6514077,
    "address1": "212 North Sangamon Street",
    "address2": "",
    "address3": "",
    "city": "Chicago",
    "state": "IL",
    "zip_code": "60607"
  },
  {
    "venue_id": "EB_26693392",
    "venue_name": "The Godfrey Hotel Chicago",
    "latitude": 41.8945004,
    "longitude": -87.63194140000002,
    "address1": "127 W Huron St",
    "address2": "",
    "address3": "",
    "city": "Chicago",
    "state": "IL",
    "zip_code": "60654"
  },
  {
    "venue_id": "EB_27782024",
    "venue_name": "",
    "latitude": 41.8703314,
    "longitude": -87.62357420000001,
    "address1": "",
    "address2": "",
    "address3": "",
    "city": "Chicago",
    "state": "IL",
    "zip_code": "60605"
  },
  {
    "venue_id": "EB_25555406",
    "venue_name": "2747 W Cermak Rd",
    "latitude": 41.85168619999999,
    "longitude": -87.69487449999997,
    "address1": "2747 West Cermak Road",
    "address2": "",
    "address3": "",
    "city": "Chicago",
    "state": "IL",
    "zip_code": "60608"
  },
  {
    "venue_id": "EB_25522723",
    "venue_name": "Exact Location Provided upon registration",
    "latitude": 41.9681042,
    "longitude": -87.74012640000001,
    "address1": "Lawrence & Elston",
    "address2": "",
    "address3": "",
    "city": "Chicago",
    "state": "IL",
    "zip_code": "60630"
  },
  {
    "venue_id": "EB_27050097",
    "venue_name": "Conference Call Only 470-200-0080 Code:630450",
    "latitude": 41.8781136,
    "longitude": -87.62979819999998,
    "address1": "",
    "address2": "",
    "address3": "",
    "city": "Chicago",
    "state": "IL",
    "zip_code": ""
  },
  {
    "venue_id": "EB_24615337",
    "venue_name": "The Standard Club",
    "latitude": 41.877705,
    "longitude": -87.62887,
    "address1": "320 South Plymouth Court",
    "address2": "",
    "address3": "",
    "city": "Chicago",
    "state": "IL",
    "zip_code": "60604"
  },
  {
    "venue_id": "EB_21683696",
    "venue_name": "GT Fish & Oyster and GT Prime",
    "latitude": 41.8929153,
    "longitude": -87.63591250000002,
    "address1": "",
    "address2": "",
    "address3": "",
    "city": "Chicago",
    "state": "IL",
    "zip_code": "60654"
  },
  {
    "venue_id": "EB_8807351",
    "venue_name": "Wishcraft",
    "latitude": 41.9526248,
    "longitude": -87.67844550000001,
    "address1": "3907 N Damen ave ",
    "address2": "",
    "address3": "",
    "city": "Chicago",
    "state": "IL",
    "zip_code": "60618"
  },
  {
    "venue_id": "EB_27947878",
    "venue_name": "",
    "latitude": 41.8781,
    "longitude": -87.6298,
    "address1": "Chicago",
    "address2": "",
    "address3": "",
    "city": "",
    "state": "",
    "zip_code": ""
  },
  {
    "venue_id": "EB_25555483",
    "venue_name": "2747 W Cermak Rd",
    "latitude": 41.85168619999999,
    "longitude": -87.69487449999997,
    "address1": "2747 West Cermak Road",
    "address2": "",
    "address3": "",
    "city": "Chicago",
    "state": "IL",
    "zip_code": "60608"
  },
  {
    "venue_id": "EB_26891832",
    "venue_name": "Your Computer",
    "latitude": 41.8781136,
    "longitude": -87.62979819999998,
    "address1": "",
    "address2": "",
    "address3": "",
    "city": "Chicago",
    "state": "IL",
    "zip_code": ""
  },
  {
    "venue_id": "EB_24069583",
    "venue_name": "521 S Dearborn St",
    "latitude": 41.8752335,
    "longitude": -87.6289845,
    "address1": "521 South Dearborn Street",
    "address2": "",
    "address3": "",
    "city": "Chicago",
    "state": "IL",
    "zip_code": "60605"
  },
  {
    "venue_id": "EB_25547980",
    "venue_name": "Venue at Elbo Room",
    "latitude": 41.9342015,
    "longitude": -87.6607525,
    "address1": "2871 N Lincoln Ave",
    "address2": "",
    "address3": "",
    "city": "Chicago",
    "state": "IL",
    "zip_code": "60657"
  },
  {
    "venue_id": "EB_22976865",
    "venue_name": "Regus Office Facility",
    "latitude": 41.88118559999999,
    "longitude": -87.6374404,
    "address1": "30 S. Wacker Drive, 22nd Floor",
    "address2": "",
    "address3": "",
    "city": "Chicago",
    "state": "IL",
    "zip_code": "60606"
  },
  {
    "venue_id": "EB_25524838",
    "venue_name": "Exact location will be provided after registration",
    "latitude": 41.9720786,
    "longitude": -87.75172950000001,
    "address1": "",
    "address2": "",
    "address3": "",
    "city": "Chicago",
    "state": "IL",
    "zip_code": "60630"
  },
  {
    "venue_id": "EB_27815114",
    "venue_name": "Chicago",
    "latitude": 41.9013087,
    "longitude": -87.68276759999998,
    "address1": "TBD",
    "address2": "",
    "address3": "",
    "city": "Chicago",
    "state": "IL",
    "zip_code": "60622"
  },
  {
    "venue_id": "EB_25966993",
    "venue_name": "",
    "latitude": 41.8781136,
    "longitude": -87.62979819999998,
    "address1": "Address Will Be Provided After Registration",
    "address2": "",
    "address3": "",
    "city": "Chicago",
    "state": "IL",
    "zip_code": ""
  },
  {
    "venue_id": "EB_19987731",
    "venue_name": "Chicago",
    "latitude": 41.8781136,
    "longitude": -87.62979819999998,
    "address1": "",
    "address2": "",
    "address3": "",
    "city": "Chicago",
    "state": "IL",
    "zip_code": ""
  },
  {
    "venue_id": "EB_21555960",
    "venue_name": "Your Happy Place Liquors",
    "latitude": 41.9267758,
    "longitude": -87.70363129999998,
    "address1": "2501A North Milwaukee Avenue",
    "address2": "",
    "address3": "",
    "city": "Chicago",
    "state": "IL",
    "zip_code": "60647"
  },
  {
    "venue_id": "EB_27915645",
    "venue_name": "",
    "latitude": 41.8455877,
    "longitude": -87.7539448,
    "address1": "",
    "address2": "",
    "address3": "",
    "city": "Cicero",
    "state": "Illinois",
    "zip_code": ""
  },
  {
    "venue_id": "EB_23039008",
    "venue_name": "Jolly Pumpkin Pizzeria & Brewery",
    "latitude": 41.8004419,
    "longitude": -87.58876900000001,
    "address1": "5215 South Harper Avenue",
    "address2": "",
    "address3": "",
    "city": "Chicago",
    "state": "IL",
    "zip_code": "60615"
  },
  {
    "venue_id": "EB_27543324",
    "venue_name": "",
    "latitude": 41.8781136,
    "longitude": -87.62979819999998,
    "address1": "",
    "address2": "",
    "address3": "",
    "city": "Chicago",
    "state": "IL",
    "zip_code": ""
  },
  {
    "venue_id": "EB_27562364",
    "venue_name": "test",
    "latitude": 41.8781136,
    "longitude": -87.62979819999998,
    "address1": "1325 W Wilson Ave",
    "address2": "",
    "address3": "",
    "city": "Chicago",
    "state": "Illinois",
    "zip_code": "60640"
  },
  {
    "venue_id": "EB_26166479",
    "venue_name": "Chicago",
    "latitude": 41.8781136,
    "longitude": -87.62979819999998,
    "address1": "",
    "address2": "",
    "address3": "",
    "city": "Chicago",
    "state": "IL",
    "zip_code": ""
  },
  {
    "venue_id": "EB_28131422",
    "venue_name": "On your Computer",
    "latitude": 41.8781136,
    "longitude": -87.62979819999998,
    "address1": "",
    "address2": "",
    "address3": "",
    "city": "Chicago",
    "state": "IL",
    "zip_code": ""
  },
  {
    "venue_id": "EB_28030256",
    "venue_name": "Richard J. Daley College",
    "latitude": 41.7560587,
    "longitude": -87.7239586,
    "address1": "7500 South Pulaski Road",
    "address2": "",
    "address3": "",
    "city": "Chicago",
    "state": "IL",
    "zip_code": "60652"
  },
  {
    "venue_id": "EB_25292334",
    "venue_name": "ONLINE Webinar Event - Link Given/Emailed Once Registered",
    "latitude": 41.8781136,
    "longitude": -87.62979819999998,
    "address1": "",
    "address2": "",
    "address3": "",
    "city": "Chicago",
    "state": "IL",
    "zip_code": ""
  },
  {
    "venue_id": "EB_27359978",
    "venue_name": "Chicago",
    "latitude": 41.8781136,
    "longitude": -87.62979819999998,
    "address1": "Online Event",
    "address2": "",
    "address3": "",
    "city": "Chicago",
    "state": "Illinois",
    "zip_code": ""
  },
  {
    "venue_id": "EB_26524897",
    "venue_name": "GEMINI",
    "latitude": 41.91996799999999,
    "longitude": -87.64086600000002,
    "address1": "2075 North Lincoln Avenue",
    "address2": "",
    "address3": "",
    "city": "Chicago",
    "state": "IL",
    "zip_code": "60614"
  },
  {
    "venue_id": "EB_22067936",
    "venue_name": "departs from | the Art Institute of Chicago lions",
    "latitude": 41.8795483,
    "longitude": -87.62426779999998,
    "address1": "Adams & Michigan",
    "address2": "",
    "address3": "",
    "city": "Chicago",
    "state": "IL",
    "zip_code": "60603"
  },
  {
    "venue_id": "EB_27743507",
    "venue_name": "Walter H. Dyett School for the Arts",
    "latitude": 41.8013958,
    "longitude": -87.61238639999999,
    "address1": "555 East 51st Street",
    "address2": "",
    "address3": "",
    "city": "Chicago",
    "state": "IL",
    "zip_code": "60615"
  },
  {
    "venue_id": "EB_28169272",
    "venue_name": "Chicago Online",
    "latitude": 41.7246539,
    "longitude": -87.54947449999997,
    "address1": "",
    "address2": "",
    "address3": "",
    "city": "Chicago",
    "state": "IL",
    "zip_code": "60617"
  },
  {
    "venue_id": "EB_23948482",
    "venue_name": "Winnie Couture",
    "latitude": 41.90757900000001,
    "longitude": -87.63426600000003,
    "address1": "1365 North Wells Street",
    "address2": "",
    "address3": "",
    "city": "Chicago",
    "state": "IL",
    "zip_code": "60610"
  },
  {
    "venue_id": "EB_26524977",
    "venue_name": "Radisson Blu Aqua Hotel, Chicago",
    "latitude": 41.88642830000001,
    "longitude": -87.62001040000001,
    "address1": "221 North Columbus Drive",
    "address2": "",
    "address3": "",
    "city": "Chicago",
    "state": "IL",
    "zip_code": "60601"
  },
  {
    "venue_id": "EB_28057105",
    "venue_name": "Westfield Old Orchard",
    "latitude": 42.05912319999999,
    "longitude": -87.7495227,
    "address1": "4905 Old Orchard Shopping Center",
    "address2": "Near the Apple Store",
    "address3": "",
    "city": "Skokie",
    "state": "IL",
    "zip_code": "60077"
  },
  {
    "venue_id": "EB_28005439",
    "venue_name": "Sweet Sprigs Test Kitchen, West Loop",
    "latitude": 41.8850592,
    "longitude": -87.64371589999996,
    "address1": "165 N Desplaines Street",
    "address2": "",
    "address3": "",
    "city": "Chicago",
    "state": "IL",
    "zip_code": "60661"
  },
  {
    "venue_id": "EB_28160011",
    "venue_name": "On your Computer",
    "latitude": 41.8781136,
    "longitude": -87.62979819999998,
    "address1": "",
    "address2": "",
    "address3": "",
    "city": "Chicago",
    "state": "IL",
    "zip_code": ""
  },
  {
    "venue_id": "EB_24472311",
    "venue_name": "Laugh Factory",
    "latitude": 41.93973400000001,
    "longitude": -87.64403319999997,
    "address1": "3175 North Broadway",
    "address2": "",
    "address3": "",
    "city": "Chicago",
    "state": "IL",
    "zip_code": "60657"
  },
  {
    "venue_id": "EB_28143133",
    "venue_name": "Technological Institute Room LR2",
    "latitude": 42.0594618,
    "longitude": -87.67268309999997,
    "address1": "2311 Campus Drive",
    "address2": "#2300",
    "address3": "",
    "city": "Evanston",
    "state": "IL",
    "zip_code": "60208"
  }
]