[
  {
    "venue_id": "EB_27177816",
    "venue_name": "Film Row Cinema",
    "latitude": 41.8690686,
    "longitude": -87.62627350000002,
    "address1": "1104 South Wabash Avenue",
    "address2": "8th Floor",
    "address3": "",
    "city": "Chicago",
    "state": "IL",
    "zip_code": "60605"
  },
  {
    "venue_id": "EB_28148677",
    "venue_name": "Yassa African Restaurant",
    "latitude": 41.8307311,
    "longitude": -87.61668929999996,
    "address1": "3511 South King Drive",
    "address2": "",
    "address3": "",
    "city": "Chicago",
    "state": "IL",
    "zip_code": "60653"
  },
  {
    "venue_id": "EB_27693587",
    "venue_name": "Royal Palms Chicago",
    "latitude": 41.9131866,
    "longitude": -87.6820846,
    "address1": "1750 N Milwaukee Ave",
    "address2": "",
    "address3": "",
    "city": "Chicago",
    "state": "IL",
    "zip_code": "60647"
  },
  {
    "venue_id": "EB_26851680",
    "venue_name": "",
    "latitude": 41.9106721,
    "longitude": -87.652853,
    "address1": "939 W. North Avenue",
    "address2": "Suite 750",
    "address3": "",
    "city": "Chicago",
    "state": "IL",
    "zip_code": "60642"
  },
  {
    "venue_id": "EB_22006880",
    "venue_name": "The Berghoff Restaurant",
    "latitude": 41.87925200000001,
    "longitude": -87.62840599999998,
    "address1": "17 West Adams Street",
    "address2": "",
    "address3": "",
    "city": "Chicago",
    "state": "IL",
    "zip_code": "60603"
  },
  {
    "venue_id": "EB_27729494",
    "venue_name": "Design Center at theMART | 6th Floor Conference Center",
    "latitude": 41.8885186,
    "longitude": -87.6354801,
    "address1": "222 Merchandise Mart Plaza",
    "address2": "6th Floor Conference Center Suite 6-180",
    "address3": "",
    "city": "Chicago",
    "state": "IL",
    "zip_code": "60654"
  },
  {
    "venue_id": "EB_27997926",
    "venue_name": "Norris University Center",
    "latitude": 42.0533603,
    "longitude": -87.67266240000004,
    "address1": "1999 Campus Drive",
    "address2": "Wildcat Room  #101",
    "address3": "",
    "city": "Evanston",
    "state": "IL",
    "zip_code": "60208"
  },
  {
    "venue_id": "EB_28035855",
    "venue_name": "Michigan Plaza",
    "latitude": 41.8860809,
    "longitude": -87.62356549999998,
    "address1": "205 Michigan Avenue",
    "address2": "",
    "address3": "",
    "city": "Chicago",
    "state": "IL",
    "zip_code": "60601"
  },
  {
    "venue_id": "EB_23836496",
    "venue_name": "Stage 18 Chicago",
    "latitude": 41.86055210000001,
    "longitude": -87.6891589,
    "address1": "2558 West 16th Street",
    "address2": "",
    "address3": "",
    "city": "Chicago",
    "state": "IL",
    "zip_code": "60608"
  },
  {
    "venue_id": "EB_23712151",
    "venue_name": "Donnelley Biological Sciences Learning Center (BSLC) Room 008",
    "latitude": 41.79192099999999,
    "longitude": -87.60280769999997,
    "address1": "924 E. 57th Street",
    "address2": "",
    "address3": "",
    "city": "Chicago",
    "state": "IL",
    "zip_code": "60637"
  },
  {
    "venue_id": "EB_27591801",
    "venue_name": "@TEC4950",
    "latitude": 41.901353,
    "longitude": -87.75119689999997,
    "address1": "Bethel New Life, Inc.",
    "address2": "4950 W. Thomas Street",
    "address3": "",
    "city": "Chicago",
    "state": "IL",
    "zip_code": "60651"
  },
  {
    "venue_id": "EB_22648260",
    "venue_name": "Community Programs Accelerator",
    "latitude": 41.7994931,
    "longitude": -87.60625110000001,
    "address1": "5225 S. Cottage Grove Ave",
    "address2": "",
    "address3": "",
    "city": "Chicago",
    "state": "IL",
    "zip_code": "60615"
  },
  {
    "venue_id": "EB_28079974",
    "venue_name": "MakeOffices at the Loop",
    "latitude": 41.8824143,
    "longitude": -87.62724879999996,
    "address1": "1 North State Street",
    "address2": "#1500",
    "address3": "",
    "city": "Chicago",
    "state": "IL",
    "zip_code": "60602"
  },
  {
    "venue_id": "EB_27704734",
    "venue_name": "Google",
    "latitude": 41.887246,
    "longitude": -87.652645,
    "address1": "320 North Morgan Street",
    "address2": "#600",
    "address3": "",
    "city": "Chicago",
    "state": "IL",
    "zip_code": "60607"
  },
  {
    "venue_id": "EB_28078867",
    "venue_name": "The Joseph Regenstein Library",
    "latitude": 41.792279,
    "longitude": -87.59995400000003,
    "address1": "1100 E. 57th St.",
    "address2": "",
    "address3": "",
    "city": "Chicago",
    "state": "IL",
    "zip_code": "60637"
  },
  {
    "venue_id": "EB_26378579",
    "venue_name": "",
    "latitude": 41.7892417,
    "longitude": -87.59749049999999,
    "address1": "Social Sciences Room 122",
    "address2": "",
    "address3": "",
    "city": "",
    "state": "",
    "zip_code": ""
  },
  {
    "venue_id": "EB_26784749",
    "venue_name": "Event Oven Studio in the Fine Arts Building",
    "latitude": 41.8764419,
    "longitude": -87.62469120000003,
    "address1": "410 S Michigan Ave",
    "address2": "STE 404",
    "address3": "",
    "city": "Chicago",
    "state": "IL",
    "zip_code": "60605"
  },
  {
    "venue_id": "EB_27389900",
    "venue_name": "Whiting Public Library",
    "latitude": 41.681643,
    "longitude": -87.493946,
    "address1": "1735 Oliver Street",
    "address2": "",
    "address3": "",
    "city": "Whiting",
    "state": "IN",
    "zip_code": "46394"
  },
  {
    "venue_id": "EB_27299549",
    "venue_name": "The Congress Plaza Hotel & Convention Center",
    "latitude": 41.8751616,
    "longitude": -87.6246539,
    "address1": "520 S Michigan Ave.",
    "address2": "",
    "address3": "",
    "city": "Chicago",
    "state": "IL",
    "zip_code": "60605"
  },
  {
    "venue_id": "EB_27723178",
    "venue_name": "7500 S Pulaski Rd",
    "latitude": 41.7429283,
    "longitude": -87.7123355,
    "address1": "",
    "address2": "Room 1205",
    "address3": "",
    "city": "Chicago",
    "state": "IL",
    "zip_code": "60652"
  },
  {
    "venue_id": "EB_27431720",
    "venue_name": "The Sheldon Patinkin Studio",
    "latitude": 41.8695293,
    "longitude": -87.62506400000001,
    "address1": "72 East 11th Street",
    "address2": "",
    "address3": "",
    "city": "Chicago",
    "state": "IL",
    "zip_code": "60605"
  },
  {
    "venue_id": "EB_27640856",
    "venue_name": "Bookends and Beginnings",
    "latitude": 42.049197,
    "longitude": -87.6820199,
    "address1": "1712 Sherman Ave. Alley #1",
    "address2": "",
    "address3": "",
    "city": "Evanston",
    "state": "IL",
    "zip_code": "60201"
  },
  {
    "venue_id": "EB_23968439",
    "venue_name": "Health Professions Advising Office",
    "latitude": 42.0544,
    "longitude": -87.7456,
    "address1": "1940 Sheridan Road",
    "address2": "1st Floor Conference Room",
    "address3": "",
    "city": "Evanston",
    "state": "IL",
    "zip_code": "60208"
  },
  {
    "venue_id": "EB_20122720",
    "venue_name": "WeWork Kinzie",
    "latitude": 41.88951120000001,
    "longitude": -87.6289433,
    "address1": "20 West Kinzie Street",
    "address2": "",
    "address3": "",
    "city": "Chicago",
    "state": "IL",
    "zip_code": "60654"
  },
  {
    "venue_id": "EB_22491276",
    "venue_name": "Theater on the Lake",
    "latitude": 41.9270782,
    "longitude": -87.63063349999999,
    "address1": "2401 North Lake Shore Drive",
    "address2": "",
    "address3": "",
    "city": "Chicago",
    "state": "IL",
    "zip_code": "60614"
  },
  {
    "venue_id": "EB_28057591",
    "venue_name": "NEXT/NOW",
    "latitude": 41.8857519,
    "longitude": -87.65700300000003,
    "address1": "1200 West Lake Street",
    "address2": "",
    "address3": "",
    "city": "Chicago",
    "state": "IL",
    "zip_code": "60607"
  },
  {
    "venue_id": "EB_27914916",
    "venue_name": "Evanston Rocks",
    "latitude": 42.0482244,
    "longitude": -87.68596969999999,
    "address1": "Bourbon 'N Brass Speakeasy",
    "address2": "1012 Church Street",
    "address3": "",
    "city": "Evanston",
    "state": "IL",
    "zip_code": "60201"
  },
  {
    "venue_id": "EB_28080068",
    "venue_name": "SoulCycle LOOP - The Loop",
    "latitude": 41.8867157,
    "longitude": -87.63158800000002,
    "address1": "111 West Wacker Drive",
    "address2": "",
    "address3": "",
    "city": "Chicago",
    "state": "IL",
    "zip_code": "60601"
  },
  {
    "venue_id": "EB_27059092",
    "venue_name": "Wieboldt Hall",
    "latitude": 41.7805099,
    "longitude": -87.60382600000003,
    "address1": "Room 310",
    "address2": "",
    "address3": "",
    "city": "Chicago",
    "state": "IL",
    "zip_code": "60637"
  },
  {
    "venue_id": "EB_11247107",
    "venue_name": "MATTER",
    "latitude": 41.8882441,
    "longitude": -87.63538790000001,
    "address1": "222 Merchandise Mart Plaza",
    "address2": "Suite 1230",
    "address3": "",
    "city": "Chicago",
    "state": "IL",
    "zip_code": "60654"
  },
  {
    "venue_id": "EB_27998987",
    "venue_name": "Bluemercury State & Elm",
    "latitude": 41.9034633,
    "longitude": -87.62839580000002,
    "address1": "1153 North State St. ",
    "address2": "",
    "address3": "",
    "city": "Chicago",
    "state": "IL",
    "zip_code": "60610"
  },
  {
    "venue_id": "EB_27241750",
    "venue_name": "Malcolm X College",
    "latitude": 41.87780739999999,
    "longitude": -87.6745252,
    "address1": "1900 W. Jackson Boulevard",
    "address2": "Conference Hall | Room 1108",
    "address3": "",
    "city": "Chicago",
    "state": "IL",
    "zip_code": "60612"
  },
  {
    "venue_id": "EB_26787125",
    "venue_name": "MakeOffices at River North",
    "latitude": 41.8887576,
    "longitude": -87.63730029999999,
    "address1": "350 N Orleans St #9000n",
    "address2": "",
    "address3": "",
    "city": "Chicago",
    "state": "IL",
    "zip_code": "60654"
  },
  {
    "venue_id": "EB_27608869",
    "venue_name": "evolveHer",
    "latitude": 41.8933612,
    "longitude": -87.63812000000001,
    "address1": "358 W. Ontario, 3W",
    "address2": "",
    "address3": "",
    "city": "Chicago",
    "state": "IL",
    "zip_code": "60654"
  },
  {
    "venue_id": "EB_21015749",
    "venue_name": "Space",
    "latitude": 42.04087659999999,
    "longitude": -87.68009649999999,
    "address1": "1245 Chicago Avenue",
    "address2": "",
    "address3": "",
    "city": "Evanston",
    "state": "IL",
    "zip_code": "60202"
  },
  {
    "venue_id": "EB_21662861",
    "venue_name": "Institute of Politics",
    "latitude": 41.7911418,
    "longitude": -87.59609180000001,
    "address1": "5707 S. Woodlawn",
    "address2": "",
    "address3": "",
    "city": "Chicago",
    "state": "IL",
    "zip_code": "60637"
  },
  {
    "venue_id": "EB_22728556",
    "venue_name": "Location Provided After Viewing Our 15 Minute Intro Webinar",
    "latitude": 41.8454456,
    "longitude": -87.6365394,
    "address1": "S Michigan Avenue",
    "address2": "",
    "address3": "",
    "city": "Chicago",
    "state": "IL",
    "zip_code": "60616"
  },
  {
    "venue_id": "EB_20880651",
    "venue_name": "Thalia Hall",
    "latitude": 41.8577,
    "longitude": -87.6572,
    "address1": "1807 South Allport Street",
    "address2": "",
    "address3": "",
    "city": "Chicago",
    "state": "IL",
    "zip_code": "60608"
  },
  {
    "venue_id": "EB_27927730",
    "venue_name": "Early Society",
    "latitude": 41.8865531,
    "longitude": -87.63069740000003,
    "address1": "77 W. Wacker Drive",
    "address2": "(Main entrance is on 221 N. Clark Street)",
    "address3": "",
    "city": "Chicago",
    "state": "IL",
    "zip_code": "60601"
  },
  {
    "venue_id": "EB_21551058",
    "venue_name": "Alhambra Palace Restaurant",
    "latitude": 41.8846134,
    "longitude": -87.65822800000001,
    "address1": "1240 West Randolph Street",
    "address2": "",
    "address3": "",
    "city": "Chicago",
    "state": "IL",
    "zip_code": "60607"
  },
  {
    "venue_id": "EB_24660265",
    "venue_name": "Henry Crown Sports Pavilion",
    "latitude": 42.0594633,
    "longitude": -87.672687,
    "address1": " 2311 Campus Drive  ",
    "address2": "Studio 2 ",
    "address3": "",
    "city": "Evanston",
    "state": "IL",
    "zip_code": "60208"
  },
  {
    "venue_id": "EB_26456720",
    "venue_name": "The Metropolitan",
    "latitude": 41.87887610000001,
    "longitude": -87.63591500000001,
    "address1": "233 South Wacker Drive,  67th floor",
    "address2": "",
    "address3": "",
    "city": "Chicago",
    "state": "IL",
    "zip_code": "60606"
  },
  {
    "venue_id": "EB_27914140",
    "venue_name": "Fat Cat Restaurant & Bar",
    "latitude": 41.970098,
    "longitude": -87.65993730000002,
    "address1": "4840 North Broadway",
    "address2": "",
    "address3": "",
    "city": "Chicago",
    "state": "IL",
    "zip_code": "60640"
  },
  {
    "venue_id": "EB_27771093",
    "venue_name": "WeWork",
    "latitude": 41.8914215,
    "longitude": -87.6273531,
    "address1": "515 North State Street",
    "address2": "",
    "address3": "",
    "city": "Chicago",
    "state": "IL",
    "zip_code": "60654"
  },
  {
    "venue_id": "EB_14521724",
    "venue_name": "After School Matters Gift Shop",
    "latitude": 41.88482940000001,
    "longitude": -87.62548129999999,
    "address1": "66 East Randolph Street",
    "address2": "",
    "address3": "",
    "city": "Chicago",
    "state": "IL",
    "zip_code": "60601"
  },
  {
    "venue_id": "EB_27380093",
    "venue_name": "Malcolm X College",
    "latitude": 41.8780723,
    "longitude": -87.6748811,
    "address1": "1900 West Jackson Boulevard",
    "address2": "Conference Center",
    "address3": "",
    "city": "Chicago",
    "state": "IL",
    "zip_code": "60612"
  },
  {
    "venue_id": "EB_28106208",
    "venue_name": "Tovala Pop-Up",
    "latitude": 41.9179487,
    "longitude": -87.65237230000002,
    "address1": "939 West Armitage Avenue",
    "address2": "",
    "address3": "",
    "city": "Chicago",
    "state": "IL",
    "zip_code": "60614"
  },
  {
    "venue_id": "EB_26478344",
    "venue_name": "Rivers Restaurant",
    "latitude": 41.88082530000001,
    "longitude": -87.63711519999998,
    "address1": "30 South Wacker Drive",
    "address2": "",
    "address3": "",
    "city": "Chicago",
    "state": "IL",
    "zip_code": "60606"
  },
  {
    "venue_id": "EB_13717429",
    "venue_name": "Maggiano's Little Italy",
    "latitude": 41.8916771,
    "longitude": -87.62751459999998,
    "address1": "516 North Clark Street",
    "address2": "Banquet entrance on Grand Ave.",
    "address3": "",
    "city": "Chicago",
    "state": "IL",
    "zip_code": "60654"
  },
  {
    "venue_id": "EB_27632793",
    "venue_name": "1871",
    "latitude": 41.88838500000001,
    "longitude": -87.6362656,
    "address1": "222 West Merchandise Mart Plaza",
    "address2": "#1212",
    "address3": "",
    "city": "Chicago",
    "state": "IL",
    "zip_code": "60654"
  },
  {
    "venue_id": "EB_27177816",
    "venue_name": "Film Row Cinema",
    "latitude": 41.8690686,
    "longitude": -87.62627350000002,
    "address1": "1104 South Wabash Avenue",
    "address2": "8th Floor",
    "address3": "",
    "city": "Chicago",
    "state": "IL",
    "zip_code": "60605"
  },
  {
    "venue_id": "EB_28148677",
    "venue_name": "Yassa African Restaurant",
    "latitude": 41.8307311,
    "longitude": -87.61668929999996,
    "address1": "3511 South King Drive",
    "address2": "",
    "address3": "",
    "city": "Chicago",
    "state": "IL",
    "zip_code": "60653"
  },
  {
    "venue_id": "EB_27693587",
    "venue_name": "Royal Palms Chicago",
    "latitude": 41.9131866,
    "longitude": -87.6820846,
    "address1": "1750 N Milwaukee Ave",
    "address2": "",
    "address3": "",
    "city": "Chicago",
    "state": "IL",
    "zip_code": "60647"
  },
  {
    "venue_id": "EB_26851680",
    "venue_name": "",
    "latitude": 41.9106721,
    "longitude": -87.652853,
    "address1": "939 W. North Avenue",
    "address2": "Suite 750",
    "address3": "",
    "city": "Chicago",
    "state": "IL",
    "zip_code": "60642"
  },
  {
    "venue_id": "EB_22006880",
    "venue_name": "The Berghoff Restaurant",
    "latitude": 41.87925200000001,
    "longitude": -87.62840599999998,
    "address1": "17 West Adams Street",
    "address2": "",
    "address3": "",
    "city": "Chicago",
    "state": "IL",
    "zip_code": "60603"
  },
  {
    "venue_id": "EB_27729494",
    "venue_name": "Design Center at theMART | 6th Floor Conference Center",
    "latitude": 41.8885186,
    "longitude": -87.6354801,
    "address1": "222 Merchandise Mart Plaza",
    "address2": "6th Floor Conference Center Suite 6-180",
    "address3": "",
    "city": "Chicago",
    "state": "IL",
    "zip_code": "60654"
  },
  {
    "venue_id": "EB_27997926",
    "venue_name": "Norris University Center",
    "latitude": 42.0533603,
    "longitude": -87.67266240000004,
    "address1": "1999 Campus Drive",
    "address2": "Wildcat Room  #101",
    "address3": "",
    "city": "Evanston",
    "state": "IL",
    "zip_code": "60208"
  },
  {
    "venue_id": "EB_28035855",
    "venue_name": "Michigan Plaza",
    "latitude": 41.8860809,
    "longitude": -87.62356549999998,
    "address1": "205 Michigan Avenue",
    "address2": "",
    "address3": "",
    "city": "Chicago",
    "state": "IL",
    "zip_code": "60601"
  },
  {
    "venue_id": "EB_23836496",
    "venue_name": "Stage 18 Chicago",
    "latitude": 41.86055210000001,
    "longitude": -87.6891589,
    "address1": "2558 West 16th Street",
    "address2": "",
    "address3": "",
    "city": "Chicago",
    "state": "IL",
    "zip_code": "60608"
  },
  {
    "venue_id": "EB_23712151",
    "venue_name": "Donnelley Biological Sciences Learning Center (BSLC) Room 008",
    "latitude": 41.79192099999999,
    "longitude": -87.60280769999997,
    "address1": "924 E. 57th Street",
    "address2": "",
    "address3": "",
    "city": "Chicago",
    "state": "IL",
    "zip_code": "60637"
  },
  {
    "venue_id": "EB_27591801",
    "venue_name": "@TEC4950",
    "latitude": 41.901353,
    "longitude": -87.75119689999997,
    "address1": "Bethel New Life, Inc.",
    "address2": "4950 W. Thomas Street",
    "address3": "",
    "city": "Chicago",
    "state": "IL",
    "zip_code": "60651"
  },
  {
    "venue_id": "EB_22648260",
    "venue_name": "Community Programs Accelerator",
    "latitude": 41.7994931,
    "longitude": -87.60625110000001,
    "address1": "5225 S. Cottage Grove Ave",
    "address2": "",
    "address3": "",
    "city": "Chicago",
    "state": "IL",
    "zip_code": "60615"
  },
  {
    "venue_id": "EB_28079974",
    "venue_name": "MakeOffices at the Loop",
    "latitude": 41.8824143,
    "longitude": -87.62724879999996,
    "address1": "1 North State Street",
    "address2": "#1500",
    "address3": "",
    "city": "Chicago",
    "state": "IL",
    "zip_code": "60602"
  },
  {
    "venue_id": "EB_27704734",
    "venue_name": "Google",
    "latitude": 41.887246,
    "longitude": -87.652645,
    "address1": "320 North Morgan Street",
    "address2": "#600",
    "address3": "",
    "city": "Chicago",
    "state": "IL",
    "zip_code": "60607"
  },
  {
    "venue_id": "EB_28078867",
    "venue_name": "The Joseph Regenstein Library",
    "latitude": 41.792279,
    "longitude": -87.59995400000003,
    "address1": "1100 E. 57th St.",
    "address2": "",
    "address3": "",
    "city": "Chicago",
    "state": "IL",
    "zip_code": "60637"
  },
  {
    "venue_id": "EB_26378579",
    "venue_name": "",
    "latitude": 41.7892417,
    "longitude": -87.59749049999999,
    "address1": "Social Sciences Room 122",
    "address2": "",
    "address3": "",
    "city": "",
    "state": "",
    "zip_code": ""
  },
  {
    "venue_id": "EB_26784749",
    "venue_name": "Event Oven Studio in the Fine Arts Building",
    "latitude": 41.8764419,
    "longitude": -87.62469120000003,
    "address1": "410 S Michigan Ave",
    "address2": "STE 404",
    "address3": "",
    "city": "Chicago",
    "state": "IL",
    "zip_code": "60605"
  },
  {
    "venue_id": "EB_27389900",
    "venue_name": "Whiting Public Library",
    "latitude": 41.681643,
    "longitude": -87.493946,
    "address1": "1735 Oliver Street",
    "address2": "",
    "address3": "",
    "city": "Whiting",
    "state": "IN",
    "zip_code": "46394"
  },
  {
    "venue_id": "EB_27299549",
    "venue_name": "The Congress Plaza Hotel & Convention Center",
    "latitude": 41.8751616,
    "longitude": -87.6246539,
    "address1": "520 S Michigan Ave.",
    "address2": "",
    "address3": "",
    "city": "Chicago",
    "state": "IL",
    "zip_code": "60605"
  },
  {
    "venue_id": "EB_27723178",
    "venue_name": "7500 S Pulaski Rd",
    "latitude": 41.7429283,
    "longitude": -87.7123355,
    "address1": "",
    "address2": "Room 1205",
    "address3": "",
    "city": "Chicago",
    "state": "IL",
    "zip_code": "60652"
  },
  {
    "venue_id": "EB_27431720",
    "venue_name": "The Sheldon Patinkin Studio",
    "latitude": 41.8695293,
    "longitude": -87.62506400000001,
    "address1": "72 East 11th Street",
    "address2": "",
    "address3": "",
    "city": "Chicago",
    "state": "IL",
    "zip_code": "60605"
  },
  {
    "venue_id": "EB_27640856",
    "venue_name": "Bookends and Beginnings",
    "latitude": 42.049197,
    "longitude": -87.6820199,
    "address1": "1712 Sherman Ave. Alley #1",
    "address2": "",
    "address3": "",
    "city": "Evanston",
    "state": "IL",
    "zip_code": "60201"
  },
  {
    "venue_id": "EB_23968439",
    "venue_name": "Health Professions Advising Office",
    "latitude": 42.0544,
    "longitude": -87.7456,
    "address1": "1940 Sheridan Road",
    "address2": "1st Floor Conference Room",
    "address3": "",
    "city": "Evanston",
    "state": "IL",
    "zip_code": "60208"
  },
  {
    "venue_id": "EB_20122720",
    "venue_name": "WeWork Kinzie",
    "latitude": 41.88951120000001,
    "longitude": -87.6289433,
    "address1": "20 West Kinzie Street",
    "address2": "",
    "address3": "",
    "city": "Chicago",
    "state": "IL",
    "zip_code": "60654"
  },
  {
    "venue_id": "EB_22491276",
    "venue_name": "Theater on the Lake",
    "latitude": 41.9270782,
    "longitude": -87.63063349999999,
    "address1": "2401 North Lake Shore Drive",
    "address2": "",
    "address3": "",
    "city": "Chicago",
    "state": "IL",
    "zip_code": "60614"
  },
  {
    "venue_id": "EB_28057591",
    "venue_name": "NEXT/NOW",
    "latitude": 41.8857519,
    "longitude": -87.65700300000003,
    "address1": "1200 West Lake Street",
    "address2": "",
    "address3": "",
    "city": "Chicago",
    "state": "IL",
    "zip_code": "60607"
  },
  {
    "venue_id": "EB_27914916",
    "venue_name": "Evanston Rocks",
    "latitude": 42.0482244,
    "longitude": -87.68596969999999,
    "address1": "Bourbon 'N Brass Speakeasy",
    "address2": "1012 Church Street",
    "address3": "",
    "city": "Evanston",
    "state": "IL",
    "zip_code": "60201"
  },
  {
    "venue_id": "EB_28080068",
    "venue_name": "SoulCycle LOOP - The Loop",
    "latitude": 41.8867157,
    "longitude": -87.63158800000002,
    "address1": "111 West Wacker Drive",
    "address2": "",
    "address3": "",
    "city": "Chicago",
    "state": "IL",
    "zip_code": "60601"
  },
  {
    "venue_id": "EB_27059092",
    "venue_name": "Wieboldt Hall",
    "latitude": 41.7805099,
    "longitude": -87.60382600000003,
    "address1": "Room 310",
    "address2": "",
    "address3": "",
    "city": "Chicago",
    "state": "IL",
    "zip_code": "60637"
  },
  {
    "venue_id": "EB_11247107",
    "venue_name": "MATTER",
    "latitude": 41.8882441,
    "longitude": -87.63538790000001,
    "address1": "222 Merchandise Mart Plaza",
    "address2": "Suite 1230",
    "address3": "",
    "city": "Chicago",
    "state": "IL",
    "zip_code": "60654"
  },
  {
    "venue_id": "EB_27998987",
    "venue_name": "Bluemercury State & Elm",
    "latitude": 41.9034633,
    "longitude": -87.62839580000002,
    "address1": "1153 North State St. ",
    "address2": "",
    "address3": "",
    "city": "Chicago",
    "state": "IL",
    "zip_code": "60610"
  },
  {
    "venue_id": "EB_27241750",
    "venue_name": "Malcolm X College",
    "latitude": 41.87780739999999,
    "longitude": -87.6745252,
    "address1": "1900 W. Jackson Boulevard",
    "address2": "Conference Hall | Room 1108",
    "address3": "",
    "city": "Chicago",
    "state": "IL",
    "zip_code": "60612"
  },
  {
    "venue_id": "EB_26787125",
    "venue_name": "MakeOffices at River North",
    "latitude": 41.8887576,
    "longitude": -87.63730029999999,
    "address1": "350 N Orleans St #9000n",
    "address2": "",
    "address3": "",
    "city": "Chicago",
    "state": "IL",
    "zip_code": "60654"
  },
  {
    "venue_id": "EB_27608869",
    "venue_name": "evolveHer",
    "latitude": 41.8933612,
    "longitude": -87.63812000000001,
    "address1": "358 W. Ontario, 3W",
    "address2": "",
    "address3": "",
    "city": "Chicago",
    "state": "IL",
    "zip_code": "60654"
  },
  {
    "venue_id": "EB_21015749",
    "venue_name": "Space",
    "latitude": 42.04087659999999,
    "longitude": -87.68009649999999,
    "address1": "1245 Chicago Avenue",
    "address2": "",
    "address3": "",
    "city": "Evanston",
    "state": "IL",
    "zip_code": "60202"
  },
  {
    "venue_id": "EB_21662861",
    "venue_name": "Institute of Politics",
    "latitude": 41.7911418,
    "longitude": -87.59609180000001,
    "address1": "5707 S. Woodlawn",
    "address2": "",
    "address3": "",
    "city": "Chicago",
    "state": "IL",
    "zip_code": "60637"
  },
  {
    "venue_id": "EB_22728556",
    "venue_name": "Location Provided After Viewing Our 15 Minute Intro Webinar",
    "latitude": 41.8454456,
    "longitude": -87.6365394,
    "address1": "S Michigan Avenue",
    "address2": "",
    "address3": "",
    "city": "Chicago",
    "state": "IL",
    "zip_code": "60616"
  },
  {
    "venue_id": "EB_20880651",
    "venue_name": "Thalia Hall",
    "latitude": 41.8577,
    "longitude": -87.6572,
    "address1": "1807 South Allport Street",
    "address2": "",
    "address3": "",
    "city": "Chicago",
    "state": "IL",
    "zip_code": "60608"
  },
  {
    "venue_id": "EB_27927730",
    "venue_name": "Early Society",
    "latitude": 41.8865531,
    "longitude": -87.63069740000003,
    "address1": "77 W. Wacker Drive",
    "address2": "(Main entrance is on 221 N. Clark Street)",
    "address3": "",
    "city": "Chicago",
    "state": "IL",
    "zip_code": "60601"
  },
  {
    "venue_id": "EB_21551058",
    "venue_name": "Alhambra Palace Restaurant",
    "latitude": 41.8846134,
    "longitude": -87.65822800000001,
    "address1": "1240 West Randolph Street",
    "address2": "",
    "address3": "",
    "city": "Chicago",
    "state": "IL",
    "zip_code": "60607"
  },
  {
    "venue_id": "EB_24660265",
    "venue_name": "Henry Crown Sports Pavilion",
    "latitude": 42.0594633,
    "longitude": -87.672687,
    "address1": " 2311 Campus Drive  ",
    "address2": "Studio 2 ",
    "address3": "",
    "city": "Evanston",
    "state": "IL",
    "zip_code": "60208"
  },
  {
    "venue_id": "EB_26456720",
    "venue_name": "The Metropolitan",
    "latitude": 41.87887610000001,
    "longitude": -87.63591500000001,
    "address1": "233 South Wacker Drive,  67th floor",
    "address2": "",
    "address3": "",
    "city": "Chicago",
    "state": "IL",
    "zip_code": "60606"
  },
  {
    "venue_id": "EB_27914140",
    "venue_name": "Fat Cat Restaurant & Bar",
    "latitude": 41.970098,
    "longitude": -87.65993730000002,
    "address1": "4840 North Broadway",
    "address2": "",
    "address3": "",
    "city": "Chicago",
    "state": "IL",
    "zip_code": "60640"
  },
  {
    "venue_id": "EB_27771093",
    "venue_name": "WeWork",
    "latitude": 41.8914215,
    "longitude": -87.6273531,
    "address1": "515 North State Street",
    "address2": "",
    "address3": "",
    "city": "Chicago",
    "state": "IL",
    "zip_code": "60654"
  },
  {
    "venue_id": "EB_14521724",
    "venue_name": "After School Matters Gift Shop",
    "latitude": 41.88482940000001,
    "longitude": -87.62548129999999,
    "address1": "66 East Randolph Street",
    "address2": "",
    "address3": "",
    "city": "Chicago",
    "state": "IL",
    "zip_code": "60601"
  },
  {
    "venue_id": "EB_27380093",
    "venue_name": "Malcolm X College",
    "latitude": 41.8780723,
    "longitude": -87.6748811,
    "address1": "1900 West Jackson Boulevard",
    "address2": "Conference Center",
    "address3": "",
    "city": "Chicago",
    "state": "IL",
    "zip_code": "60612"
  },
  {
    "venue_id": "EB_28106208",
    "venue_name": "Tovala Pop-Up",
    "latitude": 41.9179487,
    "longitude": -87.65237230000002,
    "address1": "939 West Armitage Avenue",
    "address2": "",
    "address3": "",
    "city": "Chicago",
    "state": "IL",
    "zip_code": "60614"
  },
  {
    "venue_id": "EB_26478344",
    "venue_name": "Rivers Restaurant",
    "latitude": 41.88082530000001,
    "longitude": -87.63711519999998,
    "address1": "30 South Wacker Drive",
    "address2": "",
    "address3": "",
    "city": "Chicago",
    "state": "IL",
    "zip_code": "60606"
  },
  {
    "venue_id": "EB_13717429",
    "venue_name": "Maggiano's Little Italy",
    "latitude": 41.8916771,
    "longitude": -87.62751459999998,
    "address1": "516 North Clark Street",
    "address2": "Banquet entrance on Grand Ave.",
    "address3": "",
    "city": "Chicago",
    "state": "IL",
    "zip_code": "60654"
  },
  {
    "venue_id": "EB_27632793",
    "venue_name": "1871",
    "latitude": 41.88838500000001,
    "longitude": -87.6362656,
    "address1": "222 West Merchandise Mart Plaza",
    "address2": "#1212",
    "address3": "",
    "city": "Chicago",
    "state": "IL",
    "zip_code": "60654"
  },
  {
    "venue_id": "EB_27583526",
    "venue_name": "111 W Illinois St",
    "latitude": 41.8905963,
    "longitude": -87.63167179999999,
    "address1": "111 West Illinois Street",
    "address2": "",
    "address3": "",
    "city": "Chicago",
    "state": "IL",
    "zip_code": "60654"
  },
  {
    "venue_id": "EB_21473298",
    "venue_name": "Select Cut Steak House",
    "latitude": 41.93307149999999,
    "longitude": -87.64927599999999,
    "address1": "2808 North Halsted Street",
    "address2": "",
    "address3": "",
    "city": "Chicago",
    "state": "IL",
    "zip_code": "60657"
  },
  {
    "venue_id": "EB_23259835",
    "venue_name": "South Loop, Chicago- Please Register Online",
    "latitude": 41.8460691,
    "longitude": -87.62364339999999,
    "address1": "S Michigan Avenue",
    "address2": "",
    "address3": "",
    "city": "Chicago",
    "state": "IL",
    "zip_code": "60616"
  },
  {
    "venue_id": "EB_18927711",
    "venue_name": "iMentor office",
    "latitude": 41.8773145,
    "longitude": -87.6248258,
    "address1": "332 S. Michigan Ave",
    "address2": "9th Floor",
    "address3": "",
    "city": "Chicago",
    "state": "IL",
    "zip_code": "60604"
  },
  {
    "venue_id": "EB_27520016",
    "venue_name": "Brewpoint Coffee - Workshop & Roastery",
    "latitude": 41.91708209999999,
    "longitude": -87.93922020000002,
    "address1": "617 North York Street",
    "address2": "",
    "address3": "",
    "city": "Elmhurst",
    "state": "IL",
    "zip_code": "60126"
  },
  {
    "venue_id": "EB_24069583",
    "venue_name": "521 S Dearborn St",
    "latitude": 41.8752335,
    "longitude": -87.6289845,
    "address1": "521 South Dearborn Street",
    "address2": "",
    "address3": "",
    "city": "Chicago",
    "state": "IL",
    "zip_code": "60605"
  },
  {
    "venue_id": "EB_23090063",
    "venue_name": "Chicago Connectory",
    "latitude": 41.8885198,
    "longitude": -87.63544819999998,
    "address1": "222 West Merchandise Mart Plaza",
    "address2": "#570",
    "address3": "",
    "city": "Chicago",
    "state": "IL",
    "zip_code": "60654"
  },
  {
    "venue_id": "EB_25479104",
    "venue_name": "counseling speaks",
    "latitude": 41.884862,
    "longitude": -87.62407380000002,
    "address1": "155 North Michigan Ave",
    "address2": "7th Floor Conference Room",
    "address3": "",
    "city": "Chicago",
    "state": "IL",
    "zip_code": "60601"
  },
  {
    "venue_id": "EB_24884852",
    "venue_name": "Laugh Factory",
    "latitude": 41.93973400000001,
    "longitude": -87.64403319999997,
    "address1": "3175 North Broadway",
    "address2": "",
    "address3": "",
    "city": "Chicago",
    "state": "IL",
    "zip_code": "60657"
  },
  {
    "venue_id": "EB_28143808",
    "venue_name": "Paper Source",
    "latitude": 41.88840479999999,
    "longitude": -87.80295919999998,
    "address1": "1109 Lake Street",
    "address2": "",
    "address3": "",
    "city": "Oak Park",
    "state": "IL",
    "zip_code": "60301"
  },
  {
    "venue_id": "EB_22408764",
    "venue_name": "Room 13 at the Old Chicago Inn",
    "latitude": 41.9406428,
    "longitude": -87.65436890000001,
    "address1": "3222 N Sheffield Ave",
    "address2": "",
    "address3": "",
    "city": "Chicago",
    "state": "IL",
    "zip_code": "60657"
  },
  {
    "venue_id": "EB_27320274",
    "venue_name": "Tonic Room",
    "latitude": 41.9268556,
    "longitude": -87.6485654,
    "address1": "2447 N. Halsted",
    "address2": "",
    "address3": "",
    "city": "Chicago",
    "state": "IL",
    "zip_code": "60614"
  },
  {
    "venue_id": "EB_28051074",
    "venue_name": "",
    "latitude": 41.93513060000001,
    "longitude": -87.66264039999999,
    "address1": "2940 North Lincoln Avenue",
    "address2": "",
    "address3": "",
    "city": "Chicago",
    "state": "IL",
    "zip_code": "60657"
  },
  {
    "venue_id": "EB_25998226",
    "venue_name": "Mr. Brown's Lounge",
    "latitude": 41.8955118,
    "longitude": -87.68455840000001,
    "address1": "2301 W.Chicago ",
    "address2": "",
    "address3": "",
    "city": "Chicago",
    "state": "IL",
    "zip_code": "60622"
  },
  {
    "venue_id": "EB_27671183",
    "venue_name": "Unity of Oak Park",
    "latitude": 41.8933626,
    "longitude": -87.7932791,
    "address1": "405 N Euclid",
    "address2": "",
    "address3": "",
    "city": "Oak Park",
    "state": "IL",
    "zip_code": "60302"
  },
  {
    "venue_id": "EB_27880039",
    "venue_name": "Celeste",
    "latitude": 41.88979210000001,
    "longitude": -87.6316395,
    "address1": "111 West Hubbard Street",
    "address2": "",
    "address3": "",
    "city": "Chicago",
    "state": "IL",
    "zip_code": "60654"
  },
  {
    "venue_id": "EB_23558579",
    "venue_name": "Corner 52",
    "latitude": 41.8011575,
    "longitude": -87.5900739,
    "address1": "1438 East 52nd Street",
    "address2": "",
    "address3": "",
    "city": "Chicago",
    "state": "IL",
    "zip_code": "60615"
  },
  {
    "venue_id": "EB_24400688",
    "venue_name": "Online at bit.ly/ecwcst",
    "latitude": 41.8781136,
    "longitude": -87.62979819999998,
    "address1": "",
    "address2": "",
    "address3": "",
    "city": "Chicago",
    "state": "IL",
    "zip_code": ""
  },
  {
    "venue_id": "EB_21283763",
    "venue_name": "Emporium Logan Square",
    "latitude": 41.924349,
    "longitude": -87.69921769999996,
    "address1": "2363 North Milwaukee Avenue",
    "address2": "",
    "address3": "",
    "city": "Chicago",
    "state": "IL",
    "zip_code": "60647"
  },
  {
    "venue_id": "EB_18684125",
    "venue_name": "Counter Culture Coffee Chicago Training Center",
    "latitude": 41.8852146,
    "longitude": -87.66055289999997,
    "address1": "177 North Ada Street ",
    "address2": "#106",
    "address3": "",
    "city": "Chicago",
    "state": "IL",
    "zip_code": "60607"
  },
  {
    "venue_id": "EB_18200736",
    "venue_name": "StartingPoint Realty",
    "latitude": 41.94032550000001,
    "longitude": -87.67866900000001,
    "address1": "3224 North Damen Avenue",
    "address2": "",
    "address3": "",
    "city": "Chicago",
    "state": "IL",
    "zip_code": "60618"
  },
  {
    "venue_id": "EB_23195886",
    "venue_name": "Mind Body Healing Center",
    "latitude": 41.8829466,
    "longitude": -87.63067620000004,
    "address1": "77 West Washington Street",
    "address2": "#1704",
    "address3": "",
    "city": "Chicago",
    "state": "IL",
    "zip_code": "60602"
  },
  {
    "venue_id": "EB_18182945",
    "venue_name": "Daystar School",
    "latitude": 41.860226,
    "longitude": -87.62823300000002,
    "address1": "1550 South State Street",
    "address2": "",
    "address3": "",
    "city": "Chicago",
    "state": "IL",
    "zip_code": "60605"
  },
  {
    "venue_id": "EB_20882078",
    "venue_name": "The Empty Bottle",
    "latitude": 41.9005,
    "longitude": -87.6866,
    "address1": "1035 North Western Avenue",
    "address2": "",
    "address3": "",
    "city": "Chicago",
    "state": "IL",
    "zip_code": "60622"
  },
  {
    "venue_id": "EB_28098889",
    "venue_name": "2012 N Western Ave",
    "latitude": 41.9180451,
    "longitude": -87.6876767,
    "address1": "2012 North Western Avenue",
    "address2": "",
    "address3": "",
    "city": "Chicago",
    "state": "IL",
    "zip_code": "60647"
  },
  {
    "venue_id": "EB_25769219",
    "venue_name": "MATTER ",
    "latitude": 41.8884096,
    "longitude": -87.6354498,
    "address1": "222 W Merchandise Mart Plaza",
    "address2": "#1230",
    "address3": "",
    "city": "Chicago",
    "state": "IL",
    "zip_code": "60654"
  },
  {
    "venue_id": "EB_25876907",
    "venue_name": "Home Buying Made Easy - The Power Of Negotiation - Webinar",
    "latitude": 41.9003099,
    "longitude": -87.6333871,
    "address1": "",
    "address2": "",
    "address3": "",
    "city": "Chicago",
    "state": "IL",
    "zip_code": "60610"
  },
  {
    "venue_id": "EB_16712642",
    "venue_name": "5940 W Chicago Ave",
    "latitude": 41.8947367,
    "longitude": -87.7738574,
    "address1": "5940 West Chicago Avenue",
    "address2": "",
    "address3": "",
    "city": "Chicago",
    "state": "IL",
    "zip_code": "60651"
  },
  {
    "venue_id": "EB_27656202",
    "venue_name": "The Field School",
    "latitude": 41.8882,
    "longitude": -87.799104,
    "address1": "931 Lake Street",
    "address2": "",
    "address3": "",
    "city": "Oak Park",
    "state": "IL",
    "zip_code": "60301"
  },
  {
    "venue_id": "EB_26151213",
    "venue_name": "Trophy Room",
    "latitude": 41.893215,
    "longitude": -87.63353000000001,
    "address1": "170 West Ontario Street",
    "address2": "",
    "address3": "",
    "city": "Chicago",
    "state": "IL",
    "zip_code": "60654"
  },
  {
    "venue_id": "EB_24468609",
    "venue_name": "HiFi Personal Fitness",
    "latitude": 41.8972381,
    "longitude": -87.63738160000003,
    "address1": "820 North Orleans Street",
    "address2": "## 110",
    "address3": "",
    "city": "Chicago",
    "state": "IL",
    "zip_code": "60610"
  },
  {
    "venue_id": "EB_20279103",
    "venue_name": "1471 S Michigan Ave",
    "latitude": 41.8620747,
    "longitude": -87.62383820000002,
    "address1": "1471 South Michigan Avenue",
    "address2": "",
    "address3": "",
    "city": "Chicago",
    "state": "IL",
    "zip_code": "60605"
  },
  {
    "venue_id": "EB_28136462",
    "venue_name": "CIBC Theatre",
    "latitude": 41.8808689,
    "longitude": -87.6284867,
    "address1": "18 West Monroe Street",
    "address2": "",
    "address3": "",
    "city": "Chicago",
    "state": "IL",
    "zip_code": "60603"
  },
  {
    "venue_id": "EB_27962932",
    "venue_name": "The Godfrey Hotel Chicago",
    "latitude": 41.894594,
    "longitude": -87.63197760000003,
    "address1": "127 West Huron Street",
    "address2": "",
    "address3": "",
    "city": "Chicago",
    "state": "IL",
    "zip_code": "60654"
  },
  {
    "venue_id": "EB_28119964",
    "venue_name": "The Pub",
    "latitude": 41.78807,
    "longitude": -87.59562119999998,
    "address1": "1212 East 59th Street",
    "address2": "",
    "address3": "",
    "city": "Chicago",
    "state": "IL",
    "zip_code": "60637"
  },
  {
    "venue_id": "EB_27984754",
    "venue_name": "Mariella's Banquets Inc",
    "latitude": 41.8869743,
    "longitude": -87.83942309999998,
    "address1": "124 South 5th Avenue",
    "address2": "",
    "address3": "",
    "city": "Maywood",
    "state": "IL",
    "zip_code": "60153"
  },
  {
    "venue_id": "EB_5003846",
    "venue_name": "City Hall",
    "latitude": 41.8839109,
    "longitude": -87.63201200000003,
    "address1": "121 North LaSalle Street",
    "address2": "Room 805",
    "address3": "",
    "city": "Chicago",
    "state": "IL",
    "zip_code": "60602"
  },
  {
    "venue_id": "EB_27537884",
    "venue_name": "White Eagle Events & Convention Center",
    "latitude": 42.00528800000001,
    "longitude": -87.79441399999996,
    "address1": "6839 North Milwaukee Avenue",
    "address2": "",
    "address3": "",
    "city": "Niles",
    "state": "IL",
    "zip_code": "60714"
  },
  {
    "venue_id": "EB_22621258",
    "venue_name": "McCormick & Schmick's Seafood & Steaks",
    "latitude": 41.8866025,
    "longitude": -87.62722529999996,
    "address1": "1 East Upper Wacker Drive",
    "address2": "",
    "address3": "",
    "city": "Chicago",
    "state": "IL",
    "zip_code": "60601"
  },
  {
    "venue_id": "EB_28015401",
    "venue_name": "VER",
    "latitude": 41.804946,
    "longitude": -87.83143799999999,
    "address1": "8401 47th Street",
    "address2": "",
    "address3": "",
    "city": "McCook",
    "state": "IL",
    "zip_code": "60525"
  },
  {
    "venue_id": "EB_26120373",
    "venue_name": "Replay Lincoln Park",
    "latitude": 41.93374480000001,
    "longitude": -87.6536097,
    "address1": "2833 North Sheffield Avenue",
    "address2": "",
    "address3": "",
    "city": "Chicago",
    "state": "IL",
    "zip_code": "60657"
  },
  {
    "venue_id": "EB_27697702",
    "venue_name": "Blue Lacuna",
    "latitude": 41.8532596,
    "longitude": -87.65042189999997,
    "address1": "2150 S CANALPORT AVE",
    "address2": "",
    "address3": "",
    "city": "Chicago",
    "state": "IL",
    "zip_code": "60608"
  },
  {
    "venue_id": "EB_27903414",
    "venue_name": "3855 N Cicero Ave",
    "latitude": 41.9513497,
    "longitude": -87.7468455,
    "address1": "3855 North Cicero Avenue",
    "address2": "",
    "address3": "",
    "city": "Chicago",
    "state": "IL",
    "zip_code": "60641"
  },
  {
    "venue_id": "EB_23753861",
    "venue_name": "Emporium Chicago - Arcade Bar Venue",
    "latitude": 41.9065508,
    "longitude": -87.67172210000001,
    "address1": "1366 North Milwaukee Avenue",
    "address2": "",
    "address3": "",
    "city": "Chicago",
    "state": "IL",
    "zip_code": "60622"
  },
  {
    "venue_id": "EB_27825690",
    "venue_name": "Uncommon Ground (Lakeview)",
    "latitude": 41.95119099999999,
    "longitude": -87.65985999999998,
    "address1": "3800 North Clark Street",
    "address2": "",
    "address3": "",
    "city": "Chicago",
    "state": "IL",
    "zip_code": "60613"
  },
  {
    "venue_id": "EB_21606106",
    "venue_name": "Music Box Theatre",
    "latitude": 41.9498601,
    "longitude": -87.66383410000003,
    "address1": "3733 North Southport Avenue",
    "address2": "",
    "address3": "",
    "city": "Chicago",
    "state": "IL",
    "zip_code": "60613"
  },
  {
    "venue_id": "EB_26745743",
    "venue_name": "724 W Hubbard St",
    "latitude": 41.890291,
    "longitude": -87.6468792,
    "address1": "724 West Hubbard Street",
    "address2": "",
    "address3": "",
    "city": "Chicago",
    "state": "IL",
    "zip_code": "60654"
  },
  {
    "venue_id": "EB_27657384",
    "venue_name": "Quartino Ristorante",
    "latitude": 41.8934453,
    "longitude": -87.6284081,
    "address1": "626 North State Street",
    "address2": "",
    "address3": "",
    "city": "Chicago",
    "state": "IL",
    "zip_code": "60654"
  },
  {
    "venue_id": "EB_27633422",
    "venue_name": "610 S Maple Ave",
    "latitude": 41.87862579999999,
    "longitude": -87.80315159999998,
    "address1": "520 S. Maple Ave",
    "address2": "Suite 2000",
    "address3": "",
    "city": "Oak Park",
    "state": "Illinois",
    "zip_code": "60304"
  },
  {
    "venue_id": "EB_28183694",
    "venue_name": "Swift & Sons",
    "latitude": 41.88684009999999,
    "longitude": -87.65241100000003,
    "address1": "1000 West Fulton Market",
    "address2": "",
    "address3": "",
    "city": "Chicago",
    "state": "IL",
    "zip_code": "60607"
  },
  {
    "venue_id": "EB_22681543",
    "venue_name": "St Thomas the Apostle School",
    "latitude": 41.7959711,
    "longitude": -87.59639709999999,
    "address1": "5467 South Woodlawn Avenue",
    "address2": "",
    "address3": "",
    "city": "Chicago",
    "state": "IL",
    "zip_code": "60615"
  },
  {
    "venue_id": "EB_27757250",
    "venue_name": "8700 S Laflin St",
    "latitude": 41.7355975,
    "longitude": -87.66088400000001,
    "address1": "8700 South Laflin Street",
    "address2": "",
    "address3": "",
    "city": "Chicago",
    "state": "IL",
    "zip_code": "60620"
  },
  {
    "venue_id": "EB_28158023",
    "venue_name": "Bar Louie",
    "latitude": 41.8645882,
    "longitude": -87.64665130000003,
    "address1": "1325 South Halsted Street",
    "address2": "",
    "address3": "",
    "city": "Chicago",
    "state": "IL",
    "zip_code": "60607"
  },
  {
    "venue_id": "EB_25966993",
    "venue_name": "",
    "latitude": 41.8781136,
    "longitude": -87.62979819999998,
    "address1": "Address Will Be Provided After Registration",
    "address2": "",
    "address3": "",
    "city": "Chicago",
    "state": "IL",
    "zip_code": ""
  },
  {
    "venue_id": "EB_26601128",
    "venue_name": "Your Computer",
    "latitude": 41.8925085,
    "longitude": -87.61616959999998,
    "address1": "",
    "address2": "",
    "address3": "",
    "city": "Chiacgo",
    "state": "IL",
    "zip_code": "60611"
  },
  {
    "venue_id": "EB_23811624",
    "venue_name": "Chicago",
    "latitude": 41.8488771,
    "longitude": -87.6233029,
    "address1": "2411 S. Michigan",
    "address2": "",
    "address3": "",
    "city": "Chicago",
    "state": "IL",
    "zip_code": ""
  },
  {
    "venue_id": "EB_19734580",
    "venue_name": "Chicago Center for Arts & Technology",
    "latitude": 41.86496630000001,
    "longitude": -87.66915999999998,
    "address1": "1701 West 13th Street",
    "address2": "",
    "address3": "",
    "city": "Chicago",
    "state": "IL",
    "zip_code": "60608"
  },
  {
    "venue_id": "EB_20938926",
    "venue_name": "Columbia College Chicago",
    "latitude": 41.8742305,
    "longitude": -87.62479059999998,
    "address1": "600 South Michigan Avenue",
    "address2": "Room 1305",
    "address3": "",
    "city": "Chicago",
    "state": "IL",
    "zip_code": "60605"
  },
  {
    "venue_id": "EB_25479104",
    "venue_name": "counseling speaks",
    "latitude": 41.884862,
    "longitude": -87.62407380000002,
    "address1": "155 North Michigan Ave",
    "address2": "7th Floor Conference Room",
    "address3": "",
    "city": "Chicago",
    "state": "IL",
    "zip_code": "60601"
  },
  {
    "venue_id": "EB_9553519",
    "venue_name": "Howard Driving School",
    "latitude": 41.8797055,
    "longitude": -87.78277300000002,
    "address1": "315 Madison St",
    "address2": "",
    "address3": "",
    "city": "Oak Park",
    "state": "IL",
    "zip_code": "60302"
  },
  {
    "venue_id": "EB_13058261",
    "venue_name": "Extreme Toastmasters",
    "latitude": 41.898058,
    "longitude": -87.631674,
    "address1": "100 W Chestnut Street",
    "address2": "",
    "address3": "",
    "city": "Chicago",
    "state": "IL",
    "zip_code": "60610"
  },
  {
    "venue_id": "EB_26721703",
    "venue_name": "Barnes & Noble - DePaul - Loop",
    "latitude": 41.8777442,
    "longitude": -87.62723030000001,
    "address1": "1 East Jackson Boulevard",
    "address2": "",
    "address3": "",
    "city": "Chicago",
    "state": "IL",
    "zip_code": "60604"
  },
  {
    "venue_id": "EB_13675259",
    "venue_name": "2112",
    "latitude": 41.9583542,
    "longitude": -87.74412710000001,
    "address1": "4245 North Knox Avenue",
    "address2": "",
    "address3": "",
    "city": "Chicago",
    "state": "IL",
    "zip_code": "60641"
  },
  {
    "venue_id": "EB_25960413",
    "venue_name": "2340 E 75th St",
    "latitude": 41.7591839,
    "longitude": -87.56718060000003,
    "address1": "2340 East 75th Street",
    "address2": "",
    "address3": "",
    "city": "Chicago",
    "state": "IL",
    "zip_code": "60649"
  },
  {
    "venue_id": "EB_28019689",
    "venue_name": "Momentum Performing Arts",
    "latitude": 42.041172,
    "longitude": -87.77216709999999,
    "address1": "5810 Dempster Street",
    "address2": "",
    "address3": "",
    "city": "Morton Grove",
    "state": "IL",
    "zip_code": "60053"
  },
  {
    "venue_id": "EB_5344887",
    "venue_name": "Westin Chicago River North Hotel",
    "latitude": 41.8882381,
    "longitude": -87.62987020000003,
    "address1": "320 N Dearborn St",
    "address2": "",
    "address3": "",
    "city": "Chicago",
    "state": "IL",
    "zip_code": "60654"
  },
  {
    "venue_id": "EB_18952329",
    "venue_name": "Chicago IL",
    "latitude": 41.8781136,
    "longitude": -87.62979819999998,
    "address1": "Chicago IL",
    "address2": "",
    "address3": "",
    "city": "Chicago IL",
    "state": "IL",
    "zip_code": ""
  },
  {
    "venue_id": "EB_25933016",
    "venue_name": "Marquette Building",
    "latitude": 41.8797986,
    "longitude": -87.62955099999999,
    "address1": "140 S Dearborn St",
    "address2": "",
    "address3": "",
    "city": "Chicago",
    "state": "IL",
    "zip_code": "60603"
  },
  {
    "venue_id": "EB_21683696",
    "venue_name": "GT Fish & Oyster and GT Prime",
    "latitude": 41.8929153,
    "longitude": -87.63591250000002,
    "address1": "",
    "address2": "",
    "address3": "",
    "city": "Chicago",
    "state": "IL",
    "zip_code": "60654"
  },
  {
    "venue_id": "EB_27537368",
    "venue_name": "City Lit Theater",
    "latitude": 41.9838916,
    "longitude": -87.65631259999998,
    "address1": "1020 W. Bryn Mawr Ave.",
    "address2": "",
    "address3": "",
    "city": "Chicago",
    "state": "IL",
    "zip_code": "60660"
  },
  {
    "venue_id": "EB_25842698",
    "venue_name": "",
    "latitude": 41.8829298,
    "longitude": -87.63003079999999,
    "address1": "Exact location will be provided after registration",
    "address2": "",
    "address3": "",
    "city": "Chicago",
    "state": "IL",
    "zip_code": "60616"
  },
  {
    "venue_id": "EB_24602377",
    "venue_name": "online",
    "latitude": 41.879211,
    "longitude": -87.62484999999998,
    "address1": "200 S Michigan Ave",
    "address2": "",
    "address3": "",
    "city": "chicago",
    "state": "IL",
    "zip_code": "60604"
  },
  {
    "venue_id": "EB_23910273",
    "venue_name": "Chicago-Address will be provided after registration",
    "latitude": 41.8781136,
    "longitude": -87.62979819999998,
    "address1": "",
    "address2": "",
    "address3": "",
    "city": "Chicago",
    "state": "IL",
    "zip_code": ""
  },
  {
    "venue_id": "EB_27350906",
    "venue_name": "S Loop \"SLoop\"",
    "latitude": 41.8426866,
    "longitude": -87.62332520000001,
    "address1": "South Michigan Avenue",
    "address2": "Address Given via Text Mess After You Register",
    "address3": "",
    "city": "Chicago",
    "state": "IL",
    "zip_code": "60616"
  },
  {
    "venue_id": "EB_28158471",
    "venue_name": "A'Vents by August ~ Hyde Park Studio",
    "latitude": 41.8003921,
    "longitude": -87.60382600000003,
    "address1": "",
    "address2": "",
    "address3": "",
    "city": "Chicago",
    "state": "IL",
    "zip_code": "60615"
  },
  {
    "venue_id": "EB_27602025",
    "venue_name": "Row 24 Chicago",
    "latitude": 41.84891700000001,
    "longitude": -87.623313,
    "address1": "2411 South Michigan Avenue",
    "address2": "",
    "address3": "",
    "city": "Chicago",
    "state": "IL",
    "zip_code": "60616"
  },
  {
    "venue_id": "EB_27543324",
    "venue_name": "",
    "latitude": 41.8781136,
    "longitude": -87.62979819999998,
    "address1": "",
    "address2": "",
    "address3": "",
    "city": "Chicago",
    "state": "IL",
    "zip_code": ""
  },
  {
    "venue_id": "EB_25204475",
    "venue_name": "Cicero Public Library",
    "latitude": 41.8507602,
    "longitude": -87.75558260000003,
    "address1": "5225 West Cermak Road",
    "address2": "",
    "address3": "",
    "city": "Cicero",
    "state": "IL",
    "zip_code": "60804"
  },
  {
    "venue_id": "EB_26600422",
    "venue_name": "Exact Location Provided upon registration",
    "latitude": 41.8403395,
    "longitude": -87.61370110000001,
    "address1": "",
    "address2": "",
    "address3": "",
    "city": "Chicago",
    "state": "IL",
    "zip_code": "60616"
  },
  {
    "venue_id": "EB_25824266",
    "venue_name": "Roots Family Chiropractic",
    "latitude": 41.93150199999999,
    "longitude": -87.65773000000002,
    "address1": "2744 North Lincoln Avenue",
    "address2": "",
    "address3": "",
    "city": "Chicago",
    "state": "IL",
    "zip_code": "60614"
  },
  {
    "venue_id": "EB_25556342",
    "venue_name": "921 S Loomis St",
    "latitude": 41.8696375,
    "longitude": -87.66151430000002,
    "address1": "921 South Loomis Street",
    "address2": "",
    "address3": "",
    "city": "Chicago",
    "state": "IL",
    "zip_code": "60607"
  },
  {
    "venue_id": "EB_22668035",
    "venue_name": "St. Thomas the Apostle School",
    "latitude": 41.7960341,
    "longitude": -87.59644220000001,
    "address1": "5467 South Woodlawn Avenue",
    "address2": "",
    "address3": "",
    "city": "Chicago",
    "state": "IL",
    "zip_code": "60615"
  },
  {
    "venue_id": "EB_25172987",
    "venue_name": "Ideal Wellness Centers",
    "latitude": 41.8468552,
    "longitude": -87.90529409999999,
    "address1": "1 Westbrook Corporate Center",
    "address2": "#300",
    "address3": "",
    "city": "Westchester",
    "state": "IL",
    "zip_code": "60154"
  },
  {
    "venue_id": "EB_27619785",
    "venue_name": "Ideal Wellness Centers",
    "latitude": 41.8468552,
    "longitude": -87.90529409999999,
    "address1": "1 Westbrook Corporate Center",
    "address2": "#535",
    "address3": "",
    "city": "Westchester",
    "state": "IL",
    "zip_code": "60154"
  },
  {
    "venue_id": "EB_28121070",
    "venue_name": "The Irish Oak",
    "latitude": 41.946047,
    "longitude": -87.65520629999997,
    "address1": "3511 North Clark Street",
    "address2": "",
    "address3": "",
    "city": "Chicago",
    "state": "IL",
    "zip_code": "60657"
  },
  {
    "venue_id": "EB_22369772",
    "venue_name": "REAL ESTATE INVESTOR BUSINESS ORIENTATION",
    "latitude": 41.8337369,
    "longitude": -87.6262408,
    "address1": "Address Sent By Email Upon Registration",
    "address2": "",
    "address3": "",
    "city": "Chicago",
    "state": "IL",
    "zip_code": "60606"
  },
  {
    "venue_id": "EB_23719666",
    "venue_name": "Chicago,IL",
    "latitude": 41.8781136,
    "longitude": -87.62979819999998,
    "address1": "",
    "address2": "",
    "address3": "",
    "city": "Chicago,IL",
    "state": "Chicago,IL",
    "zip_code": ""
  },
  {
    "venue_id": "EB_25555406",
    "venue_name": "2747 W Cermak Rd",
    "latitude": 41.85168619999999,
    "longitude": -87.69487449999997,
    "address1": "2747 West Cermak Road",
    "address2": "",
    "address3": "",
    "city": "Chicago",
    "state": "IL",
    "zip_code": "60608"
  },
  {
    "venue_id": "EB_13195859",
    "venue_name": "Inside the main lobby of Congress Plaza Hotel",
    "latitude": 41.875069,
    "longitude": -87.62478499999997,
    "address1": "520 S Michigan Ave",
    "address2": "",
    "address3": "",
    "city": "Chicago,",
    "state": "IL",
    "zip_code": "60605"
  },
  {
    "venue_id": "EB_23237976",
    "venue_name": "",
    "latitude": 41.8403395,
    "longitude": -87.61370110000001,
    "address1": "SOUTH LOOP",
    "address2": "",
    "address3": "",
    "city": "Chicago",
    "state": "",
    "zip_code": "60616"
  },
  {
    "venue_id": "EB_25714364",
    "venue_name": "Chicago",
    "latitude": 41.84891700000001,
    "longitude": -87.623313,
    "address1": "2411 South Michigan Avenue",
    "address2": "Row 24",
    "address3": "",
    "city": "Chicago",
    "state": "IL",
    "zip_code": "60616"
  },
  {
    "venue_id": "EB_25447234",
    "venue_name": "",
    "latitude": 42.0341144,
    "longitude": -87.75911200000002,
    "address1": "Venue will be informed to the Registered Participants",
    "address2": "",
    "address3": "",
    "city": "Chicago",
    "state": "Illinois",
    "zip_code": "60077"
  },
  {
    "venue_id": "EB_24351865",
    "venue_name": "Chicago",
    "latitude": 41.8803304,
    "longitude": -87.62567919999998,
    "address1": " Regus \u2013 Illinois, Chicago \u2013 55 E. Monroe  Address: 55 E Monroe St Suite 3800, Chicago, IL 60603, USA",
    "address2": "",
    "address3": "",
    "city": "Chicago",
    "state": "IL",
    "zip_code": ""
  },
  {
    "venue_id": "EB_23552187",
    "venue_name": "Harry S. Truman College",
    "latitude": 41.9647341,
    "longitude": -87.65896069999997,
    "address1": "1145 West Wilson Avenue",
    "address2": "Room 3426",
    "address3": "",
    "city": "Chicago",
    "state": "IL",
    "zip_code": "60640"
  },
  {
    "venue_id": "EB_27543146",
    "venue_name": "Chicago",
    "latitude": 41.8839927,
    "longitude": -87.61970559999997,
    "address1": "",
    "address2": "",
    "address3": "",
    "city": "Chicago",
    "state": "IL",
    "zip_code": "60601"
  },
  {
    "venue_id": "EB_25314603",
    "venue_name": "Taylor Street Tap",
    "latitude": 41.8695034,
    "longitude": -87.66139629999998,
    "address1": "1358 West Taylor Street",
    "address2": "",
    "address3": "",
    "city": "Chicago",
    "state": "IL",
    "zip_code": "60607"
  },
  {
    "venue_id": "EB_27519257",
    "venue_name": "On you computer",
    "latitude": 41.8781136,
    "longitude": -87.62979819999998,
    "address1": "",
    "address2": "",
    "address3": "",
    "city": "Downers Grove",
    "state": "IL",
    "zip_code": ""
  },
  {
    "venue_id": "EB_26601128",
    "venue_name": "Your Computer",
    "latitude": 41.8925085,
    "longitude": -87.61616959999998,
    "address1": "",
    "address2": "",
    "address3": "",
    "city": "Chiacgo",
    "state": "IL",
    "zip_code": "60611"
  },
  {
    "venue_id": "EB_27890146",
    "venue_name": "La Grange Park Public Library",
    "latitude": 41.8249345,
    "longitude": -87.87124210000002,
    "address1": "555 North La Grange Road",
    "address2": "",
    "address3": "",
    "city": "La Grange Park",
    "state": "IL",
    "zip_code": "60526"
  },
  {
    "venue_id": "EB_27145164",
    "venue_name": "Business Center",
    "latitude": 41.87776059999999,
    "longitude": -87.63224989999998,
    "address1": "141 W. Jackson",
    "address2": "Suite 300A",
    "address3": "",
    "city": "Chicago",
    "state": "IL",
    "zip_code": "60604"
  },
  {
    "venue_id": "EB_27454783",
    "venue_name": "1118 N Ashland Ave",
    "latitude": 41.9021021,
    "longitude": -87.66783199999998,
    "address1": "1118 North Ashland Avenue",
    "address2": "",
    "address3": "",
    "city": "Chicago",
    "state": "IL",
    "zip_code": "60622"
  },
  {
    "venue_id": "EB_25959011",
    "venue_name": "Comprehensive Learning Services",
    "latitude": 41.7938604,
    "longitude": -87.5846305,
    "address1": "1642 East 56th Street",
    "address2": "#110",
    "address3": "",
    "city": "Chicago",
    "state": "IL",
    "zip_code": "60637"
  },
  {
    "venue_id": "EB_27831967",
    "venue_name": "",
    "latitude": 41.8703314,
    "longitude": -87.62357420000001,
    "address1": "",
    "address2": "",
    "address3": "",
    "city": "Chicago",
    "state": "Illinois",
    "zip_code": "60605"
  },
  {
    "venue_id": "EB_27482305",
    "venue_name": "Chicago",
    "latitude": 41.8703314,
    "longitude": -87.62357420000001,
    "address1": "",
    "address2": "",
    "address3": "",
    "city": "Chicago",
    "state": "IL",
    "zip_code": "60605"
  },
  {
    "venue_id": "EB_22067936",
    "venue_name": "departs from | the Art Institute of Chicago lions",
    "latitude": 41.8795483,
    "longitude": -87.62426779999998,
    "address1": "Adams & Michigan",
    "address2": "",
    "address3": "",
    "city": "Chicago",
    "state": "IL",
    "zip_code": "60603"
  },
  {
    "venue_id": "EB_27897951",
    "venue_name": "212 N Sangamon St",
    "latitude": 41.8861776,
    "longitude": -87.6514077,
    "address1": "212 North Sangamon Street",
    "address2": "",
    "address3": "",
    "city": "Chicago",
    "state": "IL",
    "zip_code": "60607"
  },
  {
    "venue_id": "EB_26650728",
    "venue_name": "Business Center",
    "latitude": 41.87776059999999,
    "longitude": -87.63224989999998,
    "address1": "141 W. Jackson",
    "address2": " Suite 300A",
    "address3": "",
    "city": " Chicago",
    "state": "IL",
    "zip_code": "60604"
  },
  {
    "venue_id": "EB_27529477",
    "venue_name": "Chicago",
    "latitude": 41.8781136,
    "longitude": -87.62979819999998,
    "address1": "",
    "address2": "",
    "address3": "",
    "city": "Chicago",
    "state": "IL",
    "zip_code": ""
  },
  {
    "venue_id": "EB_27266378",
    "venue_name": "Suite Spotte CoWorking",
    "latitude": 41.87986069999999,
    "longitude": -87.8089511,
    "address1": "7339 Madison St",
    "address2": "",
    "address3": "",
    "city": "Forest Park",
    "state": "IL",
    "zip_code": "TBD"
  },
  {
    "venue_id": "EB_22459398",
    "venue_name": "Chicago",
    "latitude": 41.8803304,
    "longitude": -87.62567919999998,
    "address1": "Regus \u2013 Illinois, Chicago \u2013 55 E. Monroe  Address: 55 E Monroe St Suite 3800, Chicago, IL 60603, USA",
    "address2": "",
    "address3": "",
    "city": "Chicago",
    "state": "IL",
    "zip_code": ""
  },
  {
    "venue_id": "EB_25842698",
    "venue_name": "",
    "latitude": 41.8829298,
    "longitude": -87.63003079999999,
    "address1": "Exact location will be provided after registration",
    "address2": "",
    "address3": "",
    "city": "Chicago",
    "state": "IL",
    "zip_code": "60616"
  },
  {
    "venue_id": "EB_26256011",
    "venue_name": "Frances Cocktail Lounge",
    "latitude": 41.758237,
    "longitude": -87.61786899999998,
    "address1": "307 East 75th Street",
    "address2": "",
    "address3": "",
    "city": "Chicago",
    "state": "IL",
    "zip_code": "60619"
  },
  {
    "venue_id": "EB_26600422",
    "venue_name": "Exact Location Provided upon registration",
    "latitude": 41.8403395,
    "longitude": -87.61370110000001,
    "address1": "",
    "address2": "",
    "address3": "",
    "city": "Chicago",
    "state": "IL",
    "zip_code": "60616"
  },
  {
    "venue_id": "EB_26524897",
    "venue_name": "GEMINI",
    "latitude": 41.91996799999999,
    "longitude": -87.64086600000002,
    "address1": "2075 North Lincoln Avenue",
    "address2": "",
    "address3": "",
    "city": "Chicago",
    "state": "IL",
    "zip_code": "60614"
  },
  {
    "venue_id": "EB_27564556",
    "venue_name": "The Comedy Bar ",
    "latitude": 41.8908018,
    "longitude": -87.63268690000001,
    "address1": "500 N LaSalle St",
    "address2": "",
    "address3": "",
    "city": "Chicago",
    "state": "IL",
    "zip_code": "60654"
  },
  {
    "venue_id": "EB_24482303",
    "venue_name": "W Chicago - Lakeshore",
    "latitude": 41.89391860000001,
    "longitude": -87.61536610000002,
    "address1": "644 North Lake Shore Drive",
    "address2": "",
    "address3": "",
    "city": "Chicago",
    "state": "IL",
    "zip_code": "60611"
  },
  {
    "venue_id": "EB_27036822",
    "venue_name": "Rebuilding Exchange",
    "latitude": 41.921661,
    "longitude": -87.67147799999998,
    "address1": "1740 West Webster Avenue",
    "address2": "",
    "address3": "",
    "city": "Chicago",
    "state": "IL",
    "zip_code": "60614"
  },
  {
    "venue_id": "EB_26699574",
    "venue_name": "39 W 47th St",
    "latitude": 41.8087925,
    "longitude": -87.62820970000001,
    "address1": "39 West 47th Street",
    "address2": "",
    "address3": "",
    "city": "Chicago",
    "state": "IL",
    "zip_code": "60609"
  },
  {
    "venue_id": "EB_27915645",
    "venue_name": "",
    "latitude": 41.8455877,
    "longitude": -87.7539448,
    "address1": "",
    "address2": "",
    "address3": "",
    "city": "Cicero",
    "state": "Illinois",
    "zip_code": ""
  },
  {
    "venue_id": "EB_27971409",
    "venue_name": "Chicago",
    "latitude": 41.8781136,
    "longitude": -87.62979819999998,
    "address1": "",
    "address2": "",
    "address3": "",
    "city": "Chicago",
    "state": "IL",
    "zip_code": ""
  },
  {
    "venue_id": "EB_26631058",
    "venue_name": "",
    "latitude": 41.8512195,
    "longitude": -87.6170282,
    "address1": "Full address given upon registration",
    "address2": "",
    "address3": "",
    "city": "Chicago",
    "state": "IL",
    "zip_code": "60616"
  },
  {
    "venue_id": "EB_26891832",
    "venue_name": "Your Computer",
    "latitude": 41.8781136,
    "longitude": -87.62979819999998,
    "address1": "",
    "address2": "",
    "address3": "",
    "city": "Chicago",
    "state": "IL",
    "zip_code": ""
  },
  {
    "venue_id": "EB_27562364",
    "venue_name": "test",
    "latitude": 41.8781136,
    "longitude": -87.62979819999998,
    "address1": "1325 W Wilson Ave",
    "address2": "",
    "address3": "",
    "city": "Chicago",
    "state": "Illinois",
    "zip_code": "60640"
  },
  {
    "venue_id": "EB_26166479",
    "venue_name": "Chicago",
    "latitude": 41.8781136,
    "longitude": -87.62979819999998,
    "address1": "",
    "address2": "",
    "address3": "",
    "city": "Chicago",
    "state": "IL",
    "zip_code": ""
  },
  {
    "venue_id": "EB_25547980",
    "venue_name": "Venue at Elbo Room",
    "latitude": 41.9342015,
    "longitude": -87.6607525,
    "address1": "2871 N Lincoln Ave",
    "address2": "",
    "address3": "",
    "city": "Chicago",
    "state": "IL",
    "zip_code": "60657"
  },
  {
    "venue_id": "EB_27488477",
    "venue_name": "On you computer",
    "latitude": 41.8781136,
    "longitude": -87.62979819999998,
    "address1": "",
    "address2": "",
    "address3": "",
    "city": "Chicago",
    "state": "IL",
    "zip_code": ""
  },
  {
    "venue_id": "EB_25872091",
    "venue_name": "Ace Hotel",
    "latitude": 41.8733696,
    "longitude": -87.650714,
    "address1": "",
    "address2": "",
    "address3": "",
    "city": "Chicago",
    "state": "Illinois",
    "zip_code": "60607"
  },
  {
    "venue_id": "EB_27773157",
    "venue_name": "Murphy's Lounge",
    "latitude": 41.7559324,
    "longitude": -87.6056016,
    "address1": "7628 South Cottage Grove Avenue",
    "address2": "",
    "address3": "",
    "city": "Chicago",
    "state": "IL",
    "zip_code": "60619"
  },
  {
    "venue_id": "EB_27303221",
    "venue_name": "ROW 24",
    "latitude": 41.8488589,
    "longitude": -87.62328500000001,
    "address1": "2411 S Michigan Ave",
    "address2": "",
    "address3": "",
    "city": "CHICAGO",
    "state": "IL",
    "zip_code": "60616"
  },
  {
    "venue_id": "EB_27685584",
    "venue_name": "City View Loft",
    "latitude": 41.88786500000001,
    "longitude": -87.68259,
    "address1": "324 North Leavitt Street",
    "address2": "#200",
    "address3": "",
    "city": "Chicago",
    "state": "IL",
    "zip_code": "60612"
  },
  {
    "venue_id": "EB_27782024",
    "venue_name": "",
    "latitude": 41.8703314,
    "longitude": -87.62357420000001,
    "address1": "",
    "address2": "",
    "address3": "",
    "city": "Chicago",
    "state": "IL",
    "zip_code": "60605"
  },
  {
    "venue_id": "EB_25242852",
    "venue_name": "Bracket Room",
    "latitude": 41.864916,
    "longitude": -87.64655199999999,
    "address1": "1315 South Halsted Street",
    "address2": "",
    "address3": "",
    "city": "Chicago",
    "state": "IL",
    "zip_code": "60607"
  },
  {
    "venue_id": "EB_27521484",
    "venue_name": "On you computer",
    "latitude": 41.8781136,
    "longitude": -87.62979819999998,
    "address1": "",
    "address2": "",
    "address3": "",
    "city": "south loop",
    "state": "IL",
    "zip_code": ""
  },
  {
    "venue_id": "EB_27180756",
    "venue_name": "",
    "latitude": 41.9139,
    "longitude": -87.6773,
    "address1": "RSVP",
    "address2": "",
    "address3": "",
    "city": "",
    "state": "",
    "zip_code": ""
  },
  {
    "venue_id": "EB_27050097",
    "venue_name": "Conference Call Only 470-200-0080 Code:630450",
    "latitude": 41.8781136,
    "longitude": -87.62979819999998,
    "address1": "",
    "address2": "",
    "address3": "",
    "city": "Chicago",
    "state": "IL",
    "zip_code": ""
  },
  {
    "venue_id": "EB_21652104",
    "venue_name": "Wise Owl Drinkery & Cookhouse",
    "latitude": 41.8770262,
    "longitude": -87.65718179999999,
    "address1": "324 South Racine Avenue",
    "address2": "",
    "address3": "",
    "city": "Chicago, IL",
    "state": "IL",
    "zip_code": "60607"
  },
  {
    "venue_id": "EB_27634606",
    "venue_name": "Chicago",
    "latitude": 41.8781136,
    "longitude": -87.62979819999998,
    "address1": "",
    "address2": "",
    "address3": "",
    "city": "Chicago",
    "state": "IL",
    "zip_code": ""
  },
  {
    "venue_id": "EB_25547988",
    "venue_name": "Lounge at Elbo Room",
    "latitude": 41.9342015,
    "longitude": -87.6607525,
    "address1": "2871 N Lincoln Ave",
    "address2": "",
    "address3": "",
    "city": "Chicago",
    "state": "IL",
    "zip_code": "60657"
  },
  {
    "venue_id": "EB_27521434",
    "venue_name": "On you computer",
    "latitude": 41.8781136,
    "longitude": -87.62979819999998,
    "address1": "",
    "address2": "",
    "address3": "",
    "city": "lake in the hills",
    "state": "IL",
    "zip_code": ""
  },
  {
    "venue_id": "EB_28131252",
    "venue_name": "On your Computer",
    "latitude": 41.8781136,
    "longitude": -87.62979819999998,
    "address1": "",
    "address2": "",
    "address3": "",
    "city": "Chicago",
    "state": "IL",
    "zip_code": ""
  },
  {
    "venue_id": "EB_27359978",
    "venue_name": "Chicago",
    "latitude": 41.8781136,
    "longitude": -87.62979819999998,
    "address1": "Online Event",
    "address2": "",
    "address3": "",
    "city": "Chicago",
    "state": "Illinois",
    "zip_code": ""
  },
  {
    "venue_id": "EB_28019689",
    "venue_name": "Momentum Performing Arts",
    "latitude": 42.041172,
    "longitude": -87.77216709999999,
    "address1": "5810 Dempster Street",
    "address2": "",
    "address3": "",
    "city": "Morton Grove",
    "state": "IL",
    "zip_code": "60053"
  },
  {
    "venue_id": "EB_28169272",
    "venue_name": "Chicago Online",
    "latitude": 41.7246539,
    "longitude": -87.54947449999997,
    "address1": "",
    "address2": "",
    "address3": "",
    "city": "Chicago",
    "state": "IL",
    "zip_code": "60617"
  },
  {
    "venue_id": "EB_28173543",
    "venue_name": "Target",
    "latitude": 41.87718229999999,
    "longitude": -87.65517,
    "address1": "1101 West Jackson Boulevard",
    "address2": "",
    "address3": "",
    "city": "Chicago",
    "state": "IL",
    "zip_code": "60607"
  },
  {
    "venue_id": "EB_24063202",
    "venue_name": "Sip & Paint",
    "latitude": 41.96102020000001,
    "longitude": -87.75511519999998,
    "address1": "4412 North Milwaukee Avenue",
    "address2": "",
    "address3": "",
    "city": "Chicago",
    "state": "IL",
    "zip_code": "60630"
  },
  {
    "venue_id": "EB_28146389",
    "venue_name": "",
    "latitude": 41.9825,
    "longitude": -87.8421,
    "address1": "Various Locations - See Description for Address",
    "address2": "",
    "address3": "",
    "city": "",
    "state": "",
    "zip_code": ""
  },
  {
    "venue_id": "EB_25400503",
    "venue_name": "Universal Wellness Source of Lakeview",
    "latitude": 41.9425828,
    "longitude": -87.64964279999998,
    "address1": "3324 North Halsted Street",
    "address2": "",
    "address3": "",
    "city": "Chicago",
    "state": "IL",
    "zip_code": "60657"
  },
  {
    "venue_id": "EB_28160011",
    "venue_name": "On your Computer",
    "latitude": 41.8781136,
    "longitude": -87.62979819999998,
    "address1": "",
    "address2": "",
    "address3": "",
    "city": "Chicago",
    "state": "IL",
    "zip_code": ""
  },
  {
    "venue_id": "EB_28005439",
    "venue_name": "Sweet Sprigs Test Kitchen, West Loop",
    "latitude": 41.8850592,
    "longitude": -87.64371589999996,
    "address1": "165 N Desplaines Street",
    "address2": "",
    "address3": "",
    "city": "Chicago",
    "state": "IL",
    "zip_code": "60661"
  },
  {
    "venue_id": "EB_28157971",
    "venue_name": "Collaborative",
    "latitude": 41.8878735,
    "longitude": -87.70077739999999,
    "address1": "2950 W. Carroll Ave",
    "address2": "",
    "address3": "",
    "city": "Chicago",
    "state": "Illinois",
    "zip_code": "60612"
  },
  {
    "venue_id": "EB_28052748",
    "venue_name": "chicago",
    "latitude": 41.8781136,
    "longitude": -87.62979819999998,
    "address1": "",
    "address2": "",
    "address3": "",
    "city": "chicago",
    "state": "IL",
    "zip_code": ""
  },
  {
    "venue_id": "EB_28131422",
    "venue_name": "On your Computer",
    "latitude": 41.8781136,
    "longitude": -87.62979819999998,
    "address1": "",
    "address2": "",
    "address3": "",
    "city": "Chicago",
    "state": "IL",
    "zip_code": ""
  },
  {
    "venue_id": "EB_28090828",
    "venue_name": "1021 E 83rd St",
    "latitude": 41.7437984,
    "longitude": -87.59947160000002,
    "address1": "1021 East 83rd Street",
    "address2": "",
    "address3": "",
    "city": "Chicago",
    "state": "IL",
    "zip_code": "60619"
  },
  {
    "venue_id": "EB_24472311",
    "venue_name": "Laugh Factory",
    "latitude": 41.93973400000001,
    "longitude": -87.64403319999997,
    "address1": "3175 North Broadway",
    "address2": "",
    "address3": "",
    "city": "Chicago",
    "state": "IL",
    "zip_code": "60657"
  },
  {
    "venue_id": "EB_28040774",
    "venue_name": "Entirety Technologies",
    "latitude": 41.7727709,
    "longitude": -87.7123355,
    "address1": "",
    "address2": "",
    "address3": "",
    "city": "Chicago",
    "state": "IL",
    "zip_code": "60629"
  },
  {
    "venue_id": "EB_25292334",
    "venue_name": "ONLINE Webinar Event - Link Given/Emailed Once Registered",
    "latitude": 41.8781136,
    "longitude": -87.62979819999998,
    "address1": "",
    "address2": "",
    "address3": "",
    "city": "Chicago",
    "state": "IL",
    "zip_code": ""
  },
  {
    "venue_id": "EB_28057105",
    "venue_name": "Westfield Old Orchard",
    "latitude": 42.05912319999999,
    "longitude": -87.7495227,
    "address1": "4905 Old Orchard Shopping Center",
    "address2": "Near the Apple Store",
    "address3": "",
    "city": "Skokie",
    "state": "IL",
    "zip_code": "60077"
  },
  {
    "venue_id": "EB_27837262",
    "venue_name": "770 N LaSalle St",
    "latitude": 41.9090061,
    "longitude": -87.63501910000002,
    "address1": "Suite 800",
    "address2": "",
    "address3": "",
    "city": "Chicago",
    "state": "IL",
    "zip_code": "60610"
  }
]