[
	{
		"venue_id": "yelpp_H2BANrAWEZbSyqmnviSQ",
		"venue_name": "Uncle Mike's Place",
		"latitude": 41.89117,
		"longitude": -87.66986,
		"address1": "1700 W Grand Ave",
		"address2": "",
		"address3": "",
		"city": "Chicago",
		"state": "IL",
		"zip_code": "60622"
	},
	{
		"venue_id": "yelpRxHAdNiJ8jPUQDvLz6mDwg",
		"venue_name": "Isla Pilipina",
		"latitude": 41.9682525,
		"longitude": -87.6916001116394,
		"address1": "2501 W Lawrence Ave",
		"address2": "Unit D",
		"address3": "",
		"city": "Chicago",
		"state": "IL",
		"zip_code": "60625"
	},
	{
		"venue_id": "yelp6stjHiOWQJZjzlGGZDGdUg",
		"venue_name": "Ruby's Fast Food",
		"latitude": 41.96126,
		"longitude": -87.72215,
		"address1": "3740 W Montrose Ave",
		"address2": "",
		"address3": "",
		"city": "Chicago",
		"state": "IL",
		"zip_code": "60618"
	},
	{
		"venue_id": "yelpdb7p4tMxC_pptYho8RUhzQ",
		"venue_name": "Aloha Wagon",
		"latitude": 41.865308,
		"longitude": -87.685784,
		"address1": "1247 S Western Ave",
		"address2": "",
		"address3": "",
		"city": "Chicago",
		"state": "IL",
		"zip_code": "60608"
	},
	{
		"venue_id": "yelpmajGt6w0H0i-9TtVwvu2Qg",
		"venue_name": "Kubo Chicago",
		"latitude": 41.94008,
		"longitude": -87.66026,
		"address1": "1232 W Belmont Ave",
		"address2": "",
		"address3": null,
		"city": "Chicago",
		"state": "IL",
		"zip_code": "60657"
	},
	{
		"venue_id": "yelpNlrQZMJlMoC6gY9jb5zOQw",
		"venue_name": "Merla's Kitchen",
		"latitude": 41.9758575617891,
		"longitude": -87.7134847486592,
		"address1": "5207 N Kimball Ave",
		"address2": "",
		"address3": "",
		"city": "Chicago",
		"state": "IL",
		"zip_code": "60625"
	},
	{
		"venue_id": "yelpNHpaDf5o658qzR-RlCRk-Q",
		"venue_name": "Kawayan",
		"latitude": 41.96931,
		"longitude": -87.760906,
		"address1": "4859 N Milwaukee Ave",
		"address2": "",
		"address3": "",
		"city": "Chicago",
		"state": "IL",
		"zip_code": "60630"
	},
	{
		"venue_id": "yelpCfAjS4WAY7n6NDp96k96Bw",
		"venue_name": "Bacolod Chicken Haus",
		"latitude": 41.9961842,
		"longitude": -87.7171328,
		"address1": "6320 N Lincoln Ave",
		"address2": "",
		"address3": "Ste C & D",
		"city": "Chicago",
		"state": "IL",
		"zip_code": "60659"
	},
	{
		"venue_id": "yelp8qcbOA0WMaMgPG42vTTdyA",
		"venue_name": "Little Quiapo Restaurant",
		"latitude": 41.995677,
		"longitude": -87.712272,
		"address1": "6259 N McCormick Rd",
		"address2": "",
		"address3": "",
		"city": "Chicago",
		"state": "IL",
		"zip_code": "60659"
	},
	{
		"venue_id": "yelpHmzdlrpNM4hS27BJ-YRNiw",
		"venue_name": "Bayan Ko",
		"latitude": 41.96169,
		"longitude": -87.67492,
		"address1": "1810 W Montrose Ave",
		"address2": "",
		"address3": null,
		"city": "Chicago",
		"state": "IL",
		"zip_code": "60613"
	},
	{
		"venue_id": "yelppqyGVhpYy96uXgd-M3wbew",
		"venue_name": "Jollibee",
		"latitude": 41.972733464562,
		"longitude": -87.7459015937519,
		"address1": "5033 N Elston Ave",
		"address2": "",
		"address3": null,
		"city": "Chicago",
		"state": "IL",
		"zip_code": "60630"
	},
	{
		"venue_id": "yelpibJlsnqmuLgN5iA3--ouzQ",
		"venue_name": "Oscar's Foods",
		"latitude": 41.93814,
		"longitude": -87.7798,
		"address1": "6125 W Belmont Ave",
		"address2": "",
		"address3": "",
		"city": "Chicago",
		"state": "IL",
		"zip_code": "60634"
	},
	{
		"venue_id": "yelp6zfgUYehnnHOg57tD9y8SQ",
		"venue_name": "Lola Tining's Cuisine",
		"latitude": 41.87201,
		"longitude": -87.804044,
		"address1": "1141 Garfield St",
		"address2": null,
		"address3": "",
		"city": "Oak Park",
		"state": "IL",
		"zip_code": "60304"
	},
	{
		"venue_id": "yelpe105ptFvbunZze1dUSFdrQ",
		"venue_name": "Grill City",
		"latitude": 41.9728355407715,
		"longitude": -87.7455368041992,
		"address1": "5033 N Elston Ave",
		"address2": null,
		"address3": null,
		"city": "Chicago",
		"state": "IL",
		"zip_code": "60630"
	},
	{
		"venue_id": "yelp0cshq8AXz4Z5qQSJJNAlGA",
		"venue_name": "Simple Delights",
		"latitude": 41.9951124,
		"longitude": -87.7134164,
		"address1": "6255 N McCormick Rd",
		"address2": "",
		"address3": "",
		"city": "Chicago",
		"state": "IL",
		"zip_code": "60659"
	},
	{
		"venue_id": "yelpo4NixT_dDbog79yZ0dyKVw",
		"venue_name": "Kapatid Oriental Store",
		"latitude": 41.9684849,
		"longitude": -87.7175107,
		"address1": "3538 W Lawrence Ave",
		"address2": "",
		"address3": "",
		"city": "Chicago",
		"state": "IL",
		"zip_code": "60625"
	},
	{
		"venue_id": "yelp9TzpjzV5tc_RMVeWDbQ3nQ",
		"venue_name": "Pampanga's Cuisine Filipino",
		"latitude": 41.99771,
		"longitude": -87.76687,
		"address1": "6407 N Caldwell Ave",
		"address2": "",
		"address3": "",
		"city": "Chicago",
		"state": "IL",
		"zip_code": "60646"
	},
	{
		"venue_id": "yelp1jWXfQlzZ8Z1s9CXmRkIww",
		"venue_name": "Hiromi's Oriental Restaurant",
		"latitude": 41.9680824279785,
		"longitude": -87.7187194824219,
		"address1": "3609 W Lawrence Ave",
		"address2": "",
		"address3": "",
		"city": "Chicago",
		"state": "IL",
		"zip_code": "60625"
	},
	{
		"venue_id": "yelpijz6cXds-aSFG7AdqGnRxA",
		"venue_name": "Crispy Town",
		"latitude": 41.9728355407715,
		"longitude": -87.7455368041992,
		"address1": "5033 N Elston Ave",
		"address2": null,
		"address3": null,
		"city": "Chicago",
		"state": "IL",
		"zip_code": "60630"
	},
	{
		"venue_id": "yelpqE08KWce0SrSCkPJgH1O_Q",
		"venue_name": "SUBO Filipino Kitchen",
		"latitude": 41.96704,
		"longitude": -87.71358,
		"address1": "4712 N Kimball Ave",
		"address2": null,
		"address3": "",
		"city": "Chicago",
		"state": "IL",
		"zip_code": "60625"
	},
	{
		"venue_id": "yelpCejqhfxT4jwezHVsq7Jppw",
		"venue_name": "Max Seafood Grill",
		"latitude": 41.9673349,
		"longitude": -87.810233,
		"address1": "7314 W Lawrence Ave",
		"address2": null,
		"address3": null,
		"city": "Chicago",
		"state": "IL",
		"zip_code": "60706"
	},
	{
		"venue_id": "yelpm8mRGN2cLX3hH842GaE8ng",
		"venue_name": "Noodle Street",
		"latitude": 41.9728355407715,
		"longitude": -87.7455368041992,
		"address1": "5033 N Elston Ave",
		"address2": null,
		"address3": null,
		"city": "Chicago",
		"state": "IL",
		"zip_code": "60630"
	},
	{
		"venue_id": "yelpcfOFFLCgGhUVOBUGnR8NCw",
		"venue_name": "Tipanan Restaurant",
		"latitude": 41.96126,
		"longitude": -87.72224,
		"address1": "3742 W Montrose Ave",
		"address2": "",
		"address3": "",
		"city": "Chicago",
		"state": "IL",
		"zip_code": "60618"
	}
]