[
	{
		"venue_id": "yelpmvFimrcREBIDo-pLAhMfNg",
		"venue_name": "Avec",
		"latitude": 41.884290441849,
		"longitude": -87.6433979433133,
		"address1": "615 W Randolph St",
		"address2": "",
		"address3": "",
		"city": "Chicago",
		"state": "IL",
		"zip_code": "60661"
	},
	{
		"venue_id": "yelpBmqLmgX7i-pM-0h_xzbwMA",
		"venue_name": "Maude's Liquor Bar",
		"latitude": 41.88466,
		"longitude": -87.64908,
		"address1": "840 W Randolph St",
		"address2": "",
		"address3": "",
		"city": "Chicago",
		"state": "IL",
		"zip_code": "60607"
	},
	{
		"venue_id": "yelp5OtAmmypXvuTbkFBCziF_Q",
		"venue_name": "Le Colonial",
		"latitude": 41.900218963623,
		"longitude": -87.6269302368164,
		"address1": "937 N Rush St",
		"address2": "",
		"address3": "",
		"city": "Chicago",
		"state": "IL",
		"zip_code": "60611"
	},
	{
		"venue_id": "yelp1cgWXsikJqAQezRmruj2rg",
		"venue_name": "Bistro Campagne",
		"latitude": 41.96356,
		"longitude": -87.68563,
		"address1": "4518 N Lincoln Ave",
		"address2": "",
		"address3": "",
		"city": "Chicago",
		"state": "IL",
		"zip_code": "60625"
	},
	{
		"venue_id": "yelpH3KB1EigcCQU9sbQCi-6kg",
		"venue_name": "Mon Ami Gabi",
		"latitude": 41.924093,
		"longitude": -87.636974,
		"address1": "2300 N Lincoln Park W",
		"address2": "",
		"address3": "",
		"city": "Chicago",
		"state": "IL",
		"zip_code": "60614"
	},
	{
		"venue_id": "yelpOJctw29lDizc_Ei4oueUTA",
		"venue_name": "La Cr\u00eaperie",
		"latitude": 41.934059,
		"longitude": -87.645708,
		"address1": "2845 N Clark St",
		"address2": "",
		"address3": "",
		"city": "Chicago",
		"state": "IL",
		"zip_code": "60657"
	},
	{
		"venue_id": "yelpAZ6b6JoLys6RTD9yOPJlBw",
		"venue_name": "Chez Joel Bistro",
		"latitude": 41.86921,
		"longitude": -87.65507,
		"address1": "1119 W Taylor St",
		"address2": "",
		"address3": "",
		"city": "Chicago",
		"state": "IL",
		"zip_code": "60607"
	},
	{
		"venue_id": "yelpuLUsX2YRnYcCHmDIVwDBTw",
		"venue_name": "RM Champagne",
		"latitude": 41.8835832,
		"longitude": -87.6487261,
		"address1": "116 N Green St",
		"address2": "",
		"address3": "",
		"city": "Chicago",
		"state": "IL",
		"zip_code": "60607"
	},
	{
		"venue_id": "yelpUbsbYcA5NmkJPFwB9Qi3dA",
		"venue_name": "Nellc\u00f4te",
		"latitude": 41.8842029218415,
		"longitude": -87.6491502961838,
		"address1": "833 W Randolph St",
		"address2": "",
		"address3": "",
		"city": "Chicago",
		"state": "IL",
		"zip_code": "60607"
	},
	{
		"venue_id": "yelpgAp38M1cLRkFHbemMhaNAQ",
		"venue_name": "Le Bouchon",
		"latitude": 41.91756,
		"longitude": -87.67792,
		"address1": "1958 N Damen Ave",
		"address2": "",
		"address3": "",
		"city": "Chicago",
		"state": "IL",
		"zip_code": "60647"
	},
	{
		"venue_id": "yelp1ujpo6di-VHGmf1kZnRtpQ",
		"venue_name": "Cochon Volant Brasserie",
		"latitude": 41.8807911918252,
		"longitude": -87.6310143247247,
		"address1": "100 W Monroe St",
		"address2": "",
		"address3": "",
		"city": "Chicago",
		"state": "IL",
		"zip_code": "60603"
	},
	{
		"venue_id": "yelpISK4YPxKYvG9PzmxBE6CJg",
		"venue_name": "Bistronomic",
		"latitude": 41.8979072566376,
		"longitude": -87.6272430870994,
		"address1": "840 N Wabash Ave",
		"address2": "",
		"address3": "",
		"city": "Chicago",
		"state": "IL",
		"zip_code": "60611"
	},
	{
		"venue_id": "yelp5jbqjzdcQR9jNBTsmX8Xog",
		"venue_name": "Maison Parisienne",
		"latitude": 41.94209,
		"longitude": -87.65199,
		"address1": "3307 N Clark St",
		"address2": "",
		"address3": null,
		"city": "Chicago",
		"state": "IL",
		"zip_code": "60657"
	},
	{
		"venue_id": "yelpL-JFa3cZEP8nEaC0tak_SA",
		"venue_name": "Les Nomades",
		"latitude": 41.89367,
		"longitude": -87.62172,
		"address1": "222 E Ontario St",
		"address2": "",
		"address3": "",
		"city": "Chicago",
		"state": "IL",
		"zip_code": "60611"
	},
	{
		"venue_id": "yelpXHTod-9H66e1krXYQjxRBQ",
		"venue_name": "Fig & Olive - Chicago",
		"latitude": 41.901044,
		"longitude": -87.625532,
		"address1": "104 East Oak St",
		"address2": "",
		"address3": "",
		"city": "Chicago",
		"state": "IL",
		"zip_code": "60611"
	},
	{
		"venue_id": "yelpI4R5Zs7whwQf29XhQ_RaBA",
		"venue_name": "Chez Moi",
		"latitude": 41.920093536377,
		"longitude": -87.6487808227539,
		"address1": "2100 N Halsted St",
		"address2": "",
		"address3": "",
		"city": "Chicago",
		"state": "IL",
		"zip_code": "60614"
	},
	{
		"venue_id": "yelpdBCnnnq5cPknPZK0JOTAXg",
		"venue_name": "Kiki's Bistro",
		"latitude": 41.899092359325,
		"longitude": -87.6359399376335,
		"address1": "900 N Franklin St",
		"address2": "",
		"address3": "",
		"city": "Chicago",
		"state": "IL",
		"zip_code": "60610"
	},
	{
		"venue_id": "yelp-3UhToDI8YYrvkIRD8tySg",
		"venue_name": "La Sardine",
		"latitude": 41.8833789,
		"longitude": -87.6530362,
		"address1": "111 N Carpenter St",
		"address2": "",
		"address3": "",
		"city": "Chicago",
		"state": "IL",
		"zip_code": "60607"
	},
	{
		"venue_id": "yelprurEtdwwDGGLwuQlWKT5KA",
		"venue_name": "Cafe des Architectes",
		"latitude": 41.89872,
		"longitude": -87.62728,
		"address1": "20 E Chestnut St",
		"address2": "",
		"address3": "",
		"city": "Chicago",
		"state": "IL",
		"zip_code": "60611"
	},
	{
		"venue_id": "yelpxoS0iA36biZSXYE7y57D_g",
		"venue_name": "Everest",
		"latitude": 41.8756347,
		"longitude": -87.6330489012234,
		"address1": "425 S Financial Pl",
		"address2": "Fl 40",
		"address3": "",
		"city": "Chicago",
		"state": "IL",
		"zip_code": "60605"
	},
	{
		"venue_id": "yelpyuQm2o-xp5gmBYFa_RAXjw",
		"venue_name": "Cook Au Vin",
		"latitude": 41.92251,
		"longitude": -87.67431,
		"address1": "2256 N Elston Ave",
		"address2": "",
		"address3": "",
		"city": "Chicago",
		"state": "IL",
		"zip_code": "60614"
	},
	{
		"venue_id": "yelpf2NFIhCNVBafvaPivOq2CA",
		"venue_name": "Troquet River North",
		"latitude": 41.8946376,
		"longitude": -87.6313526,
		"address1": "111 W Huron St",
		"address2": null,
		"address3": "",
		"city": "Chicago",
		"state": "IL",
		"zip_code": "60654"
	},
	{
		"venue_id": "yelpRbmdznxjP4oqqTmrgSwI9A",
		"venue_name": "Brindille",
		"latitude": 41.8918830972695,
		"longitude": -87.631331928921,
		"address1": "534 N Clark St",
		"address2": "",
		"address3": "",
		"city": "Chicago",
		"state": "IL",
		"zip_code": "60654"
	},
	{
		"venue_id": "yelp7o5H7U52hQb-iy-yHtGI-A",
		"venue_name": "Margeaux Brasserie",
		"latitude": 41.89971,
		"longitude": -87.62774,
		"address1": "11 E Walton St",
		"address2": "",
		"address3": null,
		"city": "Chicago",
		"state": "IL",
		"zip_code": "60611"
	},
	{
		"venue_id": "yelptXgU0YTlPCFuK2YSy-IRLQ",
		"venue_name": "Caf\u00e9 Marie Jeanne",
		"latitude": 41.89942,
		"longitude": -87.6964,
		"address1": "1001 N California Ave",
		"address2": null,
		"address3": "",
		"city": "Chicago",
		"state": "IL",
		"zip_code": "60622"
	},
	{
		"venue_id": "yelpZMBNpWiAztHkP3kb__mKWQ",
		"venue_name": "Pasteur",
		"latitude": 41.9823035306453,
		"longitude": -87.6596975326538,
		"address1": "5525 N Broadway St",
		"address2": "",
		"address3": "",
		"city": "Chicago",
		"state": "IL",
		"zip_code": "60640"
	},
	{
		"venue_id": "yelp0X5prQ8-SG57fL5MRQi_5w",
		"venue_name": "Chez Simo Bistro",
		"latitude": 41.9688949,
		"longitude": -87.6788058,
		"address1": "1968 W Lawrence Ave",
		"address2": "",
		"address3": "",
		"city": "Chicago",
		"state": "IL",
		"zip_code": "60640"
	},
	{
		"venue_id": "yelpR1dwGBJUNbp0vJLjk7tntQ",
		"venue_name": "Cit\u00e9",
		"latitude": 41.89153,
		"longitude": -87.61272,
		"address1": "505 N Lake Shore Dr",
		"address2": "",
		"address3": "Lake Point Tower, Fl 70",
		"city": "Chicago",
		"state": "IL",
		"zip_code": "60611"
	},
	{
		"venue_id": "yelpoFpi7EtXFUbzb1QfDLk2JA",
		"venue_name": "Le Sud",
		"latitude": 41.94285,
		"longitude": -87.68587,
		"address1": "2301 W Roscoe St",
		"address2": null,
		"address3": "",
		"city": "Chicago",
		"state": "IL",
		"zip_code": "60618"
	},
	{
		"venue_id": "yelpO-tN6BpBv_6UmBY5UwkT-w",
		"venue_name": "Le Petit Paris",
		"latitude": 41.89859,
		"longitude": -87.6196,
		"address1": "260 E Chestnut St",
		"address2": "",
		"address3": "",
		"city": "Chicago",
		"state": "IL",
		"zip_code": "60611"
	},
	{
		"venue_id": "yelpjIjMCBLyjrFTvmyNXJuwPw",
		"venue_name": "Bar Biscay",
		"latitude": 41.8963899,
		"longitude": -87.66441,
		"address1": "1450 W Chicago Ave",
		"address2": null,
		"address3": "",
		"city": "Chicago",
		"state": "IL",
		"zip_code": "60642"
	},
	{
		"venue_id": "yelp1T3TC822ybSbTa6kNmVhXA",
		"venue_name": "Edgewater Beach Cafe",
		"latitude": 41.9826938,
		"longitude": -87.6551598,
		"address1": "5545 N Sheridan Rd",
		"address2": "",
		"address3": "",
		"city": "Chicago",
		"state": "IL",
		"zip_code": "60640"
	},
	{
		"venue_id": "yelpPi-z6d8RrFPN8nLDOj4Bkg",
		"venue_name": "Marchesa",
		"latitude": 41.89188,
		"longitude": -87.63378,
		"address1": "535 N Wells St",
		"address2": null,
		"address3": "",
		"city": "Chicago",
		"state": "IL",
		"zip_code": "60654"
	},
	{
		"venue_id": "yelp0aZVJz3_3yji_Z_AQ3bY8g",
		"venue_name": "Petit Margeaux",
		"latitude": 41.89971,
		"longitude": -87.62774,
		"address1": "Waldorf Astoria Chicago",
		"address2": "11 E Walton St",
		"address3": null,
		"city": "Chicago",
		"state": "IL",
		"zip_code": "60611"
	},
	{
		"venue_id": "yelp3loH--cXbSEbtyYxNispTw",
		"venue_name": "Taureaux Tavern",
		"latitude": 41.8767953,
		"longitude": -87.6280477,
		"address1": "155 W Van Buren St",
		"address2": null,
		"address3": "",
		"city": "Chicago",
		"state": "IL",
		"zip_code": "60605"
	},
	{
		"venue_id": "yelpfEPzouBjS8P5Um3ATOOSGw",
		"venue_name": "Lillie's Q: French Market",
		"latitude": 41.8839111,
		"longitude": -87.6410217,
		"address1": "131 N Clinton St",
		"address2": "",
		"address3": "",
		"city": "Chicago",
		"state": "IL",
		"zip_code": "60661"
	},
	{
		"venue_id": "yelpzU5xwIb6wqoaRozNNsE9bg",
		"venue_name": "Lea French Street Food",
		"latitude": 41.8876312,
		"longitude": -87.8022251,
		"address1": "106 N Marion St",
		"address2": "",
		"address3": null,
		"city": "Oak Park",
		"state": "IL",
		"zip_code": "60301"
	},
	{
		"venue_id": "yelpnEnJKZXu4w9v63Ob84XodQ",
		"venue_name": "Le Cafe du Marche",
		"latitude": 41.883926,
		"longitude": -87.640552,
		"address1": "131 N Clinton St",
		"address2": "",
		"address3": "",
		"city": "Chicago",
		"state": "IL",
		"zip_code": "60661"
	},
	{
		"venue_id": "yelpSGR_bElEif7uL5wTxqeNLg",
		"venue_name": "Grand Central Bar",
		"latitude": 41.88658,
		"longitude": -87.63433,
		"address1": "205 W Wacker Dr",
		"address2": "",
		"address3": null,
		"city": "Chicago",
		"state": "IL",
		"zip_code": "60606"
	},
	{
		"venue_id": "yelp6Wsxk5ilTFrWB4KMijDGxA",
		"venue_name": "Madam Tartines",
		"latitude": 41.8902097,
		"longitude": -87.6274702,
		"address1": "22 E Hubbard St",
		"address2": "",
		"address3": "",
		"city": "Chicago",
		"state": "IL",
		"zip_code": "60686"
	}
]