[
	{
		"venue_id": "yelpyYAJAUfqnN3rQw7S8Cj12Q",
		"venue_name": "Brightwok Kitchen",
		"latitude": 41.8794583529234,
		"longitude": -87.6270027458668,
		"address1": "21 E Adams St",
		"address2": null,
		"address3": "",
		"city": "Chicago",
		"state": "IL",
		"zip_code": "60603"
	},
	{
		"venue_id": "yelpRWULs45ZzaD-OJj5A-Kk8g",
		"venue_name": "LYFE Kitchen",
		"latitude": 41.8897715425784,
		"longitude": -87.6308315944427,
		"address1": "413 North Clark St",
		"address2": "",
		"address3": "",
		"city": "Chicago",
		"state": "IL",
		"zip_code": "60654"
	},
	{
		"venue_id": "yelpt3Gg5wW9wxHO4s9tGBArQQ",
		"venue_name": "Protein Bar",
		"latitude": 41.8790123356902,
		"longitude": -87.6350229818467,
		"address1": "235 S Franklin St",
		"address2": "",
		"address3": "",
		"city": "Chicago",
		"state": "IL",
		"zip_code": "60606"
	},
	{
		"venue_id": "yelpbNsgLUvWZRs3TvxslbhZcA",
		"venue_name": "Loop Juice",
		"latitude": 41.8840684,
		"longitude": -87.6412297,
		"address1": "131 N Clinton St",
		"address2": "",
		"address3": "Chicago French Market",
		"city": "Chicago",
		"state": "IL",
		"zip_code": "60661"
	},
	{
		"venue_id": "yelpJTRat0OWhUpuQw6iF7I7Bg",
		"venue_name": "Swirlz Cupcakes",
		"latitude": 41.9235077,
		"longitude": -87.6466326,
		"address1": "705 W Belden Ave",
		"address2": null,
		"address3": "",
		"city": "Chicago",
		"state": "IL",
		"zip_code": "60614"
	},
	{
		"venue_id": "yelpax-3aOMpoJD9jaoU75g96A",
		"venue_name": "Protein Bar",
		"latitude": 41.8889455786121,
		"longitude": -87.6312258839607,
		"address1": "352 N Clark",
		"address2": "",
		"address3": "",
		"city": "Chicago",
		"state": "IL",
		"zip_code": "60654"
	},
	{
		"venue_id": "yelpduIL_7gzqd23L6tJgulrcw",
		"venue_name": "Brew Brew Coffee and Tea",
		"latitude": 41.9319705579233,
		"longitude": -87.7234526412826,
		"address1": "3832 W Diversey Ave",
		"address2": "",
		"address3": "",
		"city": "Chicago",
		"state": "IL",
		"zip_code": "60647"
	},
	{
		"venue_id": "yelpkETAh5tmJry7Nf4Y2Y_3Yg",
		"venue_name": "Wheat's End Cafe",
		"latitude": 41.9346173107624,
		"longitude": -87.6441695541143,
		"address1": "2873 N Broadway St",
		"address2": "",
		"address3": "",
		"city": "Chicago",
		"state": "IL",
		"zip_code": "60657"
	},
	{
		"venue_id": "yelp1uqwWskpD_i2Icx0f9S8jg",
		"venue_name": "Roti Modern Mediterranean",
		"latitude": 41.88273,
		"longitude": -87.62906,
		"address1": "33 N Dearborn",
		"address2": "",
		"address3": "",
		"city": "Chicago",
		"state": "IL",
		"zip_code": "60602"
	},
	{
		"venue_id": "yelpRcmyqKQeG5gceCrGW237Ig",
		"venue_name": "LYFE Kitchen",
		"latitude": 41.8936116473435,
		"longitude": -87.6204406772432,
		"address1": "259 E Erie St",
		"address2": "",
		"address3": "",
		"city": "Chicago",
		"state": "IL",
		"zip_code": "60611"
	},
	{
		"venue_id": "yelp2fZ02ae7kZG9PW0vKjtTRQ",
		"venue_name": "Protein Bar",
		"latitude": 41.8858024477959,
		"longitude": -87.6283451914787,
		"address1": "10 W Lake St",
		"address2": "",
		"address3": "",
		"city": "Chicago",
		"state": "IL",
		"zip_code": "60601"
	},
	{
		"venue_id": "yelpeID8U-VLJrbF2zzlxeyldQ",
		"venue_name": "Oromo Cafe",
		"latitude": 41.9667937,
		"longitude": -87.6871507,
		"address1": "4703 N Lincoln Ave",
		"address2": "",
		"address3": "",
		"city": "Chicago",
		"state": "IL",
		"zip_code": "60625"
	},
	{
		"venue_id": "yelpnX0eoQLMANnKZAQbB_1vxw",
		"venue_name": "Roti Modern Mediterranean",
		"latitude": 41.88165,
		"longitude": -87.6388749,
		"address1": "10 S Riverside Plz",
		"address2": "",
		"address3": "",
		"city": "Chicago",
		"state": "IL",
		"zip_code": "60606"
	},
	{
		"venue_id": "yelp-dupkkd-yqIUdRVNdn9OYw",
		"venue_name": "FliP Crepes",
		"latitude": 41.8839695,
		"longitude": -87.6410747,
		"address1": "131 N Clinton St",
		"address2": "Ste 12",
		"address3": "",
		"city": "Chicago",
		"state": "IL",
		"zip_code": "60661"
	},
	{
		"venue_id": "yelp1ukE2y-MzEnG-SM3p8Mq0Q",
		"venue_name": "Protein Bar",
		"latitude": 41.8832075515937,
		"longitude": -87.6345729796018,
		"address1": "221 W Washington",
		"address2": null,
		"address3": "",
		"city": "Chicago",
		"state": "IL",
		"zip_code": "60606"
	},
	{
		"venue_id": "yelpxRMdNT0cNJjlAKtlcNOOpA",
		"venue_name": "P.F. Chang's",
		"latitude": 41.8919052750496,
		"longitude": -87.6269987225533,
		"address1": "530 N Wabash Ave",
		"address2": "",
		"address3": "",
		"city": "Chicago",
		"state": "IL",
		"zip_code": "60611"
	},
	{
		"venue_id": "yelpImnN3MAT6bz6XIepMs6nIQ",
		"venue_name": "Protein Bar",
		"latitude": 41.884746,
		"longitude": -87.624139,
		"address1": "151 N Michigan Ave",
		"address2": null,
		"address3": "",
		"city": "Chicago",
		"state": "IL",
		"zip_code": "60601"
	},
	{
		"venue_id": "yelpLTN3XjcJzcES6BorjiP7mw",
		"venue_name": "Chicago's Pizza",
		"latitude": 41.93811,
		"longitude": -87.66698,
		"address1": "3114 N Lincoln Ave",
		"address2": "",
		"address3": "",
		"city": "Chicago",
		"state": "IL",
		"zip_code": "60657"
	},
	{
		"venue_id": "yelp_NaPVNK8n7VV_i_YJvLwNQ",
		"venue_name": "676 Restaurant & Bar",
		"latitude": 41.89474,
		"longitude": -87.62494,
		"address1": "676 N Michigan Ave",
		"address2": "",
		"address3": "",
		"city": "Chicago",
		"state": "IL",
		"zip_code": "60611"
	},
	{
		"venue_id": "yelprGzgpBcA59VgWJHEfHJjaQ",
		"venue_name": "Protein Bar",
		"latitude": 41.8945731,
		"longitude": -87.621595,
		"address1": "251 E Huron St",
		"address2": "Fl 2",
		"address3": "",
		"city": "Chicago",
		"state": "IL",
		"zip_code": "60611"
	},
	{
		"venue_id": "yelp3kDKFfe12iJWOnZWuXgqxg",
		"venue_name": "Father and Son Restaurant",
		"latitude": 41.9266205,
		"longitude": -87.7029266,
		"address1": "2475 N Milwaukee Ave",
		"address2": "",
		"address3": "",
		"city": "Chicago",
		"state": "IL",
		"zip_code": "60647"
	},
	{
		"venue_id": "yelpChYBFc47Q84yh4MrOSHM7Q",
		"venue_name": "Protein Bar",
		"latitude": 41.91677,
		"longitude": -87.65721,
		"address1": "1953 N Clybourn",
		"address2": "",
		"address3": "",
		"city": "Chicago",
		"state": "IL",
		"zip_code": "60614"
	},
	{
		"venue_id": "yelp-iC6IMSJaNL8BcWHxvf9Sg",
		"venue_name": "Roti Modern Mediterranean",
		"latitude": 41.879467,
		"longitude": -87.6358,
		"address1": "310 W Adams",
		"address2": "",
		"address3": "",
		"city": "Chicago",
		"state": "IL",
		"zip_code": "60606"
	},
	{
		"venue_id": "yelpjF3k0wUWqOda2bW5_CHJlw",
		"venue_name": "Protein Bar",
		"latitude": 41.88132,
		"longitude": -87.62564,
		"address1": "33 S Wabash Ave",
		"address2": null,
		"address3": "",
		"city": "Chicago",
		"state": "IL",
		"zip_code": "60603"
	},
	{
		"venue_id": "yelpwtPlD2m8r7aCzPMSeG8-tw",
		"venue_name": "Edge of Sweetness",
		"latitude": 41.9920201,
		"longitude": -87.6604649,
		"address1": "6034 N Broadway",
		"address2": "",
		"address3": null,
		"city": "Chicago",
		"state": "IL",
		"zip_code": "60660"
	},
	{
		"venue_id": "yelpBwvB--ttJSgDXSCOh42uCQ",
		"venue_name": "Protein Bar",
		"latitude": 41.879986,
		"longitude": -87.639085,
		"address1": "120 S Riverside",
		"address2": "",
		"address3": "",
		"city": "Chicago",
		"state": "IL",
		"zip_code": "60606"
	},
	{
		"venue_id": "yelp1rJZHq8Cce3PJxCte1lalw",
		"venue_name": "Roti Modern Mediterranean",
		"latitude": 41.8848,
		"longitude": -87.6342,
		"address1": "200 W Randolph St",
		"address2": "",
		"address3": "",
		"city": "Chicago",
		"state": "IL",
		"zip_code": "60606"
	},
	{
		"venue_id": "yelpe3vMzk7zt_3hLCJxv0E64Q",
		"venue_name": "Brightwok Kitchen",
		"latitude": 41.8934881,
		"longitude": -87.6279751,
		"address1": "631 N State St",
		"address2": null,
		"address3": "",
		"city": "Chicago",
		"state": "IL",
		"zip_code": "60654"
	},
	{
		"venue_id": "yelp7MJfKpKnjgi0C9hL-7sTMQ",
		"venue_name": "Roti Modern Mediterranean",
		"latitude": 41.9111,
		"longitude": -87.65344,
		"address1": "1000 W North Ave",
		"address2": "Bldg C",
		"address3": null,
		"city": "Chicago",
		"state": "IL",
		"zip_code": "60642"
	},
	{
		"venue_id": "yelpHBvhP7k4EGfTcI88Wg3DXQ",
		"venue_name": "Mezza Mediterranean Grill",
		"latitude": 41.8817024230957,
		"longitude": -87.6334533691406,
		"address1": "181 W Madison St",
		"address2": "",
		"address3": "",
		"city": "Chicago",
		"state": "IL",
		"zip_code": "60602"
	},
	{
		"venue_id": "yelpqY7AHkUtFJC9K6uJFdYwTA",
		"venue_name": "Roti Modern Mediterranean",
		"latitude": 41.886106,
		"longitude": -87.624991,
		"address1": "80 E Lake St",
		"address2": "",
		"address3": null,
		"city": "Chicago",
		"state": "IL",
		"zip_code": "60601"
	},
	{
		"venue_id": "yelpnGjFhyv57wT3j11YcorS2w",
		"venue_name": "Leona's Restaurant - Old Irving",
		"latitude": 41.95194,
		"longitude": -87.71618,
		"address1": "3877 N Elston Ave",
		"address2": "",
		"address3": "",
		"city": "Chicago",
		"state": "IL",
		"zip_code": "60618"
	},
	{
		"venue_id": "yelpb3o4BsYln2AM9PJb9vErnA",
		"venue_name": "Protein Bar",
		"latitude": 41.888251,
		"longitude": -87.63539,
		"address1": "222 W Merchandise Mart Plz",
		"address2": "Fl 2",
		"address3": "",
		"city": "Chicago",
		"state": "IL",
		"zip_code": "60654"
	},
	{
		"venue_id": "yelpXkQnscqWCcjcqTizpW0mGA",
		"venue_name": "Munch",
		"latitude": 41.8875807,
		"longitude": -87.8022251,
		"address1": "104 N Marion St",
		"address2": "",
		"address3": "",
		"city": "Oak Park",
		"state": "IL",
		"zip_code": "60301"
	},
	{
		"venue_id": "yelplEq8m6YGd2PWfEOPQcGFLA",
		"venue_name": "Winberie's Restaurant",
		"latitude": 41.8885017069329,
		"longitude": -87.7945654843375,
		"address1": "151 N Oak Park Ave",
		"address2": null,
		"address3": null,
		"city": "Oak Park",
		"state": "IL",
		"zip_code": "60301"
	},
	{
		"venue_id": "yelpVls71lzKhV8_lbM8VDNc4g",
		"venue_name": "Freshii",
		"latitude": 41.881443,
		"longitude": -87.6413269,
		"address1": "26 S Clinton St",
		"address2": "",
		"address3": "",
		"city": "Chicago",
		"state": "IL",
		"zip_code": "60661"
	},
	{
		"venue_id": "yelpct7aBShG3STtsso3MQk-8Q",
		"venue_name": "Roti Modern Mediterranean",
		"latitude": 41.883967,
		"longitude": -87.641087,
		"address1": "121 N Clinton St",
		"address2": null,
		"address3": "",
		"city": "Chicago",
		"state": "IL",
		"zip_code": "60661"
	},
	{
		"venue_id": "yelpUJ2EoYMwv_Db2VetmwKXYw",
		"venue_name": "Roti Modern Mediterranean",
		"latitude": 41.88459,
		"longitude": -87.65277,
		"address1": "1012 W Randolph St",
		"address2": "",
		"address3": null,
		"city": "Chicago",
		"state": "IL",
		"zip_code": "60607"
	},
	{
		"venue_id": "yelprwCAgQLPRSIDPRvanoW2yQ",
		"venue_name": "T\u014cMI",
		"latitude": 41.87979,
		"longitude": -87.63051,
		"address1": "125 S Clark St",
		"address2": null,
		"address3": "",
		"city": "Chicago",
		"state": "IL",
		"zip_code": "60603"
	},
	{
		"venue_id": "yelpxZZPwUH5MR1OglgDb1pAsA",
		"venue_name": "Snap Kitchen",
		"latitude": 41.89166,
		"longitude": -87.621,
		"address1": "255 E Grand Ave",
		"address2": null,
		"address3": null,
		"city": "Chicago",
		"state": "IL",
		"zip_code": "60611"
	},
	{
		"venue_id": "yelpeEN8UYdnkb2o6XWqYbIv0g",
		"venue_name": "Roti Modern Mediterranean",
		"latitude": 41.87811,
		"longitude": -87.62571,
		"address1": "55 E Jackson Blvd",
		"address2": null,
		"address3": "",
		"city": "Chicago",
		"state": "IL",
		"zip_code": "60604"
	}
]