[
	{
		"venue_id": "yelprp17Dfjdh7JR4GGZwj6nqg",
		"venue_name": "Portillo's Hot Dogs",
		"latitude": 41.89366,
		"longitude": -87.63157,
		"address1": "100 W Ontario",
		"address2": "",
		"address3": "",
		"city": "Chicago",
		"state": "IL",
		"zip_code": "60610"
	},
	{
		"venue_id": "yelpzbdhMq_8OjSZEHyw_PoQBQ",
		"venue_name": "Flub A Dub Chub's",
		"latitude": 41.93717,
		"longitude": -87.64401,
		"address1": "3021 N Broadway",
		"address2": "",
		"address3": "",
		"city": "Chicago",
		"state": "IL",
		"zip_code": "60657"
	},
	{
		"venue_id": "yelpGbC6XO60SlLnlIOTbJE-Ew",
		"venue_name": "Fatso's Last Stand",
		"latitude": 41.8959792096669,
		"longitude": -87.6842580932541,
		"address1": "2258 W Chicago Ave",
		"address2": "",
		"address3": "",
		"city": "Chicago",
		"state": "IL",
		"zip_code": "60622"
	},
	{
		"venue_id": "yelpBjZ1dWcQOt7w7BsMszxKHA",
		"venue_name": "UB Dogs",
		"latitude": 41.885406019773,
		"longitude": -87.635216774701,
		"address1": "185 N Franklin St",
		"address2": null,
		"address3": "",
		"city": "Chicago",
		"state": "IL",
		"zip_code": "60606"
	},
	{
		"venue_id": "yelpFCcgXODBs6O7MGH3VZNyLQ",
		"venue_name": "Superdawg Drive-In",
		"latitude": 41.9967775833509,
		"longitude": -87.7870387664546,
		"address1": "6363 N Milwaukee Ave",
		"address2": "",
		"address3": "",
		"city": "Chicago",
		"state": "IL",
		"zip_code": "60646"
	},
	{
		"venue_id": "yelp6cYzBl8YfgNUv2oMaijrGQ",
		"venue_name": "Jim's Original Hot Dog",
		"latitude": 41.86577,
		"longitude": -87.64537,
		"address1": "1250 S Union Ave",
		"address2": "",
		"address3": "",
		"city": "Chicago",
		"state": "IL",
		"zip_code": "60607"
	},
	{
		"venue_id": "yelp3GXFsq9rJZUWXOJCQf-dIQ",
		"venue_name": "Max's Take Out",
		"latitude": 41.87972,
		"longitude": -87.62688,
		"address1": "20 E Adams St",
		"address2": "",
		"address3": "",
		"city": "Chicago",
		"state": "IL",
		"zip_code": "60603"
	},
	{
		"venue_id": "yelp3o0WB9KL91neiy_rlDhxyg",
		"venue_name": "Devil Dawgs -  South State",
		"latitude": 41.87207,
		"longitude": -87.6271,
		"address1": "767 S State St",
		"address2": "",
		"address3": "",
		"city": "Chicago",
		"state": "IL",
		"zip_code": "60605"
	},
	{
		"venue_id": "yelpGw8BSjJ6FFppeghWUv-DGA",
		"venue_name": "The Wiener's Circle",
		"latitude": 41.930108,
		"longitude": -87.643951,
		"address1": "2622 N Clark St",
		"address2": "",
		"address3": "",
		"city": "Chicago",
		"state": "IL",
		"zip_code": "60614"
	},
	{
		"venue_id": "yelpQPr7dxBlnNipJ0R5-GMd-w",
		"venue_name": "Slim's",
		"latitude": 41.9615868227063,
		"longitude": -87.6799042895436,
		"address1": "2020 W Montrose Ave",
		"address2": "",
		"address3": "",
		"city": "Chicago",
		"state": "IL",
		"zip_code": "60618"
	},
	{
		"venue_id": "yelpIvEwb3qOgFK6E23FN6D1Yw",
		"venue_name": "Chicago's Dog House",
		"latitude": 41.9255849,
		"longitude": -87.6492199,
		"address1": "816 W Fullerton Ave",
		"address2": "",
		"address3": "",
		"city": "Chicago",
		"state": "IL",
		"zip_code": "60614"
	},
	{
		"venue_id": "yelpgFQ-NcVxqAb4S29S7DLehA",
		"venue_name": "Hot Dog Station",
		"latitude": 41.9679886090324,
		"longitude": -87.7134617808249,
		"address1": "4742 N Kimball",
		"address2": "",
		"address3": "",
		"city": "Chicago",
		"state": "IL",
		"zip_code": "60625"
	},
	{
		"venue_id": "yelpOO-PuBnfrdXlZWKCyPPiQg",
		"venue_name": "Kim & Carlo's Hot Dog Stand",
		"latitude": 41.8653123213288,
		"longitude": -87.6154239848256,
		"address1": "1400 S Lake Shore Dr",
		"address2": "",
		"address3": "Museum Campus",
		"city": "Chicago",
		"state": "IL",
		"zip_code": "60605"
	},
	{
		"venue_id": "yelpWsU46rtQDsc9tZUWroD4TA",
		"venue_name": "Al's Beef",
		"latitude": 41.89302,
		"longitude": -87.6337999,
		"address1": "169 W Ontario St",
		"address2": "",
		"address3": "",
		"city": "Chicago",
		"state": "IL",
		"zip_code": "60654"
	},
	{
		"venue_id": "yelplSrO-tXH3jR9HODPzft9OQ",
		"venue_name": "Jimmy's Red Hots",
		"latitude": 41.906653,
		"longitude": -87.726735,
		"address1": "4000 W Grand Ave",
		"address2": "",
		"address3": "",
		"city": "Chicago",
		"state": "IL",
		"zip_code": "60651"
	},
	{
		"venue_id": "yelporZRAjCMGQrNsoshGAwDkA",
		"venue_name": "Red Hot Ranch",
		"latitude": 41.9375348836184,
		"longitude": -87.6685266941786,
		"address1": "3057 N Ashland Ave",
		"address2": null,
		"address3": "",
		"city": "Chicago",
		"state": "IL",
		"zip_code": "60657"
	},
	{
		"venue_id": "yelp_an6ocL_Ul7Tpz1FVQ1hrg",
		"venue_name": "Vienna Beef Factory Store and Deli",
		"latitude": 41.92655,
		"longitude": -87.67706,
		"address1": "2501 N Damen Ave",
		"address2": "",
		"address3": "",
		"city": "Chicago",
		"state": "IL",
		"zip_code": "60647"
	},
	{
		"venue_id": "yelpQNgAWNaFfJ13M4iNSO482g",
		"venue_name": "Wolfy's",
		"latitude": 41.9907626706711,
		"longitude": -87.6985761569792,
		"address1": "2734 W Peterson Ave",
		"address2": "",
		"address3": "",
		"city": "Chicago",
		"state": "IL",
		"zip_code": "60659"
	},
	{
		"venue_id": "yelpAqpF77w0O47PZPOSCHDxlw",
		"venue_name": "The Freeze",
		"latitude": 41.9173427,
		"longitude": -87.6978788,
		"address1": "2815 W Armitage Ave",
		"address2": null,
		"address3": "",
		"city": "Chicago",
		"state": "IL",
		"zip_code": "60647"
	},
	{
		"venue_id": "yelpoQX8MSjF2j3pWW7AfWl4eA",
		"venue_name": "Hot\"G\"Dog",
		"latitude": 41.9728775,
		"longitude": -87.6677933,
		"address1": "5009 N Clark St",
		"address2": "",
		"address3": "",
		"city": "Chicago",
		"state": "IL",
		"zip_code": "60640"
	},
	{
		"venue_id": "yelpegeD-L6F9tXRGmlZuB_gKw",
		"venue_name": "Budacki's Drive In",
		"latitude": 41.9680229,
		"longitude": -87.6790351,
		"address1": "4739 N Damen Ave",
		"address2": "",
		"address3": "",
		"city": "Chicago",
		"state": "IL",
		"zip_code": "60625"
	},
	{
		"venue_id": "yelpv6STMYtfNak_vSiqvI3B3Q",
		"venue_name": "Dog Haus Biergarten",
		"latitude": 41.9267403,
		"longitude": -87.6509838,
		"address1": "2464 N Lincoln Ave",
		"address2": null,
		"address3": null,
		"city": "Chicago",
		"state": "IL",
		"zip_code": "60614"
	},
	{
		"venue_id": "yelpUX0PGKcH7Iy3qyxA3vZ-1g",
		"venue_name": "George's Hot Dogs",
		"latitude": 41.91604,
		"longitude": -87.67789,
		"address1": "1876 N Damen Ave",
		"address2": "",
		"address3": "",
		"city": "Chicago",
		"state": "IL",
		"zip_code": "60647"
	},
	{
		"venue_id": "yelpVVL_iqvKG8YGFjwyCo9quw",
		"venue_name": "Jeff's Red Hots",
		"latitude": 41.951713,
		"longitude": -87.746894,
		"address1": "3901 N Cicero Ave",
		"address2": "",
		"address3": "",
		"city": "Chicago",
		"state": "IL",
		"zip_code": "60641"
	},
	{
		"venue_id": "yelpql49SZxfTK0lp13XFKM8ww",
		"venue_name": "Susie's",
		"latitude": 41.9610567357401,
		"longitude": -87.7311233740283,
		"address1": "4126-30 W Montrose Ave",
		"address2": "",
		"address3": "",
		"city": "Chicago",
		"state": "IL",
		"zip_code": "60641"
	},
	{
		"venue_id": "yelpsfb3JDZ-hfv7loFbjvzjuQ",
		"venue_name": "Downtown Dogs",
		"latitude": 41.8970057318642,
		"longitude": -87.6258697110451,
		"address1": "804 N Rush St",
		"address2": "",
		"address3": "",
		"city": "Chicago",
		"state": "IL",
		"zip_code": "60611"
	},
	{
		"venue_id": "yelpeyYWa1M-OibkYhPfOECiyw",
		"venue_name": "Chubby Wieners",
		"latitude": 41.9665,
		"longitude": -87.68908,
		"address1": "4652 N Western Ave",
		"address2": null,
		"address3": "",
		"city": "Chicago",
		"state": "IL",
		"zip_code": "60625"
	},
	{
		"venue_id": "yelpNgg7cuxkP8ucSMv3XYNZNg",
		"venue_name": "Al's Beef",
		"latitude": 41.8692398071289,
		"longitude": -87.6540603637695,
		"address1": "1079 W Taylor St",
		"address2": "",
		"address3": "",
		"city": "Chicago",
		"state": "IL",
		"zip_code": "60607"
	},
	{
		"venue_id": "yelp4iksaIX5uOve6LOaGehlyA",
		"venue_name": "Red Hot Ranch",
		"latitude": 41.9198363,
		"longitude": -87.6876714,
		"address1": "2072 N Western Ave",
		"address2": null,
		"address3": "",
		"city": "Chicago",
		"state": "IL",
		"zip_code": "60647"
	},
	{
		"venue_id": "yelp9y30CRO7Asv8nO25gLlKMA",
		"venue_name": "Byron's Hot Dog Haus",
		"latitude": 41.9544224086347,
		"longitude": -87.6555032216082,
		"address1": "1017 W Irving Park Rd",
		"address2": "",
		"address3": "",
		"city": "Chicago",
		"state": "IL",
		"zip_code": "60613"
	},
	{
		"venue_id": "yelpnR3zdbYXj7ILf8cdfepbVw",
		"venue_name": "Devil Dawgs",
		"latitude": 41.9209836423397,
		"longitude": -87.653342038393,
		"address1": "2147 N Sheffield Ave",
		"address2": "",
		"address3": "",
		"city": "Chicago",
		"state": "IL",
		"zip_code": "60614"
	},
	{
		"venue_id": "yelpB4BaXk9lRHeThRZ60yjArQ",
		"venue_name": "Nick's On North",
		"latitude": 41.909719,
		"longitude": -87.710463,
		"address1": "3323 W N Ave",
		"address2": "",
		"address3": "",
		"city": "Chicago",
		"state": "IL",
		"zip_code": "60647"
	},
	{
		"venue_id": "yelpvvc8AmPruXgRDr7qBZO80Q",
		"venue_name": "Maxwell Street Depot",
		"latitude": 41.838049703686,
		"longitude": -87.6371533103465,
		"address1": "411 W 31st St",
		"address2": "",
		"address3": "",
		"city": "Chicago",
		"state": "IL",
		"zip_code": "60616"
	},
	{
		"venue_id": "yelp5ur6TyToE1Emz1faQh-I-A",
		"venue_name": "Clark Street Dog",
		"latitude": 41.9374699532125,
		"longitude": -87.6489482607324,
		"address1": "3040 N Clark St",
		"address2": "",
		"address3": "",
		"city": "Chicago",
		"state": "IL",
		"zip_code": "60657"
	},
	{
		"venue_id": "yelpEqVdnU5QVa9J5ri0FwFimA",
		"venue_name": "Express Grill",
		"latitude": 41.8652546439745,
		"longitude": -87.6451800763607,
		"address1": "1260 S Union Ave",
		"address2": "",
		"address3": "",
		"city": "Chicago",
		"state": "IL",
		"zip_code": "60607"
	},
	{
		"venue_id": "yelpfMzeGTei6R4zn4qqZBkKxA",
		"venue_name": "VinnyD's",
		"latitude": 41.90299,
		"longitude": -87.67034,
		"address1": "1709 W Division St",
		"address2": null,
		"address3": "",
		"city": "Chicago",
		"state": "IL",
		"zip_code": "60622"
	},
	{
		"venue_id": "yelpFHBrUwpxXCw3SUCeqnRO0Q",
		"venue_name": "Johnnie's Beef",
		"latitude": 41.908958,
		"longitude": -87.813319,
		"address1": "7500 W North Ave",
		"address2": "",
		"address3": "",
		"city": "Elmwood Park",
		"state": "IL",
		"zip_code": "60707"
	},
	{
		"venue_id": "yelp0emb3nOlWYfFEWAheAtgGQ",
		"venue_name": "Carm's Beef & Italian Ice",
		"latitude": 41.8716,
		"longitude": -87.65342,
		"address1": "1057 W Polk St",
		"address2": "",
		"address3": "",
		"city": "Chicago",
		"state": "IL",
		"zip_code": "60607"
	},
	{
		"venue_id": "yelpcV85c42f61TNP9bRCYOUiA",
		"venue_name": "Memo's Hot Dogs",
		"latitude": 41.857612,
		"longitude": -87.663135,
		"address1": "1447 W 18th St",
		"address2": "",
		"address3": "",
		"city": "Chicago",
		"state": "IL",
		"zip_code": "60608"
	},
	{
		"venue_id": "yelp8Hd4jd6DvKKea52rNGG5iQ",
		"venue_name": "Hot Dog Express",
		"latitude": 41.95894,
		"longitude": -87.75322,
		"address1": "4300 N Milwaukee Ave",
		"address2": null,
		"address3": "",
		"city": "Chicago",
		"state": "IL",
		"zip_code": "60641"
	},
	{
		"venue_id": "yelphEzNLNWkGvdJmPELDz_X_g",
		"venue_name": "Byron's Hot Dog",
		"latitude": 41.9687251,
		"longitude": -87.671074,
		"address1": "1701 W Lawrence Ave",
		"address2": "",
		"address3": "",
		"city": "Chicago",
		"state": "IL",
		"zip_code": "60640"
	},
	{
		"venue_id": "yelpL8WtXaZr2EBLUwIJ9zyqUQ",
		"venue_name": "America's Dog and Burger",
		"latitude": 41.8848311,
		"longitude": -87.6268099,
		"address1": "22 E Randolph St",
		"address2": "",
		"address3": "",
		"city": "Chicago",
		"state": "IL",
		"zip_code": "60601"
	},
	{
		"venue_id": "yelpHgX6vD5H-03oBEl4wZBd_Q",
		"venue_name": "Odge's",
		"latitude": 41.8953657,
		"longitude": -87.6771649,
		"address1": "730 N Damen Ave",
		"address2": "",
		"address3": "",
		"city": "Chicago",
		"state": "IL",
		"zip_code": "60622"
	},
	{
		"venue_id": "yelpklPMlcLglNWbiO5NFlwUuQ",
		"venue_name": "Charcoal Delights",
		"latitude": 41.9754791259766,
		"longitude": -87.7078018188477,
		"address1": "3139 W Foster Ave",
		"address2": "",
		"address3": "",
		"city": "Chicago",
		"state": "IL",
		"zip_code": "60625"
	},
	{
		"venue_id": "yelpiKrG71Xe6DRIH268iXqaow",
		"venue_name": "Devil Dawgs - Wicker Park",
		"latitude": 41.90808,
		"longitude": -87.67335,
		"address1": "1431 North Milwaukee Ave",
		"address2": "",
		"address3": null,
		"city": "Chicago",
		"state": "IL",
		"zip_code": "60622"
	},
	{
		"venue_id": "yelpaEIaQS3K45cMiSjph5B6cQ",
		"venue_name": "Portillo's Hot Dogs",
		"latitude": 41.86988,
		"longitude": -87.64059,
		"address1": "520 W Taylor St",
		"address2": "",
		"address3": "",
		"city": "Chicago",
		"state": "IL",
		"zip_code": "60607"
	},
	{
		"venue_id": "yelpRvVO_wNbmMiQ-i0FcB6euA",
		"venue_name": "Quick Bite Carry Outs",
		"latitude": 41.97567,
		"longitude": -87.68876,
		"address1": "5155 N Western Ave",
		"address2": null,
		"address3": "",
		"city": "Chicago",
		"state": "IL",
		"zip_code": "60625"
	},
	{
		"venue_id": "yelpj-MtHNaxFo3n0vOqzE5Cqw",
		"venue_name": "Al's Beef",
		"latitude": 41.9440192833767,
		"longitude": -87.6540293888061,
		"address1": "3420 N Clark St",
		"address2": "",
		"address3": "",
		"city": "Chicago",
		"state": "IL",
		"zip_code": "60657"
	},
	{
		"venue_id": "yelp6stI1fteYUDyTxB6ZkRa2w",
		"venue_name": "Lulu's Hot Dogs",
		"latitude": 41.8688733374583,
		"longitude": -87.6814892266157,
		"address1": "1000 S Leavitt St",
		"address2": "",
		"address3": "",
		"city": "Chicago",
		"state": "IL",
		"zip_code": "60612"
	},
	{
		"venue_id": "yelpcEIRtt-yZ6tZLIUhUtF8ow",
		"venue_name": "Johnny O's",
		"latitude": 41.83082,
		"longitude": -87.65061,
		"address1": "3465 S Morgan St",
		"address2": "",
		"address3": "",
		"city": "Chicago",
		"state": "IL",
		"zip_code": "60609"
	},
	{
		"venue_id": "yelp9eMmtTjY8F6DwIAsEj7LLw",
		"venue_name": "Morrie O'Malley's Hot Dogs",
		"latitude": 41.83061,
		"longitude": -87.6433,
		"address1": "3501 S Union Ave",
		"address2": "",
		"address3": "",
		"city": "Chicago",
		"state": "IL",
		"zip_code": "60609"
	},
	{
		"venue_id": "yelpz1DolQSNw76Rs2UsIb9QPw",
		"venue_name": "Wrigleyville Dogs",
		"latitude": 41.9500798989577,
		"longitude": -87.6585048933472,
		"address1": "3737 N Clark St",
		"address2": "",
		"address3": "",
		"city": "Chicago",
		"state": "IL",
		"zip_code": "60613"
	},
	{
		"venue_id": "yelpKwnuxV_YLkHUfP3dhe_qZg",
		"venue_name": "Al's Beef",
		"latitude": 41.878517243344,
		"longitude": -87.6263509706305,
		"address1": "234 S Wabash Ave",
		"address2": "",
		"address3": "",
		"city": "Chicago",
		"state": "IL",
		"zip_code": "60604"
	},
	{
		"venue_id": "yelpVgl1BhNbs784NE0M_C8FOw",
		"venue_name": "Roma's Italian Beef & Sausage",
		"latitude": 41.9581336975098,
		"longitude": -87.7470397949219,
		"address1": "4237 N Cicero Ave",
		"address2": "",
		"address3": "",
		"city": "Chicago",
		"state": "IL",
		"zip_code": "60641"
	},
	{
		"venue_id": "yelpqNcmvLmgkmu6xRaOPbdIJg",
		"venue_name": "George's Restaurant",
		"latitude": 41.83123,
		"longitude": -87.64576,
		"address1": "3445 S Halsted St",
		"address2": "",
		"address3": "",
		"city": "Chicago",
		"state": "IL",
		"zip_code": "60608"
	},
	{
		"venue_id": "yelpA4hzD23304oWjazgLC_n2w",
		"venue_name": "Ferro's",
		"latitude": 41.83853,
		"longitude": -87.63193,
		"address1": "200 W 31st St",
		"address2": "",
		"address3": "",
		"city": "Chicago",
		"state": "IL",
		"zip_code": "60616"
	},
	{
		"venue_id": "yelpd9Z_s1NJ97bK5tqQNT3n0Q",
		"venue_name": "Man-Jo-Vin Restaurant",
		"latitude": 41.94032,
		"longitude": -87.6787,
		"address1": "3224 N Damen Ave",
		"address2": "",
		"address3": "",
		"city": "Chicago",
		"state": "IL",
		"zip_code": "60618"
	},
	{
		"venue_id": "yelpzqhFTUFLmZgUBknFYGDxLg",
		"venue_name": "Al's Beef",
		"latitude": 41.8791726522451,
		"longitude": -87.6427387514541,
		"address1": "601 W Adams St",
		"address2": "",
		"address3": "",
		"city": "Chicago",
		"state": "IL",
		"zip_code": "60661"
	},
	{
		"venue_id": "yelp63VpjjtASZ88JANuyyPTvw",
		"venue_name": "Luke's on Harlem",
		"latitude": 41.93719,
		"longitude": -87.80705,
		"address1": "3130 N Harlem Ave",
		"address2": "",
		"address3": "",
		"city": "Chicago",
		"state": "IL",
		"zip_code": "60634"
	},
	{
		"venue_id": "yelp6kO1yNKbJW0jmkkp5OaLVA",
		"venue_name": "35th Street Red Hots",
		"latitude": 41.8309649,
		"longitude": -87.6390167,
		"address1": "500 W 35th St",
		"address2": "",
		"address3": "",
		"city": "Chicago",
		"state": "IL",
		"zip_code": "60616"
	},
	{
		"venue_id": "yelpkw7t-rWfeMrKMQqcXjaITA",
		"venue_name": "The Hat Chicago",
		"latitude": 41.910877,
		"longitude": -87.667938,
		"address1": "1604 W North Ave",
		"address2": "",
		"address3": "",
		"city": "Chicago",
		"state": "IL",
		"zip_code": "60622"
	},
	{
		"venue_id": "yelpUYm4ENqOL-44wCNl7T0Ksw",
		"venue_name": "Law Dawgs",
		"latitude": 41.8439092029037,
		"longitude": -87.7341828122735,
		"address1": "2607 S Kostner Ave",
		"address2": "",
		"address3": null,
		"city": "Chicago",
		"state": "IL",
		"zip_code": "60623"
	},
	{
		"venue_id": "yelpbFIKatnfOyOZopasNn_bZw",
		"venue_name": "Patio",
		"latitude": 41.869069,
		"longitude": -87.664364,
		"address1": "1503 W Taylor St",
		"address2": "",
		"address3": "",
		"city": "Chicago",
		"state": "IL",
		"zip_code": "60706"
	},
	{
		"venue_id": "yelpdt5ESp4hKmn2QBsRDArCPA",
		"venue_name": "Duk's Red Hots",
		"latitude": 41.89353,
		"longitude": -87.6675,
		"address1": "636 N Ashland Ave",
		"address2": "",
		"address3": "",
		"city": "Chicago",
		"state": "IL",
		"zip_code": "60622"
	},
	{
		"venue_id": "yelpodSkbU3Pw3Fk7fEH7ENz6A",
		"venue_name": "Little Mel's Hot Dogs",
		"latitude": 41.9220062,
		"longitude": -87.6971428,
		"address1": "2205 N California Ave",
		"address2": "",
		"address3": "",
		"city": "Chicago",
		"state": "IL",
		"zip_code": "60647"
	},
	{
		"venue_id": "yelper6Sheq641b1tew2z0Gung",
		"venue_name": "The Dog Joint",
		"latitude": 41.9184449,
		"longitude": -87.6381522,
		"address1": "350 W Armitage Ave",
		"address2": "",
		"address3": "",
		"city": "Chicago",
		"state": "IL",
		"zip_code": "60614"
	},
	{
		"venue_id": "yelpCMThH7TvRCnXicbyE6ephg",
		"venue_name": "Nicky's Carry Out",
		"latitude": 41.8301999,
		"longitude": -87.6842942,
		"address1": "3501 S Western Blvd",
		"address2": "",
		"address3": "",
		"city": "Chicago",
		"state": "IL",
		"zip_code": "60609"
	},
	{
		"venue_id": "yelpdU-8171yVqGCmr2FwAnqeg",
		"venue_name": "What Up Dog",
		"latitude": 41.9679815240903,
		"longitude": -87.7416397811543,
		"address1": "4501 W Lawrence Ave",
		"address2": "",
		"address3": null,
		"city": "Chicago",
		"state": "IL",
		"zip_code": "60630"
	},
	{
		"venue_id": "yelpfcn5oDHf_3Ml8_eTgjcbJw",
		"venue_name": "Tasty Polish Food",
		"latitude": 41.937031,
		"longitude": -87.766792,
		"address1": "3104 N Central Ave",
		"address2": "",
		"address3": "",
		"city": "Chicago",
		"state": "IL",
		"zip_code": "60634"
	},
	{
		"venue_id": "yelp_FGuXtbWEdQb7J05ZSRtYQ",
		"venue_name": "J's Corner Hot Dogs",
		"latitude": 41.9514274597168,
		"longitude": -87.7154998779297,
		"address1": "3845 N Elston Ave",
		"address2": "",
		"address3": "",
		"city": "Chicago",
		"state": "IL",
		"zip_code": "60618"
	},
	{
		"venue_id": "yelp80jtastRWCLuDaeWa26ASQ",
		"venue_name": "Dino's Carry-Outs",
		"latitude": 41.8182374,
		"longitude": -87.6971845,
		"address1": "4135 S Archer Ave",
		"address2": "",
		"address3": "",
		"city": "Chicago",
		"state": "IL",
		"zip_code": "60632"
	},
	{
		"venue_id": "yelpQ52hXGKgv6hRNxUxJNDDaQ",
		"venue_name": "Express Grill",
		"latitude": 41.85819,
		"longitude": -87.64695,
		"address1": "1730 S Halsted St",
		"address2": "",
		"address3": "",
		"city": "Chicago",
		"state": "IL",
		"zip_code": "60608"
	},
	{
		"venue_id": "yelpSZH0_zAlASYPATkEBrS5Xw",
		"venue_name": "Gold Coast Dogs",
		"latitude": 41.878655,
		"longitude": -87.638754,
		"address1": "222 S Riverside Plz",
		"address2": "",
		"address3": "Lowr LL14",
		"city": "Chicago",
		"state": "IL",
		"zip_code": "60606"
	},
	{
		"venue_id": "yelpag50KRiYxBpsDPAqWRoKUQ",
		"venue_name": "Mangis Fast Foods",
		"latitude": 41.95076,
		"longitude": -87.67599,
		"address1": "3801 N Lincoln Ave",
		"address2": "",
		"address3": "",
		"city": "Chicago",
		"state": "IL",
		"zip_code": "60613"
	},
	{
		"venue_id": "yelpZ6hX5e3o3IXzDxG-ZiEzVg",
		"venue_name": "Dave's Red Hots",
		"latitude": 41.866568,
		"longitude": -87.711599,
		"address1": "3422 W Roosevelt Rd",
		"address2": "",
		"address3": "",
		"city": "Chicago",
		"state": "IL",
		"zip_code": "60624"
	},
	{
		"venue_id": "yelpVP2cA_5oLsuF56CkenjphA",
		"venue_name": "Gold Coast Dogs",
		"latitude": 41.8847351,
		"longitude": -87.6261063,
		"address1": "159 N Wabash Ave",
		"address2": "",
		"address3": "",
		"city": "Chicago",
		"state": "IL",
		"zip_code": "60601"
	},
	{
		"venue_id": "yelpxgxTOQ43AUnRVTNjyMdDBQ",
		"venue_name": "Hound Dogs Burgers & Teriyaki",
		"latitude": 41.890602823547,
		"longitude": -87.6839975906774,
		"address1": "2257 W Grand Ave",
		"address2": "",
		"address3": "",
		"city": "Chicago",
		"state": "IL",
		"zip_code": "60612"
	},
	{
		"venue_id": "yelp42xyPbAvunyHYsjfbYr0uQ",
		"venue_name": "Tommy's on Grand",
		"latitude": 41.9203199,
		"longitude": -87.77585,
		"address1": "6001 W Grand Ave",
		"address2": null,
		"address3": "",
		"city": "Chicago",
		"state": "IL",
		"zip_code": "60639"
	},
	{
		"venue_id": "yelpRBDKNgvl7WgR7NgsCfQr_A",
		"venue_name": "Pete's Red Hot's",
		"latitude": 41.8653103238456,
		"longitude": -87.7838945388794,
		"address1": "6346 Roosevelt Rd",
		"address2": "",
		"address3": "",
		"city": "Oak Park",
		"state": "IL",
		"zip_code": "60304"
	},
	{
		"venue_id": "yelpcyac93exGPUEuqVtWAZ_WA",
		"venue_name": "Donald's Famous Hot Dogs",
		"latitude": 41.805606842041,
		"longitude": -87.762321472168,
		"address1": "4759 S Central Ave",
		"address2": "",
		"address3": "",
		"city": "Chicago",
		"state": "IL",
		"zip_code": "60686"
	},
	{
		"venue_id": "yelpuP2cJvU88BUaUNVrYImKgQ",
		"venue_name": "Donald's Famous Hot Dogs",
		"latitude": 41.849437,
		"longitude": -87.68518,
		"address1": "2325 S Western Ave",
		"address2": "",
		"address3": "",
		"city": "Chicago",
		"state": "IL",
		"zip_code": "60608"
	},
	{
		"venue_id": "yelpDfeYtN_oGmeW0vwglmgRxw",
		"venue_name": "Urban Counter",
		"latitude": 41.86691,
		"longitude": -87.6253,
		"address1": "1221 S Wabash Ave",
		"address2": "",
		"address3": "",
		"city": "Chicago",
		"state": "IL",
		"zip_code": "60605"
	},
	{
		"venue_id": "yelpUxAbyf8insl_1wxbphOGJA",
		"venue_name": "Duke's",
		"latitude": 41.984678483555,
		"longitude": -87.768046699171,
		"address1": "5659 N Central Ave",
		"address2": "",
		"address3": "",
		"city": "Chicago",
		"state": "IL",
		"zip_code": "60646"
	},
	{
		"venue_id": "yelpu5c5jMCjoWIzevVnYtz-0A",
		"venue_name": "The Dog Stop",
		"latitude": 41.9386749267578,
		"longitude": -87.7789916992188,
		"address1": "6100 W Belmont Ave",
		"address2": "",
		"address3": "",
		"city": "Chicago",
		"state": "IL",
		"zip_code": "60634"
	},
	{
		"venue_id": "yelpMraYctoQ_xr8ayXkD2G0EQ",
		"venue_name": "Jay's Italian Beef & Sausage",
		"latitude": 41.96093,
		"longitude": -87.78721,
		"address1": "4418 N Narragansett Ave",
		"address2": "",
		"address3": "",
		"city": "Harwood Heights",
		"state": "IL",
		"zip_code": "60706"
	},
	{
		"venue_id": "yelpm-JHePimUMAyYnhfms3yTA",
		"venue_name": "Dog House Grill",
		"latitude": 41.9102094443185,
		"longitude": -87.6348881739452,
		"address1": "1534 N Wells St",
		"address2": "",
		"address3": "",
		"city": "Chicago",
		"state": "IL",
		"zip_code": "60610"
	},
	{
		"venue_id": "yelprDrtJLW_-x21gXQql8kuxQ",
		"venue_name": "The Hut",
		"latitude": 41.8281211853027,
		"longitude": -87.6944122314453,
		"address1": "3601 S California Ave",
		"address2": "",
		"address3": "",
		"city": "Chicago",
		"state": "IL",
		"zip_code": "60632"
	},
	{
		"venue_id": "yelpwVHsCVyuTUD8l_RHMm9SLQ",
		"venue_name": "Jr\u2019s Red Hots",
		"latitude": 41.91744,
		"longitude": -87.68652,
		"address1": "2345 W Armitage Ave",
		"address2": "",
		"address3": null,
		"city": "Chicago",
		"state": "IL",
		"zip_code": "60647"
	},
	{
		"venue_id": "yelpbu-QcR2BO9vfAUeGx9a3ow",
		"venue_name": "Fran's Beef",
		"latitude": 41.85438,
		"longitude": -87.66383,
		"address1": "2021 S Blue Island Ave",
		"address2": "",
		"address3": "",
		"city": "Chicago",
		"state": "IL",
		"zip_code": "60608"
	},
	{
		"venue_id": "yelpiWQbAreWnbu4OWpCIS1NWg",
		"venue_name": "America's Dog",
		"latitude": 41.8919826,
		"longitude": -87.6091808,
		"address1": "700 E Grand Ave",
		"address2": "Ste 121",
		"address3": null,
		"city": "Chicago",
		"state": "IL",
		"zip_code": "60611"
	},
	{
		"venue_id": "yelp_6lbqxYr--EW-GaWnVppag",
		"venue_name": "Meatheads",
		"latitude": 42.0030394775867,
		"longitude": -87.7284127932479,
		"address1": "6734 N Lincoln Ave",
		"address2": "",
		"address3": "",
		"city": "Lincolnwood",
		"state": "IL",
		"zip_code": "60712"
	},
	{
		"venue_id": "yelp3NeJcGGOSGn2xbNzx6SBFA",
		"venue_name": "Relish Chicago Hot Dogs",
		"latitude": 41.8781144454851,
		"longitude": -87.6239349160716,
		"address1": "203 S Michigan Ave",
		"address2": null,
		"address3": "",
		"city": "Chicago",
		"state": "IL",
		"zip_code": "60603"
	},
	{
		"venue_id": "yelpIcCnGRFElCujJ7gDWLRg-Q",
		"venue_name": "Al's Beef",
		"latitude": 41.9324221,
		"longitude": -87.6880549,
		"address1": "2804 N Western Ave",
		"address2": "",
		"address3": "",
		"city": "Chicago",
		"state": "IL",
		"zip_code": "60618"
	},
	{
		"venue_id": "yelp1B_tBA1N2UiWTml1nYFJsg",
		"venue_name": "Vienna Beef Factory Store",
		"latitude": 41.8237901473538,
		"longitude": -87.6506320014596,
		"address1": "3847 S Morgan St",
		"address2": "",
		"address3": null,
		"city": "Chicago",
		"state": "IL",
		"zip_code": "60609"
	},
	{
		"venue_id": "yelp5q0X5lqAwvscWpp6Zr0c4A",
		"venue_name": "The Submarine Pier",
		"latitude": 41.8203468322754,
		"longitude": -87.6943969726562,
		"address1": "4048 S Archer Ave",
		"address2": "",
		"address3": "",
		"city": "Chicago",
		"state": "IL",
		"zip_code": "60632"
	},
	{
		"venue_id": "yelpcUoqbnyITL1myrn-PSdRmQ",
		"venue_name": "Hot Doug's Wrigley Field",
		"latitude": 41.9488942413386,
		"longitude": -87.6545611023903,
		"address1": "1049 W Waveland Ave",
		"address2": "",
		"address3": "",
		"city": "Chicago",
		"state": "IL",
		"zip_code": "60613"
	},
	{
		"venue_id": "yelpA8m1BtSwEXJu2_qVmQ1Kzg",
		"venue_name": "Best Submarine",
		"latitude": 41.909934,
		"longitude": -87.694114,
		"address1": "2653 W North Ave",
		"address2": null,
		"address3": "",
		"city": "Chicago",
		"state": "IL",
		"zip_code": "60647"
	},
	{
		"venue_id": "yelpz3dNfcZMoFckPBoDkkrZsQ",
		"venue_name": "Wilson's Dogs",
		"latitude": 41.90279,
		"longitude": -87.66704,
		"address1": "1141 N Ashland Ave",
		"address2": null,
		"address3": "",
		"city": "Chicago",
		"state": "IL",
		"zip_code": "60622"
	},
	{
		"venue_id": "yelpRf4nWeYwp23r2mP7AExvTQ",
		"venue_name": "Del Campo Tacos",
		"latitude": 41.864596,
		"longitude": -87.607685,
		"address1": "1300 S Lynn White Dr",
		"address2": "",
		"address3": "12st Beach",
		"city": "Chicago",
		"state": "IL",
		"zip_code": "60605"
	},
	{
		"venue_id": "yelplFQDkmn_Pj_X-79n38ZA7w",
		"venue_name": "Sammy's Red Hots",
		"latitude": 41.9047721526073,
		"longitude": -87.6405190676451,
		"address1": "1241 N Clybourn Ave",
		"address2": "",
		"address3": "",
		"city": "Chicago",
		"state": "IL",
		"zip_code": "60610"
	},
	{
		"venue_id": "yelpHAGqYkl_PyngS9k0ADFrzQ",
		"venue_name": "Hot Dog Fiend",
		"latitude": 41.8825950622559,
		"longitude": -87.6369323730469,
		"address1": "",
		"address2": "",
		"address3": null,
		"city": "Chicago",
		"state": "IL",
		"zip_code": "60606"
	},
	{
		"venue_id": "yelpyLYLb18ClMlbXX2CeXN62Q",
		"venue_name": "Kate & Jan Hot Dogs",
		"latitude": 41.8842506408691,
		"longitude": -87.6324462890625,
		"address1": "",
		"address2": "",
		"address3": "",
		"city": "Chicago",
		"state": "IL",
		"zip_code": ""
	},
	{
		"venue_id": "yelpEdKG2DIWoHR2W7gc49N4rg",
		"venue_name": "Mr Submarine",
		"latitude": 41.9249099,
		"longitude": -87.66665,
		"address1": "1525 W Fullerton Ave",
		"address2": "",
		"address3": "",
		"city": "Chicago",
		"state": "IL",
		"zip_code": "60614"
	},
	{
		"venue_id": "yelp44b4Spa8dkzQ5-Uvm_3zTA",
		"venue_name": "Henry's Drive-In",
		"latitude": 41.8333926259416,
		"longitude": -87.7747843142409,
		"address1": "6031 W Ogden Ave",
		"address2": "",
		"address3": "",
		"city": "Cicero",
		"state": "IL",
		"zip_code": "60804"
	},
	{
		"venue_id": "yelpUqIOR20hV69uo-IhWSs90g",
		"venue_name": "Scatchell's Beef & Pizza",
		"latitude": 41.8516807556152,
		"longitude": -87.7420501708984,
		"address1": "4700 W Cermak Rd",
		"address2": "",
		"address3": "",
		"city": "Cicero",
		"state": "IL",
		"zip_code": "60804"
	},
	{
		"venue_id": "yelpnnT1s9xsRtI7Aay63Rsr5g",
		"venue_name": "Bunny Hutch",
		"latitude": 41.9979972839355,
		"longitude": -87.7206115722656,
		"address1": "6438 N Lincoln Ave",
		"address2": "",
		"address3": "",
		"city": "Lincolnwood",
		"state": "IL",
		"zip_code": "60712"
	},
	{
		"venue_id": "yelpvZhYvVAfOyn7Fz_gtJO3WA",
		"venue_name": "Relish Chicago Hot Dogs",
		"latitude": 41.8920769,
		"longitude": -87.6125956,
		"address1": "550 E Grand",
		"address2": null,
		"address3": "",
		"city": "Chicago",
		"state": "IL",
		"zip_code": "60611"
	},
	{
		"venue_id": "yelpqGtrDyj_z8Q2SQx2gB_WPQ",
		"venue_name": "Delicias Mexicanas",
		"latitude": 41.84446,
		"longitude": -87.72895,
		"address1": "4148 W 26th St",
		"address2": "",
		"address3": "",
		"city": "Chicago",
		"state": "IL",
		"zip_code": "60623"
	},
	{
		"venue_id": "yelpkxOca9TGO4BmCGEoDjMo2w",
		"venue_name": "Parky's Hot Dogs",
		"latitude": 41.880268,
		"longitude": -87.805114,
		"address1": "329 Harlem Ave",
		"address2": "",
		"address3": "",
		"city": "Forest Park",
		"state": "IL",
		"zip_code": "60130"
	},
	{
		"venue_id": "yelpC9g-N9uXfbCzz7Ru6y3hsA",
		"venue_name": "Firehouse Grill",
		"latitude": 41.866155,
		"longitude": -87.765773,
		"address1": "5646 W Roosevelt Rd",
		"address2": null,
		"address3": null,
		"city": "Chicago",
		"state": "IL",
		"zip_code": "60644"
	},
	{
		"venue_id": "yelpGho8KHeATj5gWWRNuyRzdg",
		"venue_name": "Endi's Restaurant",
		"latitude": 41.931,
		"longitude": -87.76725,
		"address1": "5625 W Diversey Ave",
		"address2": "",
		"address3": "",
		"city": "Chicago",
		"state": "IL",
		"zip_code": "60639"
	},
	{
		"venue_id": "yelpkl8Rbtt9fPzlQ8FUsL1uYg",
		"venue_name": "Top Dog",
		"latitude": 41.9903479,
		"longitude": -87.7330441,
		"address1": "6005 N Sauganash Ave",
		"address2": "",
		"address3": "",
		"city": "Chicago",
		"state": "IL",
		"zip_code": "60646"
	},
	{
		"venue_id": "yelp-wicsaSVAEvb6wHkJ4V6_g",
		"venue_name": "SausageFest Chicago",
		"latitude": 41.9472398823443,
		"longitude": -87.6563736879637,
		"address1": "1060 W Addison St",
		"address2": "",
		"address3": "",
		"city": "Chicago",
		"state": "IL",
		"zip_code": "60613"
	},
	{
		"venue_id": "yelpeS2Ms-rVM4f5fnfdp-MOjQ",
		"venue_name": "Alley Dogs",
		"latitude": 41.9486855,
		"longitude": -87.6884913,
		"address1": "3700 N Western Ave",
		"address2": "",
		"address3": "",
		"city": "Chicago",
		"state": "IL",
		"zip_code": "60618"
	},
	{
		"venue_id": "yelpBXRJqU63JXbwZOOrtUq1lA",
		"venue_name": "Lucky Dog",
		"latitude": 41.85798,
		"longitude": -87.8037499,
		"address1": "7151 16th St",
		"address2": "",
		"address3": "",
		"city": "Berwyn",
		"state": "IL",
		"zip_code": "60402"
	},
	{
		"venue_id": "yelpsK32i3vlBCe32K2prO2lnQ",
		"venue_name": "Fritzy's Lincoln Park",
		"latitude": 41.91805,
		"longitude": -87.64711,
		"address1": "723 W Armitage Ave",
		"address2": null,
		"address3": null,
		"city": "Chicago",
		"state": "IL",
		"zip_code": "60614"
	},
	{
		"venue_id": "yelpcKNIzkZl3RZr9Q5IDzVC6g",
		"venue_name": "Nicky's Hot Dogs",
		"latitude": 41.80957,
		"longitude": -87.72326,
		"address1": "4601 S Pulaski Rd",
		"address2": "",
		"address3": "",
		"city": "Chicago",
		"state": "IL",
		"zip_code": "60632"
	},
	{
		"venue_id": "yelpyOevdLj11C7tZZNZbaIGZA",
		"venue_name": "John's Hot Dog's",
		"latitude": 41.8138270580066,
		"longitude": -87.6882600246638,
		"address1": "Corner of 44th & Maplewood",
		"address2": "",
		"address3": "",
		"city": "Chicago",
		"state": "IL",
		"zip_code": "60632"
	},
	{
		"venue_id": "yelp_jWx3-zLN6agX95wlgxphg",
		"venue_name": "Portillo's Hot Dogs",
		"latitude": 41.9678207403546,
		"longitude": -87.8101319074631,
		"address1": "7308 W Lawrence Ave",
		"address2": null,
		"address3": null,
		"city": "Harwood Heights",
		"state": "IL",
		"zip_code": "60706"
	},
	{
		"venue_id": "yelpxujJaaStjbVpOWxm9s-fHQ",
		"venue_name": "King Beefy",
		"latitude": 41.9541585,
		"longitude": -87.6681005,
		"address1": "1513 W Irving Park",
		"address2": null,
		"address3": "",
		"city": "Chicago",
		"state": "IL",
		"zip_code": "60613"
	},
	{
		"venue_id": "yelpHk2JxHQxFCYCEIdv91VXlw",
		"venue_name": "L & M Red Hot",
		"latitude": 41.80725,
		"longitude": -87.75147,
		"address1": "5125 W 47th St",
		"address2": "",
		"address3": "",
		"city": "Chicago",
		"state": "IL",
		"zip_code": "60638"
	},
	{
		"venue_id": "yelpofGJzQcbALU_Q4Bo8Fm-bA",
		"venue_name": "The Lucky Dog",
		"latitude": 41.86518,
		"longitude": -87.77625,
		"address1": "6043 W Roosevelt Rd",
		"address2": "",
		"address3": "",
		"city": "Cicero",
		"state": "IL",
		"zip_code": "60804"
	},
	{
		"venue_id": "yelpweMKAYGyYz9Ez_5aliey6g",
		"venue_name": "Millenium Park Hot Dog Vendor",
		"latitude": 41.8844843839487,
		"longitude": -87.6244120293785,
		"address1": "Michigan And Randolph",
		"address2": "",
		"address3": "",
		"city": "Chicago",
		"state": "IL",
		"zip_code": "60686"
	},
	{
		"venue_id": "yelpb_SPgVncH4sZHbci-6J3mg",
		"venue_name": "Original Maxwell Street",
		"latitude": 41.8736088,
		"longitude": -87.7008651,
		"address1": "601 S Sacramento Blvd",
		"address2": null,
		"address3": null,
		"city": "Chicago",
		"state": "IL",
		"zip_code": "60612"
	},
	{
		"venue_id": "yelpZDYihMJi1I_46YemincHsg",
		"venue_name": "Jack's Hot Dogs",
		"latitude": 41.917,
		"longitude": -87.71651,
		"address1": "3577 W Armitage Ave",
		"address2": "",
		"address3": "",
		"city": "Chicago",
		"state": "IL",
		"zip_code": "60647"
	},
	{
		"venue_id": "yelpX6vEkCVT_m4w8THVjALOBw",
		"venue_name": "B Side Burger",
		"latitude": 41.95404,
		"longitude": -87.72181,
		"address1": "3734 W Irving Park Rd",
		"address2": "",
		"address3": null,
		"city": "Chicago",
		"state": "IL",
		"zip_code": "60618"
	},
	{
		"venue_id": "yelph98RFtlxEmdt6acKWNuG7Q",
		"venue_name": "Big Dawgs",
		"latitude": 41.9473248,
		"longitude": -87.6564861,
		"address1": "1060 W Addison St",
		"address2": "",
		"address3": "Wrigley Field Lower Terrace",
		"city": "Chicago",
		"state": "IL",
		"zip_code": "60657"
	},
	{
		"venue_id": "yelpWjqcBISbSRx_psOgkPLlzg",
		"venue_name": "Dwak Dogs",
		"latitude": 41.92477,
		"longitude": -87.72706,
		"address1": "4000 W Fullerton Ave",
		"address2": "",
		"address3": "Fullerton and Pulaski",
		"city": "Chicago",
		"state": "IL",
		"zip_code": "60647"
	},
	{
		"venue_id": "yelpd09yHwWO4m1Ors0TLqpmmg",
		"venue_name": "Millenium Dogs",
		"latitude": 41.8851478,
		"longitude": -87.6242525,
		"address1": "151 N Michigan Ave",
		"address2": "Ste C43",
		"address3": "",
		"city": "Chicago",
		"state": "IL",
		"zip_code": "60601"
	},
	{
		"venue_id": "yelpNLcw-vDNqBWI8vGIlhmBMA",
		"venue_name": "Red Hot Chicago",
		"latitude": 41.9446569,
		"longitude": -87.7127649,
		"address1": "3500 N Kimball Ave",
		"address2": "",
		"address3": "",
		"city": "Chicago",
		"state": "IL",
		"zip_code": "60618"
	},
	{
		"venue_id": "yelpj_2R7YinhgSamKA8-wjJkw",
		"venue_name": "Museum Campus Cafe",
		"latitude": 41.8674408,
		"longitude": -87.6191816,
		"address1": "1200 S Lake Shore Dr",
		"address2": "",
		"address3": "Shedd Aquarium",
		"city": "Chicago",
		"state": "IL",
		"zip_code": "60605"
	},
	{
		"venue_id": "yelpoOthYEUFzhWmswA4fTllxw",
		"venue_name": "Petey's Restaurant",
		"latitude": 41.8093445846783,
		"longitude": -87.6330973953009,
		"address1": "250 W 47th St",
		"address2": "",
		"address3": null,
		"city": "Chicago",
		"state": "IL",
		"zip_code": "60609"
	},
	{
		"venue_id": "yelpAccFNnwBYf3Oq6vXLOjkmQ",
		"venue_name": "Nicky's Hot Dog",
		"latitude": 41.8083992004395,
		"longitude": -87.7032089233398,
		"address1": "3140 W 47th St",
		"address2": "",
		"address3": "",
		"city": "Chicago",
		"state": "IL",
		"zip_code": "60632"
	},
	{
		"venue_id": "yelp8lCKYoXGGKm8UHPJYbIBcA",
		"venue_name": "Lillie's Park Grill and Cafe",
		"latitude": 41.8871037740131,
		"longitude": -87.6307547901477,
		"address1": "71 W Riverwalk 5502 S Russell Dr",
		"address2": "",
		"address3": null,
		"city": "Chicago",
		"state": "IL",
		"zip_code": "60615"
	},
	{
		"venue_id": "yelps-rEUOU4nvcGI5ObR7y3uQ",
		"venue_name": "Flashy Hotdogs",
		"latitude": 41.9613556,
		"longitude": -87.6862556,
		"address1": "2300 N Montrose",
		"address2": null,
		"address3": "",
		"city": "Chicago",
		"state": "IL",
		"zip_code": "60618"
	},
	{
		"venue_id": "yelpJX6vStYMMcjss6Jdax-Mlg",
		"venue_name": "Danny G's",
		"latitude": 41.8842506408691,
		"longitude": -87.6324462890625,
		"address1": "",
		"address2": "",
		"address3": "",
		"city": "Chicago",
		"state": "IL",
		"zip_code": ""
	},
	{
		"venue_id": "yelp-cQGvctg6spJvl8i3DUdLw",
		"venue_name": "Burnham Grocers & Deli",
		"latitude": 41.8714077025652,
		"longitude": -87.6259600371122,
		"address1": "828 S Wabash Ave",
		"address2": null,
		"address3": null,
		"city": "Chicago",
		"state": "IL",
		"zip_code": "60605"
	},
	{
		"venue_id": "yelpfW5r9y_teYGkDv4xZYRDtQ",
		"venue_name": "Gold Coast Dogs",
		"latitude": 41.98998,
		"longitude": -87.71702,
		"address1": "3525 W Peterson Ave",
		"address2": "",
		"address3": "",
		"city": "Chicago",
		"state": "IL",
		"zip_code": "60659"
	},
	{
		"venue_id": "yelp-RvmhLp6I90wJnhqB2UrdQ",
		"venue_name": "Goldie's Hot Dogs",
		"latitude": 41.89129,
		"longitude": -87.60656,
		"address1": "600 E Grand Ave",
		"address2": null,
		"address3": "",
		"city": "Chicago",
		"state": "IL",
		"zip_code": "60611"
	},
	{
		"venue_id": "yelp7HweSr3TjMvL-aLWM-EF7A",
		"venue_name": "Hot Buns",
		"latitude": 41.8286722311093,
		"longitude": -87.7732830494642,
		"address1": "6001 W 35th St",
		"address2": "",
		"address3": null,
		"city": "Cicero",
		"state": "IL",
		"zip_code": "60804"
	},
	{
		"venue_id": "yelpJqN_EzKgmdMnMwaR-rnGpA",
		"venue_name": "Hot Dog @ Home Depot",
		"latitude": 41.841118212987,
		"longitude": -87.7422777685134,
		"address1": "4701 West 26th St",
		"address2": "",
		"address3": "",
		"city": "Cicero",
		"state": "IL",
		"zip_code": "60804"
	}
]