[
	{
		"venue_id": "yelpdLS8GPg-K1O-zJ3VJAtiyg",
		"venue_name": "India House Restaurant",
		"latitude": 41.8914851,
		"longitude": -87.6301826,
		"address1": "59 W Grand Ave",
		"address2": "",
		"address3": "",
		"city": "Chicago",
		"state": "IL",
		"zip_code": "60654"
	},
	{
		"venue_id": "yelpWM2JQP4yzQHPbIh-wNdK6g",
		"venue_name": "Cumin",
		"latitude": 41.9074789,
		"longitude": -87.6732148,
		"address1": "1414 N Milwaukee Ave",
		"address2": "",
		"address3": "",
		"city": "Chicago",
		"state": "IL",
		"zip_code": "60622"
	},
	{
		"venue_id": "yelpvx8FYc1aKtf8TyhH8-qipA",
		"venue_name": "Tandoor Char House",
		"latitude": 41.9306399,
		"longitude": -87.64928,
		"address1": "2652 N Halsted St",
		"address2": "",
		"address3": "",
		"city": "Chicago",
		"state": "IL",
		"zip_code": "60614"
	},
	{
		"venue_id": "yelpsYzkzjM2upp2vW32vPaJ9w",
		"venue_name": "Ghareeb Nawaz",
		"latitude": 41.997979,
		"longitude": -87.681612,
		"address1": "2032 W Devon Ave",
		"address2": "",
		"address3": "",
		"city": "Chicago",
		"state": "IL",
		"zip_code": "60659"
	},
	{
		"venue_id": "yelp2cETD5PTiMqD7LihZN0TRg",
		"venue_name": "Chiya Chai Cafe",
		"latitude": 41.9314223820557,
		"longitude": -87.7114093648563,
		"address1": "2770 N Milwaukee Ave",
		"address2": "",
		"address3": null,
		"city": "Chicago",
		"state": "IL",
		"zip_code": "60647"
	},
	{
		"venue_id": "yelpAKOxQTqo_t8V0LwsXXw-xA",
		"venue_name": "Pub Royale",
		"latitude": 41.90286,
		"longitude": -87.67916,
		"address1": "2049 W Division",
		"address2": null,
		"address3": "",
		"city": "Chicago",
		"state": "IL",
		"zip_code": "60622"
	},
	{
		"venue_id": "yelp1GiybV2faVpTt1zw13CzLA",
		"venue_name": "Rangoli",
		"latitude": 41.910198,
		"longitude": -87.68809,
		"address1": "2421 W North Ave",
		"address2": "",
		"address3": "",
		"city": "Chicago",
		"state": "IL",
		"zip_code": "60647"
	},
	{
		"venue_id": "yelpMBSKDy2NO0Md9Syvzh0dRw",
		"venue_name": "The Indian Garden",
		"latitude": 41.8932472,
		"longitude": -87.6209043,
		"address1": "247 E Ontario St",
		"address2": "Ste 2",
		"address3": "",
		"city": "Chicago",
		"state": "IL",
		"zip_code": "60611"
	},
	{
		"venue_id": "yelp4_D3FA4GoRCj6e_aG2DrQw",
		"venue_name": "Naansense",
		"latitude": 41.8852573615387,
		"longitude": -87.6336954232788,
		"address1": "171 N Wells St",
		"address2": null,
		"address3": "",
		"city": "Chicago",
		"state": "IL",
		"zip_code": "60606"
	},
	{
		"venue_id": "yelpNj1S50plrXjrchoDuNT95Q",
		"venue_name": "Bombay Wraps",
		"latitude": 41.8839797555164,
		"longitude": -87.6341509183647,
		"address1": "122 N Wells St",
		"address2": "",
		"address3": "",
		"city": "Chicago",
		"state": "IL",
		"zip_code": "60606"
	},
	{
		"venue_id": "yelpfdYJPKM1FuZt4zErtS11ig",
		"venue_name": "Uru Swati",
		"latitude": 41.99736,
		"longitude": -87.69573,
		"address1": "2629 W Devon Ave",
		"address2": "",
		"address3": "",
		"city": "Chicago",
		"state": "IL",
		"zip_code": "60659"
	},
	{
		"venue_id": "yelpcbcyTiqYHt-xALUoD3Zlbg",
		"venue_name": "Mild 2 Spicy",
		"latitude": 41.9328649,
		"longitude": -87.64739,
		"address1": "714 W Diversey Pkwy",
		"address2": "",
		"address3": null,
		"city": "Chicago",
		"state": "IL",
		"zip_code": "60614"
	},
	{
		"venue_id": "yelpRyP97ONsO612MeIQfzhmoA",
		"venue_name": "Nepal House Indian & Nepalese",
		"latitude": 41.8656524,
		"longitude": -87.623901,
		"address1": "1301 S Michigan Ave",
		"address2": "",
		"address3": "",
		"city": "Chicago",
		"state": "IL",
		"zip_code": "60605"
	},
	{
		"venue_id": "yelp2J0wXaUS701x3WvzBiPBDQ",
		"venue_name": "The Spice Room",
		"latitude": 41.91777,
		"longitude": -87.69972,
		"address1": "2906 W Armitage Ave",
		"address2": null,
		"address3": "",
		"city": "Chicago",
		"state": "IL",
		"zip_code": "60647"
	},
	{
		"venue_id": "yelplAUWnPtR1PsPox0wtFgVYQ",
		"venue_name": "Hakka Bakka Indian Kati Rolls",
		"latitude": 41.9250951,
		"longitude": -87.660277,
		"address1": "1251 W Fullerton Ave",
		"address2": null,
		"address3": "",
		"city": "Chicago",
		"state": "IL",
		"zip_code": "60614"
	},
	{
		"venue_id": "yelpeZx4x6wWphM9hZalm2L1lA",
		"venue_name": "Chicago Curry House",
		"latitude": 41.87086,
		"longitude": -87.62846,
		"address1": "899 S Plymouth Ct",
		"address2": "",
		"address3": "",
		"city": "Chicago",
		"state": "IL",
		"zip_code": "60605"
	},
	{
		"venue_id": "yelp0lbMnxIqYSeiXacea56DTg",
		"venue_name": "Bombay Wraps",
		"latitude": 41.8927337,
		"longitude": -87.619067,
		"address1": "330 E Ohio St",
		"address2": "",
		"address3": "",
		"city": "Chicago",
		"state": "IL",
		"zip_code": "60611"
	},
	{
		"venue_id": "yelpvWC4wd1bYO2e-6WvN94M0g",
		"venue_name": "Anmol Barbecue Restaurant",
		"latitude": 41.99779,
		"longitude": -87.70191,
		"address1": "2858 W Devon Ave",
		"address2": null,
		"address3": "",
		"city": "Chicago",
		"state": "IL",
		"zip_code": "60659"
	},
	{
		"venue_id": "yelpeJzm8nb1sIiJOnBdUV-GZA",
		"venue_name": "Bundoo Khan -Chicago",
		"latitude": 41.9975505,
		"longitude": -87.6939106,
		"address1": "2539 W Devon Ave",
		"address2": null,
		"address3": "",
		"city": "Chicago",
		"state": "IL",
		"zip_code": "60659"
	},
	{
		"venue_id": "yelp2TyiepxLggw8Zo6-oIDZ2w",
		"venue_name": "JK Kabab House",
		"latitude": 41.9979372,
		"longitude": -87.6948849,
		"address1": "6412 N Rockwell St",
		"address2": "",
		"address3": "",
		"city": "Chicago",
		"state": "IL",
		"zip_code": "60645"
	},
	{
		"venue_id": "yelp4UMVbAckoHU21bqrhTv4PA",
		"venue_name": "Chef Luciano",
		"latitude": 41.8526205,
		"longitude": -87.6250488,
		"address1": "49 E Cermak Rd",
		"address2": "",
		"address3": "",
		"city": "Chicago",
		"state": "IL",
		"zip_code": "60616"
	},
	{
		"venue_id": "yelpcSm7J1LlgxHMnHAQlv_BNg",
		"venue_name": "Gaylord Fine Indian Cuisine",
		"latitude": 41.900337,
		"longitude": -87.62527,
		"address1": "100 E Walton St",
		"address2": "",
		"address3": "",
		"city": "Chicago",
		"state": "IL",
		"zip_code": "60611"
	},
	{
		"venue_id": "yelpLYRjqzpGCydsQMKtZQpuwA",
		"venue_name": "Shan Restaurant",
		"latitude": 41.9750372,
		"longitude": -87.6551149,
		"address1": "5060 N Sheridan Rd",
		"address2": "",
		"address3": "",
		"city": "Chicago",
		"state": "IL",
		"zip_code": "60640"
	},
	{
		"venue_id": "yelpwoIo96mQm9ZCI51XoMdcjg",
		"venue_name": "Vermilion",
		"latitude": 41.8901732672856,
		"longitude": -87.6284838567184,
		"address1": "10 W Hubbard St",
		"address2": "",
		"address3": "",
		"city": "Chicago",
		"state": "IL",
		"zip_code": "60654"
	},
	{
		"venue_id": "yelpD03TeOrCvHgeuBe88bn0lw",
		"venue_name": "Himalayan Restaurant",
		"latitude": 41.874164,
		"longitude": -87.6261049,
		"address1": "606 S Wabash Ave",
		"address2": null,
		"address3": "",
		"city": "Chicago",
		"state": "IL",
		"zip_code": "60605"
	},
	{
		"venue_id": "yelp2sg-k6lOjbXiiih1NziXBg",
		"venue_name": "Essence of India",
		"latitude": 41.96517,
		"longitude": -87.6859,
		"address1": "4601 N Lincoln Ave",
		"address2": null,
		"address3": "",
		"city": "Chicago",
		"state": "IL",
		"zip_code": "60625"
	},
	{
		"venue_id": "yelpTd8WChkytf2WBDgBzGtmow",
		"venue_name": "Karahi Corner",
		"latitude": 41.99787,
		"longitude": -87.6969,
		"address1": "2658 W Devon Ave",
		"address2": null,
		"address3": "",
		"city": "Chicago",
		"state": "IL",
		"zip_code": "60659"
	},
	{
		"venue_id": "yelpsmLd2mr0Wn7KSOVZNFLC3g",
		"venue_name": "Udupi Palace Restaurant",
		"latitude": 41.99739,
		"longitude": -87.69398,
		"address1": "2543 W Devon Ave",
		"address2": "",
		"address3": "",
		"city": "Chicago",
		"state": "IL",
		"zip_code": "60659"
	},
	{
		"venue_id": "yelpLrTJPD0wO8L_zBbWwzbirg",
		"venue_name": "Raj Darbar",
		"latitude": 41.9309,
		"longitude": -87.6493,
		"address1": "2660 N Halsted St",
		"address2": "",
		"address3": "",
		"city": "Chicago",
		"state": "IL",
		"zip_code": "60614"
	},
	{
		"venue_id": "yelp1UySapAIpFe7xjrHbgXerQ",
		"venue_name": "Indian Clay Pot",
		"latitude": 41.9543349,
		"longitude": -87.6744228,
		"address1": "1804 W Irving Park Rd",
		"address2": "",
		"address3": "",
		"city": "Chicago",
		"state": "IL",
		"zip_code": "60613"
	},
	{
		"venue_id": "yelpnikHMPArO0qCbfW5txuohA",
		"venue_name": "Curry Point",
		"latitude": 41.9531831,
		"longitude": -87.6543651,
		"address1": "3913 N Sheridan Rd",
		"address2": null,
		"address3": null,
		"city": "Chicago",
		"state": "IL",
		"zip_code": "60613"
	},
	{
		"venue_id": "yelpgVMvkxKcvPbggdyDP98kfg",
		"venue_name": "Paprika",
		"latitude": 41.9683151245117,
		"longitude": -87.6932220458984,
		"address1": "2547A W Lawrence Ave",
		"address2": "",
		"address3": "",
		"city": "Chicago",
		"state": "IL",
		"zip_code": "60625"
	},
	{
		"venue_id": "yelpGWNhuL7cyQID_6azMKZeEQ",
		"venue_name": "Himshikar",
		"latitude": 41.99094,
		"longitude": -87.74794,
		"address1": "6031 N Cicero Ave",
		"address2": null,
		"address3": "",
		"city": "Chicago",
		"state": "IL",
		"zip_code": "60646"
	},
	{
		"venue_id": "yelpoGYq7TFSrokJ_1V2qsrU7g",
		"venue_name": "Tiffin",
		"latitude": 41.9977664,
		"longitude": -87.6938693,
		"address1": "2536 W Devon Ave",
		"address2": "",
		"address3": "",
		"city": "Chicago",
		"state": "IL",
		"zip_code": "60659"
	},
	{
		"venue_id": "yelpdc3QDT31XmMF5EU1HmrKZg",
		"venue_name": "Nepal House",
		"latitude": 41.9975194,
		"longitude": -87.6949478,
		"address1": "2601 West Devon Ave",
		"address2": null,
		"address3": "",
		"city": "Chicago",
		"state": "IL",
		"zip_code": "60659"
	},
	{
		"venue_id": "yelp07JG3jQ4HEQ9eftvUiFxaQ",
		"venue_name": "Indo-Pak Grill",
		"latitude": 41.9683849,
		"longitude": -87.7264277,
		"address1": "3920 W Lawrence Ave",
		"address2": "",
		"address3": null,
		"city": "Chicago",
		"state": "IL",
		"zip_code": "60625"
	},
	{
		"venue_id": "yelp2HLjt7yrDJbYpIV7mrC7Gw",
		"venue_name": "Khyber Pass",
		"latitude": 41.93826,
		"longitude": -87.64896,
		"address1": "3113 N Halsted St",
		"address2": null,
		"address3": "",
		"city": "Chicago",
		"state": "IL",
		"zip_code": "60657"
	},
	{
		"venue_id": "yelp5EKXV0tyMc_Sko7O4U5uZg",
		"venue_name": "Annapurna",
		"latitude": 41.9978981018066,
		"longitude": -87.6951599121094,
		"address1": "2608 W Devon Ave",
		"address2": null,
		"address3": "",
		"city": "Chicago",
		"state": "IL",
		"zip_code": "60659"
	},
	{
		"venue_id": "yelp3vZCU_5aOfavF4w6ktgj1g",
		"venue_name": "Hema's Kitchen",
		"latitude": 41.99744,
		"longitude": -87.69154,
		"address1": "2439 W Devon Ave",
		"address2": "",
		"address3": "",
		"city": "Chicago",
		"state": "IL",
		"zip_code": "60659"
	},
	{
		"venue_id": "yelpuA_6b_e42f__tqCrZyxQZg",
		"venue_name": "Mango Pickle",
		"latitude": 41.9883,
		"longitude": -87.66062,
		"address1": "5842 N Broadway St",
		"address2": null,
		"address3": "",
		"city": "Chicago",
		"state": "IL",
		"zip_code": "60660"
	},
	{
		"venue_id": "yelpqrzEI2XUVmrN2ku8qjH1tw",
		"venue_name": "Khan's BBQ",
		"latitude": 41.9974746704102,
		"longitude": -87.6902923583984,
		"address1": "2401 W Devon Ave",
		"address2": "",
		"address3": "",
		"city": "Chicago",
		"state": "IL",
		"zip_code": "60659"
	},
	{
		"venue_id": "yelpPySp2jSy7uLU3EUdU_ClmQ",
		"venue_name": "Tahoora Sweets & Bakery",
		"latitude": 41.9974746704102,
		"longitude": -87.6892547607422,
		"address1": "2345 W Devon Ave",
		"address2": "",
		"address3": "",
		"city": "Chicago",
		"state": "IL",
		"zip_code": "60659"
	},
	{
		"venue_id": "yelprrdPh6uSs4WpOiziD41_5w",
		"venue_name": "Mysore Woodlands",
		"latitude": 41.99792,
		"longitude": -87.6943299,
		"address1": "2548 W Devon Ave",
		"address2": "",
		"address3": "",
		"city": "Chicago",
		"state": "IL",
		"zip_code": "60659"
	},
	{
		"venue_id": "yelpvMV2C7DaJ7J57FFlTw5sqg",
		"venue_name": "Arya Bhavan",
		"latitude": 41.9979362487793,
		"longitude": -87.6928024291992,
		"address1": "2508 W Devon Ave",
		"address2": "",
		"address3": "",
		"city": "Chicago",
		"state": "IL",
		"zip_code": "60659"
	},
	{
		"venue_id": "yelp-EdydGwbdaqcDFBpaMNYbQ",
		"venue_name": "The Little India",
		"latitude": 41.9834136962891,
		"longitude": -87.6584548950195,
		"address1": "1109 W Bryn Mawr Ave",
		"address2": "",
		"address3": "",
		"city": "Chicago",
		"state": "IL",
		"zip_code": "60660"
	},
	{
		"venue_id": "yelp0giq9_AOkWFMgvzWKllePw",
		"venue_name": "Ghareeb Nawaz Express",
		"latitude": 41.8669,
		"longitude": -87.64733,
		"address1": "807 W Roosevelt Rd",
		"address2": "",
		"address3": "",
		"city": "Chicago",
		"state": "IL",
		"zip_code": "60608"
	},
	{
		"venue_id": "yelpIxbsUWX_ZAvuO3FhwPxyXA",
		"venue_name": "Naansense",
		"latitude": 41.8802641,
		"longitude": -87.6409205,
		"address1": "113 S Clinton St",
		"address2": "",
		"address3": "",
		"city": "Chicago",
		"state": "IL",
		"zip_code": "60661"
	},
	{
		"venue_id": "yelp_TAIpZRjy5VaCRTx2ouj8A",
		"venue_name": "Baba's Village",
		"latitude": 41.877242,
		"longitude": -87.640456,
		"address1": "310A S Canal St",
		"address2": "",
		"address3": "",
		"city": "Chicago",
		"state": "IL",
		"zip_code": "60606"
	},
	{
		"venue_id": "yelp_IbbbV7wOYZ0BCGyvSQRJw",
		"venue_name": "Royal Indian Grill",
		"latitude": 41.940781,
		"longitude": -87.6507869,
		"address1": "3223 N Clark St",
		"address2": "",
		"address3": "",
		"city": "Chicago",
		"state": "IL",
		"zip_code": "60657"
	},
	{
		"venue_id": "yelpKbd70CMBhioDXR16_5stZA",
		"venue_name": "Taj Mahal",
		"latitude": 41.869518,
		"longitude": -87.664709,
		"address1": "1512 W Taylor St",
		"address2": null,
		"address3": "",
		"city": "Chicago",
		"state": "IL",
		"zip_code": "60607"
	},
	{
		"venue_id": "yelpn8O4nO_YAUqS8WJOJ-V_ng",
		"venue_name": "Kaathis",
		"latitude": 41.88779,
		"longitude": -87.68207,
		"address1": "324 N Leavitt St",
		"address2": "Ste 100",
		"address3": "",
		"city": "Chicago",
		"state": "IL",
		"zip_code": "60612"
	},
	{
		"venue_id": "yelpa893lVsYMBXGt9Buq_3yXw",
		"venue_name": "Curry on Fire",
		"latitude": 41.86972,
		"longitude": -87.65239,
		"address1": "1030 W Taylor St",
		"address2": "",
		"address3": "",
		"city": "Chicago",
		"state": "IL",
		"zip_code": "60607"
	},
	{
		"venue_id": "yelpYzcmiUX_TdeyhXvaR-WpRA",
		"venue_name": "King Sweets",
		"latitude": 41.998,
		"longitude": -87.6879,
		"address1": "2308 W Devon Ave",
		"address2": "",
		"address3": "",
		"city": "Chicago",
		"state": "IL",
		"zip_code": "60659"
	},
	{
		"venue_id": "yelplz4vXceAqJViNEUzg9mxQQ",
		"venue_name": "Flaming Wok 'n Grill",
		"latitude": 41.8988305,
		"longitude": -87.6476882,
		"address1": "903 N Halsted St",
		"address2": "",
		"address3": "",
		"city": "Chicago",
		"state": "IL",
		"zip_code": "60686"
	},
	{
		"venue_id": "yelp2hrW9HWR-9VxbN29UsTyTw",
		"venue_name": "Oberois Indian Food - North Bell",
		"latitude": 41.9980421,
		"longitude": -87.6860452,
		"address1": "6407 N Bell Ave",
		"address2": null,
		"address3": "",
		"city": "Chicago",
		"state": "IL",
		"zip_code": "60645"
	},
	{
		"venue_id": "yelpGkQGY5nKSqyA17RjR1DIMw",
		"venue_name": "Hyderabad House",
		"latitude": 41.99754,
		"longitude": -87.68594,
		"address1": "2225 W Devon Ave",
		"address2": "",
		"address3": "",
		"city": "Chicago",
		"state": "IL",
		"zip_code": "60659"
	},
	{
		"venue_id": "yelp5n8Z7cpVKA0dR-uhO6e_YQ",
		"venue_name": "Masti Grill",
		"latitude": 41.997754,
		"longitude": -87.703931,
		"address1": "2948 W Devon Ave",
		"address2": "",
		"address3": "",
		"city": "Chicago",
		"state": "IL",
		"zip_code": "60659"
	},
	{
		"venue_id": "yelp1Pcf9Ejpv1GGK1qVgit_OA",
		"venue_name": "Spinzer Restaurant",
		"latitude": 41.9974822998047,
		"longitude": -87.6888961791992,
		"address1": "2331 W Devon Ave",
		"address2": "",
		"address3": "",
		"city": "Chicago",
		"state": "IL",
		"zip_code": "60659"
	},
	{
		"venue_id": "yelp6zPBbo7W_KPAWdNa-8m6rg",
		"venue_name": "Usmania Fine Dining",
		"latitude": 41.9980163574219,
		"longitude": -87.6867980957031,
		"address1": "2244 W Devon Ave",
		"address2": "",
		"address3": "",
		"city": "Chicago",
		"state": "IL",
		"zip_code": "60659"
	},
	{
		"venue_id": "yelp1P7hewkNzMuHR5zlHaTF9A",
		"venue_name": "Lahore Food & Grill",
		"latitude": 41.9979876,
		"longitude": -87.6833624,
		"address1": "2116 W Devon Ave",
		"address2": "",
		"address3": "",
		"city": "Chicago",
		"state": "IL",
		"zip_code": "60659"
	},
	{
		"venue_id": "yelpugUsnqMsiP0eZnzuiw7U_A",
		"venue_name": "5 Star India",
		"latitude": 41.87635,
		"longitude": -87.63106,
		"address1": "420 S Clark St",
		"address2": null,
		"address3": "",
		"city": "Chicago",
		"state": "IL",
		"zip_code": "60605"
	},
	{
		"venue_id": "yelpz7F0hlSC3j9M5dVI03JxDg",
		"venue_name": "Sukhadia's",
		"latitude": 41.99739,
		"longitude": -87.6945,
		"address1": "2559 W Devon Ave",
		"address2": "",
		"address3": "",
		"city": "Chicago",
		"state": "IL",
		"zip_code": "60659"
	},
	{
		"venue_id": "yelp88YM9_0FuSNtpKLN0E4b6A",
		"venue_name": "Bombay Wraps",
		"latitude": 41.93914,
		"longitude": -87.64421,
		"address1": "3149 1/2 N Broadway St",
		"address2": null,
		"address3": "",
		"city": "Chicago",
		"state": "IL",
		"zip_code": "60657"
	},
	{
		"venue_id": "yelpjdLhsIysBJozeTMa3x9WEg",
		"venue_name": "Punjabi Dhaba",
		"latitude": 41.99741,
		"longitude": -87.69324,
		"address1": "2525 W Devon Ave",
		"address2": "",
		"address3": "",
		"city": "Chicago",
		"state": "IL",
		"zip_code": "60659"
	},
	{
		"venue_id": "yelpxhGIWviVjHgt0qLGsZp1Lw",
		"venue_name": "The Indian Garden",
		"latitude": 41.9979133605957,
		"longitude": -87.6942138671875,
		"address1": "2546 W Devon Ave",
		"address2": "",
		"address3": "",
		"city": "Chicago",
		"state": "IL",
		"zip_code": "60659"
	},
	{
		"venue_id": "yelpZZHQZjgEPoBJrNjKNq4ybw",
		"venue_name": "Kamdar Plaza",
		"latitude": 41.9978713989258,
		"longitude": -87.6966552734375,
		"address1": "2646 W Devon Ave",
		"address2": "",
		"address3": "",
		"city": "Chicago",
		"state": "IL",
		"zip_code": "60659"
	},
	{
		"venue_id": "yelpkNCVvWRqArmGOtsJ-9mm-A",
		"venue_name": "Klay Oven Kitchen",
		"latitude": 41.8840684,
		"longitude": -87.6412297,
		"address1": "131 N Clinton St",
		"address2": "",
		"address3": "",
		"city": "Chicago",
		"state": "IL",
		"zip_code": "60661"
	},
	{
		"venue_id": "yelpbHK41hQU4f0y027-GwP8eg",
		"venue_name": "Delhi Darbar Kabab House",
		"latitude": 41.9976149,
		"longitude": -87.7049349,
		"address1": "3010 W Devon Ave",
		"address2": null,
		"address3": "",
		"city": "Chicago",
		"state": "IL",
		"zip_code": "60659"
	},
	{
		"venue_id": "yelp9Gw8X7ItuhWZZ4zHBbXWGQ",
		"venue_name": "Patel's Caf\u00e9",
		"latitude": 41.99791,
		"longitude": -87.695,
		"address1": "2600 W Devon Ave",
		"address2": "",
		"address3": "",
		"city": "Chicago",
		"state": "IL",
		"zip_code": "60645"
	},
	{
		"venue_id": "yelpdEcjRzLUhvAo7dMYKiujGg",
		"venue_name": "Original Pakiza Restaurant",
		"latitude": 41.9008866,
		"longitude": -87.6371847,
		"address1": "1011 N Orleans St",
		"address2": "",
		"address3": "",
		"city": "Chicago",
		"state": "IL",
		"zip_code": "60610"
	},
	{
		"venue_id": "yelpyd1Llw2POSZQJ3nBNngjHg",
		"venue_name": "Naan On Devon & Grill Family Restaurant",
		"latitude": 41.99744,
		"longitude": -87.69145,
		"address1": "2437 W Devon Ave",
		"address2": null,
		"address3": "",
		"city": "Chicago",
		"state": "IL",
		"zip_code": "60659"
	},
	{
		"venue_id": "yelpLOSXd8qRGQp46TG3PXiQKg",
		"venue_name": "Khyber Pass",
		"latitude": 41.8885733,
		"longitude": -87.8015759,
		"address1": "1031 Lake St",
		"address2": null,
		"address3": "",
		"city": "Oak Park",
		"state": "IL",
		"zip_code": "60301"
	},
	{
		"venue_id": "yelpnLYsp7pboDM2dfK-bn8SZg",
		"venue_name": "Indian Swaad",
		"latitude": 41.8822187,
		"longitude": -87.6405296,
		"address1": "500 W Madison St",
		"address2": "",
		"address3": "",
		"city": "Chicago",
		"state": "IL",
		"zip_code": "60661"
	},
	{
		"venue_id": "yelpaC-a_GplOlLqTHOYaVcw-A",
		"venue_name": "Naan on Devon & GRILL",
		"latitude": 41.9975204467773,
		"longitude": -87.6865997314453,
		"address1": "2241 W Devon Ave",
		"address2": "",
		"address3": "",
		"city": "Chicago",
		"state": "IL",
		"zip_code": "60659"
	},
	{
		"venue_id": "yelplFdEFeJSguG3fL9gQuEuGQ",
		"venue_name": "Wok N Chop",
		"latitude": 41.97592,
		"longitude": -87.71559,
		"address1": "3456 W Foster Ave",
		"address2": null,
		"address3": "",
		"city": "Chicago",
		"state": "IL",
		"zip_code": "60625"
	},
	{
		"venue_id": "yelpVRjwa1MKA5dvLXjDUwygog",
		"venue_name": "Serena Restaurant",
		"latitude": 41.9976479,
		"longitude": -87.6879395,
		"address1": "2311 W Devon Ave",
		"address2": "",
		"address3": "",
		"city": "Chicago",
		"state": "IL",
		"zip_code": "60659"
	},
	{
		"venue_id": "yelpZsIHA3Dsrdhn1bjwTxJwag",
		"venue_name": "Karachi Chat House",
		"latitude": 41.9976792903957,
		"longitude": -87.6875666901469,
		"address1": "2301 W Devon Ave",
		"address2": "",
		"address3": "",
		"city": "Chicago",
		"state": "IL",
		"zip_code": "60659"
	},
	{
		"venue_id": "yelp3dN-6V9atgD01g2VRAeyCQ",
		"venue_name": "Hyderabad House Family Dining",
		"latitude": 41.9979456,
		"longitude": -87.6859754,
		"address1": "2226 W Devon Ave",
		"address2": null,
		"address3": null,
		"city": "Chicago",
		"state": "IL",
		"zip_code": "60659"
	},
	{
		"venue_id": "yelpvQq4idFCND_7jLG2-P4zPQ",
		"venue_name": "House of Biryani",
		"latitude": 41.998,
		"longitude": -87.68781,
		"address1": "2306 W Devon Ave",
		"address2": "",
		"address3": null,
		"city": "Chicago",
		"state": "IL",
		"zip_code": "60659"
	},
	{
		"venue_id": "yelpXY0nQjRx-P7XEnFcrRhv3A",
		"venue_name": "Marwa Grill",
		"latitude": 41.995561,
		"longitude": -87.712721,
		"address1": "6257 B N McCormick Rd",
		"address2": "",
		"address3": "",
		"city": "Chicago",
		"state": "IL",
		"zip_code": "60659"
	},
	{
		"venue_id": "yelpb-EOKu--LT-0Rz_J1W_vKQ",
		"venue_name": "Sabri Nihari",
		"latitude": 41.99848,
		"longitude": -87.69027,
		"address1": "6424 N Western Ave",
		"address2": null,
		"address3": null,
		"city": "Chicago",
		"state": "IL",
		"zip_code": "60645"
	},
	{
		"venue_id": "yelpyrPttVlvnER8Num9zRKaFw",
		"venue_name": "Hakka Bakka Indian Kati Rolls",
		"latitude": 41.88582,
		"longitude": -87.6528699,
		"address1": "1002 W Lake St",
		"address2": null,
		"address3": "",
		"city": "Chicago",
		"state": "IL",
		"zip_code": "60607"
	},
	{
		"venue_id": "yelpSI4LOqIHQEgYjG_2aaDm3A",
		"venue_name": "Charminar Fine Dining",
		"latitude": 41.99742,
		"longitude": -87.69256,
		"address1": "2501 W Devon Ave",
		"address2": "",
		"address3": "",
		"city": "Chicago",
		"state": "IL",
		"zip_code": "60659"
	},
	{
		"venue_id": "yelp2kgWk5tExbzT4cqUF7r3Lg",
		"venue_name": "Anmol Express",
		"latitude": 41.9058824,
		"longitude": -87.6427516,
		"address1": "1316 North Clybourn Ave",
		"address2": "",
		"address3": null,
		"city": "Chicago",
		"state": "IL",
		"zip_code": "60610"
	},
	{
		"venue_id": "yelp2rVBrD84ErQm-dmnsRi0ug",
		"venue_name": "Indian Gourmet Restaurant",
		"latitude": 41.9977645874023,
		"longitude": -87.7028579711914,
		"address1": "2916 W Devon Ave",
		"address2": "",
		"address3": "",
		"city": "Chicago",
		"state": "IL",
		"zip_code": "60659"
	},
	{
		"venue_id": "yelpldE5fPOlluaVIOVRA4aVUw",
		"venue_name": "Krishna Lunch",
		"latitude": 41.8847802267723,
		"longitude": -87.6199700908582,
		"address1": "300 E Randolph St",
		"address2": "",
		"address3": null,
		"city": "Chicago",
		"state": "IL",
		"zip_code": "60601"
	},
	{
		"venue_id": "yelpG5hTRZtGFm_l52cREw8bzg",
		"venue_name": "Siri Restaurant Chicago",
		"latitude": 41.86951,
		"longitude": -87.66504,
		"address1": "1520 West Taylor St",
		"address2": null,
		"address3": "",
		"city": "Chicago",
		"state": "IL",
		"zip_code": "60607"
	},
	{
		"venue_id": "yelpLvnwyCRWTjt1SD8gQy3A-w",
		"venue_name": "Sagar",
		"latitude": 41.9977524876595,
		"longitude": -87.6931165158749,
		"address1": "2520 W Devon Ave",
		"address2": null,
		"address3": null,
		"city": "Chicago",
		"state": "IL",
		"zip_code": "60659"
	},
	{
		"venue_id": "yelpS9krmeam5ZGXXZAhgPrZnA",
		"venue_name": "KayBees Indian Flavor Shop",
		"latitude": 41.904535,
		"longitude": -87.6482349,
		"address1": "1234 N Halsted St",
		"address2": "",
		"address3": null,
		"city": "Chicago",
		"state": "IL",
		"zip_code": "60642"
	},
	{
		"venue_id": "yelpwg6-eFA6INTHP9oe75IsnA",
		"venue_name": "Ruchi",
		"latitude": 41.884948,
		"longitude": -87.624122,
		"address1": "151 N Michigan Ave",
		"address2": "",
		"address3": null,
		"city": "Chicago",
		"state": "IL",
		"zip_code": "60601"
	},
	{
		"venue_id": "yelpYX1Sb0a0RiI6qAW_2KXzKA",
		"venue_name": "Bawarchi on Devon Restaurant",
		"latitude": 41.998,
		"longitude": -87.6875849,
		"address1": "6406 N Oakley Ave",
		"address2": null,
		"address3": "",
		"city": "Chicago",
		"state": "IL",
		"zip_code": "60645"
	},
	{
		"venue_id": "yelpakWrAqIwpXTLlv35dAnlRQ",
		"venue_name": "Kabob Corner",
		"latitude": 41.8780849,
		"longitude": -87.646465,
		"address1": "760 W Jackson Blvd",
		"address2": "",
		"address3": "",
		"city": "Chicago",
		"state": "IL",
		"zip_code": "60661"
	},
	{
		"venue_id": "yelp4ob8O2bmI5ut7VeQK3Ju8w",
		"venue_name": "Charminar Fine Dining & Grill",
		"latitude": 41.9968197494745,
		"longitude": -87.6923514157534,
		"address1": "6350 N Campbell Ave",
		"address2": null,
		"address3": null,
		"city": "Chicago",
		"state": "IL",
		"zip_code": "60659"
	},
	{
		"venue_id": "yelpZHTwDJpw6Y5WTSytlrFjQA",
		"venue_name": "Sizzle India",
		"latitude": 41.99741,
		"longitude": -87.6929,
		"address1": "2509 W Devon Ave",
		"address2": "",
		"address3": "",
		"city": "Chicago",
		"state": "IL",
		"zip_code": "60659"
	},
	{
		"venue_id": "yelpszOUO95gC-68M0OQtPCXrQ",
		"venue_name": "Khan\u0101 Test Kitchen and Culinary Workshop",
		"latitude": 41.9218506543956,
		"longitude": -87.6648208264369,
		"address1": "2204 N Clybourn Ave",
		"address2": "",
		"address3": null,
		"city": "Chicago",
		"state": "IL",
		"zip_code": "60614"
	},
	{
		"venue_id": "yelpby3nTTpRytCr7rrBwbOezQ",
		"venue_name": "New Diamond Grill",
		"latitude": 41.99752,
		"longitude": -87.68677,
		"address1": "2245 W Devon Ave",
		"address2": "",
		"address3": null,
		"city": "Chicago",
		"state": "IL",
		"zip_code": "60659"
	},
	{
		"venue_id": "yelpqkjAHBV5eMcXEtWE51XEQg",
		"venue_name": "Pub Royale",
		"latitude": 41.8798638284247,
		"longitude": -87.6306062936783,
		"address1": "125 S Clark St",
		"address2": "",
		"address3": null,
		"city": "Chicago",
		"state": "IL",
		"zip_code": "60603"
	},
	{
		"venue_id": "yelpG7pjEuWYOTcES0JmXf8TTw",
		"venue_name": "India House Restaurant",
		"latitude": 41.9979133605957,
		"longitude": -87.6942138671875,
		"address1": "2546 W Devon Ave",
		"address2": "",
		"address3": "",
		"city": "Chicago",
		"state": "IL",
		"zip_code": "60659"
	},
	{
		"venue_id": "yelpXkhxVTNUb098Gpv5qNKZBA",
		"venue_name": "kababish",
		"latitude": 41.91049,
		"longitude": -87.6436,
		"address1": "1554 N Larrabee St",
		"address2": "",
		"address3": null,
		"city": "Chicago",
		"state": "IL",
		"zip_code": "60610"
	},
	{
		"venue_id": "yelpWSkUEz-2KCuSOewo-1IV4g",
		"venue_name": "BarBQ Tonite",
		"latitude": 41.9967931149086,
		"longitude": -87.6911350578558,
		"address1": "6348 N Artesian Ave",
		"address2": null,
		"address3": "",
		"city": "Chicago",
		"state": "IL",
		"zip_code": "60659"
	},
	{
		"venue_id": "yelpxY-YsKu40mII4SIEDmYrOA",
		"venue_name": "Gulshan Restaurant",
		"latitude": 41.9983711242676,
		"longitude": -87.6895217895508,
		"address1": "6419 N Western Ave",
		"address2": "",
		"address3": "",
		"city": "Chicago",
		"state": "IL",
		"zip_code": "60645"
	},
	{
		"venue_id": "yelp-gbzxAxI0I2tee-aAsPz8Q",
		"venue_name": "Naansense",
		"latitude": 41.94293,
		"longitude": -87.67878,
		"address1": "2005 West Roscoe St",
		"address2": "",
		"address3": null,
		"city": "Chicago",
		"state": "IL",
		"zip_code": "60618"
	},
	{
		"venue_id": "yelpqnVXdx3QtLWG_C0RWoO3Uw",
		"venue_name": "Mehak of Punjab",
		"latitude": 41.9973602294922,
		"longitude": -87.6957550048828,
		"address1": "2629 W Devon Ave",
		"address2": "",
		"address3": "",
		"city": "Chicago",
		"state": "IL",
		"zip_code": "60659"
	}
]