[
	{
		"venue_id": "yelp8vFJH_paXsMocmEO_KAa3w",
		"venue_name": "Lou Malnati's Pizzeria",
		"latitude": 41.890357,
		"longitude": -87.633704,
		"address1": "439 N Wells St",
		"address2": "",
		"address3": "",
		"city": "Chicago",
		"state": "IL",
		"zip_code": "60654"
	},
	{
		"venue_id": "yelpziIfrqtyupmeNlPAOx6jTw",
		"venue_name": "Quartino Ristorante",
		"latitude": 41.8934479679332,
		"longitude": -87.6283662020996,
		"address1": "626 N State St",
		"address2": null,
		"address3": "",
		"city": "Chicago",
		"state": "IL",
		"zip_code": "60654"
	},
	{
		"venue_id": "yelpLYppbvgJlBG0SqjSKFiFGg",
		"venue_name": "Sapori Trattoria",
		"latitude": 41.93166,
		"longitude": -87.64859,
		"address1": "2701 N Halsted St",
		"address2": "",
		"address3": "",
		"city": "Chicago",
		"state": "IL",
		"zip_code": "60614"
	},
	{
		"venue_id": "yelpbQaiow1WcwwSODUo9hHOMQ",
		"venue_name": "RPM Italian",
		"latitude": 41.8909608540557,
		"longitude": -87.6300418625656,
		"address1": "52 W Illinois St",
		"address2": "",
		"address3": "",
		"city": "Chicago",
		"state": "IL",
		"zip_code": "60654"
	},
	{
		"venue_id": "yelpt2nXebM7aqTj_qq6saZ89g",
		"venue_name": "Eataly",
		"latitude": 41.892335432963,
		"longitude": -87.6262607945148,
		"address1": "43 E Ohio St",
		"address2": "",
		"address3": "",
		"city": "Chicago",
		"state": "IL",
		"zip_code": "60611"
	},
	{
		"venue_id": "yelpQNbWTNuAEMWOurHN8rMXnA",
		"venue_name": "Chicago Pizza And Oven Grinder Company",
		"latitude": 41.92084,
		"longitude": -87.63721,
		"address1": "2121 N Clark St",
		"address2": "",
		"address3": "",
		"city": "Chicago",
		"state": "IL",
		"zip_code": "60614"
	},
	{
		"venue_id": "yelpdSqRMhGNCWuSjPT_4lsZqw",
		"venue_name": "Siena Tavern",
		"latitude": 41.8890751,
		"longitude": -87.6299699,
		"address1": "51 W Kinzie St",
		"address2": "",
		"address3": "",
		"city": "Chicago",
		"state": "IL",
		"zip_code": "60654"
	},
	{
		"venue_id": "yelpcxAkuwv7p4gm4Coixw7h9A",
		"venue_name": "Lou Malnati's Pizzeria",
		"latitude": 41.871487,
		"longitude": -87.6273372,
		"address1": "805 S State St",
		"address2": "",
		"address3": "",
		"city": "Chicago",
		"state": "IL",
		"zip_code": "60605"
	},
	{
		"venue_id": "yelp7vsOVA4wrHP6f3DMQdD8og",
		"venue_name": "Volare Ristorante Italiano",
		"latitude": 41.8915901798304,
		"longitude": -87.6225186472213,
		"address1": "201 E Grand Ave",
		"address2": "",
		"address3": "",
		"city": "Chicago",
		"state": "IL",
		"zip_code": "60611"
	},
	{
		"venue_id": "yelpIvdOI86_CSCRFpid2atnyA",
		"venue_name": "Davanti Enoteca",
		"latitude": 41.86911,
		"longitude": -87.66147,
		"address1": "1359 W Taylor St",
		"address2": "",
		"address3": "",
		"city": "Chicago",
		"state": "IL",
		"zip_code": "60607"
	},
	{
		"venue_id": "yelp0fFLUKl71vv3eNV2xhikEw",
		"venue_name": "Spacca Napoli",
		"latitude": 41.963286,
		"longitude": -87.673801,
		"address1": "1769 W Sunnyside Ave",
		"address2": null,
		"address3": "",
		"city": "Chicago",
		"state": "IL",
		"zip_code": "60640"
	},
	{
		"venue_id": "yelpFqzYCiJ29FGw6KFAGrpuJQ",
		"venue_name": "Lou Malnati's Pizzeria",
		"latitude": 41.90259525277,
		"longitude": -87.6286705209015,
		"address1": "1120 N State St",
		"address2": "",
		"address3": "",
		"city": "Chicago",
		"state": "IL",
		"zip_code": "60610"
	},
	{
		"venue_id": "yelp0hfDRVaGSydijN5du1HCzg",
		"venue_name": "Bar Siena",
		"latitude": 41.8845841437224,
		"longitude": -87.6489488181068,
		"address1": "832 W Randolph St",
		"address2": "",
		"address3": "",
		"city": "Chicago",
		"state": "IL",
		"zip_code": "60607"
	},
	{
		"venue_id": "yelpKXiClWndL6UyPJDt7y50zQ",
		"venue_name": "La Scarola",
		"latitude": 41.8910731156813,
		"longitude": -87.6468847784913,
		"address1": "721 W Grand Ave",
		"address2": "",
		"address3": "",
		"city": "Chicago",
		"state": "IL",
		"zip_code": "60610"
	},
	{
		"venue_id": "yelpBxd9Y2PsdvIOGIKFQh53RQ",
		"venue_name": "Giordano's",
		"latitude": 41.885165,
		"longitude": -87.623753,
		"address1": "130 E Randolph",
		"address2": "",
		"address3": "",
		"city": "Chicago",
		"state": "IL",
		"zip_code": "60601"
	},
	{
		"venue_id": "yelpz_qEuUuRWIq4O-YufXHf1w",
		"venue_name": "Giordano's",
		"latitude": 41.8958755,
		"longitude": -87.625643,
		"address1": "730 N Rush St",
		"address2": "",
		"address3": "",
		"city": "Chicago",
		"state": "IL",
		"zip_code": "60611"
	},
	{
		"venue_id": "yelpo0DaPvRb4IWH7hUWVCnoGw",
		"venue_name": "Monteverde",
		"latitude": 41.88191,
		"longitude": -87.65302,
		"address1": "1020 W Madison St",
		"address2": "",
		"address3": "",
		"city": "Chicago",
		"state": "IL",
		"zip_code": "60607"
	},
	{
		"venue_id": "yelpvb5hLPqsBEPmBsY-77Wl2g",
		"venue_name": "Viaggio Ristorante & Lounge",
		"latitude": 41.88179,
		"longitude": -87.6609,
		"address1": "1330 W Madison St",
		"address2": "",
		"address3": "",
		"city": "Chicago",
		"state": "IL",
		"zip_code": "60607"
	},
	{
		"venue_id": "yelptW2jfL-qMccAYZSghPBbHA",
		"venue_name": "The Art of Pizza",
		"latitude": 41.9371221,
		"longitude": -87.6683814,
		"address1": "3033 N Ashland Ave",
		"address2": "",
		"address3": "",
		"city": "Chicago",
		"state": "IL",
		"zip_code": "60657"
	},
	{
		"venue_id": "yelpJMa9cTNQA5mm4GbR2W8Oiw",
		"venue_name": "Piccolo Sogno",
		"latitude": 41.8908673494353,
		"longitude": -87.6477823122675,
		"address1": "464 N Halsted St",
		"address2": "",
		"address3": "",
		"city": "Chicago",
		"state": "IL",
		"zip_code": "60642"
	},
	{
		"venue_id": "yelpibreTMGGaQSanZttUchjKg",
		"venue_name": "Gino's East - Magnificent Mile",
		"latitude": 41.89603,
		"longitude": -87.62307,
		"address1": "162 E Superior St",
		"address2": null,
		"address3": "",
		"city": "Chicago",
		"state": "IL",
		"zip_code": "60611"
	},
	{
		"venue_id": "yelpjlVvQOf4YE3ZO1gMFSAdww",
		"venue_name": "Buona Terra",
		"latitude": 41.92788,
		"longitude": -87.69722,
		"address1": "2535 N California Ave",
		"address2": null,
		"address3": "",
		"city": "Chicago",
		"state": "IL",
		"zip_code": "60647"
	},
	{
		"venue_id": "yelpXgGUnYs2bjbbNvBefFtWxA",
		"venue_name": "The Pasta Bowl",
		"latitude": 41.92638,
		"longitude": -87.641448,
		"address1": "2434 N Clark St",
		"address2": "",
		"address3": "",
		"city": "Chicago",
		"state": "IL",
		"zip_code": "60614"
	},
	{
		"venue_id": "yelp6EiFN9NS9BQnqw8FXWiY4A",
		"venue_name": "Forno Rosso Pizzeria Napoletana",
		"latitude": 41.94767,
		"longitude": -87.80672,
		"address1": "3719 N Harlem Ave",
		"address2": null,
		"address3": "",
		"city": "Chicago",
		"state": "IL",
		"zip_code": "60634"
	},
	{
		"venue_id": "yelp1hZJWzpYgUpOMkmGZAewsg",
		"venue_name": "Topo Gigio Ristorante",
		"latitude": 41.9096594975818,
		"longitude": -87.6348415912861,
		"address1": "1516 N Wells St",
		"address2": "",
		"address3": "",
		"city": "Chicago",
		"state": "IL",
		"zip_code": "60610"
	},
	{
		"venue_id": "yelpxlX-nO0SaNwjGueCsgV-0g",
		"venue_name": "Dimo's Pizza",
		"latitude": 41.94521,
		"longitude": -87.65467,
		"address1": "3463 N Clark St",
		"address2": "",
		"address3": "",
		"city": "Chicago",
		"state": "IL",
		"zip_code": "60657"
	},
	{
		"venue_id": "yelpJ_6biyUoo3wYneF3j4LKWw",
		"venue_name": "Osteria Via Stato",
		"latitude": 41.893095,
		"longitude": -87.6282449,
		"address1": "620 N State St",
		"address2": "",
		"address3": "",
		"city": "Chicago",
		"state": "IL",
		"zip_code": "60654"
	},
	{
		"venue_id": "yelpu5rIwydmTiuhaa8DN91-dw",
		"venue_name": "Lou Malnati's Pizzeria",
		"latitude": 41.9291500907879,
		"longitude": -87.6535692116174,
		"address1": "958 W Wrightwood Ave",
		"address2": "",
		"address3": "",
		"city": "Chicago",
		"state": "IL",
		"zip_code": "60614"
	},
	{
		"venue_id": "yelpN7F7C6ECkhbsHVStVjqLUw",
		"venue_name": "Pasta Palazzo",
		"latitude": 41.9179153442383,
		"longitude": -87.6488494873047,
		"address1": "1966 N Halsted St",
		"address2": null,
		"address3": "",
		"city": "Chicago",
		"state": "IL",
		"zip_code": "60614"
	},
	{
		"venue_id": "yelpEnf_3DXmppx19hFGs0UDKw",
		"venue_name": "La Nonna",
		"latitude": 41.9429574,
		"longitude": -87.7203016,
		"address1": "3400 N Lawndale Ave",
		"address2": "",
		"address3": null,
		"city": "Chicago",
		"state": "IL",
		"zip_code": "60618"
	},
	{
		"venue_id": "yelpdOAj9yI4Y5JsBxQX5D6NBQ",
		"venue_name": "Prosecco",
		"latitude": 41.8952140808105,
		"longitude": -87.6345138549805,
		"address1": "710 N Wells St",
		"address2": "",
		"address3": "",
		"city": "Chicago",
		"state": "IL",
		"zip_code": "60654"
	},
	{
		"venue_id": "yelpoLM9piDKbj2PDgy-m3XEcQ",
		"venue_name": "Calo Ristorante",
		"latitude": 41.97934,
		"longitude": -87.66793,
		"address1": "5343 N Clark St",
		"address2": "",
		"address3": "",
		"city": "Chicago",
		"state": "IL",
		"zip_code": "60640"
	},
	{
		"venue_id": "yelphxq4TNNazA-sjqFvVgx_Pw",
		"venue_name": "Bongiorno's Italian Deli & Pizzeria",
		"latitude": 41.8897666931152,
		"longitude": -87.6260147094727,
		"address1": "405 N Wabash Ave",
		"address2": "",
		"address3": "",
		"city": "Chicago",
		"state": "IL",
		"zip_code": "60611"
	},
	{
		"venue_id": "yelpjBpqtM1uE9eLxi-K2rhKjA",
		"venue_name": "Nico Osteria",
		"latitude": 41.9013688470215,
		"longitude": -87.6276382123032,
		"address1": "1015 N Rush St",
		"address2": "",
		"address3": "",
		"city": "Chicago",
		"state": "IL",
		"zip_code": "60611"
	},
	{
		"venue_id": "yelp1Q7RL7Hc63wKa2A9ec3zXw",
		"venue_name": "il Porcellino",
		"latitude": 41.88979,
		"longitude": -87.6303,
		"address1": "59 W Hubbard",
		"address2": "",
		"address3": "",
		"city": "Chicago",
		"state": "IL",
		"zip_code": "60654"
	},
	{
		"venue_id": "yelp0-rkPnrTODt_veJ_nMVT_w",
		"venue_name": "Sabatino's Restaurant Chicago",
		"latitude": 41.9533094666682,
		"longitude": -87.7395818782611,
		"address1": "4441 W Irving Park Rd",
		"address2": "",
		"address3": "",
		"city": "Chicago",
		"state": "IL",
		"zip_code": "60641"
	},
	{
		"venue_id": "yelpo58Cq5udbf18ZLb8MQpgUQ",
		"venue_name": "Pizzeria Uno",
		"latitude": 41.89227,
		"longitude": -87.62692,
		"address1": "29 E Ohio St",
		"address2": "",
		"address3": "",
		"city": "Chicago",
		"state": "IL",
		"zip_code": "60611"
	},
	{
		"venue_id": "yelp_Y32xG_NYG0R1IRn9EccAg",
		"venue_name": "La Gondola",
		"latitude": 41.9345793,
		"longitude": -87.6686589,
		"address1": "2914 N Ashland Ave",
		"address2": "",
		"address3": "",
		"city": "Chicago",
		"state": "IL",
		"zip_code": "60657"
	},
	{
		"venue_id": "yelpncx9jZpjFZxKSZHB94rFkg",
		"venue_name": "Nando Milano Trattoria",
		"latitude": 41.90344,
		"longitude": -87.68041,
		"address1": "2114 W Division St",
		"address2": "",
		"address3": "",
		"city": "Chicago",
		"state": "IL",
		"zip_code": "60622"
	},
	{
		"venue_id": "yelpLNtuCsJLk3E9y7I5sd5SjQ",
		"venue_name": "Giordano's - Jackson",
		"latitude": 41.8779751,
		"longitude": -87.6344499,
		"address1": "223 W Jackson Blvd",
		"address2": "",
		"address3": "",
		"city": "Chicago",
		"state": "IL",
		"zip_code": "60606"
	},
	{
		"venue_id": "yelptntGxmQJyv8ZomQJ5Z14BQ",
		"venue_name": "Frasca Pizzeria and Wine Bar",
		"latitude": 41.9430502,
		"longitude": -87.6713149,
		"address1": "3358 N Paulina St",
		"address2": null,
		"address3": "",
		"city": "Chicago",
		"state": "IL",
		"zip_code": "60657"
	},
	{
		"venue_id": "yelpkdobEvkH_YHleJvLLxzb6A",
		"venue_name": "A Tavola",
		"latitude": 41.8960999,
		"longitude": -87.68141,
		"address1": "2148 W Chicago Ave",
		"address2": "",
		"address3": "",
		"city": "Chicago",
		"state": "IL",
		"zip_code": "60622"
	},
	{
		"venue_id": "yelpeTjl8rHLGWWhc65cFjcDLA",
		"venue_name": "Trattoria No. 10",
		"latitude": 41.8824272155762,
		"longitude": -87.6296997070312,
		"address1": "10 N Dearborn St",
		"address2": "",
		"address3": "",
		"city": "Chicago",
		"state": "IL",
		"zip_code": "60602"
	},
	{
		"venue_id": "yelpQ3SMNxfKtVhEwt4d7S_8vw",
		"venue_name": "Rosebud on Rush",
		"latitude": 41.895633,
		"longitude": -87.62571,
		"address1": "720 N Rush St",
		"address2": "",
		"address3": "",
		"city": "Chicago",
		"state": "IL",
		"zip_code": "60611"
	},
	{
		"venue_id": "yelpMzLH4VUPIDf16LUPlPzaGg",
		"venue_name": "Zia's Lago Vista",
		"latitude": 41.9513,
		"longitude": -87.66847,
		"address1": "3819 N Ashland Ave",
		"address2": null,
		"address3": "",
		"city": "Chicago",
		"state": "IL",
		"zip_code": "60613"
	},
	{
		"venue_id": "yelpkEaW60jpNInK1MzFJMIC7A",
		"venue_name": "Harry Caray's Italian Steakhouse - River North",
		"latitude": 41.8890226258691,
		"longitude": -87.6292555506971,
		"address1": "33 W Kinzie St",
		"address2": "",
		"address3": "",
		"city": "Chicago",
		"state": "IL",
		"zip_code": "60654"
	},
	{
		"venue_id": "yelp18hcO-EU7f1ENU4m1tbIBA",
		"venue_name": "Francesca's on Taylor",
		"latitude": 41.869426,
		"longitude": -87.6617842,
		"address1": "1400 W Taylor St",
		"address2": "",
		"address3": "",
		"city": "Chicago",
		"state": "IL",
		"zip_code": "60607"
	},
	{
		"venue_id": "yelp6PQTqW9j-sriDBQyQCJbjw",
		"venue_name": "Mia Francesca",
		"latitude": 41.9420064,
		"longitude": -87.6523323,
		"address1": "3311 N Clark St",
		"address2": null,
		"address3": "",
		"city": "Chicago",
		"state": "IL",
		"zip_code": "60657"
	},
	{
		"venue_id": "yelpI8W5EBWP5ajd1tk8IwhRfg",
		"venue_name": "The Rosebud",
		"latitude": 41.869524,
		"longitude": -87.664293,
		"address1": "1500 W Taylor St",
		"address2": "",
		"address3": "",
		"city": "Chicago",
		"state": "IL",
		"zip_code": "60607"
	},
	{
		"venue_id": "yelpaSxxfNO_647MtX8zc6vhOg",
		"venue_name": "Angelina Ristorante",
		"latitude": 41.947146362475,
		"longitude": -87.6469336269836,
		"address1": "3561 N Broadway St",
		"address2": "",
		"address3": "",
		"city": "Chicago",
		"state": "IL",
		"zip_code": "60657"
	},
	{
		"venue_id": "yelpg7GcOkQSOfC9JONw_rkNwQ",
		"venue_name": "Carmine's",
		"latitude": 41.9019953,
		"longitude": -87.6281131,
		"address1": "1043 N Rush St",
		"address2": "",
		"address3": "",
		"city": "Chicago",
		"state": "IL",
		"zip_code": "60611"
	},
	{
		"venue_id": "yelpUbsbYcA5NmkJPFwB9Qi3dA",
		"venue_name": "Nellc\u00f4te",
		"latitude": 41.8842029218415,
		"longitude": -87.6491502961838,
		"address1": "833 W Randolph St",
		"address2": "",
		"address3": "",
		"city": "Chicago",
		"state": "IL",
		"zip_code": "60607"
	},
	{
		"venue_id": "yelpLPZP6SvCfBIAQahXDx3Ajg",
		"venue_name": "Turquoise Restaurant",
		"latitude": 41.94289,
		"longitude": -87.68265,
		"address1": "2147 W Roscoe St",
		"address2": "",
		"address3": "",
		"city": "Chicago",
		"state": "IL",
		"zip_code": "60618"
	},
	{
		"venue_id": "yelpT1byj0cyKsnzgPFDPh3NXA",
		"venue_name": "Osteria Langhe",
		"latitude": 41.91763,
		"longitude": -87.6983279,
		"address1": "2824 W Armitage Ave",
		"address2": "",
		"address3": "",
		"city": "Chicago",
		"state": "IL",
		"zip_code": "60647"
	},
	{
		"venue_id": "yelpTCnRHh40_HxhHj0Xz6XK9A",
		"venue_name": "Pizzeria Due",
		"latitude": 41.8931467721058,
		"longitude": -87.6265681621034,
		"address1": "619 N Wabash Ave",
		"address2": "",
		"address3": "",
		"city": "Chicago",
		"state": "IL",
		"zip_code": "60611"
	},
	{
		"venue_id": "yelphVf31CYionZPWquqKnOsUw",
		"venue_name": "DiSotto Enoteca",
		"latitude": 41.89871,
		"longitude": -87.62142,
		"address1": "200 E Chestnut St",
		"address2": "",
		"address3": "",
		"city": "Chicago",
		"state": "IL",
		"zip_code": "60611"
	},
	{
		"venue_id": "yelp7Ig90WlrxTm-oLGt8AQrfQ",
		"venue_name": "Enoteca Roma Ristorante",
		"latitude": 41.903222,
		"longitude": -87.6816573,
		"address1": "2146 W Division St",
		"address2": "",
		"address3": "",
		"city": "Chicago",
		"state": "IL",
		"zip_code": "60622"
	},
	{
		"venue_id": "yelpaEYu5fU5i2HKBOkvC9Zm7w",
		"venue_name": "Ricobene's",
		"latitude": 41.84575,
		"longitude": -87.63389,
		"address1": "252 W 26th St",
		"address2": "",
		"address3": "",
		"city": "Chicago",
		"state": "IL",
		"zip_code": "60616"
	},
	{
		"venue_id": "yelpouKaFTfc8DT5v4LOeTiDSw",
		"venue_name": "Maggiano's Little Italy",
		"latitude": 41.8913803100586,
		"longitude": -87.6317443847656,
		"address1": "516 N Clark St",
		"address2": "",
		"address3": "",
		"city": "Chicago",
		"state": "IL",
		"zip_code": "60654"
	},
	{
		"venue_id": "yelpgQ2LJ-uHF1v78p5IX1i9PQ",
		"venue_name": "Mama's Boy",
		"latitude": 41.8903227,
		"longitude": -87.6294067,
		"address1": "445 N Dearborn St",
		"address2": "",
		"address3": null,
		"city": "Chicago",
		"state": "IL",
		"zip_code": "60610"
	},
	{
		"venue_id": "yelp9LaA6_oGpgHCJWhlAkbnIw",
		"venue_name": "Pizano's Pizza",
		"latitude": 41.8819708386668,
		"longitude": -87.6255734244467,
		"address1": "61 E Madison St",
		"address2": "",
		"address3": "",
		"city": "Chicago",
		"state": "IL",
		"zip_code": "60603"
	},
	{
		"venue_id": "yelpA6rjC7k7fvMnAVEB_W0_Aw",
		"venue_name": "Pizano's Pizza",
		"latitude": 41.89863,
		"longitude": -87.62844,
		"address1": "864 N State St",
		"address2": "",
		"address3": "",
		"city": "Chicago",
		"state": "IL",
		"zip_code": "60610"
	},
	{
		"venue_id": "yelpo4vm4Z31Xfr-Fa8_D9EnLw",
		"venue_name": "Acanto",
		"latitude": 41.881323483914,
		"longitude": -87.6245379144271,
		"address1": "18 S Michigan Ave",
		"address2": null,
		"address3": "",
		"city": "Chicago",
		"state": "IL",
		"zip_code": "60603"
	},
	{
		"venue_id": "yelpytFpgrsKQ-RoWpBIB05OJw",
		"venue_name": "Formento's",
		"latitude": 41.88404,
		"longitude": -87.65081,
		"address1": "925 W Randolph St",
		"address2": null,
		"address3": "",
		"city": "Chicago",
		"state": "IL",
		"zip_code": "60607"
	},
	{
		"venue_id": "yelphvHVAs2lhaoYo_rxOUuSTQ",
		"venue_name": "La Villa Restaurant",
		"latitude": 41.94754,
		"longitude": -87.72775,
		"address1": "3638 N Pulaski Rd",
		"address2": "",
		"address3": "",
		"city": "Chicago",
		"state": "IL",
		"zip_code": "60641"
	},
	{
		"venue_id": "yelptL8lLGQaAnKb9I7a0vsGtg",
		"venue_name": "PR Italian Bistro",
		"latitude": 41.953,
		"longitude": -87.65477,
		"address1": "3908 N Sheridan Rd",
		"address2": "",
		"address3": "",
		"city": "Chicago",
		"state": "IL",
		"zip_code": "60613"
	},
	{
		"venue_id": "yelp11_xlt0Sn2tlclHwf_Gd9A",
		"venue_name": "Eduardo's Enoteca",
		"latitude": 41.90439,
		"longitude": -87.63043,
		"address1": "1212 N Dearborn St",
		"address2": "",
		"address3": "",
		"city": "Chicago",
		"state": "IL",
		"zip_code": "60610"
	},
	{
		"venue_id": "yelp5zrksL0drFQBc8_zByiq_g",
		"venue_name": "Rosebud Steakhouse",
		"latitude": 41.9000993,
		"longitude": -87.6220543,
		"address1": "192 E Walton Pl",
		"address2": "",
		"address3": "",
		"city": "Chicago",
		"state": "IL",
		"zip_code": "60611"
	},
	{
		"venue_id": "yelpJ9WfLOHSTcXaT_9kz2gq0Q",
		"venue_name": "Conte Di Savoia",
		"latitude": 41.869411,
		"longitude": -87.6632462,
		"address1": "1438 W Taylor St",
		"address2": "",
		"address3": "",
		"city": "Chicago",
		"state": "IL",
		"zip_code": "60607"
	},
	{
		"venue_id": "yelpytZzmlgLBM8r3TqY7WAY0A",
		"venue_name": "Club Lucky",
		"latitude": 41.91256,
		"longitude": -87.67367,
		"address1": "1824 W Wabansia Ave",
		"address2": "",
		"address3": "",
		"city": "Chicago",
		"state": "IL",
		"zip_code": "60622"
	},
	{
		"venue_id": "yelp84r_TaEPqE1bnYFLqYdOtQ",
		"venue_name": "Lou Malnati's Pizzeria - Carry Out",
		"latitude": 41.908901,
		"longitude": -87.6774103,
		"address1": "1520 N Damen Ave",
		"address2": "",
		"address3": "",
		"city": "Chicago",
		"state": "IL",
		"zip_code": "60622"
	},
	{
		"venue_id": "yelpXeJkMq4uK4KJgbxL9_Ublg",
		"venue_name": "Bacino's of Lincoln Park",
		"latitude": 41.9220898692102,
		"longitude": -87.6441773455396,
		"address1": "2204 N Lincoln Ave",
		"address2": "",
		"address3": "",
		"city": "Chicago",
		"state": "IL",
		"zip_code": "60614"
	},
	{
		"venue_id": "yelpemwETJLmITVycIPNAO_toQ",
		"venue_name": "Stella Barra Pizzeria",
		"latitude": 41.917657,
		"longitude": -87.648684,
		"address1": "1954 N Halsted St",
		"address2": "",
		"address3": "",
		"city": "Chicago",
		"state": "IL",
		"zip_code": "60614"
	},
	{
		"venue_id": "yelpNGfbRjWoqUh2fGw8DU_pmA",
		"venue_name": "Caro Mio",
		"latitude": 41.9651506,
		"longitude": -87.6758369,
		"address1": "1833 W Wilson Ave",
		"address2": "",
		"address3": "",
		"city": "Chicago",
		"state": "IL",
		"zip_code": "60640"
	},
	{
		"venue_id": "yelptzP7xNT7OokI6JKgtINTlA",
		"venue_name": "Antico",
		"latitude": 41.91746,
		"longitude": -87.68281,
		"address1": "1946 N Leavitt St",
		"address2": "",
		"address3": "",
		"city": "Chicago",
		"state": "IL",
		"zip_code": "60647"
	},
	{
		"venue_id": "yelpmnvQFi_uwBKgBjrIyRQ6YQ",
		"venue_name": "Spiaggia",
		"latitude": 41.900622,
		"longitude": -87.624411,
		"address1": "980 N Michigan Ave",
		"address2": "Fl 2",
		"address3": "",
		"city": "Chicago",
		"state": "IL",
		"zip_code": "60611"
	},
	{
		"venue_id": "yelpwYBTYDCk5ebNm7WtPfvX-g",
		"venue_name": "Nonnina",
		"latitude": 41.8883821,
		"longitude": -87.6311649,
		"address1": "340 N Clark St",
		"address2": "",
		"address3": null,
		"city": "Chicago",
		"state": "IL",
		"zip_code": "60654"
	},
	{
		"venue_id": "yelplwl1vEEagUrhNXhDI1StQA",
		"venue_name": "Coco Pazzo Cafe",
		"latitude": 41.8927539,
		"longitude": -87.6220247,
		"address1": "212 E Ohio St",
		"address2": "",
		"address3": "",
		"city": "Chicago",
		"state": "IL",
		"zip_code": "60611"
	},
	{
		"venue_id": "yelpfGNGjLrTKb75W94DXiWCxw",
		"venue_name": "Ignotz Ristorante",
		"latitude": 41.8478012084961,
		"longitude": -87.6827697753906,
		"address1": "2421 S Oakley Ave",
		"address2": "",
		"address3": "",
		"city": "Chicago",
		"state": "IL",
		"zip_code": "60608"
	},
	{
		"venue_id": "yelpd_8fXdA3E0IW44NYqt6haw",
		"venue_name": "Petterino's",
		"latitude": 41.8846425,
		"longitude": -87.6296888,
		"address1": "150 N Dearborn St",
		"address2": "",
		"address3": "",
		"city": "Chicago",
		"state": "IL",
		"zip_code": "60601"
	},
	{
		"venue_id": "yelpWsU46rtQDsc9tZUWroD4TA",
		"venue_name": "Al's Beef",
		"latitude": 41.89302,
		"longitude": -87.6337999,
		"address1": "169 W Ontario St",
		"address2": "",
		"address3": "",
		"city": "Chicago",
		"state": "IL",
		"zip_code": "60654"
	},
	{
		"venue_id": "yelp4hEWyzVZ4gKdAoBpsd7Rrw",
		"venue_name": "The Italian Village Restaurants",
		"latitude": 41.880595,
		"longitude": -87.630159,
		"address1": "71 W Monroe St",
		"address2": "",
		"address3": "",
		"city": "Chicago",
		"state": "IL",
		"zip_code": "60603"
	},
	{
		"venue_id": "yelp3NViikBJwbjvq1ensGYRcw",
		"venue_name": "Pasta D'Arte Trattoria Italiana",
		"latitude": 41.99563,
		"longitude": -87.78578,
		"address1": "6311 N Milwaukee Ave",
		"address2": "",
		"address3": "",
		"city": "Chicago",
		"state": "IL",
		"zip_code": "60646"
	},
	{
		"venue_id": "yelpjsXtfVrcn7FrX06q3j_Xmg",
		"venue_name": "Gene & Georgetti",
		"latitude": 41.89091,
		"longitude": -87.63581,
		"address1": "500 N Franklin St",
		"address2": "",
		"address3": "",
		"city": "Chicago",
		"state": "IL",
		"zip_code": "60654"
	},
	{
		"venue_id": "yelpQaNr4e16T3MW0li-Um2kGQ",
		"venue_name": "Tuscany - Taylor",
		"latitude": 41.869577,
		"longitude": -87.651847,
		"address1": "1014 W Taylor St",
		"address2": "",
		"address3": "",
		"city": "Chicago",
		"state": "IL",
		"zip_code": "60607"
	},
	{
		"venue_id": "yelp4NMrTDI0DVQqUsF_4SWdVA",
		"venue_name": "Coco Pazzo",
		"latitude": 41.890148203883,
		"longitude": -87.6357354950368,
		"address1": "300 W Hubbard St",
		"address2": null,
		"address3": "",
		"city": "Chicago",
		"state": "IL",
		"zip_code": "60654"
	},
	{
		"venue_id": "yelpHs3b3jbwPQ88qtycbcR65w",
		"venue_name": "Lucia's Gourmet Italian Cuisine",
		"latitude": 41.91026,
		"longitude": -87.67359,
		"address1": "1825 W North Ave",
		"address2": "",
		"address3": "",
		"city": "Chicago",
		"state": "IL",
		"zip_code": "60622"
	},
	{
		"venue_id": "yelpZ-SJv3keY-u2bIAnkrDq_Q",
		"venue_name": "La Crosta Woodfire Pizzeria Italiana",
		"latitude": 41.9248027560034,
		"longitude": -87.6479495139774,
		"address1": "2360 N Lincoln Ave",
		"address2": "",
		"address3": "",
		"city": "Chicago",
		"state": "IL",
		"zip_code": "60614"
	},
	{
		"venue_id": "yelpwfxgPtSkiAfkKNBVEWts9g",
		"venue_name": "Bar Roma",
		"latitude": 41.9745114390209,
		"longitude": -87.668036185205,
		"address1": "5101 N Clark St",
		"address2": "",
		"address3": null,
		"city": "Chicago",
		"state": "IL",
		"zip_code": "60640"
	},
	{
		"venue_id": "yelphe9H0xVDQW4EOvUap_YdVg",
		"venue_name": "Riccardo Trattoria",
		"latitude": 41.9207649230957,
		"longitude": -87.6371841430664,
		"address1": "2119 N Clark St",
		"address2": null,
		"address3": "",
		"city": "Chicago",
		"state": "IL",
		"zip_code": "60614"
	},
	{
		"venue_id": "yelpK9PR2ixP1in-sqiQN-kinA",
		"venue_name": "Gio's Cafe and Deli",
		"latitude": 41.84366,
		"longitude": -87.64312,
		"address1": "2724 S Lowe Ave",
		"address2": "",
		"address3": "",
		"city": "Chicago",
		"state": "IL",
		"zip_code": "60616"
	},
	{
		"venue_id": "yelpMqB2og2Bdv0YcztieKEWjg",
		"venue_name": "BarTucci",
		"latitude": 41.9423838,
		"longitude": -87.806911,
		"address1": "3426 N Harlem Ave",
		"address2": "",
		"address3": "",
		"city": "Chicago",
		"state": "IL",
		"zip_code": "60634"
	},
	{
		"venue_id": "yelpklq9aUxCxA1kneDhc6hc_Q",
		"venue_name": "Pizzeria Serio",
		"latitude": 41.9399147033691,
		"longitude": -87.6715316772461,
		"address1": "1708 W Belmont Ave",
		"address2": "",
		"address3": "",
		"city": "Chicago",
		"state": "IL",
		"zip_code": "60657"
	},
	{
		"venue_id": "yelpUBRWllRUeY1yolEfcglRmA",
		"venue_name": "Macello",
		"latitude": 41.885228,
		"longitude": -87.6582169,
		"address1": "1235 W Lake St",
		"address2": "",
		"address3": "",
		"city": "Chicago",
		"state": "IL",
		"zip_code": "60607"
	},
	{
		"venue_id": "yelpQ9trwKeFr6mKWATU96gWBw",
		"venue_name": "Mart Anthony's",
		"latitude": 41.8901272762288,
		"longitude": -87.6575369306537,
		"address1": "1200 W Hubbard St",
		"address2": "",
		"address3": "",
		"city": "Chicago",
		"state": "IL",
		"zip_code": "60642"
	},
	{
		"venue_id": "yelpwojOJ7lqmBbI6J0dv-TUDQ",
		"venue_name": "Sono Wood Fired",
		"latitude": 41.9102302,
		"longitude": -87.6488158,
		"address1": "1582 N Clybourn Ave",
		"address2": "",
		"address3": "",
		"city": "Chicago",
		"state": "IL",
		"zip_code": "60642"
	},
	{
		"venue_id": "yelp22714mxj2e61k4xfjfqYHw",
		"venue_name": "Sofi Restaurant",
		"latitude": 41.8738179,
		"longitude": -87.6292004,
		"address1": "616 S Dearborn St",
		"address2": "",
		"address3": "",
		"city": "Chicago",
		"state": "IL",
		"zip_code": "60605"
	},
	{
		"venue_id": "yelpLR9TxdcQbH40H3i629fa5A",
		"venue_name": "Lou Malnati's Pizzeria",
		"latitude": 41.8839551,
		"longitude": -87.6581263,
		"address1": "1235 W Randolph St",
		"address2": "",
		"address3": "",
		"city": "Chicago",
		"state": "IL",
		"zip_code": "60607"
	},
	{
		"venue_id": "yelpBtjt4D8dJ-yEdsts3Tj5Hg",
		"venue_name": "Anteprima",
		"latitude": 41.978573511319,
		"longitude": -87.6684763732404,
		"address1": "5316 N Clark St",
		"address2": "",
		"address3": "",
		"city": "Chicago",
		"state": "IL",
		"zip_code": "60640"
	},
	{
		"venue_id": "yelpH5wndY3wnoe9RkTs1iWViQ",
		"venue_name": "Connie's Pizza",
		"latitude": 41.849488,
		"longitude": -87.641036,
		"address1": "2373 S Archer Ave",
		"address2": "",
		"address3": "",
		"city": "Chicago",
		"state": "IL",
		"zip_code": "60616"
	},
	{
		"venue_id": "yelpoD9mXf_-7ukKOEGRP0HWvg",
		"venue_name": "Cafe Spiaggia",
		"latitude": 41.9007042247792,
		"longitude": -87.624384276474,
		"address1": "980 N Michigan Ave",
		"address2": "Fl 2",
		"address3": "",
		"city": "Chicago",
		"state": "IL",
		"zip_code": "60611"
	},
	{
		"venue_id": "yelpUHmZ55OEMJ5NdedgACfxgg",
		"venue_name": "Tufano's Vernon Park  Tap",
		"latitude": 41.87279,
		"longitude": -87.654,
		"address1": "1073 W Vernon Park Pl",
		"address2": "",
		"address3": "",
		"city": "Chicago",
		"state": "IL",
		"zip_code": "60607"
	},
	{
		"venue_id": "yelpp7dp8vcrml_rqb16P3syGA",
		"venue_name": "Francesca's On Chestnut",
		"latitude": 41.8985615,
		"longitude": -87.6213982,
		"address1": "200 E Chestnut St",
		"address2": "",
		"address3": "",
		"city": "Chicago",
		"state": "IL",
		"zip_code": "60611"
	},
	{
		"venue_id": "yelpvyyTRcWa5AfRKcPC9ozn5w",
		"venue_name": "Angelo's Wine Bar",
		"latitude": 41.9613729151644,
		"longitude": -87.7043616771698,
		"address1": "3026 W Montrose Ave",
		"address2": "",
		"address3": "",
		"city": "Chicago",
		"state": "IL",
		"zip_code": "60618"
	},
	{
		"venue_id": "yelpid3TDF8s7BMYQCLm4HMCng",
		"venue_name": "Club Lago",
		"latitude": 41.89533,
		"longitude": -87.63691,
		"address1": "331 W Superior St",
		"address2": "",
		"address3": "",
		"city": "Chicago",
		"state": "IL",
		"zip_code": "60654"
	},
	{
		"venue_id": "yelp9vfM3389qnOhsMYO7ec6NA",
		"venue_name": "Mama Milano's Pizza Bar",
		"latitude": 41.9082483791263,
		"longitude": -87.6343194664086,
		"address1": "1419 N Wells St",
		"address2": "",
		"address3": "",
		"city": "Chicago",
		"state": "IL",
		"zip_code": "60610"
	},
	{
		"venue_id": "yelpGckzipdx43w2p5mGphRFtA",
		"venue_name": "Sapori Antichi Bar Italiano",
		"latitude": 41.8925839,
		"longitude": -87.6289421,
		"address1": "22 W Ohio St",
		"address2": null,
		"address3": "",
		"city": "Chicago",
		"state": "IL",
		"zip_code": "60654"
	},
	{
		"venue_id": "yelpfW5mNILkfD3-0cOqoPsRvA",
		"venue_name": "Labriola",
		"latitude": 41.8919830322266,
		"longitude": -87.6235427856445,
		"address1": "535 N Michigan Ave",
		"address2": "",
		"address3": "",
		"city": "Chicago",
		"state": "IL",
		"zip_code": "60611"
	},
	{
		"venue_id": "yelpKjHdL-nV4Atc4Cprz3GzBA",
		"venue_name": "Pasta Bowl - Wicker Park",
		"latitude": 41.910627,
		"longitude": -87.674672,
		"address1": "1852 W North Ave",
		"address2": "",
		"address3": "",
		"city": "Chicago",
		"state": "IL",
		"zip_code": "60622"
	},
	{
		"venue_id": "yelpPlJM2cGFBEhv51_ZpP2EuQ",
		"venue_name": "Giordano's - Navy Pier",
		"latitude": 41.891823,
		"longitude": -87.60966,
		"address1": "700 E Grand Ave",
		"address2": "",
		"address3": "",
		"city": "Chicago",
		"state": "IL",
		"zip_code": "60611"
	},
	{
		"venue_id": "yelpZSpbOOkW27gn7wZD7qWfCA",
		"venue_name": "Victory Tap Chicago",
		"latitude": 41.8635,
		"longitude": -87.62454,
		"address1": "1416 S Michigan Ave",
		"address2": "",
		"address3": null,
		"city": "Chicago",
		"state": "IL",
		"zip_code": "60605"
	},
	{
		"venue_id": "yelpIX34m-olKrlEeeEIXEPh9g",
		"venue_name": "Franco's Ristorante",
		"latitude": 41.83843,
		"longitude": -87.6343,
		"address1": "300 W 31st St",
		"address2": "",
		"address3": "",
		"city": "Chicago",
		"state": "IL",
		"zip_code": "60616"
	},
	{
		"venue_id": "yelpMbd667MGY6N8LNtmGk2ANg",
		"venue_name": "Bar Cargo",
		"latitude": 41.8926241,
		"longitude": -87.6339551,
		"address1": "605 N Wells St",
		"address2": "",
		"address3": null,
		"city": "Chicago",
		"state": "IL",
		"zip_code": "60654"
	},
	{
		"venue_id": "yelpyZMIdt94yrkedauhmPnY8Q",
		"venue_name": "Due Lire Vino & Cucina",
		"latitude": 41.96368,
		"longitude": -87.68571,
		"address1": "4520 N Lincoln Ave",
		"address2": "",
		"address3": "",
		"city": "Chicago",
		"state": "IL",
		"zip_code": "60625"
	},
	{
		"venue_id": "yelpDfWqQLBJRCIUfQtOgDH1JQ",
		"venue_name": "Dante's Pizzeria",
		"latitude": 41.9174418,
		"longitude": -87.7034462,
		"address1": "3028 W Armitage Ave",
		"address2": "",
		"address3": "",
		"city": "Chicago",
		"state": "IL",
		"zip_code": "60647"
	},
	{
		"venue_id": "yelpfT9LspNx3mc3VhlCziOBYQ",
		"venue_name": "Panino's",
		"latitude": 41.949337,
		"longitude": -87.649211,
		"address1": "3704 N Broadway St",
		"address2": "",
		"address3": "",
		"city": "Chicago",
		"state": "IL",
		"zip_code": "60613"
	},
	{
		"venue_id": "yelp8wARj6QqmnSkUqLwoBCn7w",
		"venue_name": "Gibsons Italia",
		"latitude": 41.8866045,
		"longitude": -87.6396918,
		"address1": "233 N Canal St",
		"address2": "",
		"address3": null,
		"city": "Chicago",
		"state": "IL",
		"zip_code": "60606"
	},
	{
		"venue_id": "yelpXsm6pmhQaTubKWfG6aHMyw",
		"venue_name": "Original Ferrara Bakery",
		"latitude": 41.86923,
		"longitude": -87.68158,
		"address1": "2210 W Taylor St",
		"address2": "",
		"address3": "",
		"city": "Chicago",
		"state": "IL",
		"zip_code": "60612"
	},
	{
		"venue_id": "yelpLHoOSCq8biQUrJnA2tcg_g",
		"venue_name": "Coda Di Volpe",
		"latitude": 41.94265,
		"longitude": -87.66354,
		"address1": "3335 N Southport Ave",
		"address2": "",
		"address3": null,
		"city": "Chicago",
		"state": "IL",
		"zip_code": "60657"
	},
	{
		"venue_id": "yelpXg1D2w-ogtXffGnGTgoXEg",
		"venue_name": "Orso's",
		"latitude": 41.90776,
		"longitude": -87.63431,
		"address1": "1401 N Wells St",
		"address2": "",
		"address3": "",
		"city": "Chicago",
		"state": "IL",
		"zip_code": "60610"
	},
	{
		"venue_id": "yelpXrjN7dRsr31L0qFHs0I3ew",
		"venue_name": "Big G's Pizza",
		"latitude": 41.9495328,
		"longitude": -87.6584094,
		"address1": "3716 N Clark St",
		"address2": null,
		"address3": "",
		"city": "Chicago",
		"state": "IL",
		"zip_code": "60613"
	},
	{
		"venue_id": "yelpqGptMIlnPokCncB9QSAW4A",
		"venue_name": "Bombacigno's J & C Inn",
		"latitude": 41.87698,
		"longitude": -87.64182,
		"address1": "558 W Van Buren St",
		"address2": "",
		"address3": "",
		"city": "Chicago",
		"state": "IL",
		"zip_code": "60607"
	},
	{
		"venue_id": "yelpF5K77NjeHzKxWqI9ke7sBQ",
		"venue_name": "Trattoria Porretta Ristorante",
		"latitude": 41.94753,
		"longitude": -87.76715,
		"address1": "3656 N Central Ave",
		"address2": "",
		"address3": "",
		"city": "Chicago",
		"state": "IL",
		"zip_code": "60634"
	},
	{
		"venue_id": "yelpGQiHiIOOXuhAG0m2KDEatw",
		"venue_name": "Langhe Market",
		"latitude": 41.91598,
		"longitude": -87.68755,
		"address1": "1904 N Western Ave",
		"address2": "",
		"address3": null,
		"city": "Chicago",
		"state": "IL",
		"zip_code": "60647"
	},
	{
		"venue_id": "yelpi2LY-w3dNW5Zzcm4w6XHPQ",
		"venue_name": "Rosebud Prime",
		"latitude": 41.881632,
		"longitude": -87.629018,
		"address1": "1 S Dearborn St",
		"address2": "",
		"address3": "",
		"city": "Chicago",
		"state": "IL",
		"zip_code": "60603"
	},
	{
		"venue_id": "yelpTBMpdgpBeRiVimE7zcoefg",
		"venue_name": "Tocco",
		"latitude": 41.904655456543,
		"longitude": -87.6689834594727,
		"address1": "1266 N Milwaukee Ave",
		"address2": "",
		"address3": "",
		"city": "Chicago",
		"state": "IL",
		"zip_code": "60622"
	},
	{
		"venue_id": "yelpkLxobgGBwgdjz3jGjWGorg",
		"venue_name": "L'Appetito",
		"latitude": 41.8950353708367,
		"longitude": -87.6266652432269,
		"address1": "30 E Huron St",
		"address2": "",
		"address3": "",
		"city": "Chicago",
		"state": "IL",
		"zip_code": "60611"
	},
	{
		"venue_id": "yelp020u8CwE7epnFc0so4sRrw",
		"venue_name": "Vinci Restaurant",
		"latitude": 41.9136528393318,
		"longitude": -87.6485343190491,
		"address1": "1732 N Halsted St",
		"address2": "",
		"address3": "",
		"city": "Chicago",
		"state": "IL",
		"zip_code": "60614"
	},
	{
		"venue_id": "yelpLApAjeUrykyrlByipUx7fg",
		"venue_name": "Francesca's Bryn Mawr",
		"latitude": 41.98356502918,
		"longitude": -87.656778688821,
		"address1": "1039 W Bryn Mawr Ave",
		"address2": "",
		"address3": "",
		"city": "Chicago",
		"state": "IL",
		"zip_code": "60660"
	},
	{
		"venue_id": "yelp4yftA8F8IyzfUZLfaFe6aw",
		"venue_name": "Via Carducci La Sorella",
		"latitude": 41.90352,
		"longitude": -87.67596,
		"address1": "1928 W Division St",
		"address2": "",
		"address3": "",
		"city": "Chicago",
		"state": "IL",
		"zip_code": "60622"
	},
	{
		"venue_id": "yelplHtnx4P6z9SIkDR720mBbg",
		"venue_name": "Basil Leaf Cafe",
		"latitude": 41.9272334,
		"longitude": -87.6412731,
		"address1": "2465 N Clark St",
		"address2": "",
		"address3": "",
		"city": "Chicago",
		"state": "IL",
		"zip_code": "60614"
	},
	{
		"venue_id": "yelpJaO7VswL5hk1DF09CYB-cQ",
		"venue_name": "312 Chicago",
		"latitude": 41.8842056,
		"longitude": -87.6325849,
		"address1": "136 N LaSalle St",
		"address2": "",
		"address3": "",
		"city": "Chicago",
		"state": "IL",
		"zip_code": "60602"
	},
	{
		"venue_id": "yelpxwh6oCWWCBM5msIIBq5XUg",
		"venue_name": "Bella Notte Restaurant",
		"latitude": 41.89133,
		"longitude": -87.66185,
		"address1": "1374 W Grand Ave",
		"address2": "",
		"address3": "",
		"city": "Chicago",
		"state": "IL",
		"zip_code": "60622"
	},
	{
		"venue_id": "yelp7IVcoxanHNjzBVYRCOEDHA",
		"venue_name": "Pizza Metro",
		"latitude": 41.90299,
		"longitude": -87.67024,
		"address1": "1707 W Division St",
		"address2": "",
		"address3": "",
		"city": "Chicago",
		"state": "IL",
		"zip_code": "60622"
	},
	{
		"venue_id": "yelpI30lluFlFXFbbh0s5XNaQw",
		"venue_name": "Legno Chicago",
		"latitude": 41.958257,
		"longitude": -87.767503,
		"address1": "4250 N Central Ave",
		"address2": "",
		"address3": "",
		"city": "Chicago",
		"state": "IL",
		"zip_code": "60634"
	},
	{
		"venue_id": "yelp7acqCZbZfoef4BHqPExHtA",
		"venue_name": "Gino's East - South Loop",
		"latitude": 41.87522,
		"longitude": -87.62895,
		"address1": "521 S Dearborn St",
		"address2": "",
		"address3": "",
		"city": "Chicago",
		"state": "IL",
		"zip_code": "60605"
	},
	{
		"venue_id": "yelp_p5ibLUivU66x38gDvExPw",
		"venue_name": "Salerno's Pizza of Chicago",
		"latitude": 41.89086,
		"longitude": -87.65759,
		"address1": "1201 W Grand Ave",
		"address2": "",
		"address3": "",
		"city": "Chicago",
		"state": "IL",
		"zip_code": "60622"
	},
	{
		"venue_id": "yelpgFNmiA8u6LLzht1X8-ZNTA",
		"venue_name": "Cafe Bionda",
		"latitude": 41.8563207,
		"longitude": -87.6272949,
		"address1": "1924 S State St",
		"address2": "",
		"address3": "",
		"city": "Chicago",
		"state": "IL",
		"zip_code": "60616"
	},
	{
		"venue_id": "yelpkfRBrO9hmMyw8H4hujiZwQ",
		"venue_name": "Vapiano Chicago Downtown",
		"latitude": 41.880982,
		"longitude": -87.626392,
		"address1": "44 S Wabash Ave",
		"address2": "",
		"address3": "",
		"city": "Chicago",
		"state": "IL",
		"zip_code": "60603"
	},
	{
		"venue_id": "yelpRMafeLBhu6EAKDB4b5Fsjg",
		"venue_name": "Giordano's",
		"latitude": 41.94014,
		"longitude": -87.6557,
		"address1": "1040 W Belmont Ave",
		"address2": "",
		"address3": "",
		"city": "Chicago",
		"state": "IL",
		"zip_code": "60657"
	},
	{
		"venue_id": "yelp4UMVbAckoHU21bqrhTv4PA",
		"venue_name": "Chef Luciano",
		"latitude": 41.8526205,
		"longitude": -87.6250488,
		"address1": "49 E Cermak Rd",
		"address2": "",
		"address3": "",
		"city": "Chicago",
		"state": "IL",
		"zip_code": "60616"
	},
	{
		"venue_id": "yelpIwgIbrT1RYh_gy-JUGiHjg",
		"venue_name": "Tarantino's",
		"latitude": 41.918331,
		"longitude": -87.655967,
		"address1": "1112 W Armitage Ave",
		"address2": "",
		"address3": "",
		"city": "Chicago",
		"state": "IL",
		"zip_code": "60614"
	},
	{
		"venue_id": "yelp6M4TSWnaZEjne9bZQAwMHw",
		"venue_name": "Pizza Art Cafe",
		"latitude": 41.96651,
		"longitude": -87.69399,
		"address1": "4658 N Rockwell St",
		"address2": "",
		"address3": "",
		"city": "Chicago",
		"state": "IL",
		"zip_code": "60625"
	},
	{
		"venue_id": "yelpVllmq_0S_dZZ1Tt2MHGFGg",
		"venue_name": "Il Vicinato Ristorante",
		"latitude": 41.8473701477051,
		"longitude": -87.6851654052734,
		"address1": "2435 S Western Ave",
		"address2": "",
		"address3": "",
		"city": "Chicago",
		"state": "IL",
		"zip_code": "60608"
	},
	{
		"venue_id": "yelpXZZxkzQ9esWKWxyG3yYatg",
		"venue_name": "La Storia",
		"latitude": 41.90344,
		"longitude": -87.63041,
		"address1": "1154 N Dearborn St",
		"address2": null,
		"address3": "",
		"city": "Chicago",
		"state": "IL",
		"zip_code": "60610"
	},
	{
		"venue_id": "yelpQSefAqftl1Hcseli2wcAAw",
		"venue_name": "Gino's East - River North",
		"latitude": 41.8910112,
		"longitude": -87.6328052,
		"address1": "500 N LaSalle St",
		"address2": "",
		"address3": "",
		"city": "Chicago",
		"state": "IL",
		"zip_code": "60654"
	},
	{
		"venue_id": "yelpcmBSH_mNlh0Pw6_eNHCjLQ",
		"venue_name": "Avanti Caff\u00e9",
		"latitude": 41.87841,
		"longitude": -87.6341,
		"address1": "200 W Jackson Blvd",
		"address2": "",
		"address3": "",
		"city": "Chicago",
		"state": "IL",
		"zip_code": "60606"
	},
	{
		"venue_id": "yelpXc7KC3XLxYUhM9Xzh-eDvA",
		"venue_name": "Sal's Trattoria",
		"latitude": 41.9335,
		"longitude": -87.6639299,
		"address1": "2834 N Southport Ave",
		"address2": null,
		"address3": "",
		"city": "Chicago",
		"state": "IL",
		"zip_code": "60657"
	},
	{
		"venue_id": "yelprWzLMSAmdkGD7rwsiby9Ng",
		"venue_name": "Fabulous Freddies Italian Eatery",
		"latitude": 41.8377391351096,
		"longitude": -87.6439815149679,
		"address1": "701 W 31st St",
		"address2": "",
		"address3": "",
		"city": "Chicago",
		"state": "IL",
		"zip_code": "60616"
	},
	{
		"venue_id": "yelp_OmRWIk0JUQd6tIHil7Vpw",
		"venue_name": "Giordano's",
		"latitude": 41.8645637950545,
		"longitude": -87.6244,
		"address1": "1340 S Michigan",
		"address2": null,
		"address3": "",
		"city": "Chicago",
		"state": "IL",
		"zip_code": "60605"
	},
	{
		"venue_id": "yelpmTOxKyJfY7OgeS9jUa88ew",
		"venue_name": "Osteria del Pastaio",
		"latitude": 41.89797,
		"longitude": -87.62523,
		"address1": "111 E Chestnut St",
		"address2": "",
		"address3": "",
		"city": "Chicago",
		"state": "IL",
		"zip_code": "60611"
	},
	{
		"venue_id": "yelpNgg7cuxkP8ucSMv3XYNZNg",
		"venue_name": "Al's Beef",
		"latitude": 41.8692398071289,
		"longitude": -87.6540603637695,
		"address1": "1079 W Taylor St",
		"address2": "",
		"address3": "",
		"city": "Chicago",
		"state": "IL",
		"zip_code": "60607"
	},
	{
		"venue_id": "yelpImhpnauVGmb8XmW2LYAcGg",
		"venue_name": "Pete's Pizza & Restaurant",
		"latitude": 41.94968,
		"longitude": -87.68794,
		"address1": "3737 N Western Ave",
		"address2": "",
		"address3": "",
		"city": "Chicago",
		"state": "IL",
		"zip_code": "60618"
	},
	{
		"venue_id": "yelpcfX36vsu0bQS0U0pn8_Xbw",
		"venue_name": "Andiamo Pizzaria",
		"latitude": 41.9331407349045,
		"longitude": -87.649210830658,
		"address1": "2814 N Halsted St",
		"address2": null,
		"address3": "",
		"city": "Chicago",
		"state": "IL",
		"zip_code": "60657"
	},
	{
		"venue_id": "yelpDcd84k1YyljpxdF7x1fW5w",
		"venue_name": "Pisolino",
		"latitude": 41.9392551,
		"longitude": -87.6970157,
		"address1": "2755 W Belmont Ave",
		"address2": "",
		"address3": null,
		"city": "Chicago",
		"state": "IL",
		"zip_code": "60618"
	},
	{
		"venue_id": "yelpGx4O2HPnkW7bHxPO_vaRjw",
		"venue_name": "Bacchanalia Ristorante",
		"latitude": 41.848,
		"longitude": -87.68276,
		"address1": "2413 S Oakley Ave",
		"address2": "",
		"address3": "",
		"city": "Chicago",
		"state": "IL",
		"zip_code": "60608"
	},
	{
		"venue_id": "yelpb6DDnuj6WeQozVEXngTEKA",
		"venue_name": "Bella Bacinos",
		"latitude": 41.8876262742895,
		"longitude": -87.6253395404755,
		"address1": "75 E Wacker Dr",
		"address2": "",
		"address3": "",
		"city": "Chicago",
		"state": "IL",
		"zip_code": "60601"
	},
	{
		"venue_id": "yelpPVP1URyHLEqXDP4xa_JXbA",
		"venue_name": "Pizzeria Aroma",
		"latitude": 41.9779907467941,
		"longitude": -87.659553412215,
		"address1": "1125 W Berwyn Ave",
		"address2": "",
		"address3": "",
		"city": "Chicago",
		"state": "IL",
		"zip_code": "60640"
	},
	{
		"venue_id": "yelpLCBY796obaU15dwzjzctAw",
		"venue_name": "Oggi Trattoria",
		"latitude": 41.8913612,
		"longitude": -87.6554489,
		"address1": "1118 W Grand Ave",
		"address2": "",
		"address3": "",
		"city": "Chicago",
		"state": "IL",
		"zip_code": "60642"
	},
	{
		"venue_id": "yelpcyqpNhEJA_chlphJFcJmog",
		"venue_name": "Gigio's Pizzeria",
		"latitude": 41.966659,
		"longitude": -87.65794,
		"address1": "4643 N Broadway St",
		"address2": "",
		"address3": "",
		"city": "Chicago",
		"state": "IL",
		"zip_code": "60640"
	},
	{
		"venue_id": "yelpCJKbHl_jPTtzMIQYTHHgiA",
		"venue_name": "Ceres' Table",
		"latitude": 41.93845,
		"longitude": -87.64484,
		"address1": "3124 N Broadway Ave",
		"address2": "",
		"address3": "",
		"city": "Chicago",
		"state": "IL",
		"zip_code": "60657"
	},
	{
		"venue_id": "yelpDGiIzRHyQy36jd1Uu5adJQ",
		"venue_name": "Renaldi's Pizza Pub",
		"latitude": 41.93361,
		"longitude": -87.64435,
		"address1": "2827 N Broadway St",
		"address2": "",
		"address3": "",
		"city": "Chicago",
		"state": "IL",
		"zip_code": "60657"
	},
	{
		"venue_id": "yelpsRthQfowYURDUfspNn_9qQ",
		"venue_name": "Dinotto Pizza e Vino",
		"latitude": 41.9106129,
		"longitude": -87.6345195,
		"address1": "1551 N Wells",
		"address2": "",
		"address3": "",
		"city": "Chicago",
		"state": "IL",
		"zip_code": "60610"
	},
	{
		"venue_id": "yelpvqCfdZCRH7h6eAB0U7ANGg",
		"venue_name": "Luke's Italian Beef",
		"latitude": 41.87796889675,
		"longitude": -87.63440466055,
		"address1": "215 W Jackson Blvd",
		"address2": "",
		"address3": "",
		"city": "Chicago",
		"state": "IL",
		"zip_code": "60606"
	},
	{
		"venue_id": "yelpmfHRbOTCru-qL0kIQD5mew",
		"venue_name": "Pompei",
		"latitude": 41.8691074404,
		"longitude": -87.665519190614,
		"address1": "1531 W Taylor St",
		"address2": "",
		"address3": "",
		"city": "Chicago",
		"state": "IL",
		"zip_code": "60607"
	},
	{
		"venue_id": "yelpUbGuOTthP3iS6_nB5mDHDQ",
		"venue_name": "Mario's Table",
		"latitude": 41.9055595397949,
		"longitude": -87.6296463012695,
		"address1": "21 W Goethe St",
		"address2": "",
		"address3": "",
		"city": "Chicago",
		"state": "IL",
		"zip_code": "60610"
	},
	{
		"venue_id": "yelpWLbaTcWigpVQWDwbCajuhA",
		"venue_name": "Ciao! Cafe & Wine Lounge",
		"latitude": 41.881575821838,
		"longitude": -87.65099037689,
		"address1": "939 W Madison St",
		"address2": "",
		"address3": "",
		"city": "Chicago",
		"state": "IL",
		"zip_code": "60607"
	},
	{
		"venue_id": "yelpfX7kUz21SzpkJzm0e4u5pg",
		"venue_name": "I Monelli Trattoria Pizzeria",
		"latitude": 41.97288,
		"longitude": -87.68867,
		"address1": "5019 N Western Ave",
		"address2": "",
		"address3": "",
		"city": "Chicago",
		"state": "IL",
		"zip_code": "60625"
	},
	{
		"venue_id": "yelp09eEic9nbbSYMRizNfWrLQ",
		"venue_name": "Primos Chicago Pizza Pasta",
		"latitude": 41.876834739546,
		"longitude": -87.6481967255665,
		"address1": "816 W Van Buren St",
		"address2": null,
		"address3": "",
		"city": "Chicago",
		"state": "IL",
		"zip_code": "60607"
	},
	{
		"venue_id": "yelpLTN3XjcJzcES6BorjiP7mw",
		"venue_name": "Chicago's Pizza",
		"latitude": 41.93811,
		"longitude": -87.66698,
		"address1": "3114 N Lincoln Ave",
		"address2": "",
		"address3": "",
		"city": "Chicago",
		"state": "IL",
		"zip_code": "60657"
	},
	{
		"venue_id": "yelpCGedwhZHthNuQ5-h3FztCA",
		"venue_name": "John's Pizzeria Ristorante & Lounge",
		"latitude": 41.92009,
		"longitude": -87.687895,
		"address1": "2104 N Western Ave",
		"address2": "",
		"address3": "",
		"city": "Chicago",
		"state": "IL",
		"zip_code": "60647"
	},
	{
		"venue_id": "yelpDZhzxc_NReUEnVx0fz_iuw",
		"venue_name": "The Florentine",
		"latitude": 41.879249,
		"longitude": -87.63282,
		"address1": "151 W Adams St",
		"address2": "",
		"address3": "",
		"city": "Chicago",
		"state": "IL",
		"zip_code": "60603"
	},
	{
		"venue_id": "yelpcxMvBU1TX8ZzhAZN3L6Pqw",
		"venue_name": "Pazzo's @ 311",
		"latitude": 41.8774744536594,
		"longitude": -87.63618708843,
		"address1": "311 S Wacker Dr",
		"address2": "",
		"address3": "",
		"city": "Chicago",
		"state": "IL",
		"zip_code": "60606"
	},
	{
		"venue_id": "yelp4pe2zEgfE1NfWzQxLxxRVw",
		"venue_name": "Freddy's Pizza",
		"latitude": 41.857962,
		"longitude": -87.776681,
		"address1": "1600 S 61st Ave",
		"address2": null,
		"address3": "",
		"city": "Cicero",
		"state": "IL",
		"zip_code": "60804"
	},
	{
		"venue_id": "yelpHcdXUshp63g1LEyRakukdw",
		"venue_name": "Riccardo Enoteca",
		"latitude": 41.92062,
		"longitude": -87.6378299,
		"address1": "2116 N Clark St",
		"address2": "",
		"address3": "",
		"city": "Chicago",
		"state": "IL",
		"zip_code": "60614"
	},
	{
		"venue_id": "yelpFo_ZeSKDg90q4cte7RFmCA",
		"venue_name": "Piazza Bella",
		"latitude": 41.94347,
		"longitude": -87.6816769,
		"address1": "2114 - 2116 W Roscoe St",
		"address2": "",
		"address3": "",
		"city": "Chicago",
		"state": "IL",
		"zip_code": "60618"
	},
	{
		"venue_id": "yelp9A4bFJkHaPaRspPqJvkjeg",
		"venue_name": "Mirabella Italian Cuisine & Bar",
		"latitude": 41.94668,
		"longitude": -87.71481,
		"address1": "3454 W Addison",
		"address2": "",
		"address3": null,
		"city": "Chicago",
		"state": "IL",
		"zip_code": "60618"
	},
	{
		"venue_id": "yelp8PnnZxgusKOfGR9A76EMCQ",
		"venue_name": "Sicilia Bakery",
		"latitude": 41.9674061,
		"longitude": -87.7765287,
		"address1": "5939 W Lawrence Ave",
		"address2": "",
		"address3": "",
		"city": "Chicago",
		"state": "IL",
		"zip_code": "60630"
	},
	{
		"venue_id": "yelpE81IZcBYpg6ThIf7gIyedA",
		"venue_name": "Pizzeria Via Stato",
		"latitude": 41.892934,
		"longitude": -87.628161,
		"address1": "620 N State St",
		"address2": "",
		"address3": "",
		"city": "Chicago",
		"state": "IL",
		"zip_code": "60654"
	},
	{
		"venue_id": "yelp3kDKFfe12iJWOnZWuXgqxg",
		"venue_name": "Father and Son Restaurant",
		"latitude": 41.9266205,
		"longitude": -87.7029266,
		"address1": "2475 N Milwaukee Ave",
		"address2": "",
		"address3": "",
		"city": "Chicago",
		"state": "IL",
		"zip_code": "60647"
	},
	{
		"venue_id": "yelp-aIXGAuLnicdsmOutY9ebQ",
		"venue_name": "Terzo Piano",
		"latitude": 41.8807151,
		"longitude": -87.6231733,
		"address1": "159 E Monroe St",
		"address2": "",
		"address3": "",
		"city": "Chicago",
		"state": "IL",
		"zip_code": "60603"
	},
	{
		"venue_id": "yelpPJLWYg8sNqxVvhvYjwCkkw",
		"venue_name": "Zig Zag Kitchen",
		"latitude": 41.9137,
		"longitude": -87.64801,
		"address1": "1733 N Halsted St",
		"address2": "",
		"address3": "",
		"city": "Chicago",
		"state": "IL",
		"zip_code": "60614"
	},
	{
		"venue_id": "yelpZtwFEooLpf9wMv6saSIJrw",
		"venue_name": "Filini",
		"latitude": 41.8863562,
		"longitude": -87.6204959,
		"address1": "221 N Columbus Dr",
		"address2": "",
		"address3": "",
		"city": "Chicago",
		"state": "IL",
		"zip_code": "60601"
	},
	{
		"venue_id": "yelpVvCEBwENcIcpK0A3MOgAFg",
		"venue_name": "Phil's Pizza D'Oro",
		"latitude": 41.98671,
		"longitude": -87.77825,
		"address1": "5800 N Milwaukee Ave",
		"address2": "",
		"address3": "",
		"city": "Chicago",
		"state": "IL",
		"zip_code": "60646"
	},
	{
		"venue_id": "yelpXEzBVYd2gmuWKOpQggbKIg",
		"venue_name": "Firenze Italian Street Food",
		"latitude": 41.8839695,
		"longitude": -87.6410747,
		"address1": "131 N Clinton St",
		"address2": "Unit 20",
		"address3": "",
		"city": "Chicago",
		"state": "IL",
		"zip_code": "60661"
	},
	{
		"venue_id": "yelp21i1-HBIUXheX_i860QU6g",
		"venue_name": "Pelago Ristorante",
		"latitude": 41.8990174,
		"longitude": -87.6216846,
		"address1": "201 E Delaware Pl",
		"address2": "",
		"address3": "",
		"city": "Chicago",
		"state": "IL",
		"zip_code": "60611"
	},
	{
		"venue_id": "yelpGPN0FxOs2WU1_0JGj4KvIA",
		"venue_name": "Knead",
		"latitude": 41.9103822093282,
		"longitude": -87.6801430013848,
		"address1": "2101 W North Ave",
		"address2": "",
		"address3": null,
		"city": "Chicago",
		"state": "IL",
		"zip_code": "60647"
	},
	{
		"venue_id": "yelp3m-WekS1783S1WwEchHLlA",
		"venue_name": "Via Veneto",
		"latitude": 41.99656981943,
		"longitude": -87.717909818678,
		"address1": "6340 N Lincoln Ave",
		"address2": "",
		"address3": "",
		"city": "Chicago",
		"state": "IL",
		"zip_code": "60659"
	},
	{
		"venue_id": "yelph-RwYpF33rVO4vl37_Yg9w",
		"venue_name": "Giordano's",
		"latitude": 41.87647,
		"longitude": -87.64804,
		"address1": "815 W Van Buren St",
		"address2": "",
		"address3": "",
		"city": "Chicago",
		"state": "IL",
		"zip_code": "60607"
	},
	{
		"venue_id": "yelpTSA512rIEmgJIRFKmRhdww",
		"venue_name": "Villa Palermo Pizza",
		"latitude": 41.99805,
		"longitude": -87.68478,
		"address1": "2154 W Devon Ave",
		"address2": "",
		"address3": "",
		"city": "Chicago",
		"state": "IL",
		"zip_code": "60659"
	},
	{
		"venue_id": "yelpJW3nz0wMrZ1rwDVFtWfErw",
		"venue_name": "Lou Malnati's Pizzeria",
		"latitude": 41.9605,
		"longitude": -87.68352,
		"address1": "4340 N Lincoln Ave",
		"address2": "",
		"address3": "",
		"city": "Chicago",
		"state": "IL",
		"zip_code": "60618"
	},
	{
		"venue_id": "yelpcfT3H9N2KObLxp5H1Jl3mg",
		"venue_name": "Lou Malnati's Pizzeria",
		"latitude": 41.8518097,
		"longitude": -87.7220691,
		"address1": "3859 W Ogden Ave",
		"address2": "",
		"address3": "",
		"city": "Chicago",
		"state": "IL",
		"zip_code": "60623"
	},
	{
		"venue_id": "yelpERQbJaHn9qfImVPQ7toyzg",
		"venue_name": "Nonna's Pizza & Sandwiches",
		"latitude": 41.88404,
		"longitude": -87.65081,
		"address1": "925 W Randolph St",
		"address2": "",
		"address3": "",
		"city": "Chicago",
		"state": "IL",
		"zip_code": "60607"
	},
	{
		"venue_id": "yelpzjJkec5rNm-BCx0AYQPlsQ",
		"venue_name": "Trattoria Ultimo",
		"latitude": 41.895637512207,
		"longitude": -87.6766204833984,
		"address1": "1953 W Chicago Ave",
		"address2": "",
		"address3": "",
		"city": "Chicago",
		"state": "IL",
		"zip_code": "60622"
	},
	{
		"venue_id": "yelpZ9tbaxr8rBztZyZ-dBcoXA",
		"venue_name": "Tuscan Hen Market",
		"latitude": 41.9548599,
		"longitude": -87.67842,
		"address1": "4019 N Damen",
		"address2": "",
		"address3": null,
		"city": "Chicago",
		"state": "IL",
		"zip_code": "60618"
	},
	{
		"venue_id": "yelp03Rr6CHAjtJuoG_im3xg8w",
		"venue_name": "Tesori",
		"latitude": 41.8793907,
		"longitude": -87.6255337,
		"address1": "65 E Adams St",
		"address2": "",
		"address3": "",
		"city": "Chicago",
		"state": "IL",
		"zip_code": "60603"
	},
	{
		"venue_id": "yelpfIIkSoDtGoAIrs3ZThSGcg",
		"venue_name": "Bruna's Ristorante",
		"latitude": 41.84765,
		"longitude": -87.68339,
		"address1": "2424 S Oakley Ave",
		"address2": "Fl 1",
		"address3": "",
		"city": "Chicago",
		"state": "IL",
		"zip_code": "60608"
	},
	{
		"venue_id": "yelp0xOp-P2AJCSMTFut5GLX_A",
		"venue_name": "Ristorante Agostino",
		"latitude": 41.9313011169434,
		"longitude": -87.8061676025391,
		"address1": "2817 N Harlem Ave",
		"address2": "",
		"address3": "",
		"city": "Chicago",
		"state": "IL",
		"zip_code": "60707"
	},
	{
		"venue_id": "yelpatfwvk8zK8geGVciK4-KRA",
		"venue_name": "Himmel's",
		"latitude": 41.96838,
		"longitude": -87.686096,
		"address1": "2251 W Lawrence Ave",
		"address2": "",
		"address3": "",
		"city": "Chicago",
		"state": "IL",
		"zip_code": "60625"
	},
	{
		"venue_id": "yelpuTg6BwVQl0ldbx2R5IYdpA",
		"venue_name": "Arturo Express",
		"latitude": 41.879691,
		"longitude": -87.640386,
		"address1": "122 S Canal St",
		"address2": "",
		"address3": "",
		"city": "Chicago",
		"state": "IL",
		"zip_code": "60606"
	},
	{
		"venue_id": "yelpJMQfMSXrnXqEBVnVj1h4Ig",
		"venue_name": "Giordano's",
		"latitude": 41.9616049,
		"longitude": -87.679656,
		"address1": "2010 W Montrose Ave",
		"address2": null,
		"address3": "",
		"city": "Chicago",
		"state": "IL",
		"zip_code": "60618"
	},
	{
		"venue_id": "yelpbGDIW9Lg0_0zHKaTxplHaw",
		"venue_name": "Sopraffina Marketcaffe",
		"latitude": 41.8824272155762,
		"longitude": -87.6296997070312,
		"address1": "10 N Dearborn St",
		"address2": null,
		"address3": "",
		"city": "Chicago",
		"state": "IL",
		"zip_code": "60602"
	},
	{
		"venue_id": "yelptRCIj5pMhu6rV8nxlWCzXQ",
		"venue_name": "Sapori Napoletani",
		"latitude": 41.9910277806832,
		"longitude": -87.7974086319466,
		"address1": "6050 N Northwest Hwy",
		"address2": "",
		"address3": "",
		"city": "Chicago",
		"state": "IL",
		"zip_code": "60631"
	},
	{
		"venue_id": "yelpgF0co3H01jWsc_LMzvzUeg",
		"venue_name": "Nancy's Pizza",
		"latitude": 41.9358574647478,
		"longitude": -87.6444118620122,
		"address1": "2930 N Broadway St",
		"address2": "",
		"address3": "",
		"city": "Chicago",
		"state": "IL",
		"zip_code": "60657"
	},
	{
		"venue_id": "yelpnGcZFpXPE6nH9DtxEz2kIA",
		"venue_name": "Cafe LAppetito Lakeview",
		"latitude": 41.9426509058303,
		"longitude": -87.6446243644161,
		"address1": "3332 N Broadway St",
		"address2": "",
		"address3": "",
		"city": "Chicago",
		"state": "IL",
		"zip_code": "60657"
	},
	{
		"venue_id": "yelpyru60xmUoTlQp8qTD-bqkg",
		"venue_name": "Villa Rosa Pizza Kitchen",
		"latitude": 41.9972032,
		"longitude": -87.7628036,
		"address1": "5345 W Devon Ave",
		"address2": "",
		"address3": "",
		"city": "Chicago",
		"state": "IL",
		"zip_code": "60646"
	},
	{
		"venue_id": "yelpGt2qoaTwGAy1DG5x1cZSBA",
		"venue_name": "Olive Garden Italian Restaurant",
		"latitude": 41.9463816,
		"longitude": -87.7168583,
		"address1": "3555 W Addison St",
		"address2": null,
		"address3": null,
		"city": "Chicago",
		"state": "IL",
		"zip_code": "60618"
	},
	{
		"venue_id": "yelpbpiHxYmwRDKNZpgnEUMqvQ",
		"venue_name": "Armand's Pizzeria",
		"latitude": 41.9575823286691,
		"longitude": -87.688331007375,
		"address1": "4159 N Western Ave",
		"address2": "",
		"address3": "",
		"city": "Chicago",
		"state": "IL",
		"zip_code": "60618"
	},
	{
		"venue_id": "yelpcrBQyaDI_6smvvsjvDCokg",
		"venue_name": "Amato's Pizza and More",
		"latitude": 41.9118769,
		"longitude": -87.805334,
		"address1": "1737 N Harlem Ave",
		"address2": "",
		"address3": "",
		"city": "Chicago",
		"state": "IL",
		"zip_code": "60707"
	},
	{
		"venue_id": "yelp0Kz0Z8EGmAbEHDDXl0I5pA",
		"venue_name": "Dino's Pizza",
		"latitude": 41.9802988,
		"longitude": -87.8025377,
		"address1": "7004 W Higgins Ave",
		"address2": null,
		"address3": "",
		"city": "Chicago",
		"state": "IL",
		"zip_code": "60656"
	},
	{
		"venue_id": "yelpj-MtHNaxFo3n0vOqzE5Cqw",
		"venue_name": "Al's Beef",
		"latitude": 41.9440192833767,
		"longitude": -87.6540293888061,
		"address1": "3420 N Clark St",
		"address2": "",
		"address3": "",
		"city": "Chicago",
		"state": "IL",
		"zip_code": "60657"
	},
	{
		"venue_id": "yelpHjQmJIiyaLlk1eqXE0rlBA",
		"venue_name": "SABA Italian Bar + Kitchen",
		"latitude": 41.93082,
		"longitude": -87.70968,
		"address1": "2715 N Milwaukee Ave",
		"address2": null,
		"address3": "",
		"city": "Chicago",
		"state": "IL",
		"zip_code": "60647"
	},
	{
		"venue_id": "yelpQNfunF50R7Iwq0kQCOvqhg",
		"venue_name": "Casati's Pizza Vino",
		"latitude": 41.92589,
		"longitude": -87.64112,
		"address1": "444 W Fullerton Pkwy",
		"address2": "",
		"address3": null,
		"city": "Chicago",
		"state": "IL",
		"zip_code": "60614"
	},
	{
		"venue_id": "yelpu_qD0BZwu3JFtojDd277lQ",
		"venue_name": "Chip Monks",
		"latitude": 41.9329849,
		"longitude": -87.6409968,
		"address1": "438 W Diversey Pkwy",
		"address2": "",
		"address3": "",
		"city": "Chicago",
		"state": "IL",
		"zip_code": "60614"
	},
	{
		"venue_id": "yelpjJtW94fpYhvtCMms9fJTWQ",
		"venue_name": "Nonna Soluri's Italian Deli",
		"latitude": 41.83667,
		"longitude": -87.65142,
		"address1": "3142 S Morgan St",
		"address2": "",
		"address3": null,
		"city": "Chicago",
		"state": "IL",
		"zip_code": "60608"
	},
	{
		"venue_id": "yelp7a9BG-eTJahBhyhqKqba5w",
		"venue_name": "Vivere",
		"latitude": 41.8803520202637,
		"longitude": -87.6301345825195,
		"address1": "71 W Monroe St",
		"address2": null,
		"address3": "",
		"city": "Chicago",
		"state": "IL",
		"zip_code": "60603"
	},
	{
		"venue_id": "yelpi4OosajBgD35eK7KEoUqHg",
		"venue_name": "Bridgeport Restaurant",
		"latitude": 41.83058,
		"longitude": -87.64651,
		"address1": "3500 S Halsted St",
		"address2": "",
		"address3": "",
		"city": "Chicago",
		"state": "IL",
		"zip_code": "60609"
	},
	{
		"venue_id": "yelpiF5kwCn4w_ll_YOssZ3ZvA",
		"venue_name": "Ranalli's of Andersonville",
		"latitude": 41.9781372223385,
		"longitude": -87.6688979854104,
		"address1": "1512 W Berwyn Ave",
		"address2": "",
		"address3": "",
		"city": "Chicago",
		"state": "IL",
		"zip_code": "60640"
	},
	{
		"venue_id": "yelpj-cLoFtLXCvVR36wmsOWaA",
		"venue_name": "Vapiano - Magnificent Mile",
		"latitude": 41.89361,
		"longitude": -87.62615,
		"address1": "58 E Ontario St",
		"address2": "",
		"address3": null,
		"city": "Chicago",
		"state": "IL",
		"zip_code": "60611"
	},
	{
		"venue_id": "yelpdEBLqI_Gv4lrNonl2w4r0Q",
		"venue_name": "Tutto Italiano",
		"latitude": 41.8755296970554,
		"longitude": -87.6331329345703,
		"address1": "501 S Wells St",
		"address2": "",
		"address3": "",
		"city": "Chicago",
		"state": "IL",
		"zip_code": "60607"
	},
	{
		"venue_id": "yelpkQA0oraNxlE_lR3Qbk5oqA",
		"venue_name": "Aurelio's Pizza",
		"latitude": 41.86704,
		"longitude": -87.62464,
		"address1": "1212 S Michigan Ave",
		"address2": "",
		"address3": "",
		"city": "Chicago",
		"state": "IL",
		"zip_code": "60605"
	},
	{
		"venue_id": "yelpXtMNhUCqy-A4LNBNZ1_Xrg",
		"venue_name": "Joe's Pizza",
		"latitude": 41.97137,
		"longitude": -87.77251,
		"address1": "5747 W Higgins Ave",
		"address2": "",
		"address3": "",
		"city": "Chicago",
		"state": "IL",
		"zip_code": "60630"
	},
	{
		"venue_id": "yelpVJem8NQ9bg5IRPH2ERl8nQ",
		"venue_name": "Borelli's",
		"latitude": 41.968992,
		"longitude": -87.682672,
		"address1": "2124 W Lawrence Ave",
		"address2": "",
		"address3": "",
		"city": "Chicago",
		"state": "IL",
		"zip_code": "60625"
	},
	{
		"venue_id": "yelpksGX7fwYaj-SGCTjA_W14Q",
		"venue_name": "Trattoria Gianni",
		"latitude": 41.9131164550781,
		"longitude": -87.6479644775391,
		"address1": "1711 N Halsted St",
		"address2": "",
		"address3": "",
		"city": "Chicago",
		"state": "IL",
		"zip_code": "60614"
	},
	{
		"venue_id": "yelpAZNvlClyYXVBzmKl-GbyLA",
		"venue_name": "Pete's Pizza #2",
		"latitude": 41.96014,
		"longitude": -87.77383,
		"address1": "5847 W Montrose Ave",
		"address2": "",
		"address3": "",
		"city": "Chicago",
		"state": "IL",
		"zip_code": "60634"
	},
	{
		"venue_id": "yelpHXilNqjuyFK_nbHetZObNA",
		"venue_name": "Caffe Baci",
		"latitude": 41.882534,
		"longitude": -87.632943,
		"address1": "2 N La Salle St",
		"address2": "",
		"address3": "",
		"city": "Chicago",
		"state": "IL",
		"zip_code": "60602"
	},
	{
		"venue_id": "yelpLiZLJ4qRq1IeBav5DVXoYA",
		"venue_name": "D'Agostino's Pizza and Pub",
		"latitude": 41.8956733891647,
		"longitude": -87.6553115937669,
		"address1": "752 N Ogden Ave",
		"address2": "",
		"address3": "",
		"city": "Chicago",
		"state": "IL",
		"zip_code": "60642"
	},
	{
		"venue_id": "yelpfLabS58iT_3tYBwue0nA_A",
		"venue_name": "Al's Pizza Chicago",
		"latitude": 41.9530549,
		"longitude": -87.7858425,
		"address1": "6344 W Irving Park Rd",
		"address2": "",
		"address3": "",
		"city": "Chicago",
		"state": "IL",
		"zip_code": "60634"
	},
	{
		"venue_id": "yelpKwnuxV_YLkHUfP3dhe_qZg",
		"venue_name": "Al's Beef",
		"latitude": 41.878517243344,
		"longitude": -87.6263509706305,
		"address1": "234 S Wabash Ave",
		"address2": "",
		"address3": "",
		"city": "Chicago",
		"state": "IL",
		"zip_code": "60604"
	},
	{
		"venue_id": "yelppn77yKLUoKYBPZCWDYcg3g",
		"venue_name": "Caponies Trattoria",
		"latitude": 41.95238,
		"longitude": -87.81304,
		"address1": "7419 W Irving Park Rd",
		"address2": "",
		"address3": "",
		"city": "Chicago",
		"state": "IL",
		"zip_code": "60634"
	},
	{
		"venue_id": "yelpaMk0teVrH7PLfUE-x6jY_Q",
		"venue_name": "Giordano's",
		"latitude": 41.9333218,
		"longitude": -87.7140921,
		"address1": "2855 N Milwaukee Ave",
		"address2": "",
		"address3": "",
		"city": "Chicago",
		"state": "IL",
		"zip_code": "60618"
	},
	{
		"venue_id": "yelpqanOanPGpz1j00DAPfc86Q",
		"venue_name": "Anna Maria Pasteria",
		"latitude": 41.96185,
		"longitude": -87.66618,
		"address1": "4400 N Clark St",
		"address2": null,
		"address3": "",
		"city": "Chicago",
		"state": "IL",
		"zip_code": "60640"
	},
	{
		"venue_id": "yelpVgl1BhNbs784NE0M_C8FOw",
		"venue_name": "Roma's Italian Beef & Sausage",
		"latitude": 41.9581336975098,
		"longitude": -87.7470397949219,
		"address1": "4237 N Cicero Ave",
		"address2": "",
		"address3": "",
		"city": "Chicago",
		"state": "IL",
		"zip_code": "60641"
	},
	{
		"venue_id": "yelplSE_Kif1_V2tXQ2ZqXPkNg",
		"venue_name": "Tutto Fresco",
		"latitude": 41.93437,
		"longitude": -87.66807,
		"address1": "2901 N Ashland Ave",
		"address2": "",
		"address3": null,
		"city": "Chicago",
		"state": "IL",
		"zip_code": "60657"
	},
	{
		"venue_id": "yelpPi-z6d8RrFPN8nLDOj4Bkg",
		"venue_name": "Marchesa",
		"latitude": 41.89188,
		"longitude": -87.63378,
		"address1": "535 N Wells St",
		"address2": null,
		"address3": "",
		"city": "Chicago",
		"state": "IL",
		"zip_code": "60654"
	},
	{
		"venue_id": "yelpPw5PGJZ5sRDsxdh5fARJFw",
		"venue_name": "Venice Cafe",
		"latitude": 41.880931,
		"longitude": -87.640426,
		"address1": "500 W Monroe St",
		"address2": null,
		"address3": "",
		"city": "Chicago",
		"state": "IL",
		"zip_code": "60661"
	},
	{
		"venue_id": "yelpq2ZCe6KGHh16dsm2n2A08Q",
		"venue_name": "Tortorice's Pizza",
		"latitude": 41.9538116455078,
		"longitude": -87.6814041137695,
		"address1": "2101 W Irving Park Rd",
		"address2": "",
		"address3": "",
		"city": "Chicago",
		"state": "IL",
		"zip_code": "60618"
	},
	{
		"venue_id": "yelpcgeDgR3PmctNyv-P4iH-3w",
		"venue_name": "Balena",
		"latitude": 41.91195,
		"longitude": -87.64795,
		"address1": "1633 N Halsted St",
		"address2": "",
		"address3": "",
		"city": "Chicago",
		"state": "IL",
		"zip_code": "60614"
	},
	{
		"venue_id": "yelpgm_2j5UhsfVAmF_HhZ7qJg",
		"venue_name": "Backyard Grill",
		"latitude": 41.997026238705,
		"longitude": -87.7285904809931,
		"address1": "6355 N Pulaski Ave",
		"address2": "",
		"address3": "",
		"city": "Chicago",
		"state": "IL",
		"zip_code": "60646"
	},
	{
		"venue_id": "yelpaK6JmFAiMBCnlCbeeziLQQ",
		"venue_name": "Pizza Capri",
		"latitude": 41.9137,
		"longitude": -87.64801,
		"address1": "1733 N Halsted St",
		"address2": "",
		"address3": "",
		"city": "Chicago",
		"state": "IL",
		"zip_code": "60614"
	},
	{
		"venue_id": "yelpBt8bjIfRqajkZpOD35lHuA",
		"venue_name": "Mr Submarine",
		"latitude": 41.8829804,
		"longitude": -87.6336721,
		"address1": "47 N Wells St",
		"address2": "",
		"address3": "",
		"city": "Chicago",
		"state": "IL",
		"zip_code": "60606"
	},
	{
		"venue_id": "yelpF5YgkiXenIcfdINYhQ3g4g",
		"venue_name": "Damenzo's Pizza",
		"latitude": 41.8690987,
		"longitude": -87.6845703,
		"address1": "2324 W Taylor St",
		"address2": "",
		"address3": "",
		"city": "Chicago",
		"state": "IL",
		"zip_code": "60612"
	},
	{
		"venue_id": "yelpnrx-eeoIj808Y2sA0fZmwg",
		"venue_name": "Lou Malnati's Pizzeria",
		"latitude": 42.0021534,
		"longitude": -87.7255547,
		"address1": "6649 N Lincoln Ave",
		"address2": "",
		"address3": "",
		"city": "Lincolnwood",
		"state": "IL",
		"zip_code": "60712"
	},
	{
		"venue_id": "yelpCpsO4PdsNb4v1GtbFZkRiQ",
		"venue_name": "Union Full Board",
		"latitude": 41.94547,
		"longitude": -87.65482,
		"address1": "3473 N Clark St",
		"address2": null,
		"address3": null,
		"city": "Chicago",
		"state": "IL",
		"zip_code": "60657"
	},
	{
		"venue_id": "yelpbNTrGsoPVw5cj6dXzc1t7w",
		"venue_name": "Gino's East - Lakeview",
		"latitude": 41.93294,
		"longitude": -87.65893,
		"address1": "2801 N Lincoln Ave",
		"address2": "",
		"address3": "",
		"city": "Chicago",
		"state": "IL",
		"zip_code": "60657"
	},
	{
		"venue_id": "yelpRQQUQMMEdSLYBzOIPtvVPA",
		"venue_name": "Pete's Pizza & Bakehouse",
		"latitude": 41.9946831,
		"longitude": -87.6585869,
		"address1": "1100 W Granville",
		"address2": "",
		"address3": "",
		"city": "Chicago",
		"state": "IL",
		"zip_code": "60660"
	},
	{
		"venue_id": "yelpzqhFTUFLmZgUBknFYGDxLg",
		"venue_name": "Al's Beef",
		"latitude": 41.8791726522451,
		"longitude": -87.6427387514541,
		"address1": "601 W Adams St",
		"address2": "",
		"address3": "",
		"city": "Chicago",
		"state": "IL",
		"zip_code": "60661"
	},
	{
		"venue_id": "yelpgJMQotnv5jXPoBU7woKeuA",
		"venue_name": "Giordano's",
		"latitude": 42.006599775554,
		"longitude": -87.661449530928,
		"address1": "6836 N Sheridan Rd",
		"address2": "",
		"address3": "",
		"city": "Chicago",
		"state": "IL",
		"zip_code": "60626"
	},
	{
		"venue_id": "yelptFpf0bI7JoeoAJaC09sU4w",
		"venue_name": "Truth Italian Restaurant",
		"latitude": 41.82394,
		"longitude": -87.62423,
		"address1": "56 E Pershing Rd",
		"address2": null,
		"address3": "",
		"city": "Chicago",
		"state": "IL",
		"zip_code": "60653"
	},
	{
		"venue_id": "yelpiyilEJb1NwUeZcd5JWXTKw",
		"venue_name": "Figo Wine Bar",
		"latitude": 41.94015,
		"longitude": -87.65386,
		"address1": "3207 N Sheffield Ave",
		"address2": "",
		"address3": null,
		"city": "Chicago",
		"state": "IL",
		"zip_code": "60657"
	}
]