[
	{
		"venue_id": "yelpXHGZi01Z6oAQYz-emtuGYw",
		"venue_name": "The CryoBar - Lincoln Park",
		"latitude": 41.9215878802988,
		"longitude": -87.6584409656067,
		"address1": "1205 W Webster Ave",
		"address2": "Ste 1",
		"address3": null,
		"city": "Chicago",
		"state": "IL",
		"zip_code": "60614"
	},
	{
		"venue_id": "yelpPu9QU4wAlu8PVyjRzDgrKg",
		"venue_name": "Revitalab",
		"latitude": 41.8994905,
		"longitude": -87.6370234,
		"address1": "917 N Orleans St",
		"address2": null,
		"address3": "",
		"city": "Chicago",
		"state": "IL",
		"zip_code": "60610"
	},
	{
		"venue_id": "yelpp8OWGzvH8l4B7BfLlpLx0A",
		"venue_name": "Chicago CryoSpa",
		"latitude": 41.92975,
		"longitude": -87.65528,
		"address1": "2640 N Lincoln Ave",
		"address2": null,
		"address3": "",
		"city": "Chicago",
		"state": "IL",
		"zip_code": "60614"
	},
	{
		"venue_id": "yelpqLq2XznT5Euv5T-JmNgw-w",
		"venue_name": "Cleanse Chicago",
		"latitude": 41.8862270031704,
		"longitude": -87.6477325276127,
		"address1": "216 N Halsted St",
		"address2": "",
		"address3": "",
		"city": "Chicago",
		"state": "IL",
		"zip_code": "60661"
	},
	{
		"venue_id": "yelpfX7kymO9ciof6Rqft79oYw",
		"venue_name": "Steamworks",
		"latitude": 41.941383445258,
		"longitude": -87.649515362066,
		"address1": "3246 N Halsted St",
		"address2": "",
		"address3": "",
		"city": "Chicago",
		"state": "IL",
		"zip_code": "60657"
	},
	{
		"venue_id": "yelpeQbjzaouDJMs3YB7eDM2aw",
		"venue_name": "Paradise Sauna",
		"latitude": 41.9614906311035,
		"longitude": -87.7016296386719,
		"address1": "2912 W Montrose Ave",
		"address2": "",
		"address3": "",
		"city": "Chicago",
		"state": "IL",
		"zip_code": "60618"
	},
	{
		"venue_id": "yelpCkmBZEPlc5TFRsUVFqpJCQ",
		"venue_name": "Vive! Therapeutic Massage",
		"latitude": 42.0109173733562,
		"longitude": -87.8348773995667,
		"address1": "827 W Touhy Ave",
		"address2": null,
		"address3": "",
		"city": "Park Ridge",
		"state": "IL",
		"zip_code": "60068"
	},
	{
		"venue_id": "yelp-o_7C8uxL35gewAs34oHCQ",
		"venue_name": "Revival Wellness Spa",
		"latitude": 41.96331,
		"longitude": -87.70796,
		"address1": "4507 N Kedzie Ave",
		"address2": "",
		"address3": null,
		"city": "Chicago",
		"state": "IL",
		"zip_code": "60625"
	}
]