[
	{
		"venue_id": "yelpvofANrgotem6XRBBf5sc7A",
		"venue_name": "Jake Melnick's Corner Tap",
		"latitude": 41.8955265,
		"longitude": -87.626528,
		"address1": "41 E Superior St",
		"address2": "",
		"address3": "",
		"city": "Chicago",
		"state": "IL",
		"zip_code": "60611"
	},
	{
		"venue_id": "yelpN0CzLRbl79f4f6WqjNKM0g",
		"venue_name": "Theory",
		"latitude": 41.8899748,
		"longitude": -87.6286362,
		"address1": "9 W Hubbard St",
		"address2": "",
		"address3": "",
		"city": "Chicago",
		"state": "IL",
		"zip_code": "60654"
	},
	{
		"venue_id": "yelp3BKnY2wzy4QM20Fr1nqDsg",
		"venue_name": "Flo & Santos",
		"latitude": 41.8653913003346,
		"longitude": -87.6260132093555,
		"address1": "1310 S Wabash Ave",
		"address2": "",
		"address3": "",
		"city": "Chicago",
		"state": "IL",
		"zip_code": "60605"
	},
	{
		"venue_id": "yelpMJ9uU_vI6dyfHyMAgLMUOg",
		"venue_name": "Timothy O'Toole's Pub - Chicago",
		"latitude": 41.8931909,
		"longitude": -87.6204274,
		"address1": "622 N Fairbanks Ct",
		"address2": "",
		"address3": "",
		"city": "Chicago",
		"state": "IL",
		"zip_code": "60611"
	},
	{
		"venue_id": "yelpIfk2tTefkmj9apIZOYyuBw",
		"venue_name": "Will's Northwoods Inn",
		"latitude": 41.9369219988585,
		"longitude": -87.6589170098305,
		"address1": "3030 N Racine Ave",
		"address2": "",
		"address3": "",
		"city": "Chicago",
		"state": "IL",
		"zip_code": "60657"
	},
	{
		"venue_id": "yelpVCLQpc78prtGTxJAKjz-Ow",
		"venue_name": "First Draft",
		"latitude": 41.873437,
		"longitude": -87.630308,
		"address1": "649 S Clark St",
		"address2": "",
		"address3": "",
		"city": "Chicago",
		"state": "IL",
		"zip_code": "60605"
	},
	{
		"venue_id": "yelpbEhKMjnmpZLtFb7oAKjYYA",
		"venue_name": "Fatpour Tap Works",
		"latitude": 41.90289,
		"longitude": -87.67762,
		"address1": "2005 W Division St",
		"address2": "",
		"address3": "",
		"city": "Chicago",
		"state": "IL",
		"zip_code": "60622"
	},
	{
		"venue_id": "yelpqizzFBua15kSbWB48T8XGg",
		"venue_name": "Public House",
		"latitude": 41.8893653140557,
		"longitude": -87.6282758306885,
		"address1": "400 N State St",
		"address2": "",
		"address3": "",
		"city": "Chicago",
		"state": "IL",
		"zip_code": "60654"
	},
	{
		"venue_id": "yelpq8H-w31ZLgwXVk2yDMSF0A",
		"venue_name": "Cleos",
		"latitude": 41.89563,
		"longitude": -87.67599,
		"address1": "1935 W Chicago Ave",
		"address2": "",
		"address3": "",
		"city": "Chicago",
		"state": "IL",
		"zip_code": "60622"
	},
	{
		"venue_id": "yelp6gZTET0y7ARZMrbJRmI2mw",
		"venue_name": "The Fifty/50",
		"latitude": 41.90301427628,
		"longitude": -87.6788022511999,
		"address1": "2047 W Division St",
		"address2": "",
		"address3": "",
		"city": "Chicago",
		"state": "IL",
		"zip_code": "60622"
	},
	{
		"venue_id": "yelp_wpU0jwlbpfun7MVU79UbQ",
		"venue_name": "Park & Field",
		"latitude": 41.92433,
		"longitude": -87.71428,
		"address1": "3509 Fullerton",
		"address2": "",
		"address3": "",
		"city": "Chicago",
		"state": "IL",
		"zip_code": "60647"
	},
	{
		"venue_id": "yelpijtyBBrKmxVkmmMzcVqOMQ",
		"venue_name": "The Globe Pub",
		"latitude": 41.954487,
		"longitude": -87.677776,
		"address1": "1934 W Irving Park Rd",
		"address2": "",
		"address3": "",
		"city": "Chicago",
		"state": "IL",
		"zip_code": "60613"
	},
	{
		"venue_id": "yelpdPG6bJi38QZACM1I88zKaw",
		"venue_name": "Clark Street Ale House",
		"latitude": 41.89609,
		"longitude": -87.6316,
		"address1": "742 N Clark St",
		"address2": "",
		"address3": "",
		"city": "Chicago",
		"state": "IL",
		"zip_code": "60654"
	},
	{
		"venue_id": "yelpc1UpBs334fvFYFP-tzmhnw",
		"venue_name": "The Warehouse Bar & Pizzeria Chicago",
		"latitude": 41.92493,
		"longitude": -87.6641099,
		"address1": "1419 W Fullerton Ave",
		"address2": null,
		"address3": "",
		"city": "Chicago",
		"state": "IL",
		"zip_code": "60614"
	},
	{
		"venue_id": "yelpxHdy8fbDVB4Nb_WGBN50Ow",
		"venue_name": "Humboldt Haus Sandwich Bar",
		"latitude": 41.9103333,
		"longitude": -87.7014117,
		"address1": "2958 W North Ave",
		"address2": null,
		"address3": "",
		"city": "Chicago",
		"state": "IL",
		"zip_code": "60647"
	},
	{
		"venue_id": "yelpd9ORDdlxUS63gRAQuJg1VQ",
		"venue_name": "Rocks Lakeview",
		"latitude": 41.945222,
		"longitude": -87.6457269,
		"address1": "3463 N Broadway St",
		"address2": "",
		"address3": "",
		"city": "Chicago",
		"state": "IL",
		"zip_code": "60657"
	},
	{
		"venue_id": "yelpACxKsayQAP9eCV2WIv_6Ww",
		"venue_name": "Brownstone Tavern & Grill",
		"latitude": 41.9533996582031,
		"longitude": -87.6778411865234,
		"address1": "3937 N Lincoln Ave",
		"address2": "",
		"address3": "",
		"city": "Chicago",
		"state": "IL",
		"zip_code": "60613"
	},
	{
		"venue_id": "yelp1Km-oO8bX43gNFeAbGiYTQ",
		"venue_name": "Kasey's Tavern",
		"latitude": 41.87325,
		"longitude": -87.62893,
		"address1": "701 S Dearborn St",
		"address2": "",
		"address3": "",
		"city": "Chicago",
		"state": "IL",
		"zip_code": "60605"
	},
	{
		"venue_id": "yelpXb9CnDQWxtdNLLkuCWTuDg",
		"venue_name": "State Restaurant",
		"latitude": 41.9215,
		"longitude": -87.65248,
		"address1": "935 W Webster Ave",
		"address2": null,
		"address3": "",
		"city": "Chicago",
		"state": "IL",
		"zip_code": "60614"
	},
	{
		"venue_id": "yelp-QSd8rhzCui-tZEyIfwyQA",
		"venue_name": "\u00d1",
		"latitude": 41.9356832,
		"longitude": -87.6927103,
		"address1": "2977 N Elston Ave",
		"address2": "",
		"address3": "",
		"city": "Chicago",
		"state": "IL",
		"zip_code": "60618"
	},
	{
		"venue_id": "yelpVnoltTUAEhtmTCe0XCGYCQ",
		"venue_name": "Compass Bar",
		"latitude": 41.9325819,
		"longitude": -87.640763,
		"address1": "433 W Diversey Pkwy",
		"address2": "",
		"address3": "",
		"city": "Chicago",
		"state": "IL",
		"zip_code": "60614"
	},
	{
		"venue_id": "yelplqJvhcQBirF5J-wNC0kGuA",
		"venue_name": "Woodie's Flat",
		"latitude": 41.91021,
		"longitude": -87.63422,
		"address1": "1535 N Wells St",
		"address2": null,
		"address3": "",
		"city": "Chicago",
		"state": "IL",
		"zip_code": "60610"
	},
	{
		"venue_id": "yelpVicO4_3Omx0CZ9B-SN4BEg",
		"venue_name": "Logan Bar and Grill",
		"latitude": 41.9225997924805,
		"longitude": -87.6976165771484,
		"address1": "2230 N California Ave",
		"address2": "",
		"address3": "",
		"city": "Chicago",
		"state": "IL",
		"zip_code": "60647"
	},
	{
		"venue_id": "yelpV4dvGAc0FEnT4dw6MEWyDA",
		"venue_name": "Old Town Pour House",
		"latitude": 41.908405,
		"longitude": -87.634502,
		"address1": "1419 N Wells St",
		"address2": "",
		"address3": "",
		"city": "Chicago",
		"state": "IL",
		"zip_code": "60610"
	},
	{
		"venue_id": "yelpYxEM4PYI7f1mdhQwk4Du_g",
		"venue_name": "Bird's Nest",
		"latitude": 41.9271618,
		"longitude": -87.663571,
		"address1": "2500 N Southport Ave",
		"address2": "",
		"address3": "",
		"city": "Chicago",
		"state": "IL",
		"zip_code": "60614"
	},
	{
		"venue_id": "yelpJ54uFvc21BslX_jqzIDW5A",
		"venue_name": "Hopsmith Tavern",
		"latitude": 41.903838,
		"longitude": -87.629366,
		"address1": "15 W Division Ave",
		"address2": "",
		"address3": "",
		"city": "Chicago",
		"state": "IL",
		"zip_code": "60610"
	},
	{
		"venue_id": "yelpUNCJ46oxxxCAQLBbfAeT6g",
		"venue_name": "The Wild Goose Bar & Grill",
		"latitude": 41.9594499,
		"longitude": -87.68219,
		"address1": "4265 N Lincoln Ave",
		"address2": "",
		"address3": "",
		"city": "Chicago",
		"state": "IL",
		"zip_code": "60618"
	},
	{
		"venue_id": "yelpbbJOsnKN0nNkYmnDHOdAwQ",
		"venue_name": "Emerald Loop",
		"latitude": 41.8861105,
		"longitude": -87.626443,
		"address1": "216 N Wabash Ave",
		"address2": null,
		"address3": "",
		"city": "Chicago",
		"state": "IL",
		"zip_code": "60601"
	},
	{
		"venue_id": "yelpecj6b2CGcThT_1tQSxnStA",
		"venue_name": "The Ogden",
		"latitude": 41.8797578827261,
		"longitude": -87.6677996381323,
		"address1": "1659 W Ogden Ave",
		"address2": "",
		"address3": "",
		"city": "Chicago",
		"state": "IL",
		"zip_code": "60612"
	},
	{
		"venue_id": "yelpH5KmGWVvfWt7eOVJNnSyTQ",
		"venue_name": "Sully's House",
		"latitude": 41.9086799,
		"longitude": -87.64907,
		"address1": "1501 N Dayton St",
		"address2": "",
		"address3": "",
		"city": "Chicago",
		"state": "IL",
		"zip_code": "60642"
	},
	{
		"venue_id": "yelpwiNwVTH1-VuwaJiCDv5PRA",
		"venue_name": "The Piggery",
		"latitude": 41.953971,
		"longitude": -87.669979,
		"address1": "1625 W Irving Park Rd",
		"address2": "",
		"address3": "",
		"city": "Chicago",
		"state": "IL",
		"zip_code": "60613"
	},
	{
		"venue_id": "yelp2K5b4gko9aS3rVvu54c22g",
		"venue_name": "Racine Plumbing Bar & Grill",
		"latitude": 41.9298,
		"longitude": -87.65535,
		"address1": "2642 N Lincoln Ave",
		"address2": null,
		"address3": "",
		"city": "Chicago",
		"state": "IL",
		"zip_code": "60614"
	},
	{
		"venue_id": "yelpU5SjmVy389zwndoF5AvyTA",
		"venue_name": "Sutherland's Food & Spirits",
		"latitude": 41.9529419,
		"longitude": -87.7617111,
		"address1": "5353 W Irving Park Rd",
		"address2": "",
		"address3": "",
		"city": "Chicago",
		"state": "IL",
		"zip_code": "60641"
	},
	{
		"venue_id": "yelpbf_caOeh50EvuUwfPSDuNA",
		"venue_name": "Matilda",
		"latitude": 41.938237,
		"longitude": -87.653866,
		"address1": "3101 N Sheffield Ave",
		"address2": "",
		"address3": "",
		"city": "Chicago",
		"state": "IL",
		"zip_code": "60657"
	},
	{
		"venue_id": "yelpr7Ur-1qv5zj98oT7-5RzoA",
		"venue_name": "Replay - Andersonville",
		"latitude": 41.97969,
		"longitude": -87.66861,
		"address1": "5358 N Clark St",
		"address2": "",
		"address3": "",
		"city": "Chicago",
		"state": "IL",
		"zip_code": "60640"
	},
	{
		"venue_id": "yelpfrS8eDV3w7dmi4zMzUr7Ig",
		"venue_name": "The Scout Waterhouse + Kitchen",
		"latitude": 41.8657449359089,
		"longitude": -87.6255132110611,
		"address1": "1301 S Wabash Ave",
		"address2": "",
		"address3": "",
		"city": "Chicago",
		"state": "IL",
		"zip_code": "60605"
	},
	{
		"venue_id": "yelpQPyBthsICyZlm0_KY6wVew",
		"venue_name": "Yeowoosai",
		"latitude": 41.995304,
		"longitude": -87.6997413,
		"address1": "6248 N California Ave",
		"address2": "",
		"address3": "",
		"city": "Chicago",
		"state": "IL",
		"zip_code": "60659"
	},
	{
		"venue_id": "yelpSHPAkvXU5gKDkhYGjlhVTw",
		"venue_name": "The Other Side Bar",
		"latitude": 41.9264914889361,
		"longitude": -87.6411862267855,
		"address1": "2436 N Clark St",
		"address2": null,
		"address3": "",
		"city": "Chicago",
		"state": "IL",
		"zip_code": "60614"
	},
	{
		"venue_id": "yelpHFge4uLax4OGxDpJSgUdqQ",
		"venue_name": "Northside Bar & Grill",
		"latitude": 41.9115333557129,
		"longitude": -87.6771469116211,
		"address1": "1635 N Damen Ave",
		"address2": "",
		"address3": "",
		"city": "Chicago",
		"state": "IL",
		"zip_code": "60647"
	},
	{
		"venue_id": "yelpEaLu2MY_zlyHpzfyP9nIcg",
		"venue_name": "Derby",
		"latitude": 41.921875,
		"longitude": -87.659387,
		"address1": "1224 W Webster Ave",
		"address2": "",
		"address3": "",
		"city": "Chicago",
		"state": "IL",
		"zip_code": "60614"
	},
	{
		"venue_id": "yelpKo8z8Oag0DOk2VlFOTt6Hw",
		"venue_name": "Flagship Tavern and Grill",
		"latitude": 41.9399299621582,
		"longitude": -87.6696166992188,
		"address1": "1622 W Belmont Ave",
		"address2": "",
		"address3": "",
		"city": "Chicago",
		"state": "IL",
		"zip_code": "60657"
	},
	{
		"venue_id": "yelpT-0bJBVbqrYn_9x1_5a0gA",
		"venue_name": "Schoolyard Tavern & Grill",
		"latitude": 41.94146,
		"longitude": -87.66418,
		"address1": "3258 N Southport Ave",
		"address2": "",
		"address3": "",
		"city": "Chicago",
		"state": "IL",
		"zip_code": "60657"
	},
	{
		"venue_id": "yelpOm5_z9aFO76Z9YLm2pS9bg",
		"venue_name": "Murphy's Bleachers",
		"latitude": 41.9482023,
		"longitude": -87.6541758,
		"address1": "3655 N Sheffield",
		"address2": "",
		"address3": "",
		"city": "Chicago",
		"state": "IL",
		"zip_code": "60613"
	},
	{
		"venue_id": "yelpsxxb0IKVVmHOMDsJpJduLA",
		"venue_name": "Cortland's Garage",
		"latitude": 41.91582,
		"longitude": -87.66954,
		"address1": "1645 W Cortland St",
		"address2": "",
		"address3": "",
		"city": "Chicago",
		"state": "IL",
		"zip_code": "60622"
	},
	{
		"venue_id": "yelpR14gVPD03T4KFTlmuhNZQQ",
		"venue_name": "Krolls South Loop",
		"latitude": 41.858036,
		"longitude": -87.62442,
		"address1": "1736 S Michigan Ave",
		"address2": "",
		"address3": "",
		"city": "Chicago",
		"state": "IL",
		"zip_code": "60616"
	},
	{
		"venue_id": "yelpI2ke2-jIbXLkMFoxCGMIPA",
		"venue_name": "El Hefe",
		"latitude": 41.8900083,
		"longitude": -87.628553,
		"address1": "15 W Hubbard St",
		"address2": "",
		"address3": "",
		"city": "Chicago",
		"state": "IL",
		"zip_code": "60654"
	},
	{
		"venue_id": "yelpIls2x1abG_8kdno7U9mdXA",
		"venue_name": "Joe's On Weed St",
		"latitude": 41.9098573,
		"longitude": -87.6529298,
		"address1": "940 W Weed St",
		"address2": "",
		"address3": "",
		"city": "Chicago",
		"state": "IL",
		"zip_code": "60642"
	},
	{
		"venue_id": "yelpfe6cfWk3e01Sjaqsgddo-w",
		"venue_name": "Replay Lincoln Park",
		"latitude": 41.9336651,
		"longitude": -87.6537194,
		"address1": "2833 N Sheffield Ave",
		"address2": "",
		"address3": null,
		"city": "Chicago",
		"state": "IL",
		"zip_code": "60657"
	},
	{
		"venue_id": "yelpzv6Np3a15fxtn8isqCFGPg",
		"venue_name": "Park Tavern",
		"latitude": 41.8773,
		"longitude": -87.66869,
		"address1": "1645 W Jackson Blvd",
		"address2": "",
		"address3": "",
		"city": "Chicago",
		"state": "IL",
		"zip_code": "60612"
	},
	{
		"venue_id": "yelpOu2YEm7bBufTfHKTHUIvWQ",
		"venue_name": "The Diag",
		"latitude": 41.9337598783472,
		"longitude": -87.6636512302175,
		"address1": "2856 N Southport Ave",
		"address2": "",
		"address3": "",
		"city": "Chicago",
		"state": "IL",
		"zip_code": "60657"
	},
	{
		"venue_id": "yelpCCGciZDcxIFg455-ggDDHg",
		"venue_name": "Roots Handmade Pizza",
		"latitude": 41.96897,
		"longitude": -87.68426,
		"address1": "2200 W Lawrence Ave",
		"address2": "",
		"address3": "",
		"city": "Chicago",
		"state": "IL",
		"zip_code": "60625"
	},
	{
		"venue_id": "yelpOs85pJjWUMyOmnkcI3PjHQ",
		"venue_name": "Budweiser Brickhouse Tavern",
		"latitude": 41.9486470237526,
		"longitude": -87.6570959453276,
		"address1": "3647 N Clark St",
		"address2": "",
		"address3": null,
		"city": "Chicago",
		"state": "IL",
		"zip_code": "60613"
	},
	{
		"venue_id": "yelpNy2AD3XwzpVrjDboiLM5lQ",
		"venue_name": "Harry Caray's Tavern -Navy Pier",
		"latitude": 41.8916034336946,
		"longitude": -87.6092710221137,
		"address1": "700 E Grand Ave",
		"address2": "",
		"address3": "",
		"city": "Chicago",
		"state": "IL",
		"zip_code": "60611"
	},
	{
		"venue_id": "yelpE81IZcBYpg6ThIf7gIyedA",
		"venue_name": "Pizzeria Via Stato",
		"latitude": 41.892934,
		"longitude": -87.628161,
		"address1": "620 N State St",
		"address2": "",
		"address3": "",
		"city": "Chicago",
		"state": "IL",
		"zip_code": "60654"
	},
	{
		"venue_id": "yelpojGaIraebGNJpMogczEd5Q",
		"venue_name": "Green Street Local",
		"latitude": 41.8799929,
		"longitude": -87.6486381,
		"address1": "130 S Green St",
		"address2": "",
		"address3": "",
		"city": "Chicago",
		"state": "IL",
		"zip_code": "60607"
	},
	{
		"venue_id": "yelpvH-TiqOD-ZBQC1f7tBp_1w",
		"venue_name": "Stretch Bar & Grill",
		"latitude": 41.9456991,
		"longitude": -87.6552067,
		"address1": "3485 N Clark St",
		"address2": "",
		"address3": "",
		"city": "Chicago",
		"state": "IL",
		"zip_code": "60657"
	},
	{
		"venue_id": "yelpyKzQnhfX--yYuNg70bb3NA",
		"venue_name": "The Irish Oak",
		"latitude": 41.9460546,
		"longitude": -87.6554356,
		"address1": "3511 N Clark St",
		"address2": null,
		"address3": "",
		"city": "Chicago",
		"state": "IL",
		"zip_code": "60657"
	},
	{
		"venue_id": "yelphZ64aFe4-4ClppyFdpNNcQ",
		"venue_name": "Ironside Bar & Galley",
		"latitude": 41.8920293169464,
		"longitude": -87.6342369988561,
		"address1": "546 N Wells St",
		"address2": "",
		"address3": null,
		"city": "Chicago",
		"state": "IL",
		"zip_code": "60654"
	},
	{
		"venue_id": "yelpmBG17MKjI3TNwYew5dzdyQ",
		"venue_name": "The Moonlighter",
		"latitude": 41.91766,
		"longitude": -87.70738,
		"address1": "3204 W Armitage Ave",
		"address2": "",
		"address3": null,
		"city": "Chicago",
		"state": "IL",
		"zip_code": "60647"
	},
	{
		"venue_id": "yelpa3T4A05m8csinllU07vcDg",
		"venue_name": "Boulevard Sports Lounge",
		"latitude": 41.909963,
		"longitude": -87.693842,
		"address1": "2645 W North Ave",
		"address2": "",
		"address3": "",
		"city": "Chicago",
		"state": "IL",
		"zip_code": "60647"
	},
	{
		"venue_id": "yelph55Sp__WKhXMo6lR5shf_A",
		"venue_name": "Standard Bar & Grill",
		"latitude": 41.9058144436958,
		"longitude": -87.6706091132366,
		"address1": "1332 N Milwaukee Ave",
		"address2": "",
		"address3": "",
		"city": "Chicago",
		"state": "IL",
		"zip_code": "60622"
	},
	{
		"venue_id": "yelpmBvq0FTzh5FY8aQ-xJ4R2Q",
		"venue_name": "Stocks and Blondes",
		"latitude": 41.88283885471,
		"longitude": -87.634022155078,
		"address1": "40 N Wells St",
		"address2": "",
		"address3": "",
		"city": "Chicago",
		"state": "IL",
		"zip_code": "60606"
	},
	{
		"venue_id": "yelpHGFlmnTyGw8Dn5rhRCwgeg",
		"venue_name": "Output Lounge & Sports Bar",
		"latitude": 41.891146,
		"longitude": -87.6718379,
		"address1": "1758 W Grand Ave",
		"address2": null,
		"address3": "",
		"city": "Chicago",
		"state": "IL",
		"zip_code": "60622"
	},
	{
		"venue_id": "yelpl-ETuCx2sFx1chxKGJCefA",
		"venue_name": "Four Shadows",
		"latitude": 41.932305265487,
		"longitude": -87.6685998334672,
		"address1": "2758 N Ashland Ave",
		"address2": null,
		"address3": "",
		"city": "Chicago",
		"state": "IL",
		"zip_code": "60614"
	},
	{
		"venue_id": "yelpfaZQI58EHQXjffQLL3cc_A",
		"venue_name": "WhirlyBall",
		"latitude": 41.92119,
		"longitude": -87.67371,
		"address1": "1825 W Webster Ave",
		"address2": "",
		"address3": "",
		"city": "Chicago",
		"state": "IL",
		"zip_code": "60614"
	},
	{
		"venue_id": "yelpjtZQ3994EPIkrd785rI7Lw",
		"venue_name": "Kings Dining & Entertainment - Chicago Lincoln Park",
		"latitude": 41.908376,
		"longitude": -87.646838,
		"address1": "1500 N Clybourn Ave",
		"address2": "Ste C102",
		"address3": "",
		"city": "Chicago",
		"state": "IL",
		"zip_code": "60610"
	},
	{
		"venue_id": "yelpJnaatj70xLwtHrrYQXCr7A",
		"venue_name": "Wise Owl Drinkery & Cookhouse",
		"latitude": 41.8767083604545,
		"longitude": -87.6571454693116,
		"address1": "324 S Racine Ave",
		"address2": "",
		"address3": "",
		"city": "Chicago",
		"state": "IL",
		"zip_code": "60607"
	},
	{
		"venue_id": "yelpNGOd3wHTeYoUGo91Zve3hg",
		"venue_name": "The Arrogant Frog Bar",
		"latitude": 41.9249687194824,
		"longitude": -87.6630249023438,
		"address1": "1365 W Fullerton Ave",
		"address2": null,
		"address3": "",
		"city": "Chicago",
		"state": "IL",
		"zip_code": "60614"
	},
	{
		"venue_id": "yelpsMxP77mcTlMR3qpEMkcQcA",
		"venue_name": "Mother Hubbard's",
		"latitude": 41.88984,
		"longitude": -87.62835,
		"address1": "5 W Hubbard St",
		"address2": "",
		"address3": "",
		"city": "Chicago",
		"state": "IL",
		"zip_code": "60654"
	},
	{
		"venue_id": "yelpiWKPAbFQ_1ojU4Vx5ZlAgg",
		"venue_name": "High Noon Saloon",
		"latitude": 41.909655,
		"longitude": -87.676861,
		"address1": "1560 N Milwaukee Ave",
		"address2": null,
		"address3": "",
		"city": "Chicago",
		"state": "IL",
		"zip_code": "60622"
	},
	{
		"venue_id": "yelpG-5CSazmgLqUa06R781uLw",
		"venue_name": "Lincoln Station",
		"latitude": 41.9260844,
		"longitude": -87.6499007,
		"address1": "2432 N Lincoln Ave",
		"address2": "Ste 1",
		"address3": "",
		"city": "Chicago",
		"state": "IL",
		"zip_code": "60614"
	},
	{
		"venue_id": "yelpfRELE91ax8adxi9W83qLNg",
		"venue_name": "Goldie's Pub",
		"latitude": 41.95163,
		"longitude": -87.67661,
		"address1": "3839 N Lincoln Ave",
		"address2": "",
		"address3": "",
		"city": "Chicago",
		"state": "IL",
		"zip_code": "60613"
	},
	{
		"venue_id": "yelpWD-saOnTF2oCKNlpagYQ5Q",
		"venue_name": "Surge Coffee Bar & Billiards",
		"latitude": 41.96091,
		"longitude": -87.70994,
		"address1": "3241 W Montrose Ave",
		"address2": null,
		"address3": "",
		"city": "Chicago",
		"state": "IL",
		"zip_code": "60618"
	},
	{
		"venue_id": "yelpWHAfE5eC_fmmFzayu9j91g",
		"venue_name": "Fat Fish Bar and Grill",
		"latitude": 41.83846,
		"longitude": -87.63303,
		"address1": "234 W 31st St",
		"address2": null,
		"address3": "",
		"city": "Chicago",
		"state": "IL",
		"zip_code": "60616"
	},
	{
		"venue_id": "yelp-o_9v4HlKeAKODtjmaCiOA",
		"venue_name": "Caravan Restaurant",
		"latitude": 41.9693985,
		"longitude": -87.6600571,
		"address1": "4810 N Broadway St",
		"address2": "",
		"address3": "",
		"city": "Chicago",
		"state": "IL",
		"zip_code": "60640"
	},
	{
		"venue_id": "yelpvcaWSDxvol3Mlsq4VEhMUA",
		"venue_name": "Dickens Street Public House",
		"latitude": 41.9200216,
		"longitude": -87.6414115,
		"address1": "2060 N Cleveland Ave",
		"address2": "",
		"address3": "",
		"city": "Chicago",
		"state": "IL",
		"zip_code": "60614"
	},
	{
		"venue_id": "yelpWbM25ulbhNDlHLXAeaO2qw",
		"venue_name": "The Anthem",
		"latitude": 41.902985,
		"longitude": -87.670929,
		"address1": "1725 W Division St",
		"address2": "",
		"address3": "",
		"city": "Chicago",
		"state": "IL",
		"zip_code": "60622"
	},
	{
		"venue_id": "yelpWwwLeItKFssp7a9_9OnAPQ",
		"venue_name": "The Pony Inn",
		"latitude": 41.93994,
		"longitude": -87.67019,
		"address1": "1638 W Belmont Ave",
		"address2": "",
		"address3": "",
		"city": "Chicago",
		"state": "IL",
		"zip_code": "60657"
	},
	{
		"venue_id": "yelpcmOyagGx7V6Z16C6t6qfyA",
		"venue_name": "The Butcher's Tap",
		"latitude": 41.9467887878418,
		"longitude": -87.6636428833008,
		"address1": "3553 N Southport Ave",
		"address2": "",
		"address3": "",
		"city": "Chicago",
		"state": "IL",
		"zip_code": "60657"
	},
	{
		"venue_id": "yelpwsja_vbLuRYTksE2TMMJUw",
		"venue_name": "Duffy's Tavern and Grille",
		"latitude": 41.9331855773926,
		"longitude": -87.640380859375,
		"address1": "420 W Diversey Pkwy",
		"address2": "",
		"address3": "",
		"city": "Chicago",
		"state": "IL",
		"zip_code": "60614"
	},
	{
		"venue_id": "yelpNLrjoiMNPwpftp1TzdtW9g",
		"venue_name": "J&M Tap",
		"latitude": 41.8992344,
		"longitude": -87.6818573,
		"address1": "957 N Leavitt",
		"address2": "",
		"address3": "",
		"city": "Chicago",
		"state": "IL",
		"zip_code": "60622"
	},
	{
		"venue_id": "yelpEsB33iF0_DQqQdGdAluo3g",
		"venue_name": "Lion Head Pub",
		"latitude": 41.92317,
		"longitude": -87.64516,
		"address1": "2251 N Lincoln Ave",
		"address2": "",
		"address3": "",
		"city": "Chicago",
		"state": "IL",
		"zip_code": "60614"
	},
	{
		"venue_id": "yelp8LYh8KtEPfqSN7mmzIZwrQ",
		"venue_name": "Harry Caray's 7th Inning Stretch",
		"latitude": 41.8980806217277,
		"longitude": -87.6220383122563,
		"address1": "835 N Michigan Ave",
		"address2": "Fl 7",
		"address3": "",
		"city": "Chicago",
		"state": "IL",
		"zip_code": "60611"
	},
	{
		"venue_id": "yelpCP-gxHRwhwck7meqE97Uvw",
		"venue_name": "Fiesta Mexicana Lincoln Park",
		"latitude": 41.9261705,
		"longitude": -87.6493818,
		"address1": "2423 N Lincoln Ave",
		"address2": "",
		"address3": "",
		"city": "Chicago",
		"state": "IL",
		"zip_code": "60614"
	},
	{
		"venue_id": "yelpeXdNb5B_XGp9tJeWjPhsKQ",
		"venue_name": "Jack and Ginger's",
		"latitude": 41.917952,
		"longitude": -87.679481,
		"address1": "2048 W Armitage Ave",
		"address2": "",
		"address3": "",
		"city": "Chicago",
		"state": "IL",
		"zip_code": "60647"
	},
	{
		"venue_id": "yelpXTN_Nwa1LHbHqQnOUVgVBQ",
		"venue_name": "Barrelman Tavern",
		"latitude": 41.991144,
		"longitude": -87.6715003,
		"address1": "6001 N Paulina St",
		"address2": "",
		"address3": "",
		"city": "Chicago",
		"state": "IL",
		"zip_code": "60660"
	},
	{
		"venue_id": "yelp9cV8K6OHoG8n46C4CmmjFw",
		"venue_name": "Gio's BBQ Bar and Grill",
		"latitude": 41.9704437255859,
		"longitude": -87.6788101196289,
		"address1": "4857 N Damen Ave",
		"address2": "",
		"address3": "",
		"city": "Chicago",
		"state": "IL",
		"zip_code": "60625"
	},
	{
		"venue_id": "yelpkS2aUM03JGldo_zSVUG4AA",
		"venue_name": "Paddy O'Fegan's",
		"latitude": 41.8859,
		"longitude": -87.64769,
		"address1": "204 N Halsted St",
		"address2": "",
		"address3": "",
		"city": "Chicago",
		"state": "IL",
		"zip_code": "60661"
	},
	{
		"venue_id": "yelp4_9G72COc9jrQHA2VE-f2Q",
		"venue_name": "The Cubby Bear",
		"latitude": 41.946939,
		"longitude": -87.656736,
		"address1": "1059 W Addison St",
		"address2": "",
		"address3": "",
		"city": "Chicago",
		"state": "IL",
		"zip_code": "60613"
	},
	{
		"venue_id": "yelpaN7OXXRFFTRYG7OWD7GacA",
		"venue_name": "Lincoln Tap Room",
		"latitude": 41.9363109,
		"longitude": -87.6642051,
		"address1": "3010 N Lincoln Ave",
		"address2": "",
		"address3": "",
		"city": "Chicago",
		"state": "IL",
		"zip_code": "60657"
	},
	{
		"venue_id": "yelpfZNUqak_dVH38C5mIsyueA",
		"venue_name": "Sluggers World Class Sports Bar",
		"latitude": 41.94651,
		"longitude": -87.65635,
		"address1": "3540 N Clark St",
		"address2": "",
		"address3": "",
		"city": "Chicago",
		"state": "IL",
		"zip_code": "60657"
	},
	{
		"venue_id": "yelpJf2W1niqwzJ-v73ZFEDeXw",
		"venue_name": "The Ambassador Public House",
		"latitude": 41.8774348257164,
		"longitude": -87.647425726587,
		"address1": "310 S Halsted St",
		"address2": "",
		"address3": null,
		"city": "Chicago",
		"state": "IL",
		"zip_code": "60661"
	},
	{
		"venue_id": "yelpf8_5ES5FlaBjWLsCxMQ49Q",
		"venue_name": "Uptown Lounge",
		"latitude": 41.969126,
		"longitude": -87.6592017,
		"address1": "1136 W Lawrence Ave",
		"address2": null,
		"address3": "",
		"city": "Chicago",
		"state": "IL",
		"zip_code": "60640"
	},
	{
		"venue_id": "yelply6MLFE5UsK-DM4O79kPKQ",
		"venue_name": "Vaughan's Pub",
		"latitude": 41.935,
		"longitude": -87.6536,
		"address1": "2917 N Sheffield Ave",
		"address2": "",
		"address3": "",
		"city": "Chicago",
		"state": "IL",
		"zip_code": "60657"
	},
	{
		"venue_id": "yelpeCS8KvLhKzF8iCB0H_lNZQ",
		"venue_name": "Gaslight Bar",
		"latitude": 41.9267913,
		"longitude": -87.6416677,
		"address1": "2450 N Clark",
		"address2": "",
		"address3": "",
		"city": "Chicago",
		"state": "IL",
		"zip_code": "60614"
	},
	{
		"venue_id": "yelpj_2JD8QSpbF-pzUGcIqzwA",
		"venue_name": "Fireplace Inn",
		"latitude": 41.9091339111328,
		"longitude": -87.6350021362305,
		"address1": "1448 N Wells St",
		"address2": "",
		"address3": "",
		"city": "Chicago",
		"state": "IL",
		"zip_code": "60610"
	},
	{
		"venue_id": "yelp-178WV6XoVE0z2Kk-peKzA",
		"venue_name": "Moe's Tavern",
		"latitude": 41.93486,
		"longitude": -87.71633,
		"address1": "2937 N Milwaukee Ave",
		"address2": "",
		"address3": "",
		"city": "Chicago",
		"state": "IL",
		"zip_code": "60618"
	},
	{
		"venue_id": "yelpu_EXw9hhggk42EP4vAAzZg",
		"venue_name": "Stout Barrel House and Pizza",
		"latitude": 41.8937606811523,
		"longitude": -87.6312942504883,
		"address1": "642 N Clark St",
		"address2": "",
		"address3": "",
		"city": "Chicago",
		"state": "IL",
		"zip_code": "60654"
	},
	{
		"venue_id": "yelpI6aGUbZR5-umEVuBNSqp3g",
		"venue_name": "Wabash Tap",
		"latitude": 41.86657,
		"longitude": -87.62531,
		"address1": "1233 S Wabash Ave",
		"address2": "",
		"address3": "",
		"city": "Chicago",
		"state": "IL",
		"zip_code": "60605"
	},
	{
		"venue_id": "yelpbuLuz5c6lI731-9_ViugpA",
		"venue_name": "The Sedgwick Stop",
		"latitude": 41.9114344698367,
		"longitude": -87.6388681691992,
		"address1": "1612 N Sedgwick St",
		"address2": "",
		"address3": "",
		"city": "Chicago",
		"state": "IL",
		"zip_code": "60614"
	},
	{
		"venue_id": "yelpYTRN2cPIWacoMEWLNch6kQ",
		"venue_name": "Clover",
		"latitude": 41.8913501,
		"longitude": -87.6471826,
		"address1": "722 W Grand Ave",
		"address2": null,
		"address3": "",
		"city": "Chicago",
		"state": "IL",
		"zip_code": "60654"
	},
	{
		"venue_id": "yelpyO3-DbTjp9K1QT4p3U7Irw",
		"venue_name": "Stella's Sports Bar",
		"latitude": 41.8986081,
		"longitude": -87.6865722,
		"address1": "935 N Western Ave",
		"address2": "",
		"address3": "",
		"city": "Chicago",
		"state": "IL",
		"zip_code": "60622"
	},
	{
		"venue_id": "yelpdz1WMcK9Wv-MgIil8nnoCQ",
		"venue_name": "The Field House",
		"latitude": 41.9269947,
		"longitude": -87.6411389,
		"address1": "2455 N Clark St",
		"address2": "",
		"address3": "",
		"city": "Chicago",
		"state": "IL",
		"zip_code": "60614"
	},
	{
		"venue_id": "yelpXdRxkkWRwfc6CIY1CeCmyA",
		"venue_name": "Turtle Bar and Grill",
		"latitude": 41.8346949,
		"longitude": -87.6331137,
		"address1": "238 W 33rd St",
		"address2": "",
		"address3": "",
		"city": "Chicago",
		"state": "IL",
		"zip_code": "60616"
	},
	{
		"venue_id": "yelpwZrd1D_bIHpe1wM-JvbznQ",
		"venue_name": "Hawkeye's Bar & Grill",
		"latitude": 41.8694953918457,
		"longitude": -87.6639175415039,
		"address1": "1458 W Taylor St",
		"address2": "",
		"address3": "",
		"city": "Chicago",
		"state": "IL",
		"zip_code": "60607"
	},
	{
		"venue_id": "yelpMUfPFffKW16-Wm_E2QPN4g",
		"venue_name": "Ed and Jean's Tavern",
		"latitude": 41.9179573059082,
		"longitude": -87.6789855957031,
		"address1": "2032 W Armitage Ave",
		"address2": null,
		"address3": "",
		"city": "Chicago",
		"state": "IL",
		"zip_code": "60647"
	},
	{
		"venue_id": "yelpJD4YjAyhZVvvQEcllpuiDA",
		"venue_name": "Redmond's Ale House",
		"latitude": 41.9427825276209,
		"longitude": -87.6542308993878,
		"address1": "3358 N Sheffield Ave",
		"address2": "",
		"address3": "",
		"city": "Chicago",
		"state": "IL",
		"zip_code": "60657"
	},
	{
		"venue_id": "yelpibVYesiOQbnlqUNNedq0Eg",
		"venue_name": "Tin Lizzie",
		"latitude": 41.927632,
		"longitude": -87.6415101,
		"address1": "2483 N Clark St",
		"address2": "",
		"address3": "",
		"city": "Chicago",
		"state": "IL",
		"zip_code": "60614"
	},
	{
		"venue_id": "yelpt724mtf1uhc2uiwueNkNnw",
		"venue_name": "A.J. Hudson's Public House",
		"latitude": 41.950901,
		"longitude": -87.668608,
		"address1": "3801 N Ashland Ave",
		"address2": "",
		"address3": "",
		"city": "Chicago",
		"state": "IL",
		"zip_code": "60613"
	},
	{
		"venue_id": "yelpxaDTw6iAUOeZSuR9sEbX_w",
		"venue_name": "Tobacco Road Tap Room",
		"latitude": 41.92311,
		"longitude": -87.64506,
		"address1": "2249 N Lincoln Ave",
		"address2": "",
		"address3": null,
		"city": "Chicago",
		"state": "IL",
		"zip_code": "60614"
	},
	{
		"venue_id": "yelpUK_26HeSOdwfH1yhr_OiZQ",
		"venue_name": "Municipal Bar & Dining",
		"latitude": 41.892617,
		"longitude": -87.634916,
		"address1": "216 W Ohio St",
		"address2": null,
		"address3": "",
		"city": "Chicago",
		"state": "IL",
		"zip_code": "60654"
	},
	{
		"venue_id": "yelpdVU0iKDOoH4QVkcCE7hdww",
		"venue_name": "Tilted Kilt Pub & Eatery",
		"latitude": 41.88268,
		"longitude": -87.62573,
		"address1": "17 N Wabash",
		"address2": "2nd Fl",
		"address3": "",
		"city": "Chicago",
		"state": "IL",
		"zip_code": "60602"
	},
	{
		"venue_id": "yelpt6lLLiYOP3MIrLvVvWkLBA",
		"venue_name": "Country Club",
		"latitude": 41.945,
		"longitude": -87.65516,
		"address1": "3462 N Clark St",
		"address2": "",
		"address3": "",
		"city": "Chicago",
		"state": "IL",
		"zip_code": "60657"
	},
	{
		"venue_id": "yelpC-NO4mQXovCu7m1xcfjQaQ",
		"venue_name": "Grace and Leavitt Tavern",
		"latitude": 41.95019,
		"longitude": -87.68332,
		"address1": "2157 W Grace Ave",
		"address2": null,
		"address3": "",
		"city": "Chicago",
		"state": "IL",
		"zip_code": "60618"
	},
	{
		"venue_id": "yelpeklptc_A1feI-AY-YngMYw",
		"venue_name": "Kelsey's",
		"latitude": 41.92343,
		"longitude": -87.6455299,
		"address1": "2265 N Lincoln Ave",
		"address2": "",
		"address3": "",
		"city": "Chicago",
		"state": "IL",
		"zip_code": "60614"
	},
	{
		"venue_id": "yelpVmnbFscu5ophW2UPW2KHjw",
		"venue_name": "Hidden Cove",
		"latitude": 41.97881,
		"longitude": -87.69296,
		"address1": "5336 N Lincoln Ave",
		"address2": "",
		"address3": "",
		"city": "Chicago",
		"state": "IL",
		"zip_code": "60625"
	},
	{
		"venue_id": "yelpZ623Bv0_Y8mYWJpq9SeBxg",
		"venue_name": "Houndstooth Saloon",
		"latitude": 41.94344,
		"longitude": -87.6533199,
		"address1": "3369 N Clark St",
		"address2": null,
		"address3": "",
		"city": "Chicago",
		"state": "IL",
		"zip_code": "60657"
	},
	{
		"venue_id": "yelpOiuZPTY40T3bXpvfE0HS0w",
		"venue_name": "Paterno's Pizza",
		"latitude": 41.977152,
		"longitude": -87.768683,
		"address1": "5303 N Milwaukee Ave",
		"address2": "",
		"address3": "",
		"city": "Chicago",
		"state": "IL",
		"zip_code": "60630"
	},
	{
		"venue_id": "yelp0gmmgV71SbgtUi5GbLXIAg",
		"venue_name": "Durkin's",
		"latitude": 41.9328249,
		"longitude": -87.649626,
		"address1": "810 W Diversey Pkwy",
		"address2": "",
		"address3": "",
		"city": "Chicago",
		"state": "IL",
		"zip_code": "60614"
	},
	{
		"venue_id": "yelpkvaot4Avs_7NKJN3RDuCIw",
		"venue_name": "Reverie",
		"latitude": 41.8896279,
		"longitude": -87.6371301030198,
		"address1": "414 N Orleans St",
		"address2": "",
		"address3": "",
		"city": "Chicago",
		"state": "IL",
		"zip_code": "60654"
	},
	{
		"venue_id": "yelpFJo_4AIueTL4lufYofF1Mw",
		"venue_name": "Parlay",
		"latitude": 41.89026,
		"longitude": -87.6318,
		"address1": "112 W Hubbard St",
		"address2": "",
		"address3": null,
		"city": "Chicago",
		"state": "IL",
		"zip_code": "60654"
	},
	{
		"venue_id": "yelpDMQw8VjAhyffQW9_iaWudw",
		"venue_name": "Mitchell's Tap",
		"latitude": 41.83315,
		"longitude": -87.64652,
		"address1": "3356 S Halsted St",
		"address2": "",
		"address3": "",
		"city": "Chicago",
		"state": "IL",
		"zip_code": "60608"
	},
	{
		"venue_id": "yelpdLMUfjtUF-wbBEjHJ_n6TA",
		"venue_name": "Sidekicks",
		"latitude": 41.9609489,
		"longitude": -87.7394937,
		"address1": "4424 W Montrose Ave",
		"address2": "",
		"address3": "",
		"city": "Chicago",
		"state": "IL",
		"zip_code": "60641"
	},
	{
		"venue_id": "yelpNU2o-RXmrLWJXOQAQ-VCBA",
		"venue_name": "Rex Tavern",
		"latitude": 41.97059,
		"longitude": -87.76286,
		"address1": "4933 N Milwaukee Ave",
		"address2": "",
		"address3": "",
		"city": "Chicago",
		"state": "IL",
		"zip_code": "60630"
	},
	{
		"venue_id": "yelp-KQhIwUrOzFINTtusScZ2g",
		"venue_name": "The Sports Corner Bar & Grill",
		"latitude": 41.9473722127298,
		"longitude": -87.6541649622844,
		"address1": "956 W Addison St",
		"address2": "",
		"address3": "",
		"city": "Chicago",
		"state": "IL",
		"zip_code": "60613"
	},
	{
		"venue_id": "yelpbjTtIFdCrQKSbR1Qndv_Vw",
		"venue_name": "Debonair Social Club",
		"latitude": 41.910092,
		"longitude": -87.6767021,
		"address1": "1575 N Milwaukee Ave",
		"address2": null,
		"address3": "",
		"city": "Chicago",
		"state": "IL",
		"zip_code": "60647"
	},
	{
		"venue_id": "yelpQkrDUe09ZeRZWXqTKERbZg",
		"venue_name": "Augie's Booze & Schmooze",
		"latitude": 41.9284439086914,
		"longitude": -87.6715774536133,
		"address1": "1721 W Wrightwood Ave",
		"address2": "",
		"address3": "",
		"city": "Chicago",
		"state": "IL",
		"zip_code": "60614"
	},
	{
		"venue_id": "yelpno23azYWYSAjJel10oSTMA",
		"venue_name": "Deuces and The Diamond Club",
		"latitude": 41.9458099,
		"longitude": -87.6551768,
		"address1": "3505 N Clark St",
		"address2": "",
		"address3": "",
		"city": "Chicago",
		"state": "IL",
		"zip_code": "60657"
	},
	{
		"venue_id": "yelpp0UquNGFSGewziWPevA0Ng",
		"venue_name": "Dylans Tavern & Grill",
		"latitude": 41.8799,
		"longitude": -87.64144,
		"address1": "118 S Clinton St",
		"address2": "",
		"address3": "",
		"city": "Chicago",
		"state": "IL",
		"zip_code": "60661"
	},
	{
		"venue_id": "yelpnVR90jC48d712DmoNKuM6g",
		"venue_name": "Roadhouse 66 Gas N' Grill",
		"latitude": 41.9454839,
		"longitude": -87.6551705,
		"address1": "3478 N Clark St",
		"address2": "",
		"address3": "",
		"city": "Chicago",
		"state": "IL",
		"zip_code": "60657"
	},
	{
		"venue_id": "yelpWjXgKqTSbORZWHEBXUllRA",
		"venue_name": "Old Grounds Social",
		"latitude": 41.92928,
		"longitude": -87.65331,
		"address1": "950 W Wrightwood Ave",
		"address2": "",
		"address3": null,
		"city": "Chicago",
		"state": "IL",
		"zip_code": "60614"
	},
	{
		"venue_id": "yelp6oABmvUJWoUtmO2LtzzmRg",
		"venue_name": "Hooters",
		"latitude": 41.8941596275253,
		"longitude": -87.6343546044642,
		"address1": "660 N Wells St",
		"address2": "",
		"address3": "",
		"city": "Chicago",
		"state": "IL",
		"zip_code": "60610"
	},
	{
		"venue_id": "yelpej9oa820R9vZtZ6i78ne8A",
		"venue_name": "Monty Gaels Tavern & Grill",
		"latitude": 41.961253,
		"longitude": -87.683997,
		"address1": "4356 N Leavitt St",
		"address2": "",
		"address3": "",
		"city": "Chicago",
		"state": "IL",
		"zip_code": "60618"
	},
	{
		"venue_id": "yelpfa2gue4t2Eniyzcip5DkSQ",
		"venue_name": "Mahoney's Pub & Grille",
		"latitude": 41.8920434,
		"longitude": -87.6580985,
		"address1": "551 N Ogden Ave",
		"address2": "",
		"address3": "",
		"city": "Chicago",
		"state": "IL",
		"zip_code": "60642"
	},
	{
		"venue_id": "yelpY3cmO36CJg920ExoBeBnOQ",
		"venue_name": "City Pool Hall & Sports Bar",
		"latitude": 41.89032,
		"longitude": -87.64479,
		"address1": "640 W Hubbard St",
		"address2": null,
		"address3": "",
		"city": "Chicago",
		"state": "IL",
		"zip_code": "60654"
	},
	{
		"venue_id": "yelpyBjNdU1R6zN_JAdRu-irAA",
		"venue_name": "The North End",
		"latitude": 41.9502666592598,
		"longitude": -87.6494065672159,
		"address1": "3733 N Halsted St",
		"address2": "",
		"address3": "",
		"city": "Chicago",
		"state": "IL",
		"zip_code": "60613"
	},
	{
		"venue_id": "yelpogpUWakOljukHV2O7A9ulQ",
		"venue_name": "The Graystone Tavern",
		"latitude": 41.9447779,
		"longitude": -87.6539943,
		"address1": "3441 N Sheffield Ave",
		"address2": "",
		"address3": "",
		"city": "Chicago",
		"state": "IL",
		"zip_code": "60657"
	},
	{
		"venue_id": "yelpmLHPkAvQHN4LMEvRSKpZXQ",
		"venue_name": "The Nest Bar & Eatery",
		"latitude": 41.95248,
		"longitude": -87.7985,
		"address1": "6859 W Irving Park Rd",
		"address2": "",
		"address3": null,
		"city": "Chicago",
		"state": "IL",
		"zip_code": "60634"
	},
	{
		"venue_id": "yelpJbkjw67Gx4Ilwi92owtodg",
		"venue_name": "Yak-Zies Bar & Grill",
		"latitude": 41.94928,
		"longitude": -87.65851,
		"address1": "3710 N Clark St",
		"address2": "",
		"address3": "",
		"city": "Chicago",
		"state": "IL",
		"zip_code": "60613"
	},
	{
		"venue_id": "yelpfwfCC7UMjwt4sWwku8fUUw",
		"venue_name": "Trophy Room",
		"latitude": 41.8933236,
		"longitude": -87.6334266,
		"address1": "170 W Ontario St",
		"address2": "",
		"address3": "",
		"city": "Chicago",
		"state": "IL",
		"zip_code": "60654"
	},
	{
		"venue_id": "yelp_sozrbWfnru9sOhT5TkOMA",
		"venue_name": "South Loop Club",
		"latitude": 41.873003156757,
		"longitude": -87.627351834108,
		"address1": "701 S State St",
		"address2": "",
		"address3": "",
		"city": "Chicago",
		"state": "IL",
		"zip_code": "60605"
	},
	{
		"venue_id": "yelpGdG5IuS7Sn9StNY5CcjwTw",
		"venue_name": "Jet's Public House",
		"latitude": 41.99326,
		"longitude": -87.78443,
		"address1": "6148 N Milwaukee Ave",
		"address2": "",
		"address3": "",
		"city": "Chicago",
		"state": "IL",
		"zip_code": "60646"
	},
	{
		"venue_id": "yelphwvv_ACf6r7OHUyB9mYgmg",
		"venue_name": "O'Neil's on Wells",
		"latitude": 41.8763000650196,
		"longitude": -87.6334118843079,
		"address1": "411 S Wells St",
		"address2": "",
		"address3": "",
		"city": "Chicago",
		"state": "IL",
		"zip_code": "60607"
	},
	{
		"venue_id": "yelpLqANdlh3wc4YuOxd0Bw9Ag",
		"venue_name": "Trace",
		"latitude": 41.949375,
		"longitude": -87.658574,
		"address1": "3714 N Clark St",
		"address2": "",
		"address3": "",
		"city": "Chicago",
		"state": "IL",
		"zip_code": "60613"
	},
	{
		"venue_id": "yelp6cVpExux4pj1_LEM_bDGXw",
		"venue_name": "Andersonville Brewing Co",
		"latitude": 41.9800277799368,
		"longitude": -87.6683557033539,
		"address1": "5402 N Clark St",
		"address2": "",
		"address3": "",
		"city": "Chicago",
		"state": "IL",
		"zip_code": "60640"
	},
	{
		"venue_id": "yelpbG6HA6El2c6yamwIgMPs2Q",
		"venue_name": "John Barleycorn",
		"latitude": 41.9461133,
		"longitude": -87.6558265,
		"address1": "3524 N Clark St",
		"address2": "",
		"address3": "",
		"city": "Chicago",
		"state": "IL",
		"zip_code": "60657"
	},
	{
		"venue_id": "yelp5IlYYcZ5Klt8uAFEW5xNsA",
		"venue_name": "MCM Pub and Eatery",
		"latitude": 41.9517888,
		"longitude": -87.7475649,
		"address1": "3906 N Cicero Ave",
		"address2": "",
		"address3": "",
		"city": "Chicago",
		"state": "IL",
		"zip_code": "60641"
	},
	{
		"venue_id": "yelpfPUtj8uMyFIOaA1Q2MiLBg",
		"venue_name": "Hook and Ladder",
		"latitude": 41.9234568184414,
		"longitude": -87.6460523045514,
		"address1": "2270 N Lincoln Ave",
		"address2": "",
		"address3": "",
		"city": "Chicago",
		"state": "IL",
		"zip_code": "60614"
	},
	{
		"venue_id": "yelptF07ms-Dxi0Kb-2THaCJUg",
		"venue_name": "Broken Barrel Bar",
		"latitude": 41.9284262,
		"longitude": -87.6636071,
		"address1": "2548 N Southport Ave",
		"address2": null,
		"address3": "",
		"city": "Chicago",
		"state": "IL",
		"zip_code": "60614"
	},
	{
		"venue_id": "yelpC1MFKqTkF0CF-1mHGuziEw",
		"venue_name": "Bracket Room",
		"latitude": 41.8649722583068,
		"longitude": -87.6465699864043,
		"address1": "1315 S Halsted St",
		"address2": "",
		"address3": null,
		"city": "Chicago",
		"state": "IL",
		"zip_code": "60607"
	},
	{
		"venue_id": "yelpATG75wRgV7dSNFGaZUgirw",
		"venue_name": "Wrigleyville North",
		"latitude": 41.9529342651367,
		"longitude": -87.6548156738281,
		"address1": "3900 N Sheridan Rd",
		"address2": "",
		"address3": "",
		"city": "Chicago",
		"state": "IL",
		"zip_code": "60613"
	},
	{
		"venue_id": "yelpiQ-cfOJWpmDhY4TUUElA0w",
		"venue_name": "My Buddy's",
		"latitude": 41.96222,
		"longitude": -87.66654,
		"address1": "4416 N Clark St",
		"address2": "",
		"address3": null,
		"city": "Chicago",
		"state": "IL",
		"zip_code": "60640"
	},
	{
		"venue_id": "yelpTqpx5Gft__3NAhYGgcoKkw",
		"venue_name": "She-nannigans",
		"latitude": 41.9041134,
		"longitude": -87.6294253,
		"address1": "16 W Division St",
		"address2": "",
		"address3": "",
		"city": "Chicago",
		"state": "IL",
		"zip_code": "60610"
	},
	{
		"venue_id": "yelp7AHK5kLW4rTEc6_alWT6Kw",
		"venue_name": "Hangovers Sports Bar and Liquor Store",
		"latitude": 41.9454921,
		"longitude": -87.7275341,
		"address1": "3532 N Pulaski Rd",
		"address2": "",
		"address3": "",
		"city": "Chicago",
		"state": "IL",
		"zip_code": "60641"
	},
	{
		"venue_id": "yelp69yXFdQS4YY8qqjLaQnSgA",
		"venue_name": "Bill's Bar & Burger",
		"latitude": 41.8901276378935,
		"longitude": -87.6273000765421,
		"address1": "30 E Hubbard St",
		"address2": "",
		"address3": null,
		"city": "Chicago",
		"state": "IL",
		"zip_code": "60611"
	},
	{
		"venue_id": "yelpvA0lQgMx_kTLnpj01sqNaA",
		"venue_name": "Madison Public House",
		"latitude": 41.920653,
		"longitude": -87.694156,
		"address1": "2200 N Milwaukee Ave",
		"address2": "",
		"address3": "",
		"city": "Chicago",
		"state": "IL",
		"zip_code": "60647"
	},
	{
		"venue_id": "yelp7ZF4cVQ87cuz7h_EDYP4Bg",
		"venue_name": "Social Twenty Five",
		"latitude": 41.88982,
		"longitude": -87.6290999,
		"address1": "25 W Hubbard St",
		"address2": "",
		"address3": "",
		"city": "Chicago",
		"state": "IL",
		"zip_code": "60654"
	},
	{
		"venue_id": "yelpGQO4bNj7UlQS14bZISAImw",
		"venue_name": "Buffalo Wild Wings",
		"latitude": 41.9143399,
		"longitude": -87.654485,
		"address1": "1832 N Clybourn Ave",
		"address2": "",
		"address3": "",
		"city": "Chicago",
		"state": "IL",
		"zip_code": "60614"
	},
	{
		"venue_id": "yelpSUG5XtgrhfcFncFrHL1bdA",
		"venue_name": "Point & Feather",
		"latitude": 41.8898784,
		"longitude": -87.6316175,
		"address1": "113 W Hubbard St",
		"address2": "",
		"address3": null,
		"city": "Chicago",
		"state": "IL",
		"zip_code": "60654"
	},
	{
		"venue_id": "yelpyk13j5eAao3jvD__JPLoEQ",
		"venue_name": "Heineken Pub97",
		"latitude": 41.947634,
		"longitude": -87.695617,
		"address1": "3626 N Talman Ave",
		"address2": null,
		"address3": "",
		"city": "Chicago",
		"state": "IL",
		"zip_code": "60618"
	},
	{
		"venue_id": "yelpvw8dpQgTkcxVd_PyPwTbVw",
		"venue_name": "Bounce Chicago",
		"latitude": 41.89684,
		"longitude": -87.63679,
		"address1": "324 W Chicago Ave",
		"address2": "",
		"address3": null,
		"city": "Chicago",
		"state": "IL",
		"zip_code": "60654"
	},
	{
		"venue_id": "yelpavGMiwuYUWQP61NQEW6wrw",
		"venue_name": "The Big City Tap",
		"latitude": 41.9399949,
		"longitude": -87.6545199,
		"address1": "1010 W Belmont Ave",
		"address2": null,
		"address3": "",
		"city": "Chicago",
		"state": "IL",
		"zip_code": "60657"
	},
	{
		"venue_id": "yelpZtZW9HoSIT2E9ZKg7vnSUA",
		"venue_name": "City Tap & Grill",
		"latitude": 41.952971,
		"longitude": -87.8107859,
		"address1": "7320 W Irving Park Rd",
		"address2": "",
		"address3": "",
		"city": "Norridge",
		"state": "IL",
		"zip_code": "60706"
	},
	{
		"venue_id": "yelpxVxhUbwJf3rqmon5s1tdHw",
		"venue_name": "Stadium Club at US Cellular Field",
		"latitude": 41.830085,
		"longitude": -87.633779,
		"address1": "333 W 35th St",
		"address2": "",
		"address3": "",
		"city": "Chicago",
		"state": "IL",
		"zip_code": "60616"
	},
	{
		"venue_id": "yelpkx5LgBNbPlaTIyIlQt_1sg",
		"venue_name": "Lincoln Avenue Social",
		"latitude": 41.9232616,
		"longitude": -87.6454512,
		"address1": "2263 N Lincoln Ave",
		"address2": "",
		"address3": "",
		"city": "Chicago",
		"state": "IL",
		"zip_code": "60614"
	},
	{
		"venue_id": "yelpWf2zmYhVYUB3AYSRcABZ4A",
		"venue_name": "OverTime Sports Bar and Grill",
		"latitude": 41.93844,
		"longitude": -87.7941,
		"address1": "6714 W Belmont Ave",
		"address2": "",
		"address3": null,
		"city": "Chicago",
		"state": "IL",
		"zip_code": "60634"
	},
	{
		"venue_id": "yelp0bGtWhwR27Im1tvxCIbLRA",
		"venue_name": "Belford Tavern",
		"latitude": 41.93933,
		"longitude": -87.72752,
		"address1": "3200 N Pulaski Rd",
		"address2": "",
		"address3": "",
		"city": "Chicago",
		"state": "IL",
		"zip_code": "60641"
	},
	{
		"venue_id": "yelpenNoGgAI7ygeAWH_nsSBEw",
		"venue_name": "Concrete Cowboy",
		"latitude": 41.8937215,
		"longitude": -87.6357549,
		"address1": "646 N Franklin St",
		"address2": "",
		"address3": null,
		"city": "Chicago",
		"state": "IL",
		"zip_code": "60654"
	},
	{
		"venue_id": "yelpdvKDuapfQJl9AxPXy16kPQ",
		"venue_name": "Tradition",
		"latitude": 41.884909,
		"longitude": -87.635693,
		"address1": "160 N Franklin St",
		"address2": "",
		"address3": "",
		"city": "Chicago",
		"state": "IL",
		"zip_code": "60606"
	},
	{
		"venue_id": "yelpZtVu6CxH_E5GItxBFFzYBQ",
		"venue_name": "One City Tap",
		"latitude": 41.8372719975647,
		"longitude": -87.6659621670842,
		"address1": "3115 S Archer Ave",
		"address2": "",
		"address3": null,
		"city": "Chicago",
		"state": "IL",
		"zip_code": "60608"
	},
	{
		"venue_id": "yelpvG6JydnM5RyfZqXrb6P_0Q",
		"venue_name": "Claddagh Ring",
		"latitude": 41.97618,
		"longitude": -87.6871199,
		"address1": "2306 W Foster Ave",
		"address2": null,
		"address3": "",
		"city": "Chicago",
		"state": "IL",
		"zip_code": "60625"
	},
	{
		"venue_id": "yelpqPG6lJ3wdE3jDDbxaTbUkQ",
		"venue_name": "PL Lounge",
		"latitude": 41.9444043693006,
		"longitude": -87.7274454385042,
		"address1": "3456 N Pulaski Rd",
		"address2": "",
		"address3": "",
		"city": "Chicago",
		"state": "IL",
		"zip_code": "60641"
	},
	{
		"venue_id": "yelpv5VI_gD2lggFinrMtq3p6w",
		"venue_name": "Six Penny Bit",
		"latitude": 41.96069,
		"longitude": -87.77234,
		"address1": "5800 W Montrose Ave",
		"address2": null,
		"address3": "",
		"city": "Chicago",
		"state": "IL",
		"zip_code": "60634"
	},
	{
		"venue_id": "yelpH9R8DF5VMdGKGgFy34DeXg",
		"venue_name": "Mother's Too",
		"latitude": 41.9039822,
		"longitude": -87.6292163,
		"address1": "14 W Division St",
		"address2": "",
		"address3": "",
		"city": "Chicago",
		"state": "IL",
		"zip_code": "60610"
	},
	{
		"venue_id": "yelpdnuDGT_qAx_YZRwCJbM8rA",
		"venue_name": "Martin's Corner",
		"latitude": 41.851331,
		"longitude": -87.678048,
		"address1": "2058 W 22nd Pl",
		"address2": null,
		"address3": "",
		"city": "Chicago",
		"state": "IL",
		"zip_code": "60608"
	},
	{
		"venue_id": "yelpRrJ9WBtMffwR8WJ1UHMjrw",
		"venue_name": "Buffalo Wild Wings",
		"latitude": 41.8695833151809,
		"longitude": -87.6405102824615,
		"address1": "513 W Taylor St",
		"address2": null,
		"address3": null,
		"city": "Chicago",
		"state": "IL",
		"zip_code": "60607"
	},
	{
		"venue_id": "yelpb76dQ1jMSnTCpC-2ElxB3A",
		"venue_name": "The Unforgettable Bar",
		"latitude": 41.953914642334,
		"longitude": -87.733024597168,
		"address1": "4206 W Irving Park Rd",
		"address2": "",
		"address3": "",
		"city": "Chicago",
		"state": "IL",
		"zip_code": "60641"
	},
	{
		"venue_id": "yelpw_UOVvZEUMY1ctDfNfOOqA",
		"venue_name": "Lakeview Baseball Club",
		"latitude": 41.9482841491699,
		"longitude": -87.6539916992188,
		"address1": "3633 N Sheffield Ave",
		"address2": "",
		"address3": "",
		"city": "Chicago",
		"state": "IL",
		"zip_code": "60613"
	},
	{
		"venue_id": "yelpaessrxDu8LQO8zKp4pz97Q",
		"venue_name": "Bistro Grand",
		"latitude": 41.9229251,
		"longitude": -87.8043862,
		"address1": "2362 N Neva Ave",
		"address2": "",
		"address3": "",
		"city": "Chicago",
		"state": "IL",
		"zip_code": "60707"
	},
	{
		"venue_id": "yelpr6qVpErZatXkToQBDAgAMA",
		"venue_name": "Newark Nook",
		"latitude": 41.9980621337891,
		"longitude": -87.7985458374023,
		"address1": "6443 N Newark Ave",
		"address2": "",
		"address3": "",
		"city": "Chicago",
		"state": "IL",
		"zip_code": "60631"
	},
	{
		"venue_id": "yelpeXA06pE_xHi3i_GYNs0ueg",
		"venue_name": "Renaldi's After Dark",
		"latitude": 41.9336824805495,
		"longitude": -87.6445728329351,
		"address1": "2831 N Broadway",
		"address2": "",
		"address3": "",
		"city": "Chicago",
		"state": "IL",
		"zip_code": "60657"
	},
	{
		"venue_id": "yelpQbGSXfREU_bGIHg8EmNzEg",
		"venue_name": "Applebee's Grill + Bar",
		"latitude": 41.924036,
		"longitude": -87.792362,
		"address1": "6656 W Grand Ave",
		"address2": "",
		"address3": "",
		"city": "Chicago",
		"state": "IL",
		"zip_code": "60707"
	},
	{
		"venue_id": "yelpxcdcSShlwXplHqZRhqj5zQ",
		"venue_name": "The Dugout Bar",
		"latitude": 41.9475,
		"longitude": -87.65392,
		"address1": "950 W Addison St",
		"address2": "Ste B & 1",
		"address3": "",
		"city": "Chicago",
		"state": "IL",
		"zip_code": "60613"
	},
	{
		"venue_id": "yelp8ex4Tn-aTbQ12_rxZrwHAA",
		"venue_name": "Miller's Ale House - Norridge",
		"latitude": 41.96157,
		"longitude": -87.80813,
		"address1": "4474 N Harlem Ave",
		"address2": null,
		"address3": null,
		"city": "Norridge",
		"state": "IL",
		"zip_code": "60706"
	},
	{
		"venue_id": "yelpqVTPmXS6OMhciuf3ZL41dA",
		"venue_name": "Paisans Pizzeria & Bar",
		"latitude": 41.8317431357644,
		"longitude": -87.7787421112491,
		"address1": "6226 W Ogden Ave",
		"address2": "",
		"address3": "",
		"city": "Berwyn",
		"state": "IL",
		"zip_code": "60402"
	},
	{
		"venue_id": "yelpUAGr9icyFbaJO_PqNtlp1Q",
		"venue_name": "M Bar",
		"latitude": 41.884747,
		"longitude": -87.624138,
		"address1": "151 N Michigan Ave",
		"address2": "Ste C16",
		"address3": "",
		"city": "Chicago",
		"state": "IL",
		"zip_code": "60601"
	},
	{
		"venue_id": "yelp0oPm2egAllO4BA65whM6bw",
		"venue_name": "The Junction",
		"latitude": 41.8787622080593,
		"longitude": -87.6389560103416,
		"address1": "222 S Riverside Plz",
		"address2": "",
		"address3": "",
		"city": "Chicago",
		"state": "IL",
		"zip_code": "60606"
	},
	{
		"venue_id": "yelp4NzM1mPKY4uZHFzEMg3c5g",
		"venue_name": "Family Bar",
		"latitude": 41.9530312076404,
		"longitude": -87.7853925526142,
		"address1": "6340 W Irving Park Rd",
		"address2": "",
		"address3": null,
		"city": "Chicago",
		"state": "IL",
		"zip_code": "60634"
	},
	{
		"venue_id": "yelp-qkCtGelcQTTrW9dp_C3AA",
		"venue_name": "Aquarius Mexican Restaurant",
		"latitude": 41.9262315,
		"longitude": -87.726696,
		"address1": "2459 N Pulaski Rd",
		"address2": "",
		"address3": "",
		"city": "Chicago",
		"state": "IL",
		"zip_code": "60639"
	},
	{
		"venue_id": "yelp_-Y8o20TC8kZSbh0cCob6g",
		"venue_name": "Uncle Mikes Sports Bar",
		"latitude": 41.917429,
		"longitude": -87.727053,
		"address1": "4010 W Armitage Ave",
		"address2": "",
		"address3": "",
		"city": "Chicago",
		"state": "IL",
		"zip_code": "60639"
	},
	{
		"venue_id": "yelplgN11gZ9bhqcOkUo2qHvsA",
		"venue_name": "O'Donnell's",
		"latitude": 41.9624045313926,
		"longitude": -87.7322741741022,
		"address1": "4500 N Elston Ave",
		"address2": "",
		"address3": "",
		"city": "Chicago",
		"state": "IL",
		"zip_code": "60630"
	},
	{
		"venue_id": "yelpm1DTqUljcp5t62RHAEhsag",
		"venue_name": "Renaissance Bronzeville",
		"latitude": 41.8099120438155,
		"longitude": -87.6162457531672,
		"address1": "4641 S King Dr",
		"address2": "",
		"address3": null,
		"city": "Chicago",
		"state": "IL",
		"zip_code": "60653"
	},
	{
		"venue_id": "yelpwxFX3v1Q5pk0wD5rb8M1Zw",
		"venue_name": "North Star",
		"latitude": 41.99547,
		"longitude": -87.69017,
		"address1": "6246 N Western",
		"address2": "",
		"address3": "",
		"city": "Chicago",
		"state": "IL",
		"zip_code": "60659"
	},
	{
		"venue_id": "yelp-9ZL6gkZUaWPDZqqCglfKw",
		"venue_name": "Old School Tavern & Grill",
		"latitude": 41.88295,
		"longitude": -87.81232,
		"address1": "201 Des Plaines Ave",
		"address2": "",
		"address3": "",
		"city": "Forest Park",
		"state": "IL",
		"zip_code": "60130"
	},
	{
		"venue_id": "yelpkwF-wO_TAMHcP--o2u39ow",
		"venue_name": "Black Sheep",
		"latitude": 41.9904512694384,
		"longitude": -87.6933817192912,
		"address1": "2535 W Peterson Ave",
		"address2": "",
		"address3": "",
		"city": "Chicago",
		"state": "IL",
		"zip_code": "60659"
	},
	{
		"venue_id": "yelpzgL4DXmnZ7oXohfVzWJ2Cg",
		"venue_name": "Good Time Sports Bar",
		"latitude": 41.8311949,
		"longitude": -87.621535,
		"address1": "206 E 35th St",
		"address2": "",
		"address3": "",
		"city": "Chicago",
		"state": "IL",
		"zip_code": "60616"
	},
	{
		"venue_id": "yelpCR00Y3MotozBWTgByNY3wg",
		"venue_name": "Eva's Sports Bar",
		"latitude": 41.92351,
		"longitude": -87.80541,
		"address1": "7173 W Grand Ave",
		"address2": "",
		"address3": "",
		"city": "Chicago",
		"state": "IL",
		"zip_code": "60707"
	},
	{
		"venue_id": "yelpIR3ckF48IDgYOq_K1kyGoA",
		"venue_name": "Ravenswood Station",
		"latitude": 41.9673859,
		"longitude": -87.6789687,
		"address1": "4709 N Damen Ave",
		"address2": "",
		"address3": null,
		"city": "Chicago",
		"state": "IL",
		"zip_code": "60625"
	},
	{
		"venue_id": "yelpkXeWzOyzTGPj9Qj760sw4Q",
		"venue_name": "MaddAnthonys Bar & Grill",
		"latitude": 41.80833,
		"longitude": -87.70844,
		"address1": "3350 W 47th St",
		"address2": "",
		"address3": "",
		"city": "Chicago",
		"state": "IL",
		"zip_code": "60632"
	},
	{
		"venue_id": "yelpbVCbtFOWoU_nJdxWbyrXnw",
		"venue_name": "Buffalo Wild Wings",
		"latitude": 41.9288706476837,
		"longitude": -87.7861896567123,
		"address1": "2650 N Narragansett Ave",
		"address2": "",
		"address3": "C9 The Brickyard",
		"city": "Chicago",
		"state": "IL",
		"zip_code": "60639"
	},
	{
		"venue_id": "yelplCj1Cmxkbg2sSVbyl8f4pQ",
		"venue_name": "The River Kitchen and Bar",
		"latitude": 41.9346878,
		"longitude": -87.6537551,
		"address1": "2909 N Sheffield Ave",
		"address2": null,
		"address3": "",
		"city": "Chicago",
		"state": "IL",
		"zip_code": "60657"
	},
	{
		"venue_id": "yelpd1J45Dmdtz5lfW-XyGqcAQ",
		"venue_name": "The Nil Tap",
		"latitude": 41.9855003356934,
		"longitude": -87.7696914672852,
		"address1": "5734 N Elston Ave",
		"address2": "",
		"address3": "",
		"city": "Chicago",
		"state": "IL",
		"zip_code": "60646"
	},
	{
		"venue_id": "yelpozYTJ0MV1BfxcrEQ16zLqw",
		"venue_name": "Dino's Liquors",
		"latitude": 41.998213,
		"longitude": -87.670967,
		"address1": "6400 N Clark St",
		"address2": "",
		"address3": "",
		"city": "Chicago",
		"state": "IL",
		"zip_code": "60626"
	},
	{
		"venue_id": "yelp8C3fjoWF_4zjVXAz79yrTg",
		"venue_name": "Berwyn Tap Room",
		"latitude": 41.8580013513565,
		"longitude": -87.7827458828688,
		"address1": "6330 16th St",
		"address2": null,
		"address3": "",
		"city": "Berwyn",
		"state": "IL",
		"zip_code": "60402"
	},
	{
		"venue_id": "yelpHoLba4sRSQ8A7eg08_1nlA",
		"venue_name": "Miller's Ale House - North Riverside",
		"latitude": 41.8498405619304,
		"longitude": -87.8094671452376,
		"address1": "7515 W Cermak Rd",
		"address2": null,
		"address3": null,
		"city": "N Riverside",
		"state": "IL",
		"zip_code": "60546"
	},
	{
		"venue_id": "yelpB9h815TgP-H77bbBtQ9Rrw",
		"venue_name": "Innjoy Logan Square",
		"latitude": 41.92065,
		"longitude": -87.6941499,
		"address1": "2200 N Milwaukee Ave",
		"address2": "",
		"address3": null,
		"city": "Chicago",
		"state": "IL",
		"zip_code": "60647"
	},
	{
		"venue_id": "yelpAgkFTILWjf94l-Oty5ZBCA",
		"venue_name": "Skores Sports Bar & Grill",
		"latitude": 41.9593086242676,
		"longitude": -87.796745300293,
		"address1": "6764 W Forest Preserve Dr",
		"address2": "",
		"address3": "",
		"city": "Harwood Heights",
		"state": "IL",
		"zip_code": "60706"
	},
	{
		"venue_id": "yelpKtIkNym984wrp15erl0PWA",
		"venue_name": "Ate Music House",
		"latitude": 41.8481555572998,
		"longitude": -87.6424149091919,
		"address1": "610 W 24th Pl",
		"address2": null,
		"address3": "",
		"city": "Chicago",
		"state": "IL",
		"zip_code": "60616"
	},
	{
		"venue_id": "yelp5X72niq1M03xtWbLTd5_Zg",
		"venue_name": "Kinzie on the Rocks",
		"latitude": 41.88872,
		"longitude": -87.64507,
		"address1": "370 N Desplaines St",
		"address2": "",
		"address3": null,
		"city": "Chicago",
		"state": "IL",
		"zip_code": "60661"
	},
	{
		"venue_id": "yelpeSW16ji7F5mTtF-6IZ40lA",
		"venue_name": "Guadalajara Grill & Bar",
		"latitude": 41.85082,
		"longitude": -87.79391,
		"address1": "6814 Cermak Rd",
		"address2": "",
		"address3": "",
		"city": "Berwyn",
		"state": "IL",
		"zip_code": "60402"
	},
	{
		"venue_id": "yelpo1g6grNNn3TWhXRaojKUSQ",
		"venue_name": "Richmond's Sports Bar",
		"latitude": 41.8960184956962,
		"longitude": -87.7006904035807,
		"address1": "2944 W Grand",
		"address2": "",
		"address3": "",
		"city": "Chicago",
		"state": "IL",
		"zip_code": "60622"
	},
	{
		"venue_id": "yelpL3CrUgYsMAkt_QWqUVNTjA",
		"venue_name": "Edelweiss Tavern",
		"latitude": 41.9394111633301,
		"longitude": -87.7227401733398,
		"address1": "3808 W Belmont Ave",
		"address2": "",
		"address3": "",
		"city": "Chicago",
		"state": "IL",
		"zip_code": "60618"
	},
	{
		"venue_id": "yelpchfGqcWs0he1DLdGdDNn5g",
		"venue_name": "Abram Gale",
		"latitude": 41.9226711871135,
		"longitude": -87.8044467724201,
		"address1": "2366 N Neva Ave",
		"address2": "",
		"address3": "",
		"city": "Chicago",
		"state": "IL",
		"zip_code": "60707"
	},
	{
		"venue_id": "yelp3Ppjji_HoRy_7iaQL-vlhg",
		"venue_name": "The Stanley Club",
		"latitude": 41.88179,
		"longitude": -87.66152,
		"address1": "1350 W Madison St",
		"address2": "",
		"address3": "Johnny's Ice House",
		"city": "Chicago",
		"state": "IL",
		"zip_code": "60607"
	},
	{
		"venue_id": "yelpSZ8y39Dvd1LEkQPmWpyAsw",
		"venue_name": "Crown Royal Whisky Bar",
		"latitude": 41.8811951,
		"longitude": -87.6744087,
		"address1": "1901 W Madison St",
		"address2": "",
		"address3": "Section 118",
		"city": "Chicago",
		"state": "IL",
		"zip_code": "60612"
	},
	{
		"venue_id": "yelps9nDhCGWINKRGk-oFgp-LA",
		"venue_name": "Friendly Tavern",
		"latitude": 41.9687399,
		"longitude": -87.78178,
		"address1": "6124 W Gunnison St",
		"address2": "",
		"address3": "",
		"city": "Chicago",
		"state": "IL",
		"zip_code": "60630"
	},
	{
		"venue_id": "yelpg8zXCoicGVlTU5Hj4y-r3A",
		"venue_name": "El Nuevo Vallarta Sports Bar & Grill",
		"latitude": 41.85029,
		"longitude": -87.7935399,
		"address1": "6801 Cermak Rd",
		"address2": null,
		"address3": "",
		"city": "Berwyn",
		"state": "IL",
		"zip_code": "60402"
	},
	{
		"venue_id": "yelp_U0xvw376bADqbugXHZHQQ",
		"venue_name": "Jacaranda",
		"latitude": 41.8446197509766,
		"longitude": -87.7152404785156,
		"address1": "3608 W 26th St",
		"address2": null,
		"address3": null,
		"city": "Chicago",
		"state": "IL",
		"zip_code": "60623"
	},
	{
		"venue_id": "yelpIQl3CsF0LZDiOExX2syUng",
		"venue_name": "Lucky Sports Bar",
		"latitude": 42.0031883,
		"longitude": -87.6721957,
		"address1": "6651 N Clark St",
		"address2": "",
		"address3": null,
		"city": "Chicago",
		"state": "IL",
		"zip_code": "60626"
	},
	{
		"venue_id": "yelpo_rQ3MHWP5KwKhf7upaRPw",
		"venue_name": "Bullpen Sports Bar",
		"latitude": 41.8307516,
		"longitude": -87.6348909,
		"address1": "333 W 35th St",
		"address2": "",
		"address3": "GATE 2 Entrance",
		"city": "Chicago",
		"state": "IL",
		"zip_code": "60616"
	},
	{
		"venue_id": "yelpAlFkV9onmRV9m2HrjfYyDw",
		"venue_name": "New Polonia Club",
		"latitude": 41.938161,
		"longitude": -87.778826,
		"address1": "6101 W Belmont Ave",
		"address2": "",
		"address3": "",
		"city": "Chicago",
		"state": "IL",
		"zip_code": "60634"
	},
	{
		"venue_id": "yelpEFHDU9lPWWogRuPA9pDRGg",
		"venue_name": "Buffalo Wild Wings",
		"latitude": 41.85068,
		"longitude": -87.80283,
		"address1": "7130 Cermak Rd",
		"address2": "",
		"address3": "",
		"city": "Berwyn",
		"state": "IL",
		"zip_code": "60402"
	},
	{
		"venue_id": "yelpI2TvtEw0wBTHSNgeDqPuVQ",
		"venue_name": "Varsity Club",
		"latitude": 41.92008,
		"longitude": -87.66261,
		"address1": "2142 N Clybourn Ave",
		"address2": "",
		"address3": "",
		"city": "Chicago",
		"state": "IL",
		"zip_code": "60614"
	},
	{
		"venue_id": "yelpGLe4k3WBaC_B259btMmZew",
		"venue_name": "Chicago Sports Bar & Grill",
		"latitude": 41.8075199,
		"longitude": -87.73232,
		"address1": "4335 W 47th St",
		"address2": null,
		"address3": null,
		"city": "Chicago",
		"state": "IL",
		"zip_code": "60632"
	},
	{
		"venue_id": "yelp8l5ckkIxrMcKWYCxOCdVew",
		"venue_name": "Charlotte's Bar & Grill",
		"latitude": 41.96877,
		"longitude": -87.77848,
		"address1": "6000 W Gunnison St",
		"address2": "",
		"address3": "",
		"city": "Chicago",
		"state": "IL",
		"zip_code": "60630"
	},
	{
		"venue_id": "yelpGXQufCNhyzWJTVg_bXYllw",
		"venue_name": "IIT's The Bog",
		"latitude": 41.8355751,
		"longitude": -87.6287047,
		"address1": "3241 S Federal St",
		"address2": "",
		"address3": null,
		"city": "Chicago",
		"state": "IL",
		"zip_code": "60616"
	},
	{
		"venue_id": "yelp5F458d-t5AYthMoN-mAB2g",
		"venue_name": "Oaza Restaurant",
		"latitude": 41.9685491183645,
		"longitude": -87.7059690806263,
		"address1": "3057 W Lawrence",
		"address2": "",
		"address3": "",
		"city": "Chicago",
		"state": "IL",
		"zip_code": "60625"
	},
	{
		"venue_id": "yelpCcvmUR74wY9h9IUhpwPKGg",
		"venue_name": "Triple to Win Entertainment",
		"latitude": 41.85,
		"longitude": -87.65,
		"address1": "",
		"address2": "",
		"address3": "",
		"city": "Chicago",
		"state": "IL",
		"zip_code": "60686"
	},
	{
		"venue_id": "yelpeOyjXknHb7nnu2GPYIQZ9w",
		"venue_name": "Pulqueria Chicago Midway",
		"latitude": 41.80512,
		"longitude": -87.74348,
		"address1": "4820 S Cicero Ave",
		"address2": null,
		"address3": "",
		"city": "Chicago",
		"state": "IL",
		"zip_code": "60638"
	},
	{
		"venue_id": "yelp4URDzmeoZc753311Afuz2w",
		"venue_name": "Michael's Sport Lounge",
		"latitude": 41.8113899230957,
		"longitude": -87.7080459594727,
		"address1": "4501 S Archer Ave",
		"address2": "",
		"address3": "",
		"city": "Chicago",
		"state": "IL",
		"zip_code": "60632"
	},
	{
		"venue_id": "yelph57Ck-zWFcwzyj7JECu5-w",
		"venue_name": "Lucky's Bar",
		"latitude": 41.864809,
		"longitude": -87.8026911,
		"address1": "7123 W Roosevelt Rd",
		"address2": "",
		"address3": "",
		"city": "Berwyn",
		"state": "IL",
		"zip_code": "60402"
	},
	{
		"venue_id": "yelpwhFOxulUpo7-rxBu5eMbaA",
		"venue_name": "Steve's Sports Bar & Lounge",
		"latitude": 41.91035,
		"longitude": -87.71519,
		"address1": "3524 W North Ave",
		"address2": "",
		"address3": "",
		"city": "Chicago",
		"state": "IL",
		"zip_code": "60647"
	},
	{
		"venue_id": "yelp_O-GA123oG92Liq6rLseNg",
		"venue_name": "Carole's",
		"latitude": 41.8652299,
		"longitude": -87.80701,
		"address1": "7307 W Roosevelt Rd",
		"address2": "",
		"address3": "",
		"city": "Forest Park",
		"state": "IL",
		"zip_code": "60130"
	},
	{
		"venue_id": "yelpxY-0aszHkWyNBT9cNU3Xzw",
		"venue_name": "J & A Sports Bar",
		"latitude": 41.9315179,
		"longitude": -87.7682979,
		"address1": "5650 W Diversey",
		"address2": "",
		"address3": "",
		"city": "Chicago",
		"state": "IL",
		"zip_code": "60639"
	},
	{
		"venue_id": "yelp5acw4sqff_Z2u2RJtQplLw",
		"venue_name": "Harritys Sport Bar and Grill",
		"latitude": 41.9380785,
		"longitude": -87.7664623,
		"address1": "3147 N Central Ave",
		"address2": "",
		"address3": "",
		"city": "Chicago",
		"state": "IL",
		"zip_code": "60634"
	},
	{
		"venue_id": "yelpigXssaB9bKmOy2QHYJB2AQ",
		"venue_name": "Miller Light Bullpen Sports Bar",
		"latitude": 41.8293361853565,
		"longitude": -87.6339756038126,
		"address1": "333 W 35th St",
		"address2": "",
		"address3": "",
		"city": "Chicago",
		"state": "IL",
		"zip_code": "60616"
	},
	{
		"venue_id": "yelp7hX1m-FKeMFpKLtl-81-ZQ",
		"venue_name": "Victorias 4900",
		"latitude": 41.83688,
		"longitude": -87.74727,
		"address1": "4900 W 31st St",
		"address2": "",
		"address3": "",
		"city": "Cicero",
		"state": "IL",
		"zip_code": "60804"
	},
	{
		"venue_id": "yelpTuH5_ABjwgKOYTn28S-Gsg",
		"venue_name": "Phil's Sports Bar",
		"latitude": 41.9178047180176,
		"longitude": -87.8064117431641,
		"address1": "2044 N Harlem Ave",
		"address2": "",
		"address3": "",
		"city": "Elmwood Park",
		"state": "IL",
		"zip_code": "60707"
	},
	{
		"venue_id": "yelpyJ0j2w059VyxCGBDyHeI_A",
		"venue_name": "Winners Sports Bar & Grill",
		"latitude": 41.88047,
		"longitude": -87.77243,
		"address1": "5912 W Madison St",
		"address2": "",
		"address3": "",
		"city": "Chicago",
		"state": "IL",
		"zip_code": "60644"
	},
	{
		"venue_id": "yelpd47hkXXgfGrO68HUfiliqw",
		"venue_name": "Cherrywood Tap",
		"latitude": 41.8362655639648,
		"longitude": -87.7534103393555,
		"address1": "5129 W 31st St",
		"address2": "",
		"address3": "",
		"city": "Cicero",
		"state": "IL",
		"zip_code": "60804"
	},
	{
		"venue_id": "yelpF2Ly4zQbi10IfPW3uS2wHA",
		"venue_name": "The Height's Bar & Grill",
		"latitude": 41.9603157,
		"longitude": -87.7882233,
		"address1": "6436 W Montrose Ave",
		"address2": null,
		"address3": "",
		"city": "Harwood Heights",
		"state": "IL",
		"zip_code": "60706"
	},
	{
		"venue_id": "yelp_QiHIfNTk6frYpVUDxVPAQ",
		"venue_name": "V Bar",
		"latitude": 41.84087,
		"longitude": -87.7831351,
		"address1": "2717 Ridgeland Ave",
		"address2": "",
		"address3": "",
		"city": "Berwyn",
		"state": "IL",
		"zip_code": "60402"
	},
	{
		"venue_id": "yelpfJz5HFhj17f53GkUoa-KZQ",
		"venue_name": "Mario & Sandra's",
		"latitude": 41.827583,
		"longitude": -87.695091,
		"address1": "3620 S California Ave",
		"address2": "",
		"address3": "",
		"city": "Chicago",
		"state": "IL",
		"zip_code": "60632"
	},
	{
		"venue_id": "yelpuCTGLrl1puyWcybZq8Q5Fw",
		"venue_name": "The 5800 Corp",
		"latitude": 41.8437281023168,
		"longitude": -87.7687935226602,
		"address1": "5800 West 26th St",
		"address2": "",
		"address3": null,
		"city": "Cicero",
		"state": "IL",
		"zip_code": "60804"
	},
	{
		"venue_id": "yelp7zYlgXmQDtgAs71qMWZzzw",
		"venue_name": "El Patron Sports Bar",
		"latitude": 41.8496932983398,
		"longitude": -87.7445831298828,
		"address1": "2260 S Cicero Ave",
		"address2": null,
		"address3": null,
		"city": "Cicero",
		"state": "IL",
		"zip_code": "60804"
	},
	{
		"venue_id": "yelpSG95tvs67-URonusewv8Kg",
		"venue_name": "Nine 30 Ten",
		"latitude": 41.850861,
		"longitude": -87.791481,
		"address1": "6710 W Cermak",
		"address2": "",
		"address3": "",
		"city": "Berwyn",
		"state": "IL",
		"zip_code": "60402"
	}
]