[
	{
		"venue_id": "yelpziIfrqtyupmeNlPAOx6jTw",
		"venue_name": "Quartino Ristorante",
		"latitude": 41.8934479679332,
		"longitude": -87.6283662020996,
		"address1": "626 N State St",
		"address2": null,
		"address3": "",
		"city": "Chicago",
		"state": "IL",
		"zip_code": "60654"
	},
	{
		"venue_id": "yelpsNQglz_HoXgnUi1KTN3Iew",
		"venue_name": "Gibsons Bar & Steakhouse",
		"latitude": 41.9013244024012,
		"longitude": -87.628035040229,
		"address1": "1028 N Rush St",
		"address2": "",
		"address3": "",
		"city": "Chicago",
		"state": "IL",
		"zip_code": "60611"
	},
	{
		"venue_id": "yelpWODBuNjlEgNIf459Wh-AWw",
		"venue_name": "Gather",
		"latitude": 41.9643402,
		"longitude": -87.6853638,
		"address1": "4539 N Lincoln Ave",
		"address2": null,
		"address3": "",
		"city": "Chicago",
		"state": "IL",
		"zip_code": "60625"
	},
	{
		"venue_id": "yelpXsGNjQODQGHMUPKrS_xEnA",
		"venue_name": "The Capital Grille",
		"latitude": 41.893789,
		"longitude": -87.622358,
		"address1": "633 N Saint Clair St",
		"address2": "",
		"address3": "",
		"city": "Chicago",
		"state": "IL",
		"zip_code": "60611"
	},
	{
		"venue_id": "yelpVPJk-SEWSWS_nGoQvM-COw",
		"venue_name": "Penumbra",
		"latitude": 41.92445,
		"longitude": -87.710933,
		"address1": "3309 W Fullerton Ave",
		"address2": null,
		"address3": "",
		"city": "Chicago",
		"state": "IL",
		"zip_code": "60647"
	},
	{
		"venue_id": "yelpo0DaPvRb4IWH7hUWVCnoGw",
		"venue_name": "Monteverde",
		"latitude": 41.88191,
		"longitude": -87.65302,
		"address1": "1020 W Madison St",
		"address2": "",
		"address3": "",
		"city": "Chicago",
		"state": "IL",
		"zip_code": "60607"
	},
	{
		"venue_id": "yelpVikWqZa32i70Qp-ETzw_lw",
		"venue_name": "Hugo's Frog Bar & Fish House",
		"latitude": 41.901191,
		"longitude": -87.627793,
		"address1": "1024 North Rush",
		"address2": "",
		"address3": "",
		"city": "Chicago",
		"state": "IL",
		"zip_code": "60611"
	},
	{
		"venue_id": "yelphylBw5ND7XyPldM6BN28vw",
		"venue_name": "Geja's Cafe",
		"latitude": 41.9181498673941,
		"longitude": -87.6380681991577,
		"address1": "340 W Armitage Ave",
		"address2": "",
		"address3": "",
		"city": "Chicago",
		"state": "IL",
		"zip_code": "60614"
	},
	{
		"venue_id": "yelpjlVvQOf4YE3ZO1gMFSAdww",
		"venue_name": "Buona Terra",
		"latitude": 41.92788,
		"longitude": -87.69722,
		"address1": "2535 N California Ave",
		"address2": null,
		"address3": "",
		"city": "Chicago",
		"state": "IL",
		"zip_code": "60647"
	},
	{
		"venue_id": "yelpuVYkk8dsnSMSd6xMGGoGTw",
		"venue_name": "Fat Rice",
		"latitude": 41.9319451,
		"longitude": -87.7017382,
		"address1": "2957 W Diversey Ave",
		"address2": "",
		"address3": "",
		"city": "Chicago",
		"state": "IL",
		"zip_code": "60647"
	},
	{
		"venue_id": "yelp7mCeefskNUtOkzxt_MLHKA",
		"venue_name": "3rd Coast Cafe",
		"latitude": 41.90565,
		"longitude": -87.63047,
		"address1": "1260 N Dearborn St",
		"address2": "Goethe",
		"address3": "",
		"city": "Chicago",
		"state": "IL",
		"zip_code": "60610"
	},
	{
		"venue_id": "yelp-8sRHGkXI2GyXxBQUR6ySw",
		"venue_name": "Gene's Sausage Shop & Delicatessen",
		"latitude": 41.96782,
		"longitude": -87.68833,
		"address1": "4750 N Lincoln Ave",
		"address2": "",
		"address3": "",
		"city": "Chicago",
		"state": "IL",
		"zip_code": "60625"
	},
	{
		"venue_id": "yelpYkiz1UT9SO5u-y8nqDTy4A",
		"venue_name": "Fork",
		"latitude": 41.96511,
		"longitude": -87.68662,
		"address1": "4600 N Lincoln Ave",
		"address2": "",
		"address3": "",
		"city": "Chicago",
		"state": "IL",
		"zip_code": "60625"
	},
	{
		"venue_id": "yelptntGxmQJyv8ZomQJ5Z14BQ",
		"venue_name": "Frasca Pizzeria and Wine Bar",
		"latitude": 41.9430502,
		"longitude": -87.6713149,
		"address1": "3358 N Paulina St",
		"address2": null,
		"address3": "",
		"city": "Chicago",
		"state": "IL",
		"zip_code": "60657"
	},
	{
		"venue_id": "yelpOJctw29lDizc_Ei4oueUTA",
		"venue_name": "La Cr\u00eaperie",
		"latitude": 41.934059,
		"longitude": -87.645708,
		"address1": "2845 N Clark St",
		"address2": "",
		"address3": "",
		"city": "Chicago",
		"state": "IL",
		"zip_code": "60657"
	},
	{
		"venue_id": "yelp2JL3x0PBm7CCF3zMuYfD7A",
		"venue_name": "Rootstock Wine & Beer Bar",
		"latitude": 41.899035,
		"longitude": -87.696951,
		"address1": "954 N California Ave",
		"address2": "",
		"address3": "",
		"city": "Chicago",
		"state": "IL",
		"zip_code": "60622"
	},
	{
		"venue_id": "yelp4AW-fmXFI4jaYManl70vEg",
		"venue_name": "Le\u00f1a Brava",
		"latitude": 41.88465,
		"longitude": -87.65007,
		"address1": "900-902 W Randolph St",
		"address2": "",
		"address3": "",
		"city": "Chicago",
		"state": "IL",
		"zip_code": "60607"
	},
	{
		"venue_id": "yelpWzq19nbAoYsEsH6oamyxNA",
		"venue_name": "Fleming's Prime Steakhouse & Wine Bar - Chicago",
		"latitude": 41.89227,
		"longitude": -87.62703,
		"address1": "25 E Ohio St",
		"address2": "",
		"address3": "",
		"city": "Chicago",
		"state": "IL",
		"zip_code": "60611"
	},
	{
		"venue_id": "yelpXVDQYUFhJ4Ur_92eVYs3CA",
		"venue_name": "Vincent Restaurant",
		"latitude": 41.9798175448213,
		"longitude": -87.6675344363907,
		"address1": "1475 W Balmoral Ave",
		"address2": "",
		"address3": "",
		"city": "Chicago",
		"state": "IL",
		"zip_code": "60640"
	},
	{
		"venue_id": "yelpfJkO3cfnNXrLIoYYGBX7_g",
		"venue_name": "Table, Donkey and Stick",
		"latitude": 41.91775,
		"longitude": -87.695965,
		"address1": "2728 W Armitage Ave",
		"address2": "",
		"address3": "",
		"city": "Chicago",
		"state": "IL",
		"zip_code": "60647"
	},
	{
		"venue_id": "yelp7Ig90WlrxTm-oLGt8AQrfQ",
		"venue_name": "Enoteca Roma Ristorante",
		"latitude": 41.903222,
		"longitude": -87.6816573,
		"address1": "2146 W Division St",
		"address2": "",
		"address3": "",
		"city": "Chicago",
		"state": "IL",
		"zip_code": "60622"
	},
	{
		"venue_id": "yelpo4vm4Z31Xfr-Fa8_D9EnLw",
		"venue_name": "Acanto",
		"latitude": 41.881323483914,
		"longitude": -87.6245379144271,
		"address1": "18 S Michigan Ave",
		"address2": null,
		"address3": "",
		"city": "Chicago",
		"state": "IL",
		"zip_code": "60603"
	},
	{
		"venue_id": "yelpiV0dJWBCENr4ZiTgqK4lLQ",
		"venue_name": "Southport & Irving SIP",
		"latitude": 41.95452,
		"longitude": -87.6644318,
		"address1": "4000 N Southport Ave",
		"address2": "",
		"address3": "",
		"city": "Chicago",
		"state": "IL",
		"zip_code": "60613"
	},
	{
		"venue_id": "yelpAqYFeg1GBwHe4ERL3q_LYg",
		"venue_name": "Ella Elli",
		"latitude": 41.9451151,
		"longitude": -87.6630233,
		"address1": "1349 W Cornelia Ave",
		"address2": null,
		"address3": "",
		"city": "Chicago",
		"state": "IL",
		"zip_code": "60657"
	},
	{
		"venue_id": "yelpmnvQFi_uwBKgBjrIyRQ6YQ",
		"venue_name": "Spiaggia",
		"latitude": 41.900622,
		"longitude": -87.624411,
		"address1": "980 N Michigan Ave",
		"address2": "Fl 2",
		"address3": "",
		"city": "Chicago",
		"state": "IL",
		"zip_code": "60611"
	},
	{
		"venue_id": "yelplwl1vEEagUrhNXhDI1StQA",
		"venue_name": "Coco Pazzo Cafe",
		"latitude": 41.8927539,
		"longitude": -87.6220247,
		"address1": "212 E Ohio St",
		"address2": "",
		"address3": "",
		"city": "Chicago",
		"state": "IL",
		"zip_code": "60611"
	},
	{
		"venue_id": "yelpbvB-S8FsKodF7qkfIfYI8g",
		"venue_name": "Pops for Champagne",
		"latitude": 41.8926209396105,
		"longitude": -87.6279114723251,
		"address1": "601 N State St",
		"address2": "",
		"address3": "",
		"city": "Chicago",
		"state": "IL",
		"zip_code": "60654"
	},
	{
		"venue_id": "yelpXUuowLQFgy8Bo7xpeb5bkw",
		"venue_name": "Taxim",
		"latitude": 41.9098026,
		"longitude": -87.6767066,
		"address1": "1558 N Milwaukee Ave",
		"address2": null,
		"address3": "",
		"city": "Chicago",
		"state": "IL",
		"zip_code": "60622"
	},
	{
		"venue_id": "yelphiJMiKoyP24G-0oILI8d3w",
		"venue_name": "Tavern at the Park",
		"latitude": 41.884633450002,
		"longitude": -87.6236779994751,
		"address1": "130 E Randolph St",
		"address2": "",
		"address3": "",
		"city": "Chicago",
		"state": "IL",
		"zip_code": "60601"
	},
	{
		"venue_id": "yelpSv1_VhFbQOBc60KfCT5ENg",
		"venue_name": "Travelle at The Langham",
		"latitude": 41.888596585748,
		"longitude": -87.6275642841309,
		"address1": "330 N Wabash Ave",
		"address2": "Fl 2",
		"address3": "",
		"city": "Chicago",
		"state": "IL",
		"zip_code": "60611"
	},
	{
		"venue_id": "yelpsai33VSs51v_OVrJjFW_PQ",
		"venue_name": "City Winery",
		"latitude": 41.88463,
		"longitude": -87.6574,
		"address1": "1200 W Randolph St",
		"address2": "",
		"address3": "",
		"city": "Chicago",
		"state": "IL",
		"zip_code": "60607"
	},
	{
		"venue_id": "yelp5SLlXjQRWnLCaRAJtX5uhA",
		"venue_name": "Enolo Wine Cafe",
		"latitude": 41.8906945040373,
		"longitude": -87.6312950202378,
		"address1": "450 N Clark St",
		"address2": "",
		"address3": "",
		"city": "Chicago",
		"state": "IL",
		"zip_code": "60654"
	},
	{
		"venue_id": "yelpoD9mXf_-7ukKOEGRP0HWvg",
		"venue_name": "Cafe Spiaggia",
		"latitude": 41.9007042247792,
		"longitude": -87.624384276474,
		"address1": "980 N Michigan Ave",
		"address2": "Fl 2",
		"address3": "",
		"city": "Chicago",
		"state": "IL",
		"zip_code": "60611"
	},
	{
		"venue_id": "yelpP5fNfTYRKGYo23rhpTxgIQ",
		"venue_name": "Volo Restaurant Wine Bar",
		"latitude": 41.9433228,
		"longitude": -87.6788849,
		"address1": "2008 W Roscoe St",
		"address2": null,
		"address3": "",
		"city": "Chicago",
		"state": "IL",
		"zip_code": "60618"
	},
	{
		"venue_id": "yelpid3TDF8s7BMYQCLm4HMCng",
		"venue_name": "Club Lago",
		"latitude": 41.89533,
		"longitude": -87.63691,
		"address1": "331 W Superior St",
		"address2": "",
		"address3": "",
		"city": "Chicago",
		"state": "IL",
		"zip_code": "60654"
	},
	{
		"venue_id": "yelpvyyTRcWa5AfRKcPC9ozn5w",
		"venue_name": "Angelo's Wine Bar",
		"latitude": 41.9613729151644,
		"longitude": -87.7043616771698,
		"address1": "3026 W Montrose Ave",
		"address2": "",
		"address3": "",
		"city": "Chicago",
		"state": "IL",
		"zip_code": "60618"
	},
	{
		"venue_id": "yelp0CN_2tV_loCinmpHBdeocA",
		"venue_name": "Moody's Pub",
		"latitude": 41.9893473,
		"longitude": -87.6603849,
		"address1": "5910 N Broadway St",
		"address2": "",
		"address3": "",
		"city": "Chicago",
		"state": "IL",
		"zip_code": "60660"
	},
	{
		"venue_id": "yelpeNX0-bvk4oYgEM7z8RMRMQ",
		"venue_name": "Chicago Chop House",
		"latitude": 41.89349,
		"longitude": -87.63045,
		"address1": "60 W Ontario St",
		"address2": "",
		"address3": "",
		"city": "Chicago",
		"state": "IL",
		"zip_code": "60654"
	},
	{
		"venue_id": "yelpyZMIdt94yrkedauhmPnY8Q",
		"venue_name": "Due Lire Vino & Cucina",
		"latitude": 41.96368,
		"longitude": -87.68571,
		"address1": "4520 N Lincoln Ave",
		"address2": "",
		"address3": "",
		"city": "Chicago",
		"state": "IL",
		"zip_code": "60625"
	},
	{
		"venue_id": "yelpRbmdznxjP4oqqTmrgSwI9A",
		"venue_name": "Brindille",
		"latitude": 41.8918830972695,
		"longitude": -87.631331928921,
		"address1": "534 N Clark St",
		"address2": "",
		"address3": "",
		"city": "Chicago",
		"state": "IL",
		"zip_code": "60654"
	},
	{
		"venue_id": "yelp4yftA8F8IyzfUZLfaFe6aw",
		"venue_name": "Via Carducci La Sorella",
		"latitude": 41.90352,
		"longitude": -87.67596,
		"address1": "1928 W Division St",
		"address2": "",
		"address3": "",
		"city": "Chicago",
		"state": "IL",
		"zip_code": "60622"
	},
	{
		"venue_id": "yelph8mZa3L5TRGk9EZnpMxuSg",
		"venue_name": "Arun's Thai Restaurant",
		"latitude": 41.95744,
		"longitude": -87.70846,
		"address1": "4156 N Kedzie Ave",
		"address2": "",
		"address3": "",
		"city": "Chicago",
		"state": "IL",
		"zip_code": "60618"
	},
	{
		"venue_id": "yelpxwh6oCWWCBM5msIIBq5XUg",
		"venue_name": "Bella Notte Restaurant",
		"latitude": 41.89133,
		"longitude": -87.66185,
		"address1": "1374 W Grand Ave",
		"address2": "",
		"address3": "",
		"city": "Chicago",
		"state": "IL",
		"zip_code": "60622"
	},
	{
		"venue_id": "yelpfGAYT6b0vZSGiTISd-zFZg",
		"venue_name": "Cafe Robey",
		"latitude": 41.910642,
		"longitude": -87.678264,
		"address1": "2018 W North Ave",
		"address2": "",
		"address3": null,
		"city": "Chicago",
		"state": "IL",
		"zip_code": "60647"
	},
	{
		"venue_id": "yelpjsBWsX-6ceQxXYZ6E0CMWA",
		"venue_name": "Vol. 39",
		"latitude": 41.88087,
		"longitude": -87.63175,
		"address1": "39 South La Salle St",
		"address2": "",
		"address3": null,
		"city": "Chicago",
		"state": "IL",
		"zip_code": "60603"
	},
	{
		"venue_id": "yelp8zvDNqsiW0EAUnodngTfeg",
		"venue_name": "Lush Wine and Spirits",
		"latitude": 41.89636,
		"longitude": -87.66303,
		"address1": "1412 W Chicago Ave",
		"address2": null,
		"address3": "",
		"city": "Chicago",
		"state": "IL",
		"zip_code": "60642"
	},
	{
		"venue_id": "yelpw4ohg89-SnoF1zrvXjZywA",
		"venue_name": "City Mouse",
		"latitude": 41.88717,
		"longitude": -87.65184,
		"address1": "311 N Morgan St",
		"address2": "",
		"address3": null,
		"city": "Chicago",
		"state": "IL",
		"zip_code": "60607"
	},
	{
		"venue_id": "yelppBbyfXB34Bf0pgtdNrfoyg",
		"venue_name": "Two Zero Three",
		"latitude": 41.8858724301192,
		"longitude": -87.6260444065832,
		"address1": "203 North Wabash Ave",
		"address2": "",
		"address3": "",
		"city": "Chicago",
		"state": "IL",
		"zip_code": "60601"
	},
	{
		"venue_id": "yelpDJEyjd7_tm0jPjuj2gnDPg",
		"venue_name": "Bar Pastoral",
		"latitude": 41.9363021850586,
		"longitude": -87.6441345214844,
		"address1": "2947 N Broadway",
		"address2": "",
		"address3": "",
		"city": "Chicago",
		"state": "IL",
		"zip_code": "60657"
	},
	{
		"venue_id": "yelpYhyaWVL7UYx-tlS8bMzWcw",
		"venue_name": "ENO",
		"latitude": 41.8912084396348,
		"longitude": -87.6239061355591,
		"address1": "505 N Michigan Ave",
		"address2": "",
		"address3": "Intercontinental Chicago",
		"city": "Chicago",
		"state": "IL",
		"zip_code": "60611"
	},
	{
		"venue_id": "yelpzDBpKDT-vMHoHtBxOTkqiA",
		"venue_name": "Willow Room",
		"latitude": 41.9139586307373,
		"longitude": -87.6485445788551,
		"address1": "1800 N Halsted St",
		"address2": "",
		"address3": null,
		"city": "Chicago",
		"state": "IL",
		"zip_code": "60614"
	},
	{
		"venue_id": "yelpT2Gcdw73pfSsVaK0hu9i6g",
		"venue_name": "Bodega Sur",
		"latitude": 41.9503739,
		"longitude": -87.6639039,
		"address1": "3755 N Southport",
		"address2": null,
		"address3": "",
		"city": "Chicago",
		"state": "IL",
		"zip_code": "60613"
	},
	{
		"venue_id": "yelpWLbaTcWigpVQWDwbCajuhA",
		"venue_name": "Ciao! Cafe & Wine Lounge",
		"latitude": 41.881575821838,
		"longitude": -87.65099037689,
		"address1": "939 W Madison St",
		"address2": "",
		"address3": "",
		"city": "Chicago",
		"state": "IL",
		"zip_code": "60607"
	},
	{
		"venue_id": "yelpHcdXUshp63g1LEyRakukdw",
		"venue_name": "Riccardo Enoteca",
		"latitude": 41.92062,
		"longitude": -87.6378299,
		"address1": "2116 N Clark St",
		"address2": "",
		"address3": "",
		"city": "Chicago",
		"state": "IL",
		"zip_code": "60614"
	},
	{
		"venue_id": "yelpeZjUg-62tXW-GjAW34wguA",
		"venue_name": "Income Tax",
		"latitude": 41.9904347,
		"longitude": -87.6601041,
		"address1": "5959 N Broadway",
		"address2": "",
		"address3": null,
		"city": "Chicago",
		"state": "IL",
		"zip_code": "60660"
	},
	{
		"venue_id": "yelpVLcxkZvl6WkWboPUbMsRcA",
		"venue_name": "Joe's Wine Cellar",
		"latitude": 41.9034538269043,
		"longitude": -87.6801452636719,
		"address1": "2108 W Division St",
		"address2": "",
		"address3": "",
		"city": "Chicago",
		"state": "IL",
		"zip_code": "60622"
	},
	{
		"venue_id": "yelpq7dTN0tFCYKUAeK4ozLoEQ",
		"venue_name": "The Press Room",
		"latitude": 41.88322,
		"longitude": -87.65578,
		"address1": "1134 W Washington Blvd",
		"address2": "Lower level",
		"address3": "",
		"city": "Chicago",
		"state": "IL",
		"zip_code": "60607"
	},
	{
		"venue_id": "yelp-aIXGAuLnicdsmOutY9ebQ",
		"venue_name": "Terzo Piano",
		"latitude": 41.8807151,
		"longitude": -87.6231733,
		"address1": "159 E Monroe St",
		"address2": "",
		"address3": "",
		"city": "Chicago",
		"state": "IL",
		"zip_code": "60603"
	},
	{
		"venue_id": "yelpdChLemugItIYJNfdp_7mSA",
		"venue_name": "Webster's Wine Bar",
		"latitude": 41.92905,
		"longitude": -87.707145,
		"address1": "2601 N Milwaukee Ave",
		"address2": "",
		"address3": "",
		"city": "Chicago",
		"state": "IL",
		"zip_code": "60647"
	},
	{
		"venue_id": "yelpCejQp-TPezJdJbGHgsXlqQ",
		"venue_name": "Polish & Pour",
		"latitude": 41.90515,
		"longitude": -87.63485,
		"address1": "1244 N Wells St",
		"address2": "",
		"address3": "",
		"city": "Chicago",
		"state": "IL",
		"zip_code": "60610"
	},
	{
		"venue_id": "yelpYoH4mvFDGZzEL_6EpAN4Rg",
		"venue_name": "404 Wine Bar",
		"latitude": 41.9340339,
		"longitude": -87.6639416,
		"address1": "2852 N Southport Ave",
		"address2": "",
		"address3": "",
		"city": "Chicago",
		"state": "IL",
		"zip_code": "60657"
	},
	{
		"venue_id": "yelpsU4fq-TWOhvJcjFI5GLL3w",
		"venue_name": "The Grillroom Chophouse & Wine Bar",
		"latitude": 41.88037,
		"longitude": -87.62858,
		"address1": "33 W Monroe St",
		"address2": null,
		"address3": "",
		"city": "Chicago",
		"state": "IL",
		"zip_code": "60603"
	},
	{
		"venue_id": "yelp2-QK56RX9aaOA2joN38OTA",
		"venue_name": "City Winery Chicago at the Riverwalk",
		"latitude": 41.8870106766937,
		"longitude": -87.6286728708862,
		"address1": "11 W Riverwalk S",
		"address2": "",
		"address3": "",
		"city": "Chicago",
		"state": "IL",
		"zip_code": "60601"
	},
	{
		"venue_id": "yelplCXZp0Shg8Mxty6v7xwZGg",
		"venue_name": "The Twisted Vine Chicago",
		"latitude": 41.94639,
		"longitude": -87.6498,
		"address1": "3530 N Halsted St",
		"address2": "",
		"address3": "",
		"city": "Chicago",
		"state": "IL",
		"zip_code": "60657"
	},
	{
		"venue_id": "yelprvKhV_bht0WAJ2V-C85Ugw",
		"venue_name": "Woodhaven Bar and Kitchen",
		"latitude": 41.8952699,
		"longitude": -87.63158,
		"address1": "712 N Clark St",
		"address2": null,
		"address3": "",
		"city": "Chicago",
		"state": "IL",
		"zip_code": "60654"
	},
	{
		"venue_id": "yelpKrP4UYsUoYPT27tyV9h-pg",
		"venue_name": "Bar Ramone",
		"latitude": 41.89043,
		"longitude": -87.63079,
		"address1": "441 N Clark St",
		"address2": null,
		"address3": null,
		"city": "Chicago",
		"state": "IL",
		"zip_code": "60654"
	},
	{
		"venue_id": "yelpEeDjXsiABIgeU-AmFoeHIQ",
		"venue_name": "J9 Wine Bar",
		"latitude": 41.91774,
		"longitude": -87.6481699,
		"address1": "1961 N Halsted St",
		"address2": "",
		"address3": null,
		"city": "Chicago",
		"state": "IL",
		"zip_code": "60614"
	},
	{
		"venue_id": "yelpNuhY1d-Kiq8iRv5htEgiWg",
		"venue_name": "Rittergut Wine Bar",
		"latitude": 41.881218,
		"longitude": -87.637522,
		"address1": "10 S Wacker Dr",
		"address2": "",
		"address3": "",
		"city": "Chicago",
		"state": "IL",
		"zip_code": "60606"
	},
	{
		"venue_id": "yelp0YMrccZG8WrJjX0ym82cOg",
		"venue_name": "Hob Sushi",
		"latitude": 41.9204401,
		"longitude": -87.662993,
		"address1": "2156 N Clybourn Ave",
		"address2": "",
		"address3": null,
		"city": "Chicago",
		"state": "IL",
		"zip_code": "60614"
	},
	{
		"venue_id": "yelpEqmvrTJv-t14jCNwjae4NA",
		"venue_name": "Munno Pizzeria & Bistro",
		"latitude": 41.9669003732587,
		"longitude": -87.667117355473,
		"address1": "4656 N Clark St",
		"address2": "",
		"address3": null,
		"city": "Chicago",
		"state": "IL",
		"zip_code": "60640"
	},
	{
		"venue_id": "yelpiyilEJb1NwUeZcd5JWXTKw",
		"venue_name": "Figo Wine Bar",
		"latitude": 41.94015,
		"longitude": -87.65386,
		"address1": "3207 N Sheffield Ave",
		"address2": "",
		"address3": null,
		"city": "Chicago",
		"state": "IL",
		"zip_code": "60657"
	},
	{
		"venue_id": "yelpDNy0sRymG0_nN-9KjU2FFQ",
		"venue_name": "Townhouse Restaurant & Wine Bar",
		"latitude": 41.8805212,
		"longitude": -87.6366133,
		"address1": "111 S Wacker Dr",
		"address2": null,
		"address3": "",
		"city": "Chicago",
		"state": "IL",
		"zip_code": "60606"
	},
	{
		"venue_id": "yelpF-ZVJYUxkLnWnYcFmSvr_w",
		"venue_name": "Red & White Wine Bar",
		"latitude": 41.9153418,
		"longitude": -87.6848621,
		"address1": "1861 N Milwaukee Ave",
		"address2": "",
		"address3": null,
		"city": "Chicago",
		"state": "IL",
		"zip_code": "60647"
	},
	{
		"venue_id": "yelpfLYKOfpvCmy2jQ6YW2FDjQ",
		"venue_name": "Drunken Bean",
		"latitude": 41.88666,
		"longitude": -87.61684,
		"address1": "400 East South Water St",
		"address2": "",
		"address3": null,
		"city": "Chicago",
		"state": "IL",
		"zip_code": "60601"
	},
	{
		"venue_id": "yelpoBEX_Y-9IhCmQJlwMnVtXw",
		"venue_name": "Walton Street Kitchen and Bar",
		"latitude": 41.8996908076912,
		"longitude": -87.6283960108398,
		"address1": "912 N State St",
		"address2": "",
		"address3": null,
		"city": "Chicago",
		"state": "IL",
		"zip_code": "60610"
	},
	{
		"venue_id": "yelpti4Q-kakzeL0bl6uY7yMnw",
		"venue_name": "Land & Lake Kitchen",
		"latitude": 41.8878298,
		"longitude": -87.6255338,
		"address1": "81 E Upper Wacker Dr",
		"address2": "",
		"address3": null,
		"city": "Chicago",
		"state": "IL",
		"zip_code": "60601"
	},
	{
		"venue_id": "yelpvoB-4387cZouOMWUy_Al1g",
		"venue_name": "Eleven Eleven",
		"latitude": 41.88527,
		"longitude": -87.65501,
		"address1": "1111 W Lake St",
		"address2": "",
		"address3": null,
		"city": "Chicago",
		"state": "IL",
		"zip_code": "60607"
	},
	{
		"venue_id": "yelpJeoQphJ9x2_0bBYsMQBMtw",
		"venue_name": "The Heritage",
		"latitude": 41.8797532428734,
		"longitude": -87.809843569994,
		"address1": "7403 Madison St",
		"address2": "",
		"address3": null,
		"city": "Forest Park",
		"state": "IL",
		"zip_code": "60130"
	},
	{
		"venue_id": "yelpsKC1JXbzybWmWdBDZvSP4g",
		"venue_name": "AIRE",
		"latitude": 41.88096,
		"longitude": -87.63116,
		"address1": "100 W Monroe St",
		"address2": null,
		"address3": "",
		"city": "Chicago",
		"state": "IL",
		"zip_code": "60603"
	},
	{
		"venue_id": "yelppOVnDbSAQotGvguTxrcAGQ",
		"venue_name": "Cooper's Hawk Winery & Restaurant - Oak Park",
		"latitude": 41.88894,
		"longitude": -87.80007,
		"address1": "950 Lake St",
		"address2": null,
		"address3": "",
		"city": "Oak Park",
		"state": "IL",
		"zip_code": "60301"
	},
	{
		"venue_id": "yelp8iv0_Pb-jvyv4Y17k6tngQ",
		"venue_name": "Vapiano - Chicago Riverside",
		"latitude": 41.8786309,
		"longitude": -87.6387652,
		"address1": "222 S Riverside Plz",
		"address2": "Ste 101",
		"address3": null,
		"city": "Chicago",
		"state": "IL",
		"zip_code": "60606"
	},
	{
		"venue_id": "yelpTwbl73GnTvZrAV6MKtP_vQ",
		"venue_name": "Expat",
		"latitude": 41.8839574089329,
		"longitude": -87.6487293025255,
		"address1": "118 N Green St",
		"address2": "",
		"address3": "",
		"city": "Chicago",
		"state": "IL",
		"zip_code": "60661"
	},
	{
		"venue_id": "yelpRMHbKv5JxUb-Dj1jtuICSQ",
		"venue_name": "La Notte Ristorante",
		"latitude": 41.8878952638057,
		"longitude": -87.8023055709372,
		"address1": "118 N Marion St",
		"address2": "",
		"address3": null,
		"city": "Oak Park",
		"state": "IL",
		"zip_code": "60301"
	},
	{
		"venue_id": "yelpnnww_i40GwnUxDaj6tALeA",
		"venue_name": "Buck's Four Star Grill",
		"latitude": 41.874817,
		"longitude": -87.618619,
		"address1": "301 S Columbus Dr",
		"address2": "",
		"address3": null,
		"city": "Chicago",
		"state": "IL",
		"zip_code": "60605"
	},
	{
		"venue_id": "yelpXjpxXcW9wtIZVdrTL7zWCw",
		"venue_name": "Bobbie's Runaway",
		"latitude": 41.9780354,
		"longitude": -87.6792612,
		"address1": "5305 N Damen Ave",
		"address2": "",
		"address3": "",
		"city": "Chicago",
		"state": "IL",
		"zip_code": "60625"
	},
	{
		"venue_id": "yelp6rnHYnEx09zsL38aF4Q4vA",
		"venue_name": "Stelio's Bottles & Bites",
		"latitude": 41.881077,
		"longitude": -87.6518551,
		"address1": "19 S Morgan St",
		"address2": null,
		"address3": null,
		"city": "Chicago",
		"state": "IL",
		"zip_code": "60607"
	},
	{
		"venue_id": "yelpM5cCGlKgmHqyYKxfm6ALkA",
		"venue_name": "nob's wine bar",
		"latitude": 41.9372334002976,
		"longitude": -87.6450171321631,
		"address1": "3030 North Broadway",
		"address2": "Ste 100",
		"address3": null,
		"city": "Chicago",
		"state": "IL",
		"zip_code": "60657"
	},
	{
		"venue_id": "yelpQq3L08mDh_Js3ot1v3Xlug",
		"venue_name": "Amy's Wine House",
		"latitude": 41.8651096283134,
		"longitude": -87.806052924098,
		"address1": "7235 W Roosevelt Rd",
		"address2": "",
		"address3": "",
		"city": "Forest Park",
		"state": "IL",
		"zip_code": "60130"
	},
	{
		"venue_id": "yelp5X72niq1M03xtWbLTd5_Zg",
		"venue_name": "Kinzie on the Rocks",
		"latitude": 41.88872,
		"longitude": -87.64507,
		"address1": "370 N Desplaines St",
		"address2": "",
		"address3": null,
		"city": "Chicago",
		"state": "IL",
		"zip_code": "60661"
	},
	{
		"venue_id": "yelpr6ymvUKBE2hquM3WIHfccw",
		"venue_name": "The WineBar",
		"latitude": 41.90484,
		"longitude": -87.63408,
		"address1": "1233 N Wells St",
		"address2": "",
		"address3": "Plum Market Old Town",
		"city": "Chicago",
		"state": "IL",
		"zip_code": "60610"
	},
	{
		"venue_id": "yelp18SGZMi4VGbDPZqWrGW6mA",
		"venue_name": "Tavern Club at 333",
		"latitude": 41.88764,
		"longitude": -87.62421,
		"address1": "333 N Michigan Ave",
		"address2": "Fl 4",
		"address3": null,
		"city": "Chicago",
		"state": "IL",
		"zip_code": "60601"
	},
	{
		"venue_id": "yelp-XxiX8AhjiyLFz5pp-y7LQ",
		"venue_name": "Nob's Wine Bar",
		"latitude": 41.9682501849838,
		"longitude": -87.6752356258171,
		"address1": "1840 W Lawrence Ave",
		"address2": "Ste 1800",
		"address3": "",
		"city": "Chicago",
		"state": "IL",
		"zip_code": "60640"
	},
	{
		"venue_id": "yelpl-oT5kxD4swi44M98j3m9g",
		"venue_name": "House of Slots",
		"latitude": 41.8335709296127,
		"longitude": -87.7942911162972,
		"address1": "6823 Stanley Ave",
		"address2": "",
		"address3": null,
		"city": "Berwyn",
		"state": "IL",
		"zip_code": "60402"
	},
	{
		"venue_id": "yelpCECo_GpfCiI0K4_Bx6OWBg",
		"venue_name": "Olivia's Place",
		"latitude": 41.8403,
		"longitude": -87.80286,
		"address1": "2823 S Harlem Ave",
		"address2": null,
		"address3": "",
		"city": "Berwyn",
		"state": "IL",
		"zip_code": "60402"
	}
]